station_id,observation_time,temp_c,dewpoint_c,wind_dir_degrees,wind_speed_kt,wind_gust_kt,visibility_statute_mi,altim_in_hg,corrected,maintenance_indicator_on,wx_string,sky_cover,cloud_base_ft_agl,sky_cover,cloud_base_ft_agl,sky_cover,cloud_base_ft_agl,sky_cover,cloud_base_ft_agl,metar_type,remark
KVKS,2015-03-13T08:40:00Z,20.0,19.0,120,5,,10.0,30.008858,,,,SCT,1100,BKN,4000,OVC,4900,,,METAR,"['KVKS 130840Z AUTO 12005KT 10SM SCT011 BKN040 OVC049 20/19 A3001 ', ' A01']"
KS39,2015-03-13T08:40:00Z,5.0,1.0,180,4,,10.0,30.318897,,,,CLR,,,,,,,,METAR,"['KS39 130840Z AUTO 18004KT 10SM CLR 05/01 A3032 ', ' AO2']"
KGRY,2015-03-13T08:40:00Z,22.0,19.0,250,11,17,2.5,30.0,,,HZ,SCT,1800,BKN,4200,OVC,6500,,,METAR,"['KGRY 130840Z AUTO 25011G17KT 230V320 2 1/2SM HZ SCT018 BKN042 OVC065 22/19 A3000 ', ' A01']"
K14Y,2015-03-13T08:39:00Z,3.0,3.0,260,4,,0.75,30.0,,,BR,OVX,0,,,,,,,METAR,"['K14Y 130839Z AUTO 26004KT 3/4SM BR VV005 03/03 A3000 ', ' AO2']"
KLRF,2015-03-13T08:38:00Z,15.0,15.0,50,5,,3.0,30.02067,,,RA BR,BKN,200,OVC,800,,,,,SPECI,"['KLRF 130838Z AUTO 05005KT 3SM RA BR BKN002 OVC008 15/15 A3002 ', ' AO2']"
KHRT,2015-03-13T08:38:00Z,21.0,16.0,110,9,,10.0,30.100393,,TRUE,,BKN,700,BKN,1100,,,,,SPECI,"['KHRT 130838Z AUTO 11009KT 10SM BKN007 BKN011 21/16 A3010 ', ' AO2 $']"
KSLH,2015-03-13T08:38:00Z,0.5,-3.1,60,4,,10.0,30.31004,,,,OVC,8500,,,,,,,METAR,"['KSLH 130838Z AUTO 06004KT 10SM OVC085 00/M03 A3031 ', ' AO2 T00051031']"
KPOV,2015-03-13T08:38:00Z,2.1,-12.5,100,8,,10.0,30.369095,,,,,,,,,,,,METAR,"['KPOV 130838Z AUTO 10008KT 10SM 02/M12 A3037 ', ' AO2 T00211125']"
KVIH,2015-03-13T08:37:00Z,10.0,9.4,60,8,,3.0,30.121063,,,-RA BR,SCT,500,BKN,2000,OVC,2600,,,SPECI,"['KVIH 130837Z AUTO 06008KT 3SM -RA BR SCT005 BKN020 OVC026 10/09 A3012 ', ' AO2 P0000 T01000094']"
KSAW,2015-03-13T08:37:00Z,2.5,-1.6,200,13,,7.0,30.138779,,,-RA,SCT,6500,OVC,8000,,,,,METAR,"['KSAW 130837Z AUTO 20013KT 7SM -RA SCT065 OVC080 03/M02 A3014 ', ' AO2 T00251016']"
KCBM,2015-03-13T08:37:00Z,18.0,17.0,130,12,,10.0,30.100393,,,UP,OVC,1300,,,,,,,SPECI,"['KCBM 130837Z AUTO 13012KT 10SM UP OVC013 18/17 A3010 ', ' AO2 UPB37']"
KSJX,2015-03-13T08:37:00Z,3.0,-8.7,150,3,,10.0,30.259842,,,,BKN,11000,,,,,,,METAR,"['KSJX 130837Z AUTO 15003KT 10SM BKN110 03/M09 A3026 ', ' AO2 T00301087']"
KBDU,2015-03-13T08:37:00Z,9.0,2.0,200,5,,10.0,30.339567,,,-DZ,SCT,3400,BKN,4700,OVC,6000,,,METAR,"['KBDU 130837Z AUTO 20005KT 10SM -DZ SCT034 BKN047 OVC060 09/02 A3034 ', ' AO2']"
KBPT,2015-03-13T08:36:00Z,15.6,15.0,150,11,,1.5,29.920275,,,-RA BR,OVC,200,,,,,,,SPECI,"['KBPT 130836Z AUTO 15011KT 1 1/2SM R12/3500VP6000FT -RA BR OVC002 16/15 A2992 ', ' AO2 RAB08 P0001 T01560150']"
KPHN,2015-03-13T08:36:00Z,-2.0,-10.0,0,0,,10.0,30.389763,,,,CLR,,,,,,,,METAR,"['KPHN 130836Z AUTO 00000KT 10SM CLR M02/M10 A3039 ', ' AO2']"
KMCD,2015-03-13T08:36:00Z,0.6,-3.0,120,7,14,10.0,30.28937,,,,OVC,8000,,,,,,,METAR,"['KMCD 130836Z AUTO 12007G14KT 10SM OVC080 01/M03 A3029 ', ' AO2 T00061030']"
KMNH,2015-03-13T08:36:00Z,1.0,0.0,300,8,,10.0,30.339567,,,,BKN,4700,BKN,12000,,,,,METAR,"['KMNH 130836Z AUTO 30008KT 10SM BKN047 BKN120 01/00 A3034 ', ' AO2']"
KFTG,2015-03-13T08:36:00Z,8.0,2.0,310,11,,10.0,30.33071,,,,SCT,6500,OVC,8000,,,,,METAR,"['KFTG 130836Z AUTO 31011KT 10SM SCT065 OVC080 08/02 A3033 ', ' AO2']"
KFLY,2015-03-13T08:36:00Z,4.5,0.0,340,12,19,10.0,30.318897,,,,CLR,,,,,,,,METAR,"['KFLY 130836Z AUTO 34012G19KT 10SM CLR 05/00 A3032 ', ' AO2 T00450000']"
KCOQ,2015-03-13T08:36:00Z,1.0,-2.0,100,3,,10.0,30.0,,,,SCT,12000,,,,,,,METAR,"['KCOQ 130836Z AUTO 10003KT 10SM SCT120 01/M02 A3000 ', ' AO2']"
KCBG,2015-03-13T08:36:00Z,12.0,5.0,180,6,,10.0,29.991142,,,,CLR,,,,,,,,METAR,"['KCBG 130836Z AUTO 18006KT 10SM CLR 12/05 A2999 ', ' AO2']"
KBJC,2015-03-13T08:36:00Z,7.0,3.0,310,11,,10.0,30.351377,,,-RA,OVC,3300,,,,,,,METAR,"['KBJC 130836Z AUTO 31011KT 10SM -RA OVC033 07/03 A3035 ', ' AO2']"
K4I3,2015-03-13T08:36:00Z,3.0,-6.0,80,6,,10.0,30.339567,,,,CLR,,,,,,,,METAR,"['K4I3 130836Z AUTO 08006KT 10SM CLR 03/M06 A3034 ', ' AO2']"
K4BM,2015-03-13T08:36:00Z,-3.0,-4.0,60,6,,1.0,30.43996,,,BR,OVC,100,,,,,,,METAR,"['K4BM 130836Z AUTO 06006KT 1SM BR OVC001 M03/M04 A3044 ', ' AO2 VIS 1/2V2 1/2']"
K20V,2015-03-13T08:36:00Z,1.0,-1.0,0,0,,10.0,30.389763,,,,SCT,6000,OVC,7000,,,,,METAR,"['K20V 130836Z AUTO 00000KT 10SM SCT060 OVC070 01/M01 A3039 ', ' AO2']"
K04V,2015-03-13T08:36:00Z,4.0,-4.0,360,4,,10.0,30.31004,,,,OVC,11000,,,,,,,METAR,"['K04V 130836Z AUTO 36004KT 10SM OVC110 04/M04 A3031 ', ' AO2']"
KJMR,2015-03-13T08:36:00Z,6.0,3.0,180,4,,7.0,30.008858,,,,CLR,,,,,,,,METAR,"['KJMR 130836Z AUTO 18004KT 7SM CLR 06/03 A3001 ', ' AO2']"
KY63,2015-03-13T08:36:00Z,2.6,1.3,290,5,,10.0,30.02067,,,,CLR,,,,,,,,METAR,"['KY63 130836Z AUTO 29005KT 10SM CLR 03/01 A3002 ', ' AO2 T00260013']"
KMGG,2015-03-13T08:36:00Z,8.7,5.1,190,3,,10.0,30.02067,,,,CLR,,,,,,,,METAR,"['KMGG 130836Z AUTO 19003KT 10SM CLR 09/05 A3002 ', ' AO2 T00870051']"
KLYV,2015-03-13T08:36:00Z,6.0,1.0,300,3,,10.0,30.088583,,,,CLR,,,,,,,,METAR,"['KLYV 130836Z AUTO 30003KT 10SM CLR 06/01 A3009 ', ' AO2']"
KXVG,2015-03-13T08:36:00Z,0.0,-1.0,0,0,,5.0,29.958662,,,BR,CLR,,,,,,,,SPECI,"['KXVG 130836Z AUTO 00000KT 5SM BR CLR 00/M01 A2996 ', ' AO2']"
KDCM,2015-03-13T08:35:00Z,14.0,-1.0,60,8,,10.0,30.448818,,,,OVC,6000,,,,,,,METAR,"['KDCM 130835Z AUTO 06008KT 10SM OVC060 14/M01 A3045 ', ' AO2']"
KSPA,2015-03-13T08:35:00Z,15.0,-1.0,60,4,,10.0,30.43996,,,,OVC,6000,,,,,,,METAR,"['KSPA 130835Z AUTO 06004KT 10SM OVC060 15/M01 A3044 ', ' AO2']"
KUYF,2015-03-13T08:35:00Z,1.0,-3.0,100,4,,10.0,30.301182,,,,CLR,,,,,,,,SPECI,"['KUYF 130835Z AUTO 10004KT 10SM CLR 01/M03 A3030 ', ' AO2']"
KRZR,2015-03-13T08:35:00Z,13.0,12.0,0,0,,10.0,30.28937,,,,OVC,4700,,,,,,,METAR,"['KRZR 130835Z AUTO 00000KT 10SM OVC047 13/12 A3029 ', '']"
KLKR,2015-03-13T08:35:00Z,13.0,0.0,80,8,,10.0,30.448818,,,,OVC,6000,,,,,,,SPECI,"['KLKR 130835Z AUTO 08008KT 10SM OVC060 13/00 A3045 ', ' AO2']"
K1S5,2015-03-13T08:35:00Z,4.8,1.6,0,0,,10.0,30.351377,,,,CLR,,,,,,,,SPECI,"['K1S5 130835Z AUTO 00000KT 10SM CLR 05/02 A3035 ', ' AO2 T00480016']"
KVDF,2015-03-13T08:35:00Z,21.0,18.0,0,0,,10.0,30.171259,,,,BKN,9000,,,,,,,SPECI,"['KVDF 130835Z AUTO 00000KT 10SM BKN090 21/18 A3017 ', ' AO2']"
KORS,2015-03-13T08:35:00Z,7.0,7.0,0,0,,10.0,30.31004,,,,CLR,,,,,,,,SPECI,"['KORS 130835Z AUTO 00000KT 10SM CLR 07/07 A3031 ', ' AO2']"
KOLV,2015-03-13T08:35:00Z,17.0,,130,9,14,7.0,30.079725,,,,OVC,800,,,,,,,SPECI,"['KOLV 130835Z AUTO 13009G14KT 7SM OVC008 17/ A3008 ', ' A01 P000']"
K1R7,2015-03-13T08:35:00Z,19.0,19.0,130,8,,,30.041338,,,-RA,BKN,1100,OVC,1600,,,,,SPECI,"['K1R7 130835Z AUTO 13008KT -RA BKN011 OVC016 19/19 A3004 ', ' AO2 P0001']"
KJZI,2015-03-13T08:35:00Z,12.0,7.0,50,16,25,10.0,30.380905,,,,OVC,2800,,,,,,,SPECI,"['KJZI 130835Z AUTO 05016G25KT 10SM OVC028 12/07 A3038 ', ' A02 P000']"
KFDW,2015-03-13T08:35:00Z,13.0,-1.0,80,10,15,10.0,30.431103,,,,OVC,6000,,,,,,,SPECI,"['KFDW 130835Z AUTO 08010G15KT 10SM OVC060 13/M01 A3043 ', ' AO1']"
K4I7,2015-03-13T08:35:00Z,6.0,-2.0,90,5,,10.0,30.239174,,,,CLR,,,,,,,,SPECI,"['K4I7 130835Z AUTO 09005KT 10SM CLR 06/M02 A3024 ', ' AO2']"
KLQK,2015-03-13T08:35:00Z,14.1,-0.5,,,,10.0,30.41929,,,,OVC,6000,,,,,,,SPECI,"['KLQK 130835Z AUTO 10SM OVC060 14/00 A3042 ', ' AO2 T01411005']"
KGGE,2015-03-13T08:35:00Z,10.0,5.0,50,12,,10.0,30.43996,,,,OVC,5000,,,,,,,SPECI,"['KGGE 130835Z AUTO 05012KT 10SM OVC050 10/05 A3044 ', ' AO2']"
KCKI,2015-03-13T08:35:00Z,12.0,1.0,50,7,,10.0,30.43996,,,,OVC,6500,,,,,,,SPECI,"['KCKI 130835Z AUTO 05007KT 10SM OVC065 12/01 A3044 ', ' AO2']"
KLUX,2015-03-13T08:35:00Z,13.0,5.0,60,4,,10.0,30.431103,,,,OVC,5000,,,,,,,SPECI,"['KLUX 130835Z AUTO 06004KT 10SM OVC050 13/05 A3043 ', ' AO2']"
KGPH,2015-03-13T08:35:00Z,8.0,3.0,0,0,,10.0,30.171259,,,,CLR,,,,,,,,SPECI,"['KGPH 130835Z AUTO 00000KT 10SM CLR 08/03 A3017 ', ' AO2']"
K24J,2015-03-13T08:35:00Z,18.0,18.0,60,6,,1.0,30.250984,,,,OVC,200,,,,,,,METAR,"['K24J 130835Z AUTO 06006KT 1SM OVC002 18/18 A3025 ', ' AO1']"
KWRB,2015-03-13T08:35:00Z,11.0,9.0,50,4,,6.0,30.268702,,,-RA,FEW,1700,OVC,2600,,,,,SPECI,"['KWRB 130835Z AUTO 05004KT 6SM R15/5000FT -RA FEW017 OVC026 11/09 A3027 ', ' AO2 DZB0758E08RAB10']"
KF44,2015-03-13T08:35:00Z,12.0,12.0,360,5,,4.0,29.958662,,,BR,OVC,300,,,,,,,METAR,"['KF44 130835Z AUTO 36005KT 4SM BR OVC003 12/12 A2996 ', ' AO2']"
KF05,2015-03-13T08:35:00Z,8.7,3.6,20,4,,10.0,30.070866,,,,CLR,,,,,,,,METAR,"['KF05 130835Z AUTO 02004KT 10SM CLR 09/04 A3007 ', ' AO1 T00870036']"
KEZS,2015-03-13T08:35:00Z,4.4,-0.8,0,0,,10.0,30.200787,,,,CLR,,,,,,,,METAR,"['KEZS 130835Z AUTO 00000KT 10SM CLR 04/M01 A3020 ', ' AO2 T00441008']"
KEZM,2015-03-13T08:35:00Z,14.6,5.9,90,6,,10.0,30.318897,,,,OVC,2300,,,,,,,METAR,"['KEZM 130835Z AUTO 09006KT 10SM OVC023 15/06 A3032 ', ' AO2 T01460059']"
KERV,2015-03-13T08:35:00Z,6.5,5.5,0,0,,10.0,30.029528,,,,CLR,,,,,,,,METAR,"['KERV 130835Z AUTO 00000KT 10SM CLR 07/06 A3003 ', ' AO2 T00650055']"
KEQA,2015-03-13T08:35:00Z,7.0,3.0,80,5,,10.0,30.121063,,,,CLR,,,,,,,,METAR,"['KEQA 130835Z AUTO 08005KT 10SM CLR 07/03 A3012 ', ' AO2']"
KEMK,2015-03-13T08:35:00Z,19.0,16.0,260,7,,10.0,29.97933,,,,SCT,1400,BKN,1900,OVC,4300,,,METAR,"['KEMK 130835Z AUTO 26007KT 10SM SCT014 BKN019 OVC043 19/16 A2998 ', ' A01']"
KEIR,2015-03-13T08:35:00Z,19.0,19.0,180,5,,8.0,30.008858,,,,BKN,3100,BKN,3800,OVC,7500,,,METAR,"['KEIR 130835Z AUTO 18005KT 8SM BKN031 BKN038 OVC075 19/19 A3001 ', ' A01']"
KEHC,2015-03-13T08:35:00Z,20.0,16.0,230,12,,10.0,29.97933,,,,CLR,,,,,,,,METAR,"['KEHC 130835Z AUTO 23012KT 10SM CLR 20/16 A2998 ', ' A01']"
KEDU,2015-03-13T08:35:00Z,12.0,8.0,0,0,,10.0,30.138779,,,,CLR,,,,,,,,METAR,"['KEDU 130835Z AUTO 00000KT 10SM CLR 12/08 A3014 ', ' AO1']"
KE16,2015-03-13T08:35:00Z,10.0,10.0,330,5,,10.0,30.180119,,,,CLR,,,,,,,,METAR,"['KE16 130835Z AUTO 33005KT 10SM CLR 10/10 A3018 ', ' AO2']"
KDUC,2015-03-13T08:35:00Z,10.0,10.0,30,4,,10.0,30.059055,,,,CLR,,,,,,,,METAR,"['KDUC 130835Z AUTO 03004KT 10SM CLR 10/10 A3006 ', ' AO2']"
KDQH,2015-03-13T08:35:00Z,16.0,12.0,80,7,,10.0,30.280512,,,,OVC,1400,,,,,,,METAR,"['KDQH 130835Z AUTO 08007KT 10SM OVC014 16/12 A3028 ', ' AO2']"
KDNV,2015-03-13T08:35:00Z,4.0,-0.1,50,4,,10.0,30.221457,,,,CLR,,,,,,,,METAR,"['KDNV 130835Z AUTO 05004KT 10SM CLR 04/00 A3022 ', ' AO2 T00401001']"
KDNS,2015-03-13T08:35:00Z,7.0,2.0,220,7,,10.0,30.121063,,,,CLR,,,,,,,,METAR,"['KDNS 130835Z AUTO 22007KT 10SM CLR 07/02 A3012 ', ' AO2']"
KDLP,2015-03-13T08:35:00Z,20.0,20.0,120,5,,3.0,30.008858,,,BR,BKN,2900,BKN,3300,OVC,11000,,,METAR,"['KDLP 130835Z AUTO 12005KT 3SM BR BKN029 BKN033 OVC110 20/20 A3001 ', ' A01']"
KD50,2015-03-13T08:35:00Z,-1.0,-1.0,330,11,,0.25,30.188976,,,FZFG,OVC,100,,,,,,,METAR,"['KD50 130835Z AUTO 33011KT 1/4SM FZFG OVC001 M01/M01 A3019 ', ' AO2']"
KCWF,2015-03-13T08:35:00Z,16.3,16.0,180,12,15,2.5,29.958662,,,RA,OVC,400,,,,,,,METAR,"['KCWF 130835Z AUTO 18012G15KT 2 1/2SM RA OVC004 16/16 A2996 ', ' AO2 T01630160']"
KCWC,2015-03-13T08:35:00Z,10.9,8.9,0,0,,10.0,30.070866,,,,CLR,,,,,,,,METAR,"['KCWC 130835Z AUTO 00000KT 10SM CLR 11/09 A3007 ', ' AO2 T01090089']"
KCVW,2015-03-13T08:35:00Z,16.0,15.0,190,9,,5.0,29.991142,,,BR,FEW,4900,SCT,8000,OVC,11000,,,METAR,"['KCVW 130835Z AUTO 19009KT 5SM BR FEW049 SCT080 OVC110 16/15 A2999 ', ' A01']"
KCUL,2015-03-13T08:35:00Z,12.0,7.3,0,0,,5.0,30.180119,,,+RA,BKN,4000,BKN,4500,BKN,6000,,,METAR,"['KCUL 130835Z AUTO 00000KT 5SM +RA BKN040 BKN045 BKN060 12/07 A3018 ', ' AO2 P0002 T01200073']"
KCUH,2015-03-13T08:35:00Z,8.0,8.0,350,3,,10.0,30.079725,,,,CLR,,,,,,,,METAR,"['KCUH 130835Z AUTO 35003KT 10SM CLR 08/08 A3008 ', ' AO2']"
KCRX,2015-03-13T08:35:00Z,16.0,14.0,120,6,,5.0,30.121063,,,-DZ,OVC,900,,,,,,,METAR,"['KCRX 130835Z AUTO 12006KT 5SM -DZ OVC009 16/14 A3012 ', ' AO2']"
KCPK,2015-03-13T08:35:00Z,2.0,0.0,0,0,,10.0,30.561024,,,,CLR,,,,,,,,METAR,"['KCPK 130835Z AUTO 00000KT 10SM CLR 02/00 A3056 ', ' AO2']"
KCMD,2015-03-13T08:35:00Z,14.1,12.6,110,10,16,10.0,30.230314,,,,OVC,1100,,,,,,,METAR,"['KCMD 130835Z AUTO 11010G16KT 10SM OVC011 14/13 A3023 ', ' AO2 T01410126']"
KCLW,2015-03-13T08:35:00Z,21.0,18.0,110,5,,10.0,30.15059,,,,CLR,,,,,,,,METAR,"['KCLW 130835Z AUTO 11005KT 10SM CLR 21/18 A3015 ', ' AO2']"
KCIR,2015-03-13T08:35:00Z,12.2,11.0,60,3,,4.0,30.129921,,,BR,SCT,2100,BKN,2900,OVC,3900,,,METAR,"['KCIR 130835Z AUTO 06003KT 4SM BR SCT021 BKN029 OVC039 12/11 A3013 ', ' AO2 T01220110']"
KCDA,2015-03-13T08:35:00Z,-10.7,-20.0,0,0,,10.0,30.528543,,,,CLR,,,,,,,,METAR,"['KCDA 130835Z AUTO 00000KT 10SM CLR M11/M20 A3053 ', ' AO2 T11071200']"
KCCY,2015-03-13T08:35:00Z,6.0,6.0,170,10,,2.0,30.159449,,,BR,OVC,300,,,,,,,METAR,"['KCCY 130835Z AUTO 17010KT 2SM BR OVC003 06/06 A3016 ', ' AO2']"
KCCO,2015-03-13T08:35:00Z,14.7,11.5,110,7,,10.0,30.28937,,,,OVC,2200,,,,,,,METAR,"['KCCO 130835Z AUTO 11007KT 10SM OVC022 15/12 A3029 ', ' AO2 T01470115']"
KBTA,2015-03-13T08:35:00Z,8.5,0.7,190,5,,10.0,30.129921,,,,CLR,,,,,,,,METAR,"['KBTA 130835Z AUTO 19005KT 10SM CLR 09/01 A3013 ', ' AO2 T00850007']"
KBQX,2015-03-13T08:35:00Z,15.0,15.0,260,9,,8.0,29.991142,,,,SCT,700,OVC,2800,,,,,METAR,"['KBQX 130835Z AUTO 26009KT 8SM SCT007 OVC028 15/15 A2999 ', ' A01']"
KBHC,2015-03-13T08:35:00Z,16.0,12.0,80,10,,7.0,30.28937,,,,OVC,1700,,,,,,,METAR,"['KBHC 130835Z AUTO 08010KT 7SM OVC017 16/12 A3029 ', ' AO2']"
KBBF,2015-03-13T08:35:00Z,17.0,15.0,30,4,,9.0,29.97933,,,,BKN,4100,,,,,,,METAR,"['KBBF 130835Z AUTO 03004KT 9SM BKN041 17/15 A2998 ', ' A01']"
KBBD,2015-03-13T08:35:00Z,9.0,7.0,0,0,,10.0,30.02067,,,,CLR,,,,,,,,METAR,"['KBBD 130835Z AUTO 00000KT 10SM CLR 09/07 A3002 ', '']"
KAYS,2015-03-13T08:35:00Z,17.6,15.3,90,12,17,7.0,30.280512,,,,OVC,1300,,,,,,,METAR,"['KAYS 130835Z AUTO 09012G17KT 7SM OVC013 18/15 A3028 ', ' AO2 T01760153']"
KAXX,2015-03-13T08:35:00Z,2.7,-4.8,10,8,17,10.0,30.28937,,,,SCT,7000,SCT,8000,,,,,METAR,"['KAXX 130835Z AUTO 01008G17KT 10SM SCT070 SCT080 03/M05 A3029 ', ' AO2 T00271048']"
KAVK,2015-03-13T08:35:00Z,5.0,2.0,10,7,,10.0,30.109253,,,,FEW,3800,,,,,,,METAR,"['KAVK 130835Z AUTO 01007KT 10SM FEW038 05/02 A3011 ', ' AO2']"
KATP,2015-03-13T08:35:00Z,22.0,19.0,0,5,15,9.0,30.0,,,,FEW,1800,BKN,2300,OVC,2800,,,METAR,"['KATP 130835Z AUTO VRB05G15KT 9SM FEW018 BKN023 OVC028 22/19 A3000 ', ' A01']"
KRCE,2015-03-13T08:35:00Z,9.0,9.0,0,0,,10.0,30.088583,,,,CLR,,,,,,,,METAR,"['KRCE 130835Z AUTO 00000KT 10SM CLR 09/09 A3009 ', ' AO2']"
KPTT,2015-03-13T08:35:00Z,6.0,1.0,0,0,,10.0,30.138779,,,,CLR,,,,,,,,METAR,"['KPTT 130835Z AUTO 00000KT 10SM CLR 06/01 A3014 ', ' AO2']"
KPTS,2015-03-13T08:35:00Z,12.7,12.8,40,4,,10.0,30.109253,,,,BKN,600,OVC,1200,,,,,METAR,"['KPTS 130835Z AUTO 04004KT 10SM BKN006 OVC012 13/13 A3011 ', ' AO2 T01270128']"
KPPQ,2015-03-13T08:35:00Z,8.6,7.0,120,3,,4.0,30.200787,,,-RA,OVC,8000,,,,,,,METAR,"['KPPQ 130835Z AUTO 12003KT 4SM -RA OVC080 09/07 A3020 ', ' AO2 T00860070']"
KPPO,2015-03-13T08:35:00Z,2.3,-0.9,90,4,,10.0,30.301182,,,,CLR,,,,,,,,METAR,"['KPPO 130835Z AUTO 09004KT 10SM CLR 02/M01 A3030 ', ' AO2 T00231009']"
KPEQ,2015-03-13T08:35:00Z,7.1,1.8,20,3,,10.0,30.088583,,,,CLR,,,,,,,,METAR,"['KPEQ 130835Z AUTO 02003KT 10SM CLR 07/02 A3009 ', ' AO2 T00710018']"
KPDC,2015-03-13T08:35:00Z,4.4,1.5,100,4,,7.0,30.200787,,,,CLR,,,,,,,,METAR,"['KPDC 130835Z AUTO 10004KT 7SM CLR 04/02 A3020 ', ' AO2 T00440015']"
KPCZ,2015-03-13T08:35:00Z,4.2,0.0,180,4,,10.0,30.200787,,,,CLR,,,,,,,,METAR,"['KPCZ 130835Z AUTO 18004KT 10SM CLR 04/00 A3020 ', ' AO2 T00420000']"
KP08,2015-03-13T08:35:00Z,16.0,3.0,30,5,,10.0,29.97933,,,,CLR,,,,,,,,METAR,"['KP08 130835Z AUTO 03005KT 10SM CLR 16/03 A2998 ', ' AO2']"
KORG,2015-03-13T08:35:00Z,15.1,15.1,160,9,,1.0,29.949802,,,-RA,OVC,200,,,,,,,METAR,"['KORG 130835Z AUTO 16009KT 1SM -RA OVC002 15/15 A2995 ', ' AO2 P0001 T01510151']"
KOPN,2015-03-13T08:35:00Z,13.0,7.0,90,10,19,10.0,30.33071,,,-DZ,OVC,2500,,,,,,,METAR,"['KOPN 130835Z AUTO 09010G19KT 10SM -DZ OVC025 13/07 A3033 ', ' AO2']"
KONP,2015-03-13T08:35:00Z,13.0,8.0,90,12,,10.0,30.209646,,,,CLR,,,,,,,,METAR,"['KONP 130835Z AUTO 09012KT 10SM CLR 13/08 A3021 ', ' AO2']"
KONM,2015-03-13T08:35:00Z,8.9,-0.7,0,0,,10.0,30.121063,,,,CLR,,,,,,,,METAR,"['KONM 130835Z AUTO 00000KT 10SM CLR 09/M01 A3012 ', ' AO2 T00891007']"
KOLE,2015-03-13T08:35:00Z,-4.0,-15.0,190,6,,10.0,30.43996,,,,CLR,,,,,,,,METAR,"['KOLE 130835Z AUTO 19006KT 10SM CLR M04/M15 A3044 ', ' AO2']"
KOKV,2015-03-13T08:35:00Z,0.0,-8.0,40,4,,10.0,30.528543,,,,CLR,,,,,,,,METAR,"['KOKV 130835Z AUTO 04004KT 10SM CLR 00/M08 A3053 ', ' AO2']"
KOJA,2015-03-13T08:35:00Z,5.0,2.0,0,0,,10.0,30.088583,,,,CLR,,,,,,,,METAR,"['KOJA 130835Z AUTO 00000KT 10SM CLR 05/02 A3009 ', ' AO2']"
KOCW,2015-03-13T08:35:00Z,2.9,-0.5,40,3,,10.0,30.528543,,,,CLR,,,,,,,,METAR,"['KOCW 130835Z AUTO 04003KT 10SM CLR 03/00 A3053 ', ' AO2 T00291005']"
KO69,2015-03-13T08:35:00Z,10.0,10.0,0,0,,0.75,30.200787,,,,OVC,300,,,,,,,METAR,"['KO69 130835Z AUTO 00000KT 3/4SM OVC003 10/10 A3020 ', ' AO1']"
KN38,2015-03-13T08:35:00Z,-4.0,-14.0,0,0,,10.0,30.510826,,,,CLR,,,,,,,,METAR,"['KN38 130835Z AUTO 00000KT 10SM CLR M04/M14 A3051 ', ' AO2']"
KMWO,2015-03-13T08:35:00Z,4.7,-0.1,60,3,,10.0,30.28937,,,,SCT,6000,,,,,,,METAR,"['KMWO 130835Z AUTO 06003KT 10SM SCT060 05/00 A3029 ', ' AO2 T00471001']"
KMVH,2015-03-13T08:35:00Z,2.0,-4.0,290,4,,10.0,30.360237,,,,CLR,,,,,,,,METAR,"['KMVH 130835Z AUTO 29004KT 10SM CLR 02/M04 A3036 ', ' A01']"
KMRN,2015-03-13T08:35:00Z,11.3,-0.6,60,3,,10.0,30.510826,,,,OVC,7000,,,,,,,METAR,"['KMRN 130835Z AUTO 06003KT 10SM OVC070 11/M01 A3051 ', ' AO2 T01131006']"
KMQI,2015-03-13T08:35:00Z,6.5,0.0,40,9,,10.0,30.528543,,,,CLR,,,,,,,,METAR,"['KMQI 130835Z AUTO 04009KT 020V080 10SM CLR 07/00 A3053 ', ' AO2 T00650000']"
KMNZ,2015-03-13T08:35:00Z,12.5,12.5,20,9,,1.5,30.029528,,,BR,OVC,300,,,,,,,METAR,"['KMNZ 130835Z AUTO 02009KT 1 1/2SM BR OVC003 13/13 A3003 ', ' AO2 T01250125']"
KMMH,2015-03-13T08:35:00Z,0.0,-5.0,290,6,,10.0,30.431103,,,,CLR,,,,,,,,METAR,"['KMMH 130835Z AUTO 29006KT 10SM CLR 00/M05 A3043 ', ' AO1']"
KMIS,2015-03-13T08:35:00Z,22.0,19.0,50,13,,2.5,30.041338,,,HZ,OVC,700,,,,,,,METAR,"['KMIS 130835Z AUTO 05013KT 2 1/2SM HZ OVC007 22/19 A3004 ', ' A01']"
KMHV,2015-03-13T08:35:00Z,15.0,-2.0,10,10,,10.0,30.188976,,,,CLR,,,,,,,,METAR,"['KMHV 130835Z AUTO 01010KT 10SM CLR 15/M02 A3019 ', ' AO1']"
KMGR,2015-03-13T08:35:00Z,14.0,14.0,90,4,,7.0,30.250984,,,,OVC,1300,,,,,,,METAR,"['KMGR 130835Z AUTO 09004KT 7SM OVC013 14/14 A3025 ', ' AO2']"
KMEV,2015-03-13T08:35:00Z,-1.0,-4.0,0,0,,10.0,30.389763,,,,CLR,,,,,,,,METAR,"['KMEV 130835Z AUTO 00000KT 10SM CLR M01/M04 A3039 ', ' AO2']"
KMER,2015-03-13T08:35:00Z,10.0,10.0,0,0,,10.0,30.171259,,,,CLR,,,,,,,,METAR,"['KMER 130835Z AUTO 00000KT 10SM CLR 10/10 A3017 ', ' AO1']"
KMDJ,2015-03-13T08:35:00Z,22.0,21.0,80,10,,10.0,30.02067,,,,FEW,500,SCT,2900,BKN,3800,,,METAR,"['KMDJ 130835Z AUTO 08010KT 10SM FEW005 SCT029 BKN038 22/21 A3002 ', ' A01']"
KMCJ,2015-03-13T08:35:00Z,14.0,14.0,270,4,,0.5,29.920275,,,,OVC,100,,,,,,,METAR,"['KMCJ 130835Z AUTO 27004KT 1/2SM OVC001 14/14 A2992 ', ' AO1']"
KMCC,2015-03-13T08:35:00Z,13.0,10.0,140,7,,10.0,30.159449,,,,CLR,,,,,,,,METAR,"['KMCC 130835Z AUTO 14007KT 10SM CLR 13/10 A3016 ', ' AO2']"
KM30,2015-03-13T08:35:00Z,12.5,12.5,0,0,,7.0,30.129921,,,,SCT,2400,BKN,3200,OVC,4300,,,METAR,"['KM30 130835Z AUTO 00000KT 7SM SCT024 BKN032 OVC043 13/13 A3013 ', ' AO2 T01250125']"
KLZZ,2015-03-13T08:35:00Z,11.6,10.8,330,3,,7.0,30.008858,,,,OVC,800,,,,,,,METAR,"['KLZZ 130835Z AUTO 33003KT 7SM OVC008 12/11 A3001 ', ' AO2 T01160108']"
KLXN,2015-03-13T08:35:00Z,7.6,-0.8,350,5,,10.0,30.15059,,,,CLR,,,,,,,,METAR,"['KLXN 130835Z AUTO 35005KT 10SM CLR 08/M01 A3015 ', ' AO2 T00761008']"
KLVL,2015-03-13T08:35:00Z,1.4,-1.7,0,0,,10.0,30.549213,,,,CLR,,,,,,,,METAR,"['KLVL 130835Z AUTO 00000KT 10SM CLR 01/M02 A3055 ', ' AO1 T00141017']"
KLUD,2015-03-13T08:35:00Z,11.7,11.7,350,3,,3.0,30.029528,,,BR,OVC,6000,,,,,,,METAR,"['KLUD 130835Z AUTO 35003KT 3SM BR OVC060 12/12 A3003 ', ' AO2 T01170117']"
KW75,2015-03-13T08:35:00Z,-0.1,-2.0,0,0,,10.0,30.569881,,,,CLR,,,,,,,,METAR,"['KW75 130835Z AUTO 00000KT 10SM CLR 00/M02 A3057 ', ' AO1 T10011020']"
KVQT,2015-03-13T08:35:00Z,20.0,17.0,0,4,13,10.0,30.0,,,,FEW,1600,SCT,3700,BKN,4600,,,METAR,"['KVQT 130835Z AUTO VRB04G13KT 10SM FEW016 SCT037 BKN046 20/17 A3000 ', ' A01']"
KVOA,2015-03-13T08:35:00Z,25.0,22.0,100,22,,9.0,30.041338,,,,SCT,1100,OVC,7000,,,,,METAR,"['KVOA 130835Z AUTO 10022KT 9SM SCT011 OVC070 25/22 A3004 ', ' A01']"
KVKY,2015-03-13T08:35:00Z,22.0,21.0,120,14,,10.0,30.041338,,,,FEW,6500,SCT,8000,BKN,8500,,,METAR,"['KVKY 130835Z AUTO 12014KT 10SM FEW065 SCT080 BKN085 22/21 A3004 ', ' A01']"
KVCV,2015-03-13T08:35:00Z,11.0,-2.0,310,5,,10.0,30.180119,,,,CLR,,,,,,,,METAR,"['KVCV 130835Z AUTO 31005KT 10SM CLR 11/M02 A3018 ', ' AO2']"
KVBS,2015-03-13T08:35:00Z,16.0,16.0,250,8,14,10.0,29.940945,,,,,,,,,,,,METAR,"['KVBS 130835Z AUTO 25008G14KT 220V280 10SM 16/16 A2994 ', ' A01']"
KVAF,2015-03-13T08:35:00Z,19.0,16.0,280,9,,0.25,29.991142,,,HZ,BKN,1800,OVC,2600,,,,,METAR,"['KVAF 130835Z AUTO 28009KT M1/4SM HZ BKN018 OVC026 19/16 A2999 ', ' A01']"
KUSE,2015-03-13T08:35:00Z,-1.0,-3.0,50,6,,10.0,30.33071,,,,CLR,,,,,,,,METAR,"['KUSE 130835Z AUTO 05006KT 10SM CLR M01/M03 A3033 ', ' AO2']"
KUNV,2015-03-13T08:35:00Z,-3.1,-10.3,0,0,,10.0,30.528543,,,,CLR,,,,,,,,METAR,"['KUNV 130835Z AUTO 00000KT 10SM CLR M03/M10 A3053 ', ' AO2 T10311103']"
KTZR,2015-03-13T08:35:00Z,,,100,3,,,30.33071,,,,CLR,,,,,,,,METAR,"['KTZR 130835Z AUTO 10003KT CLR A3033 ', ' AO2 PWINO']"
KTYQ,2015-03-13T08:35:00Z,4.7,-2.0,90,3,,10.0,30.259842,,,,CLR,,,,,,,,METAR,"['KTYQ 130835Z AUTO 09003KT 10SM CLR 05/M02 A3026 ', ' AO2 T00471020']"
KTQH,2015-03-13T08:35:00Z,11.0,10.0,0,0,,10.0,30.059055,,,,OVC,1400,,,,,,,METAR,"['KTQH 130835Z AUTO 00000KT 10SM OVC014 11/10 A3006 ', ' AO2']"
KTOC,2015-03-13T08:35:00Z,13.8,0.4,80,5,,10.0,30.410433,,,,OVC,5000,,,,,,,METAR,"['KTOC 130835Z AUTO 08005KT 10SM OVC050 14/00 A3041 ', ' AO2 T01380004']"
KTNB,2015-03-13T08:35:00Z,6.7,-3.7,110,5,,10.0,30.46063,,,,OVC,5000,,,,,,,METAR,"['KTNB 130835Z AUTO 11005KT 10SM OVC050 07/M04 A3046 ', ' AO2 T00671037']"
KTKV,2015-03-13T08:35:00Z,4.7,1.8,0,0,,7.0,30.129921,,,,CLR,,,,,,,,METAR,"['KTKV 130835Z AUTO 00000KT 7SM CLR 05/02 A3013 ', ' AO2 T00470018']"
KT20,2015-03-13T08:35:00Z,14.0,13.1,0,0,,10.0,30.0,,,,BKN,11000,,,,,,,METAR,"['KT20 130835Z AUTO 00000KT 10SM BKN110 14/13 A3000 ', ' AO2 T01400131']"
KSUT,2015-03-13T08:35:00Z,9.1,2.2,40,7,,10.0,30.448818,,,,SCT,8500,,,,,,,METAR,"['KSUT 130835Z AUTO 04007KT 10SM SCT085 09/02 A3045 ', ' AO2 T00910022']"
KSQE,2015-03-13T08:35:00Z,21.0,19.0,230,8,,2.5,29.991142,,,BR,SCT,1400,BKN,2100,OVC,3500,,,METAR,"['KSQE 130835Z AUTO 23008KT 2 1/2SM BR SCT014 BKN021 OVC035 21/19 A2999 ', ' A01 VIS 1 1/2V5']"
KSPR,2015-03-13T08:35:00Z,20.0,20.0,250,4,,4.0,29.991142,,,BR,SCT,1300,BKN,3900,OVC,10000,,,METAR,"['KSPR 130835Z AUTO 25004KT 4SM BR SCT013 BKN039 OVC100 20/20 A2999 ', ' A01']"
KSOW,2015-03-13T08:35:00Z,0.0,-1.0,60,6,,10.0,30.221457,,,,CLR,,,,,,,,METAR,"['KSOW 130835Z AUTO 06006KT 10SM CLR 00/M01 A3022 ', ' AO2']"
KSLR,2015-03-13T08:35:00Z,13.1,13.0,10,4,,7.0,30.008858,,,-RA,OVC,500,,,,,,,METAR,"['KSLR 130835Z AUTO 01004KT 7SM -RA OVC005 13/13 A3001 ', ' AO2 P0002 T01310130']"
KSLO,2015-03-13T08:35:00Z,9.5,6.5,70,4,,7.0,30.188976,,,RA,SCT,3700,BKN,5500,OVC,9000,,,METAR,"['KSLO 130835Z AUTO 07004KT 7SM RA SCT037 BKN055 OVC090 10/07 A3019 ', ' AO2 P0002 T00950065']"
KSJS,2015-03-13T08:35:00Z,12.9,1.5,140,5,,10.0,30.31004,,,,OVC,10000,,,,,,,METAR,"['KSJS 130835Z AUTO 14005KT 10SM OVC100 13/02 A3031 ', ' AO2 T01290015']"
KSFY,2015-03-13T08:35:00Z,3.0,0.8,0,0,,7.0,30.230314,,,,CLR,,,,,,,,METAR,"['KSFY 130835Z AUTO 00000KT 7SM CLR 03/01 A3023 ', ' AO2 T00300008']"
KSEP,2015-03-13T08:35:00Z,12.3,11.0,0,0,,0.5,30.050198,,,,OVC,200,,,,,,,METAR,"['KSEP 130835Z AUTO 00000KT 1/2SM OVC002 12/11 A3005 ', ' AO2 T01230110']"
KSAR,2015-03-13T08:35:00Z,9.4,8.0,60,4,,10.0,30.171259,,,RA,SCT,1700,BKN,2300,OVC,3500,,,METAR,"['KSAR 130835Z AUTO 06004KT 10SM RA SCT017 BKN023 OVC035 09/08 A3017 ', ' AO2 T00940080']"
KSAA,2015-03-13T08:35:00Z,-1.0,-1.0,,,,10.0,30.398623,,,,BKN,10000,,,,,,,METAR,"['KSAA 130835Z AUTO 10SM BKN100 M01/M01 A3040 ', ' AO2']"
KRZL,2015-03-13T08:35:00Z,1.0,0.0,80,5,,10.0,30.268702,,,,CLR,,,,,,,,METAR,"['KRZL 130835Z AUTO 08005KT 10SM CLR 01/00 A3027 ', ' AO2']"
KRTS,2015-03-13T08:35:00Z,3.0,-2.0,0,0,,10.0,30.360237,,,,CLR,,,,,,,,METAR,"['KRTS 130835Z AUTO 00000KT 10SM CLR 03/M02 A3036 ', ' AO2']"
KRSV,2015-03-13T08:35:00Z,8.1,4.0,0,0,,10.0,30.221457,,,-DZ,OVC,9000,,,,,,,METAR,"['KRSV 130835Z AUTO 00000KT 10SM -DZ OVC090 08/04 A3022 ', ' AO2 T00810040']"
KRPJ,2015-03-13T08:35:00Z,1.3,0.0,130,6,,10.0,30.250984,,,,CLR,,,,,,,,METAR,"['KRPJ 130835Z AUTO 13006KT 10SM CLR 01/00 A3025 ', ' AO2 T00130000']"
KRNV,2015-03-13T08:35:00Z,18.7,18.7,120,6,,5.0,30.02067,,,RA,BKN,600,BKN,900,OVC,2300,,,METAR,"['KRNV 130835Z AUTO 12006KT 5SM RA BKN006 BKN009 OVC023 19/19 A3002 ', ' AO2 P0003 T01870187']"
KRKR,2015-03-13T08:35:00Z,11.8,11.0,10,4,,4.0,30.050198,,,BR,OVC,300,,,,,,,METAR,"['KRKR 130835Z AUTO 01004KT 4SM BR OVC003 12/11 A3005 ', ' AO2 T01180110']"
KXSA,2015-03-13T08:35:00Z,0.2,-3.9,0,0,,10.0,30.590551,,,,CLR,,,,,,,,METAR,"['KXSA 130835Z AUTO 00000KT 10SM CLR 00/M04 A3059 ', ' AO2 T00021039']"
KXPY,2015-03-13T08:35:00Z,19.0,18.0,100,6,,4.0,30.041338,,,BR,SCT,200,BKN,600,OVC,1500,,,METAR,"['KXPY 130835Z AUTO 10006KT 4SM BR SCT002 BKN006 OVC015 19/18 A3004 ', ' A01']"
KXLL,2015-03-13T08:35:00Z,-1.0,-16.0,60,5,,10.0,30.611221,,,,CLR,,,,,,,,METAR,"['KXLL 130835Z AUTO 06005KT 10SM CLR M01/M16 A3061 ', ' AO2']"
KXIH,2015-03-13T08:35:00Z,14.0,14.0,260,9,,1.75,29.949802,,,BR,OVC,300,,,,,,,METAR,"['KXIH 130835Z AUTO 26009KT 1 3/4SM BR OVC003 14/14 A2995 ', ' A01']"
KWDR,2015-03-13T08:35:00Z,13.0,6.0,70,7,,10.0,30.398623,,,-DZ,OVC,3700,,,,,,,METAR,"['KWDR 130835Z AUTO 07007KT 10SM -DZ OVC037 13/06 A3040 ', ' AO1']"
KLNN,2015-03-13T08:35:00Z,4.5,-10.6,170,5,,10.0,30.360237,,,,CLR,,,,,,,,METAR,"['KLNN 130835Z AUTO 17005KT 10SM CLR 05/M11 A3036 ', ' AO1 T00451106']"
KJXI,2015-03-13T08:35:00Z,12.2,12.2,320,3,,5.0,29.97933,,,RA,OVC,300,,,,,,,METAR,"['KJXI 130835Z AUTO 32003KT 5SM RA OVC003 12/12 A2998 ', ' AO2 T01220122']"
KJWG,2015-03-13T08:35:00Z,3.5,3.0,300,5,,7.0,30.088583,,,,CLR,,,,,,,,METAR,"['KJWG 130835Z AUTO 30005KT 7SM CLR 04/03 A3009 ', ' AO2 T00350030']"
KJTC,2015-03-13T08:35:00Z,3.0,2.0,130,4,,10.0,30.239174,,,,FEW,7000,BKN,8000,,,,,METAR,"['KJTC 130835Z AUTO 13004KT 10SM FEW070 BKN080 03/02 A3024 ', ' AO2']"
KJQF,2015-03-13T08:35:00Z,12.0,-1.0,100,3,,10.0,30.519686,,,,OVC,8000,,,,,,,METAR,"['KJQF 130835Z AUTO 10003KT 10SM OVC080 12/M01 A3052 ', ' AO2']"
KJAS,2015-03-13T08:35:00Z,13.7,13.5,0,0,,4.0,29.949802,,,BR,OVC,300,,,,,,,METAR,"['KJAS 130835Z AUTO 00000KT 4SM BR OVC003 14/14 A2995 ', ' AO2 P0001 T01370135']"
KIPN,2015-03-13T08:35:00Z,24.0,21.0,130,19,,10.0,30.029528,,,,SCT,2000,BKN,2500,BKN,9500,,,METAR,"['KIPN 130835Z AUTO 13019KT 10SM SCT020 BKN025 BKN095 24/21 A3003 ', ' A01']"
KIKT,2015-03-13T08:35:00Z,24.0,22.0,140,21,,7.0,30.008858,,,,FEW,1200,FEW,3000,SCT,10000,,,METAR,"['KIKT 130835Z AUTO 14021KT 7SM FEW012 FEW030 SCT100 24/22 A3001 ', ' A01']"
KIIY,2015-03-13T08:35:00Z,16.0,7.0,50,5,,10.0,30.380905,,,,OVC,4100,,,,,,,METAR,"['KIIY 130835Z AUTO 05005KT 10SM OVC041 16/07 A3038 ', ' AO2']"
KIGQ,2015-03-13T08:35:00Z,3.8,-2.3,150,4,,10.0,30.268702,,,,CLR,,,,,,,,METAR,"['KIGQ 130835Z AUTO 15004KT 10SM CLR 04/M02 A3027 ', ' AO2 T00381023']"
KIFP,2015-03-13T08:35:00Z,21.0,3.0,10,13,,10.0,30.088583,,,,CLR,,,,,,,,METAR,"['KIFP 130835Z AUTO 01013KT 10SM CLR 21/03 A3009 ', ' AO2 PWINO']"
KIER,2015-03-13T08:35:00Z,18.1,18.1,0,0,,0.75,29.940945,,,BR,BKN,300,BKN,800,OVC,4000,,,METAR,"['KIER 130835Z AUTO 00000KT 3/4SM BR BKN003 BKN008 OVC040 18/18 A2994 ', ' AO2 T01810181']"
KIBM,2015-03-13T08:35:00Z,6.7,-1.2,350,7,,10.0,30.280512,,,,BKN,10000,,,,,,,METAR,"['KIBM 130835Z AUTO 35007KT 10SM BKN100 07/M01 A3028 ', ' AO2 T00671012']"
KI16,2015-03-13T08:35:00Z,10.0,1.4,,,,10.0,30.410433,,,,BKN,10000,,,,,,,METAR,"['KI16 130835Z AUTO 10SM BKN100 10/01 A3041 ', ' AO2 T01000014']"
KHZL,2015-03-13T08:35:00Z,-4.0,-16.0,80,3,,10.0,30.549213,,,,CLR,,,,,,,,METAR,"['KHZL 130835Z AUTO 08003KT 10SM CLR M04/M16 A3055 ', ' AO2']"
KHZE,2015-03-13T08:35:00Z,0.0,-1.0,210,3,,10.0,30.138779,,,,CLR,,,,,,,,METAR,"['KHZE 130835Z AUTO 21003KT 10SM CLR 00/M01 A3014 ', ' AO2']"
KHSB,2015-03-13T08:35:00Z,9.6,7.5,50,4,,7.0,30.180119,,,RA,BKN,2100,OVC,2600,,,,,METAR,"['KHSB 130835Z AUTO 05004KT 7SM RA BKN021 OVC026 10/08 A3018 ', ' AO2 P0004 T00960075']"
KHQI,2015-03-13T08:35:00Z,19.0,16.0,210,13,,9.0,29.991142,,,,SCT,2200,BKN,2800,OVC,4800,,,METAR,"['KHQI 130835Z AUTO 21013KT 9SM SCT022 BKN028 OVC048 19/16 A2999 ', ' A01']"
KHJH,2015-03-13T08:35:00Z,4.1,-1.4,0,0,,10.0,30.15059,,,,CLR,,,,,,,,METAR,"['KHJH 130835Z AUTO 00000KT 10SM CLR 04/M01 A3015 ', ' AO2 T00411014']"
KHHV,2015-03-13T08:35:00Z,19.0,15.0,250,12,,10.0,30.0,,,,CLR,,,,,,,,METAR,"['KHHV 130835Z AUTO 25012KT 10SM CLR 19/15 A3000 ', ' A01']"
KGZL,2015-03-13T08:35:00Z,12.0,12.0,0,0,,4.0,30.059055,,,BR,OVC,300,,,,,,,METAR,"['KGZL 130835Z AUTO 00000KT 4SM BR OVC003 12/12 A3006 ', ' AO2 P0001']"
KGYI,2015-03-13T08:35:00Z,13.0,12.5,40,4,,10.0,30.029528,,,,OVC,900,,,,,,,METAR,"['KGYI 130835Z AUTO 04004KT 10SM OVC009 13/13 A3003 ', ' AO2 T01300125']"
KGYB,2015-03-13T08:35:00Z,13.5,12.3,340,4,,7.0,30.02067,,,,SCT,8500,SCT,10000,,,,,METAR,"['KGYB 130835Z AUTO 34004KT 7SM SCT085 SCT100 14/12 A3002 ', ' AO2 T01350123']"
KGUL,2015-03-13T08:35:00Z,19.0,15.0,,,,10.0,30.0,,,,OVC,3700,,,,,,,METAR,"['KGUL 130835Z AUTO 10SM OVC037 19/15 A3000 ', ' A01']"
KGOO,2015-03-13T08:35:00Z,14.0,-2.0,0,0,,10.0,30.209646,,,,CLR,,,,,,,,METAR,"['KGOO 130835Z AUTO 00000KT 10SM CLR 14/M02 A3021 ', ' AO1']"
KGNC,2015-03-13T08:35:00Z,4.2,0.2,0,0,,10.0,30.109253,,,,CLR,,,,,,,,METAR,"['KGNC 130835Z AUTO 00000KT 10SM CLR 04/00 A3011 ', ' AO2 T00420002']"
KGMJ,2015-03-13T08:35:00Z,12.0,12.0,0,0,,3.0,30.100393,,,BR,SCT,2100,BKN,3300,OVC,4900,,,METAR,"['KGMJ 130835Z AUTO 00000KT 3SM BR SCT021 BKN033 OVC049 12/12 A3010 ', ' AO2']"
KGIC,2015-03-13T08:35:00Z,4.4,0.7,0,0,,10.0,30.448818,,,,CLR,,,,,,,,METAR,"['KGIC 130835Z AUTO 00000KT 10SM CLR 04/01 A3045 ', ' AO1 T00440007']"
KGHB,2015-03-13T08:35:00Z,21.0,19.0,220,10,,9.0,30.008858,,,,FEW,2700,BKN,3400,OVC,5000,,,METAR,"['KGHB 130835Z AUTO 22010KT 9SM FEW027 BKN034 OVC050 21/19 A3001 ', ' A01']"
KGDJ,2015-03-13T08:35:00Z,10.0,9.0,0,0,,4.0,30.029528,,,BR,BKN,500,BKN,11000,,,,,METAR,"['KGDJ 130835Z AUTO 00000KT 4SM BR BKN005 BKN110 10/09 A3003 ', ' AO2 T01000090']"
KGBK,2015-03-13T08:35:00Z,21.0,17.0,220,8,,10.0,30.008858,,,,FEW,2300,SCT,3100,OVC,5000,,,METAR,"['KGBK 130835Z AUTO 22008KT 10SM FEW023 SCT031 OVC050 21/17 A3001 ', ' A01']"
KGAO,2015-03-13T08:35:00Z,16.4,16.2,,,,5.0,30.02067,,,-RA,OVC,400,,,,,,,METAR,"['KGAO 130835Z AUTO 5SM -RA OVC004 16/16 A3002 ', ' AO2 LTG DSNT E T01640162']"
KFYJ,2015-03-13T08:35:00Z,0.0,-2.3,0,0,,10.0,30.590551,,,,CLR,,,,,,,,METAR,"['KFYJ 130835Z AUTO 00000KT 10SM CLR 00/M02 A3059 ', ' AO2 T00001023']"
KFOT,2015-03-13T08:35:00Z,10.0,10.0,130,13,,10.0,30.188976,,,,SCT,400,,,,,,,METAR,"['KFOT 130835Z AUTO 13013KT 10SM SCT004 10/10 A3019 ', ' AO1']"
KFHB,2015-03-13T08:35:00Z,20.0,18.0,40,9,,4.0,30.221457,,,,OVC,300,,,,,,,METAR,"['KFHB 130835Z AUTO 04009KT 4SM OVC003 20/18 A3022 ', ' AO1']"
KFEP,2015-03-13T08:35:00Z,2.5,0.2,140,8,,7.0,30.239174,,,,CLR,,,,,,,,METAR,"['KFEP 130835Z AUTO 14008KT 7SM CLR 03/00 A3024 ', ' AO2 T00250002']"
KALN,2015-03-13T08:35:00Z,8.4,6.9,80,7,,2.5,30.200787,,,UP,SCT,3300,BKN,4000,OVC,6500,,,METAR,"['KALN 130835Z AUTO 08007KT 2 1/2SM UP SCT033 BKN040 OVC065 08/07 A3020 ', ' AO2 VIS 1 3/4V5 P0015 T00840069']"
KAJZ,2015-03-13T08:35:00Z,6.4,0.7,0,0,,10.0,30.280512,,,,BKN,11000,,,,,,,METAR,"['KAJZ 130835Z AUTO 00000KT 10SM BKN110 06/01 A3028 ', ' AO2 T00640007']"
KAJG,2015-03-13T08:35:00Z,11.0,2.0,0,0,,10.0,30.200787,,,-RA,BKN,4000,BKN,4600,OVC,7000,,,METAR,"['KAJG 130835Z AUTO 00000KT 10SM -RA BKN040 BKN046 OVC070 11/02 A3020 ', ' AO2']"
KAIB,2015-03-13T08:35:00Z,3.0,-1.0,120,3,,10.0,30.28937,,,,CLR,,,,,,,,METAR,"['KAIB 130835Z AUTO 12003KT 10SM CLR 03/M01 A3029 ', ' AO2']"
KAEJ,2015-03-13T08:35:00Z,1.5,0.0,300,4,,10.0,30.360237,,,,SCT,2600,OVC,7000,,,,,METAR,"['KAEJ 130835Z AUTO 30004KT 10SM SCT026 OVC070 02/00 A3036 ', ' AO2 T00150000']"
KADS,2015-03-13T08:35:00Z,14.5,12.4,10,5,,10.0,30.029528,,,,OVC,900,,,,,,,METAR,"['KADS 130835Z AUTO 01005KT 10SM OVC009 15/12 A3003 ', ' AO2 T01450124']"
KADH,2015-03-13T08:35:00Z,10.0,10.0,0,0,,10.0,30.050198,,,,SCT,8500,,,,,,,METAR,"['KADH 130835Z AUTO 00000KT 10SM SCT085 10/10 A3005 ', ' AO2']"
KAAA,2015-03-13T08:35:00Z,6.0,2.6,20,4,,10.0,30.221457,,,,OVC,10000,,,,,,,METAR,"['KAAA 130835Z AUTO 02004KT 10SM OVC100 06/03 A3022 ', ' AO2 T00600026']"
K82C,2015-03-13T08:35:00Z,5.7,2.3,170,9,,10.0,30.180119,,,,CLR,,,,,,,,METAR,"['K82C 130835Z AUTO 17009KT 10SM CLR 06/02 A3018 ', ' AO2 T00570023']"
K6B0,2015-03-13T08:35:00Z,-8.5,-14.4,0,0,,10.0,30.59941,,,,CLR,,,,,,,,METAR,"['K6B0 130835Z AUTO 00000KT 10SM CLR M08/M14 A3060 ', ' AO2 T10851144']"
K66R,2015-03-13T08:35:00Z,14.0,13.7,270,5,,4.0,29.97933,,,BR,OVC,2000,,,,,,,METAR,"['K66R 130835Z AUTO 27005KT 4SM BR OVC020 14/14 A2998 ', ' AO2 T01400137']"
K65S,2015-03-13T08:35:00Z,7.0,1.0,0,0,,10.0,30.410433,,,,CLR,,,,,,,,METAR,"['K65S 130835Z AUTO 00000KT 10SM CLR 07/01 A3041 ', ' AO2']"
K5T9,2015-03-13T08:35:00Z,12.0,7.0,60,7,,10.0,30.008858,,,,CLR,,,,,,,,METAR,"['K5T9 130835Z AUTO 06007KT 10SM CLR 12/07 A3001 ', ' A01']"
K5R8,2015-03-13T08:35:00Z,16.1,16.1,150,7,,5.0,29.949802,,,-RA,OVC,400,,,,,,,METAR,"['K5R8 130835Z AUTO 15007KT 5SM -RA OVC004 16/16 A2995 ', ' AO2 T01610161']"
K5C1,2015-03-13T08:35:00Z,7.0,6.0,0,0,,10.0,30.029528,,,,CLR,,,,,,,,METAR,"['K5C1 130835Z AUTO 00000KT 10SM CLR 07/06 A3003 ', ' AO1']"
K5A6,2015-03-13T08:35:00Z,19.5,18.0,130,4,,10.0,30.050198,,,RA,OVC,1500,,,,,,,METAR,"['K5A6 130835Z AUTO 13004KT 10SM RA OVC015 20/18 A3005 ', ' AO2 T01950180']"
K54J,2015-03-13T08:35:00Z,19.5,18.0,90,6,14,10.0,30.138779,,,,OVC,800,,,,,,,METAR,"['K54J 130835Z AUTO 09006G14KT 10SM OVC008 20/18 A3014 ', ' AO2 T01950180']"
K4M9,2015-03-13T08:35:00Z,13.0,13.0,30,8,,3.0,30.088583,,,-RA,BKN,1200,,,,,,,METAR,"['K4M9 130835Z AUTO 03008KT 3SM -RA BKN012 13/13 A3009 ', ' AO2 P0010']"
K4A9,2015-03-13T08:35:00Z,13.0,8.0,90,9,16,10.0,30.259842,,,-DZ,BKN,2700,BKN,4600,OVC,6000,,,METAR,"['K4A9 130835Z AUTO 09009G16KT 030V160 10SM -DZ BKN027 BKN046 OVC060 13/08 A3026 ', ' AO2']"
K3R7,2015-03-13T08:35:00Z,17.0,16.2,170,9,,10.0,29.970472,,,,BKN,900,OVC,1600,,,,,METAR,"['K3R7 130835Z AUTO 17009KT 10SM BKN009 OVC016 17/16 A2997 ', ' AO2 T01700162']"
K3LF,2015-03-13T08:35:00Z,8.5,3.7,140,6,,10.0,30.209646,,,RA,SCT,3900,BKN,7000,OVC,8500,,,METAR,"['K3LF 130835Z AUTO 14006KT 10SM RA SCT039 BKN070 OVC085 09/04 A3021 ', ' AO2 P0001 T00850037']"
K2I0,2015-03-13T08:35:00Z,13.2,8.6,150,3,,10.0,30.180119,,,-RA,BKN,5000,BKN,6500,OVC,8000,,,METAR,"['K2I0 130835Z AUTO 15003KT 10SM -RA BKN050 BKN065 OVC080 13/09 A3018 ', ' AO2 P0002 T01320086']"
K2G9,2015-03-13T08:35:00Z,2.0,-12.0,0,0,,10.0,30.43996,,,,CLR,,,,,,,,METAR,"['K2G9 130835Z AUTO 00000KT 10SM CLR 02/M12 A3044 ', ' AO2']"
K2D5,2015-03-13T08:35:00Z,2.0,2.0,290,9,,10.0,30.070866,,,,,,,,,,,,METAR,"['K2D5 130835Z AUTO 29009KT 10SM 02/02 A3007 ', ' AO2']"
K1L0,2015-03-13T08:35:00Z,20.2,19.0,130,5,,5.0,30.008858,,,RA,OVC,500,,,,,,,METAR,"['K1L0 130835Z AUTO 13005KT 5SM RA OVC005 20/19 A3001 ', ' AO2 LTG DSNT SE P0003 T02020190']"
K1H2,2015-03-13T08:35:00Z,8.9,2.3,70,3,,10.0,30.230314,,,-RA,OVC,3200,,,,,,,METAR,"['K1H2 130835Z AUTO 07003KT 10SM -RA OVC032 09/02 A3023 ', ' AO2 T00890023']"
K1A6,2015-03-13T08:35:00Z,14.8,3.4,0,0,,10.0,30.31004,,,,BKN,6500,OVC,9000,,,,,METAR,"['K1A6 130835Z AUTO 00000KT 10SM BKN065 OVC090 15/03 A3031 ', ' AO2 T01480034']"
K1A5,2015-03-13T08:35:00Z,9.0,5.6,0,0,,10.0,30.41929,,,-DZ,,,,,,,,,METAR,"['K1A5 130835Z AUTO 00000KT 10SM -DZ 09/06 A3042 ', ' AO2 T00900056']"
K19A,2015-03-13T08:35:00Z,13.0,3.0,90,6,,10.0,30.380905,,,-RA,OVC,4200,,,,,,,METAR,"['K19A 130835Z AUTO 09006KT 10SM -RA OVC042 13/03 A3038 ', ' AO2']"
K11R,2015-03-13T08:35:00Z,14.8,13.6,290,5,,7.0,29.97933,,,,BKN,1200,BKN,2600,OVC,3800,,,METAR,"['K11R 130835Z AUTO 29005KT 7SM BKN012 BKN026 OVC038 15/14 A2998 ', ' AO2 T01480136']"
K0VG,2015-03-13T08:35:00Z,12.0,2.0,60,5,,10.0,30.369095,,,,OVC,5000,,,,,,,METAR,"['K0VG 130835Z AUTO 06005KT 10SM OVC050 12/02 A3037 ', ' AO2']"
K0V4,2015-03-13T08:35:00Z,3.4,0.3,0,0,,10.0,30.549213,,,,BKN,9000,,,,,,,METAR,"['K0V4 130835Z AUTO 00000KT 10SM BKN090 03/00 A3055 ', ' AO1 T00340003']"
K0E0,2015-03-13T08:35:00Z,5.4,-4.4,360,6,,10.0,30.171259,,,,SCT,4400,SCT,7000,OVC,9000,,,METAR,"['K0E0 130835Z AUTO 36006KT 10SM SCT044 SCT070 OVC090 05/M04 A3017 ', ' AO2 T00541044']"
K05U,2015-03-13T08:35:00Z,0.0,-4.0,150,4,,10.0,30.43996,,,,CLR,,,,,,,,METAR,"['K05U 130835Z AUTO 15004KT 10SM CLR 00/M04 A3044 ', ' AO1']"
KDUA,2015-03-13T08:35:00Z,13.0,12.0,10,4,,10.0,30.029528,,,,OVC,1000,,,,,,,METAR,"['KDUA 130835Z AUTO 01004KT 10SM OVC010 13/12 A3003 ', ' AO2']"
KDRI,2015-03-13T08:35:00Z,17.0,16.1,0,0,,10.0,29.958662,,,,OVC,1000,,,,,,,METAR,"['KDRI 130835Z AUTO 00000KT 10SM OVC010 17/16 A2996 ', ' AO2 T01700161']"
KDPL,2015-03-13T08:35:00Z,7.0,-2.7,50,6,,10.0,30.510826,,,,CLR,,,,,,,,METAR,"['KDPL 130835Z AUTO 05006KT 10SM CLR 07/M03 A3051 ', ' AO2 T00701027']"
KCZT,2015-03-13T08:35:00Z,11.0,8.0,0,0,,10.0,29.991142,,,,CLR,,,,,,,,METAR,"['KCZT 130835Z AUTO 00000KT 10SM CLR 11/08 A2999 ', ' AO2']"
KCWV,2015-03-13T08:35:00Z,15.0,10.0,70,10,15,10.0,30.33071,,,,OVC,2200,,,,,,,METAR,"['KCWV 130835Z AUTO 07010G15KT 10SM OVC022 15/10 A3033 ', ' AO2']"
KCWA,2015-03-13T08:35:00Z,3.0,1.0,170,8,,10.0,30.171259,,,,CLR,,,,,,,,METAR,"['KCWA 130835Z AUTO 17008KT 10SM CLR 03/01 A3017 ', ' AO2']"
KCVC,2015-03-13T08:35:00Z,14.0,8.0,80,10,,10.0,30.33071,,,-RA,OVC,3100,,,,,,,METAR,"['KCVC 130835Z AUTO 08010KT 10SM -RA OVC031 14/08 A3033 ', ' AO2']"
KCNI,2015-03-13T08:35:00Z,13.0,1.0,80,10,17,10.0,30.339567,,,,OVC,3500,,,,,,,METAR,"['KCNI 130835Z AUTO 08010G17KT 10SM OVC035 13/01 A3034 ', ' AO2']"
KCLK,2015-03-13T08:35:00Z,5.0,1.0,0,0,,10.0,30.100393,,,,CLR,,,,,,,,METAR,"['KCLK 130835Z AUTO 00000KT 10SM CLR 05/01 A3010 ', ' AO2']"
KCLI,2015-03-13T08:35:00Z,3.0,0.0,200,7,,10.0,30.200787,,,,CLR,,,,,,,,METAR,"['KCLI 130835Z AUTO 20007KT 10SM CLR 03/00 A3020 ', ' AO2']"
KCKF,2015-03-13T08:35:00Z,15.0,7.1,100,8,,10.0,30.28937,,,,OVC,2000,,,,,,,METAR,"['KCKF 130835Z AUTO 10008KT 10SM OVC020 15/07 A3029 ', ' AO2 T01500071']"
KBYY,2015-03-13T08:35:00Z,14.7,14.7,270,4,,2.5,29.97933,,,BR,OVC,300,,,,,,,METAR,"['KBYY 130835Z AUTO 27004KT 2 1/2SM BR OVC003 15/15 A2998 ', ' AO2 T01470147']"
KBXA,2015-03-13T08:35:00Z,20.5,18.3,150,6,,10.0,30.059055,,,RA,,,,,,,,,METAR,"['KBXA 130835Z AUTO 15006KT 10SM RA 21/18 A3006 ', ' AO2 LTG DSNT S P0002 T02050183']"
KBVS,2015-03-13T08:35:00Z,12.0,12.0,40,7,,10.0,30.33071,,,,CLR,,,,,,,,METAR,"['KBVS 130835Z AUTO 04007KT 10SM CLR 12/12 A3033 ', ' A01 P000']"
KBPC,2015-03-13T08:35:00Z,5.0,0.0,0,0,,10.0,30.129921,,,,CLR,,,,,,,,METAR,"['KBPC 130835Z AUTO 00000KT 10SM CLR 05/00 A3013 ', ' AO2']"
KBKS,2015-03-13T08:35:00Z,11.7,10.5,0,0,,10.0,29.97933,,,,CLR,,,,,,,,METAR,"['KBKS 130835Z AUTO 00000KT 10SM CLR 12/11 A2998 ', ' AO1 T01170105']"
KBGE,2015-03-13T08:35:00Z,17.0,16.0,80,11,,7.0,30.209646,,,,OVC,800,,,,,,,METAR,"['KBGE 130835Z AUTO 08011KT 7SM OVC008 17/16 A3021 ', ' AO2']"
KBCK,2015-03-13T08:35:00Z,7.3,4.2,200,4,,5.0,30.15059,,,HZ,CLR,,,,,,,,METAR,"['KBCK 130835Z AUTO 20004KT 5SM HZ CLR 07/04 A3015 ', ' AO2 T00730042']"
KBCB,2015-03-13T08:35:00Z,5.5,-2.8,110,3,,10.0,30.510826,,,,BKN,12000,,,,,,,METAR,"['KBCB 130835Z AUTO 11003KT 10SM BKN120 06/M03 A3051 ', ' AO2 T00551028']"
KAZC,2015-03-13T08:35:00Z,2.2,0.0,210,4,,10.0,30.280512,,,,CLR,,,,,,,,METAR,"['KAZC 130835Z AUTO 21004KT 10SM CLR 02/00 A3028 ', ' AO2 T00220000']"
KAXS,2015-03-13T08:35:00Z,6.9,3.4,40,3,,10.0,30.088583,,,,CLR,,,,,,,,METAR,"['KAXS 130835Z AUTO 04003KT 10SM CLR 07/03 A3009 ', ' AO2 T00690034']"
KAUN,2015-03-13T08:35:00Z,13.0,9.0,100,7,,10.0,30.180119,,,,CLR,,,,,,,,METAR,"['KAUN 130835Z AUTO 10007KT 10SM CLR 13/09 A3018 ', ' AO1']"
KASW,2015-03-13T08:35:00Z,1.0,-2.0,90,5,,10.0,30.301182,,,,CLR,,,,,,,,METAR,"['KASW 130835Z AUTO 09005KT 10SM CLR 01/M02 A3030 ', ' AO2']"
KASN,2015-03-13T08:35:00Z,16.1,14.0,100,5,,10.0,30.239174,,,-RA,OVC,1400,,,,,,,METAR,"['KASN 130835Z AUTO 10005KT 10SM -RA OVC014 16/14 A3024 ', ' AO2 T01610140']"
K8W2,2015-03-13T08:35:00Z,-0.2,-2.5,0,0,,10.0,30.519686,,,,CLR,,,,,,,,METAR,"['K8W2 130835Z AUTO 00000KT 10SM CLR 00/M02 A3052 ', ' AO1 T10021025']"
K82V,2015-03-13T08:35:00Z,3.0,-1.0,0,0,,10.0,30.318897,,,,BKN,11000,,,,,,,METAR,"['K82V 130835Z AUTO 00000KT 10SM BKN110 03/M01 A3032 ', ' AO2']"
K7W4,2015-03-13T08:35:00Z,0.5,-2.4,0,0,,10.0,30.569881,,,,CLR,,,,,,,,METAR,"['K7W4 130835Z AUTO 00000KT 10SM CLR 01/M02 A3057 ', ' AO1 T00051024']"
K6A2,2015-03-13T08:35:00Z,13.0,12.0,80,8,,10.0,30.318897,,,,SCT,1500,SCT,2100,OVC,2700,,,METAR,"['K6A2 130835Z AUTO 08008KT 060V120 10SM SCT015 SCT021 OVC027 13/12 A3032 ', ' AO2']"
K4O4,2015-03-13T08:35:00Z,12.0,11.0,360,6,,3.0,29.991142,,,,SCT,100,OVC,800,,,,,METAR,"['K4O4 130835Z AUTO 36006KT 3SM SCT001 OVC008 12/11 A2999 ', ' AO2 P0002']"
K3J7,2015-03-13T08:35:00Z,13.0,13.0,0,0,,10.0,30.33071,,,,OVC,3400,,,,,,,METAR,"['K3J7 130835Z AUTO 00000KT 10SM OVC034 13/13 A3033 ', ' AO2']"
K3I2,2015-03-13T08:35:00Z,6.0,-2.0,0,0,,10.0,30.351377,,,,CLR,,,,,,,,METAR,"['K3I2 130835Z AUTO 00000KT 10SM CLR 06/M02 A3035 ', ' AO2']"
K3D2,2015-03-13T08:35:00Z,2.5,-2.8,200,10,14,10.0,30.209646,,,,CLR,,,,,,,,METAR,"['K3D2 130835Z AUTO 20010G14KT 10SM CLR 03/M03 A3021 ', ' AO2 T00251028']"
K36U,2015-03-13T08:35:00Z,-1.0,-2.0,0,0,,10.0,30.380905,,,,CLR,,,,,,,,METAR,"['K36U 130835Z AUTO 00000KT 10SM CLR M01/M02 A3038 ', ' AO2']"
K1K1,2015-03-13T08:35:00Z,6.6,1.6,60,3,,10.0,30.129921,,,,CLR,,,,,,,,METAR,"['K1K1 130835Z AUTO 06003KT 10SM CLR 07/02 A3013 ', ' AO2 T00660016']"
K1II,2015-03-13T08:35:00Z,7.0,0.0,90,3,,10.0,30.250984,,,,BKN,12000,,,,,,,METAR,"['K1II 130835Z AUTO 09003KT 10SM BKN120 07/00 A3025 ', ' AO2']"
K1A9,2015-03-13T08:35:00Z,17.8,17.3,90,7,,10.0,30.171259,,,,OVC,600,,,,,,,METAR,"['K1A9 130835Z AUTO 09007KT 10SM OVC006 18/17 A3017 ', ' AO2 T01780173']"
KRPD,2015-03-13T08:35:00Z,8.4,4.0,160,11,,10.0,30.070866,,,,CLR,,,,,,,,METAR,"['KRPD 130835Z AUTO 16011KT 10SM CLR 08/04 A3007 ', ' AO2 T00840040']"
KRCZ,2015-03-13T08:35:00Z,9.5,-3.2,80,6,,10.0,30.490158,,,,,,,,,,,,METAR,"['KRCZ 130835Z AUTO 08006KT 10SM 10/M03 A3049 ', ' AO2 T00951032']"
KRCX,2015-03-13T08:35:00Z,6.7,2.7,150,5,,10.0,30.100393,,,,CLR,,,,,,,,METAR,"['KRCX 130835Z AUTO 15005KT 10SM CLR 07/03 A3010 ', ' AO2 T00670027']"
KPVJ,2015-03-13T08:35:00Z,9.0,8.1,330,5,,10.0,30.041338,,,,BKN,11000,,,,,,,METAR,"['KPVJ 130835Z AUTO 33005KT 10SM BKN110 09/08 A3004 ', ' AO2 T00900081']"
KPUJ,2015-03-13T08:35:00Z,13.0,10.0,120,15,23,10.0,30.301182,,,,OVC,2200,,,,,,,METAR,"['KPUJ 130835Z AUTO 12015G23KT 10SM OVC022 13/10 A3030 ', ' AO2']"
KPSN,2015-03-13T08:35:00Z,13.0,13.0,350,5,,3.0,29.970472,,,BR,OVC,400,,,,,,,METAR,"['KPSN 130835Z AUTO 35005KT 3SM BR OVC004 12/12 A2997 ', ' AO2 T01300130']"
KPRO,2015-03-13T08:35:00Z,4.2,2.6,170,6,,10.0,30.15059,,,,CLR,,,,,,,,METAR,"['KPRO 130835Z AUTO 17006KT 10SM CLR 04/03 A3015 ', ' AO2 T00420026']"
KPKV,2015-03-13T08:35:00Z,14.0,13.7,230,3,,3.0,30.0,,,BR,BKN,10000,,,,,,,METAR,"['KPKV 130835Z AUTO 23003KT 3SM BR BKN100 14/14 A3000 ', ' AO2 T01400137']"
KPEZ,2015-03-13T08:35:00Z,11.0,10.0,0,0,,10.0,30.008858,,,,CLR,,,,,,,,METAR,"['KPEZ 130835Z AUTO 00000KT 10SM CLR 11/10 A3001 ', ' AO2 T01100100']"
KPBH,2015-03-13T08:35:00Z,5.6,2.4,170,7,,10.0,30.079725,,,,CLR,,,,,,,,METAR,"['KPBH 130835Z AUTO 17007KT 10SM CLR 06/02 A3008 ', ' AO2 T00560024']"
KOXI,2015-03-13T08:35:00Z,2.0,-8.0,80,4,,10.0,30.280512,,,,,,,,,,,,METAR,"['KOXI 130835Z AUTO 08004KT 10SM 02/M08 A3028 ', ' AO1']"
KOWP,2015-03-13T08:35:00Z,13.5,10.5,50,5,,10.0,30.079725,,,,BKN,9000,,,,,,,METAR,"['KOWP 130835Z AUTO 05005KT 10SM BKN090 14/11 A3008 ', ' AO2 T01350105']"
KONX,2015-03-13T08:35:00Z,7.0,-3.7,60,7,,10.0,30.549213,,,,CLR,,,,,,,,METAR,"['KONX 130835Z AUTO 06007KT 10SM CLR 07/M04 A3055 ', ' AO2 T00701037']"
KOKZ,2015-03-13T08:35:00Z,12.7,4.4,100,6,,7.0,30.33071,,,,OVC,2500,,,,,,,METAR,"['KOKZ 130835Z AUTO 10006KT 7SM OVC025 13/04 A3033 ', ' AO2 T01270044 PNO']"
KOBE,2015-03-13T08:35:00Z,19.0,18.0,0,0,,10.0,30.171259,,,,OVC,8000,,,,,,,METAR,"['KOBE 130835Z AUTO 00000KT 10SM OVC080 19/18 A3017 ', ' AO2']"
KMQS,2015-03-13T08:35:00Z,0.0,-15.0,0,0,,10.0,30.578741,,,,CLR,,,,,,,,METAR,"['KMQS 130835Z AUTO 00000KT 10SM CLR 00/M15 A3058 ', ' AO2']"
KMQB,2015-03-13T08:35:00Z,4.5,3.2,0,0,,7.0,30.239174,,,,CLR,,,,,,,,METAR,"['KMQB 130835Z AUTO 00000KT 7SM CLR 05/03 A3024 ', ' AO2 T00450032']"
KMKN,2015-03-13T08:35:00Z,10.9,9.3,320,3,,10.0,30.029528,,,,CLR,,,,,,,,METAR,"['KMKN 130835Z AUTO 32003KT 10SM CLR 11/09 A3003 ', ' AO2 T01090093']"
KMFV,2015-03-13T08:35:00Z,3.0,-10.0,90,6,,10.0,30.561024,,,,CLR,,,,,,,,METAR,"['KMFV 130835Z AUTO 09006KT 10SM CLR 03/M10 A3056 ', ' AO2']"
KMDQ,2015-03-13T08:35:00Z,14.0,10.0,140,9,16,10.0,30.209646,,,,BKN,2100,BKN,2600,,,,,METAR,"['KMDQ 130835Z AUTO 14009G16KT 10SM BKN021 BKN026 14/10 A3021 ', ' AO2']"
KMCX,2015-03-13T08:35:00Z,2.9,-1.1,110,4,,10.0,30.268702,,,,CLR,,,,,,,,METAR,"['KMCX 130835Z AUTO 11004KT 10SM CLR 03/M01 A3027 ', ' AO2 T00291011']"
KLXY,2015-03-13T08:35:00Z,12.3,12.0,340,8,,5.0,29.958662,,,BR,SCT,300,BKN,1100,OVC,6000,,,METAR,"['KLXY 130835Z AUTO 34008KT 5SM BR SCT003 BKN011 OVC060 12/12 A2996 ', ' AO2 P0001 T01230120']"
KLUM,2015-03-13T08:35:00Z,8.5,4.7,160,5,,7.0,30.079725,,,,CLR,,,,,,,,METAR,"['KLUM 130835Z AUTO 16005KT 7SM CLR 09/05 A3008 ', ' AO2 T00850047']"
KLUA,2015-03-13T08:35:00Z,1.0,0.0,0,0,,10.0,30.528543,,,,CLR,,,,,,,,METAR,"['KLUA 130835Z AUTO 00000KT 10SM CLR 01/00 A3053 ', ' AO2']"
KLOM,2015-03-13T08:35:00Z,1.0,-16.0,0,0,,10.0,30.578741,,,,CLR,,,,,,,,METAR,"['KLOM 130835Z AUTO 00000KT 10SM CLR 01/M16 A3058 ', ' AO1']"
KLNC,2015-03-13T08:35:00Z,13.5,11.6,0,0,,10.0,30.008858,,,,OVC,1000,,,,,,,METAR,"['KLNC 130835Z AUTO 00000KT 10SM OVC010 14/12 A3001 ', ' AO2 T01350116']"
KLHM,2015-03-13T08:35:00Z,14.0,9.0,100,6,,10.0,30.138779,,,,CLR,,,,,,,,METAR,"['KLHM 130835Z AUTO 10006KT 10SM CLR 14/09 A3014 ', ' AO1']"
KLAL,2015-03-13T08:35:00Z,21.0,17.0,80,8,,10.0,30.171259,,,,OVC,9000,,,,,,,METAR,"['KLAL 130835Z AUTO 08008KT 10SM OVC090 21/17 A3017 ', ' AO2']"
KL18,2015-03-13T08:35:00Z,19.0,2.0,10,5,,10.0,30.041338,,,,CLR,,,,,,,,METAR,"['KL18 130835Z AUTO 01005KT 10SM CLR 19/02 A3004 ', ' AO2']"
KJYR,2015-03-13T08:35:00Z,4.0,0.0,230,5,,10.0,30.15059,,,,CLR,,,,,,,,METAR,"['KJYR 130835Z AUTO 23005KT 10SM CLR 04/00 A3015 ', ' AO2']"
KJYL,2015-03-13T08:35:00Z,14.4,3.3,90,8,,10.0,30.360237,,,,OVC,2300,,,,,,,METAR,"['KJYL 130835Z AUTO 09008KT 10SM OVC023 14/03 A3036 ', ' AO2 T01440033']"
KJWY,2015-03-13T08:35:00Z,13.5,13.5,340,4,,7.0,30.008858,,,,OVC,1000,,,,,,,METAR,"['KJWY 130835Z AUTO 34004KT 7SM OVC010 14/14 A3001 ', ' AO2 T01350135']"
KJVL,2015-03-13T08:35:00Z,4.0,0.0,150,3,,10.0,30.239174,,,,CLR,,,,,,,,METAR,"['KJVL 130835Z AUTO 15003KT 10SM CLR 04/00 A3024 ', ' AO2']"
KJSV,2015-03-13T08:35:00Z,12.0,11.0,0,0,,10.0,30.050198,,,-RA,OVC,1000,,,,,,,METAR,"['KJSV 130835Z AUTO 00000KT 10SM -RA OVC010 12/11 A3005 ', ' AO2']"
KJSO,2015-03-13T08:35:00Z,12.7,12.5,10,5,,0.5,29.958662,,,FG,OVC,100,,,,,,,METAR,"['KJSO 130835Z AUTO 01005KT 1/2SM FG OVC001 12/12 A2996 ', ' AO2 T01270125']"
KJNX,2015-03-13T08:35:00Z,7.0,-2.0,0,0,,10.0,30.528543,,,,CLR,,,,,,,,METAR,"['KJNX 130835Z AUTO 00000KT 10SM CLR 07/M02 A3053 ', ' AO2']"
KJKA,2015-03-13T08:35:00Z,18.7,18.7,90,8,,5.0,30.088583,,,BR,OVC,300,,,,,,,METAR,"['KJKA 130835Z AUTO 09008KT 5SM BR OVC003 19/19 A3009 ', ' AO2 T01870187']"
KJFZ,2015-03-13T08:35:00Z,9.4,-5.4,150,7,16,10.0,30.380905,,,,OVC,9000,,,,,,,METAR,"['KJFZ 130835Z AUTO 15007G16KT 10SM OVC090 09/M05 A3038 ', ' AO2 T00941054']"
KJDD,2015-03-13T08:35:00Z,13.0,13.0,320,4,,1.75,29.97933,,,BR,OVC,200,,,,,,,METAR,"['KJDD 130835Z AUTO 32004KT 1 3/4SM BR OVC002 13/13 A2998 ', ' AO2 P0002']"
KIXA,2015-03-13T08:35:00Z,0.0,-1.0,0,0,,10.0,30.549213,,,,CLR,,,,,,,,METAR,"['KIXA 130835Z AUTO 00000KT 10SM CLR 00/M01 A3055 ', ' AO2']"
KIPJ,2015-03-13T08:35:00Z,11.9,-1.9,90,3,,10.0,30.469488,,,,OVC,7500,,,,,,,METAR,"['KIPJ 130835Z AUTO 09003KT 10SM OVC075 12/M02 A3047 ', ' AO2 T01191019']"
KIFA,2015-03-13T08:35:00Z,5.6,4.2,160,8,,4.0,30.171259,,,BR,CLR,,,,,,,,METAR,"['KIFA 130835Z AUTO 16008KT 4SM BR CLR 06/04 A3017 ', ' AO2 T00560042']"
KICL,2015-03-13T08:35:00Z,4.0,2.0,0,0,,10.0,30.171259,,,,CLR,,,,,,,,METAR,"['KICL 130835Z AUTO 00000KT 10SM CLR 04/02 A3017 ', ' AO2']"
KI39,2015-03-13T08:35:00Z,14.0,4.0,150,5,,10.0,30.259842,,,,SCT,4800,OVC,8500,,,,,METAR,"['KI39 130835Z AUTO 15005KT 10SM SCT048 OVC085 14/04 A3026 ', ' AO2']"
KHVE,2015-03-13T08:35:00Z,2.0,-1.0,0,0,,10.0,30.28937,,,,CLR,,,,,,,,METAR,"['KHVE 130835Z AUTO 00000KT 10SM CLR 02/M01 A3029 ', ' AO2']"
KHUM,2015-03-13T08:35:00Z,18.2,18.0,140,3,,7.0,30.0,,,,BKN,2300,OVC,3000,,,,,METAR,"['KHUM 130835Z AUTO 14003KT 7SM BKN023 OVC030 18/18 A3000 ', ' AO2 LTG DSNT E T01820180']"
KHRJ,2015-03-13T08:35:00Z,7.6,-2.7,70,4,,10.0,30.519686,,,,CLR,,,,,,,,METAR,"['KHRJ 130835Z AUTO 07004KT 10SM CLR 08/M03 A3052 ', ' AO2 T00761027']"
KHQZ,2015-03-13T08:35:00Z,13.0,12.2,350,5,,10.0,30.008858,,,,OVC,700,,,,,,,METAR,"['KHQZ 130835Z AUTO 35005KT 10SM OVC007 13/12 A3001 ', ' AO1 T01300122']"
KHNZ,2015-03-13T08:35:00Z,3.6,-2.0,0,0,,10.0,30.540354,,,,BKN,9000,,,,,,,METAR,"['KHNZ 130835Z AUTO 00000KT 10SM BKN090 04/M02 A3054 ', ' AO2 T00361020']"
KHLX,2015-03-13T08:35:00Z,6.6,-2.6,140,3,,10.0,30.469488,,,,OVC,10000,,,,,,,METAR,"['KHLX 130835Z AUTO 14003KT 10SM OVC100 07/M03 A3047 ', ' AO2 T00661026']"
KHHF,2015-03-13T08:35:00Z,2.2,0.4,0,0,,10.0,30.121063,,,,CLR,,,,,,,,METAR,"['KHHF 130835Z AUTO 00000KT 10SM CLR 02/00 A3012 ', ' AO2 T00220004']"
KHBI,2015-03-13T08:35:00Z,9.1,-4.8,100,4,,10.0,30.540354,,,,OVC,8000,,,,,,,METAR,"['KHBI 130835Z AUTO 10004KT 10SM OVC080 09/M05 A3054 ', ' AO2 T00911048']"
KGYY,2015-03-13T08:35:00Z,6.2,-4.5,150,5,,10.0,30.280512,,,,CLR,,,,,,,,METAR,"['KGYY 130835Z AUTO 15005KT 10SM CLR 06/M04 A3028 ', ' AO2 T00621045']"
KGWB,2015-03-13T08:35:00Z,0.0,-4.0,60,5,,10.0,30.318897,,,,CLR,,,,,,,,METAR,"['KGWB 130835Z AUTO 06005KT 10SM CLR 00/M04 A3032 ', ' AO2']"
KGPM,2015-03-13T08:35:00Z,14.3,12.7,360,5,,10.0,30.029528,,,,OVC,1500,,,,,,,METAR,"['KGPM 130835Z AUTO 36005KT 10SM OVC015 14/13 A3003 ', ' AO2 T01430127']"
KGGI,2015-03-13T08:35:00Z,6.6,5.5,150,7,,3.0,30.180119,,,BR,CLR,,,,,,,,METAR,"['KGGI 130835Z AUTO 15007KT 3SM BR CLR 07/06 A3018 ', ' AO2 T00660055']"
KGEV,2015-03-13T08:35:00Z,5.6,-3.1,0,0,,10.0,30.469488,,,-DZ,OVC,5000,,,,,,,METAR,"['KGEV 130835Z AUTO 00000KT 10SM -DZ OVC050 06/M03 A3047 ', ' AO2 T00561031']"
KGCM,2015-03-13T08:35:00Z,12.0,10.0,30,3,,10.0,30.109253,,,,OVC,1700,,,,,,,METAR,"['KGCM 130835Z AUTO 03003KT 10SM OVC017 12/10 A3011 ', ' AO2']"
KFWZ,2015-03-13T08:35:00Z,0.0,-5.0,350,9,,10.0,30.360237,,,,SCT,4000,,,,,,,METAR,"['KFWZ 130835Z AUTO 35009KT 10SM SCT040 00/M05 A3036 ', ' AO2']"
KFRR,2015-03-13T08:35:00Z,0.0,-5.0,0,0,,10.0,30.528543,,,,CLR,,,,,,,,METAR,"['KFRR 130835Z AUTO 00000KT 10SM CLR 00/M05 A3053 ', ' AO1']"
KFKR,2015-03-13T08:35:00Z,2.7,-0.1,70,4,,10.0,30.268702,,,,CLR,,,,,,,,METAR,"['KFKR 130835Z AUTO 07004KT 10SM CLR 03/00 A3027 ', ' AO2 T00271001']"
KFBR,2015-03-13T08:35:00Z,0.9,-1.5,250,7,,10.0,30.43996,,,,CLR,,,,,,,,METAR,"['KFBR 130835Z AUTO 25007KT 10SM CLR 01/M01 A3044 ', ' AO2 T00091015']"
KF46,2015-03-13T08:35:00Z,13.3,12.6,350,4,,10.0,29.991142,,,,OVC,900,,,,,,,METAR,"['KF46 130835Z AUTO 35004KT 10SM OVC009 13/13 A2999 ', ' AO2 T01330126']"
KEYF,2015-03-13T08:35:00Z,7.4,-1.9,0,0,,10.0,30.490158,,,,BKN,9000,,,,,,,METAR,"['KEYF 130835Z AUTO 00000KT 10SM BKN090 07/M02 A3049 ', ' AO2 T00741019']"
KELK,2015-03-13T08:35:00Z,6.0,1.0,10,3,,10.0,30.129921,,,,CLR,,,,,,,,METAR,"['KELK 130835Z AUTO 01003KT 10SM CLR 06/01 A3013 ', ' AO2']"
KEHO,2015-03-13T08:35:00Z,12.9,-1.7,60,3,,10.0,30.46063,,,,OVC,7000,,,,,,,METAR,"['KEHO 130835Z AUTO 06003KT 10SM OVC070 13/M02 A3046 ', ' AO2 T01291017']"
KEDN,2015-03-13T08:35:00Z,17.0,16.0,100,11,17,4.0,30.159449,,,BR,OVC,600,,,,,,,METAR,"['KEDN 130835Z AUTO 10011G17KT 4SM BR OVC006 17/16 A3016 ', ' AO2']"
KEDE,2015-03-13T08:35:00Z,1.4,-0.5,0,0,,10.0,30.540354,,,,CLR,,,,,,,,METAR,"['KEDE 130835Z AUTO 00000KT 10SM CLR 01/00 A3054 ', ' AO2 T00141005']"
KECS,2015-03-13T08:35:00Z,2.0,-2.0,360,7,,10.0,30.31004,,,,CLR,,,,,,,,METAR,"['KECS 130835Z AUTO 36007KT 10SM CLR 02/M02 A3031 ', ' AO2']"
KEBG,2015-03-13T08:35:00Z,14.1,12.3,170,4,,7.0,29.991142,,,,CLR,,,,,,,,METAR,"['KEBG 130835Z AUTO 17004KT 7SM CLR 14/12 A2999 ', ' AO2 T01410123']"
KDZB,2015-03-13T08:35:00Z,,,0,0,,,30.02067,,,,,,,,,,,,METAR,"['KDZB 130835Z AUTO 00000KT A3002 ', ' AO2 PWINO']"
KDVO,2015-03-13T08:35:00Z,10.0,9.0,340,3,,10.0,30.180119,,,,CLR,,,,,,,,METAR,"['KDVO 130835Z AUTO 34003KT 10SM CLR 10/09 A3018 ', ' AO2']"
KDVK,2015-03-13T08:35:00Z,10.0,3.0,150,3,,10.0,30.259842,,,,BKN,12000,,,,,,,METAR,"['KDVK 130835Z AUTO 15003KT 10SM BKN120 10/03 A3026 ', ' AO2']"
KDUX,2015-03-13T08:35:00Z,3.1,-0.9,180,7,,10.0,30.138779,,,,CLR,,,,,,,,METAR,"['KDUX 130835Z AUTO 18007KT 10SM CLR 03/M01 A3014 ', ' AO2 T00311009']"
KXBP,2015-03-13T08:35:00Z,7.5,7.5,270,3,,2.0,30.050198,,,BR,CLR,,,,,,,,METAR,"['KXBP 130835Z AUTO 27003KT 2SM BR CLR 08/08 A3005 ', ' AO2 T00750075']"
KW96,2015-03-13T08:35:00Z,-0.3,-2.1,0,0,,10.0,30.569881,,,,CLR,,,,,,,,METAR,"['KW96 130835Z AUTO 00000KT 10SM CLR 00/M02 A3057 ', ' AO1 T10031021']"
KW81,2015-03-13T08:35:00Z,0.8,-1.8,0,0,,10.0,30.561024,,,,CLR,,,,,,,,METAR,"['KW81 130835Z AUTO 00000KT 10SM CLR 01/M02 A3056 ', ' AO1 T00081018']"
KW63,2015-03-13T08:35:00Z,6.0,-2.0,0,0,,10.0,30.528543,,,,OVC,9000,,,,,,,METAR,"['KW63 130835Z AUTO 00000KT 10SM OVC090 06/M02 A3053 ', ' AO1']"
KW43,2015-03-13T08:35:00Z,4.0,-1.0,0,0,,10.0,30.31004,,,,SCT,9000,,,,,,,METAR,"['KW43 130835Z AUTO 00000KT 10SM SCT090 04/M01 A3031 ', ' AO2']"
KW31,2015-03-13T08:35:00Z,2.9,-3.1,0,0,,10.0,30.540354,,,,CLR,,,,,,,,METAR,"['KW31 130835Z AUTO 00000KT 10SM CLR 03/M03 A3054 ', ' AO1 T00291031']"
KVWU,2015-03-13T08:35:00Z,2.0,1.0,0,0,,10.0,29.929134,,,,CLR,,,,,,,,METAR,"['KVWU 130835Z AUTO 00000KT 10SM CLR 02/01 A2993 ', ' AO2']"
KVTI,2015-03-13T08:35:00Z,6.2,4.5,170,7,,4.0,30.180119,,,BR,CLR,,,,,,,,METAR,"['KVTI 130835Z AUTO 17007KT 4SM BR CLR 06/05 A3018 ', ' AO2 T00620045']"
KVDI,2015-03-13T08:35:00Z,15.0,8.0,80,10,17,10.0,30.318897,,,,OVC,2100,,,,,,,METAR,"['KVDI 130835Z AUTO 08010G17KT 10SM OVC021 15/08 A3032 ', ' AO2']"
KVBW,2015-03-13T08:35:00Z,0.0,-1.5,0,0,,10.0,30.519686,,,,CLR,,,,,,,,METAR,"['KVBW 130835Z AUTO 00000KT 10SM CLR 00/M01 A3052 ', ' AO2 T00001015']"
KUVA,2015-03-13T08:35:00Z,11.8,8.2,30,4,,10.0,30.02067,,,,CLR,,,,,,,,METAR,"['KUVA 130835Z AUTO 03004KT 10SM CLR 12/08 A3002 ', ' AO2 T01180082']"
KTTA,2015-03-13T08:35:00Z,7.8,-3.8,0,0,,10.0,30.519686,,,,SCT,9000,,,,,,,METAR,"['KTTA 130835Z AUTO 00000KT 10SM SCT090 08/M04 A3052 ', ' AO2 T00781038']"
KTMK,2015-03-13T08:35:00Z,8.0,8.0,190,3,,10.0,30.239174,,,,CLR,,,,,,,,METAR,"['KTMK 130835Z AUTO 19003KT 10SM CLR 08/08 A3024 ', ' AO2']"
KSZT,2015-03-13T08:35:00Z,0.0,0.0,0,0,,10.0,30.431103,,,,CLR,,,,,,,,METAR,"['KSZT 130835Z AUTO 00000KT 10SM CLR 00/00 A3043 ', ' AO2']"
KSUN,2015-03-13T08:35:00Z,3.0,-2.0,320,8,,10.0,30.43996,,,,CLR,,,,,,,,METAR,"['KSUN 130835Z AUTO 32008KT 10SM CLR 03/M02 A3044 ', ' AO2']"
KSNL,2015-03-13T08:35:00Z,11.0,11.0,0,0,,10.0,30.070866,,,,BKN,11000,,,,,,,METAR,"['KSNL 130835Z AUTO 00000KT 10SM BKN110 11/11 A3007 ', ' AO2']"
KSIF,2015-03-13T08:35:00Z,6.3,1.1,0,0,,10.0,30.528543,,,,CLR,,,,,,,,METAR,"['KSIF 130835Z AUTO 00000KT 10SM CLR 06/01 A3053 ', ' AO2 T00630011']"
KSCD,2015-03-13T08:35:00Z,15.8,15.8,120,10,19,7.0,30.221457,,,DZ,OVC,800,,,,,,,METAR,"['KSCD 130835Z AUTO 12010G19KT 7SM DZ OVC008 16/16 A3022 ', ' AO2 T01580158']"
KRYW,2015-03-13T08:35:00Z,13.2,11.6,300,3,,10.0,30.008858,,,,CLR,,,,,,,,METAR,"['KRYW 130835Z AUTO 30003KT 10SM CLR 13/12 A3001 ', ' AO2 T01320116']"
KRSN,2015-03-13T08:35:00Z,17.3,17.3,0,0,,5.0,29.991142,,,-DZ,BKN,300,OVC,900,,,,,METAR,"['KRSN 130835Z AUTO 00000KT 5SM -DZ BKN003 OVC009 17/17 A2999 ', ' AO2 LTG DSNT NW P0001 T01730173']"
KONA,2015-03-13T08:35:00Z,10.0,6.0,190,5,,7.0,30.138779,,,,CLR,,,,,,,,METAR,"['KONA 130835Z AUTO 19005KT 7SM CLR 10/06 A3014 ', ' AO2']"
KZPH,2015-03-13T08:35:00Z,20.0,20.0,70,3,,10.0,30.180119,,,,BKN,9000,,,,,,,METAR,"['KZPH 130835Z AUTO 07003KT 10SM BKN090 20/20 A3018 ', ' AO2']"
KVTP,2015-03-13T08:35:00Z,-2.0,-5.0,40,18,25,10.0,30.351377,,,,BKN,3600,OVC,4500,,,,,METAR,"['KVTP 130835Z AUTO 04018G25KT 10SM BKN036 OVC045 M02/M05 A3035 ', ' AO2']"
KVLL,2015-03-13T08:35:00Z,-0.8,-10.5,0,0,,10.0,30.389763,,,,CLR,,,,,,,,METAR,"['KVLL 130835Z AUTO 00000KT 10SM CLR M01/M10 A3039 ', ' AO2 T10081105']"
KUKT,2015-03-13T08:35:00Z,-3.0,-14.0,0,0,,10.0,30.590551,,,,CLR,,,,,,,,METAR,"['KUKT 130835Z AUTO 00000KT 10SM CLR M03/M14 A3059 ', ' AO1']"
KUCY,2015-03-13T08:35:00Z,15.0,15.0,140,7,,10.0,30.109253,,,,FEW,2600,BKN,3100,OVC,7000,,,METAR,"['KUCY 130835Z AUTO 14007KT 10SM FEW026 BKN031 OVC070 15/15 A3011 ', '']"
KTPF,2015-03-13T08:35:00Z,22.0,20.0,80,6,,10.0,30.159449,,,,OVC,8500,,,,,,,METAR,"['KTPF 130835Z AUTO 08006KT 10SM OVC085 22/20 A3016 ', ' AO2']"
KTME,2015-03-13T08:35:00Z,13.0,13.0,340,5,,1.5,29.970472,,,-RA,BKN,300,,,,,,,METAR,"['KTME 130835Z AUTO 34005KT 1 1/2SM -RA BKN003 13/13 A2997 ', ' AO2']"
KSYI,2015-03-13T08:35:00Z,15.0,12.0,140,8,,10.0,30.209646,,,,FEW,4700,BKN,6500,OVC,7500,,,METAR,"['KSYI 130835Z AUTO 14008KT 10SM FEW047 BKN065 OVC075 15/12 A3021 ', '']"
KSTF,2015-03-13T08:35:00Z,18.0,17.0,130,8,,10.0,30.088583,,,,OVC,800,,,,,,,METAR,"['KSTF 130835Z AUTO 13008KT 10SM OVC008 18/17 A3009 ', ' AO2']"
KSRB,2015-03-13T08:35:00Z,13.0,11.0,180,5,,,30.230314,,,,,,,,,,,,METAR,"['KSRB 130835Z AUTO 18005KT 13/11 A3023 ', '']"
KSPL,2015-03-13T08:35:00Z,15.0,15.0,220,3,,3.0,30.0,,,,CLR,,,,,,,,METAR,"['KSPL 130835Z AUTO 22003KT 3SM CLR 15/15 A3000 ', ' AO1']"
KSPF,2015-03-13T08:35:00Z,4.0,-1.0,,,,10.0,30.280512,,,,BKN,7000,,,,,,,METAR,"['KSPF 130835Z AUTO 10SM BKN070 04/M01 A3028 ', ' AO2']"
KSMS,2015-03-13T08:35:00Z,13.0,-3.0,80,5,13,10.0,30.448818,,,,OVC,6000,,,,,,,METAR,"['KSMS 130835Z AUTO 08005G13KT 10SM OVC060 13/M03 A3045 ', ' AO2']"
KSEM,2015-03-13T08:35:00Z,20.0,18.0,90,7,,10.0,30.138779,,,,BKN,900,OVC,1500,,,,,METAR,"['KSEM 130835Z AUTO 09007KT 10SM BKN009 OVC015 20/18 A3014 ', ' AO2']"
KSBS,2015-03-13T08:35:00Z,0.1,-1.7,0,0,,10.0,30.369095,,,,SCT,7000,BKN,8000,,,,,METAR,"['KSBS 130835Z AUTO 00000KT 10SM SCT070 BKN080 00/M02 A3037 ', ' AO1 T00011017']"
KRUE,2015-03-13T08:35:00Z,12.8,12.2,0,0,,2.5,30.029528,,,BR,OVC,700,,,,,,,METAR,"['KRUE 130835Z AUTO 00000KT 2 1/2SM BR OVC007 13/12 A3003 ', ' AO2 T01280122']"
KPCM,2015-03-13T08:35:00Z,,,100,5,,10.0,30.180119,,,,SCT,9000,,,,,,,METAR,"['KPCM 130835Z AUTO 10005KT 10SM SCT090 A3018 ', ' AO2']"
KNQA,2015-03-13T08:35:00Z,17.0,17.0,0,4,,5.0,30.070866,,,,BKN,800,BKN,4300,OVC,4900,,,METAR,"['KNQA 130835Z AUTO VRB04KT 5SM BKN008 BKN043 OVC049 17/17 A3007 ', '']"
KMRC,2015-03-13T08:35:00Z,,,150,6,,10.0,30.171259,,,,FEW,7000,OVC,8500,,,,,METAR,"['KMRC 130835Z AUTO 15006KT 10SM FEW070 OVC085 A3017 ', '']"
KMGN,2015-03-13T08:35:00Z,0.6,-6.5,0,0,,10.0,30.28937,,,,CLR,,,,,,,,METAR,"['KMGN 130835Z AUTO 00000KT 10SM CLR 00/M06 A3029 ', ' AO2 T00061065']"
KMEM,2015-03-13T08:35:00Z,18.0,16.0,130,7,,5.0,30.059055,,,BR,OVC,800,,,,,,,METAR,"['KMEM 130835Z 13007KT 5SM BR OVC008 18/16 A3006 ', ' AO2']"
KLWA,2015-03-13T08:35:00Z,2.9,-5.0,130,5,,10.0,30.301182,,,,CLR,,,,,,,,METAR,"['KLWA 130835Z AUTO 13005KT 10SM CLR 03/M05 A3030 ', ' AO2 T00291050']"
KLDM,2015-03-13T08:35:00Z,2.0,-8.6,160,6,,10.0,30.301182,,,,CLR,,,,,,,,METAR,"['KLDM 130835Z AUTO 16006KT 10SM CLR 02/M09 A3030 ', ' AO2 T00201086']"
KJYM,2015-03-13T08:35:00Z,1.8,-7.8,110,7,,10.0,30.31004,,,,CLR,,,,,,,,METAR,"['KJYM 130835Z AUTO 11007KT 10SM CLR 02/M08 A3031 ', ' AO2 T00181078']"
KJYG,2015-03-13T08:35:00Z,10.0,3.0,200,10,15,10.0,30.059055,,,,CLR,,,,,,,,METAR,"['KJYG 130835Z AUTO 20010G15KT 10SM CLR 10/03 A3006 ', ' AO2']"
KISQ,2015-03-13T08:35:00Z,0.8,-1.6,170,6,,10.0,30.230314,,,,SCT,12000,,,,,,,METAR,"['KISQ 130835Z AUTO 17006KT 10SM SCT120 01/M02 A3023 ', ' AO2 T00081016']"
KIRS,2015-03-13T08:35:00Z,1.0,-6.0,0,0,,10.0,30.31004,,,,CLR,,,,,,,,METAR,"['KIRS 130835Z AUTO 00000KT 10SM CLR 01/M06 A3031 ', ' AO2']"
KIDI,2015-03-13T08:35:00Z,1.0,-9.0,100,5,,10.0,30.469488,,,,CLR,,,,,,,,METAR,"['KIDI 130835Z AUTO 10005KT 10SM CLR 01/M09 A3047 ', ' A01']"
KHAI,2015-03-13T08:35:00Z,1.0,-5.6,120,3,,10.0,30.318897,,,,CLR,,,,,,,,METAR,"['KHAI 130835Z AUTO 12003KT 10SM CLR 01/M06 A3032 ', ' AO2 T00101056']"
KHAF,2015-03-13T08:35:00Z,9.0,9.0,0,0,,8.0,30.188976,,,,OVC,500,,,,,,,METAR,"['KHAF 130835Z AUTO 00000KT 8SM OVC005 09/09 A3019 ', ' AO2']"
KHAE,2015-03-13T08:35:00Z,10.0,8.0,0,0,,2.5,30.188976,,,BR,OVC,11000,,,,,,,METAR,"['KHAE 130835Z AUTO 00000KT 2 1/2SM BR OVC110 10/08 A3019 ', ' AO2']"
KGWR,2015-03-13T08:35:00Z,3.0,2.0,260,8,,10.0,30.059055,,,,CLR,,,,,,,,METAR,"['KGWR 130835Z AUTO 26008KT 10SM CLR 03/02 A3006 ', ' A01 P000']"
KGOV,2015-03-13T08:35:00Z,0.5,-12.0,190,5,,10.0,30.301182,,,,CLR,,,,,,,,METAR,"['KGOV 130835Z AUTO 19005KT 10SM CLR 01/M12 A3030 ', ' AO2 T00051120']"
KGKT,2015-03-13T08:35:00Z,13.0,9.0,0,0,,10.0,30.28937,,,,BKN,6000,OVC,9000,,,,,METAR,"['KGKT 130835Z AUTO 00000KT 10SM BKN060 OVC090 13/09 A3029 ', '']"
KFSE,2015-03-13T08:35:00Z,1.0,-1.0,230,5,,7.0,29.97933,,,,CLR,,,,,,,,METAR,"['KFSE 130835Z AUTO 23005KT 7SM CLR 01/M01 A2998 ', ' AO2']"
KFPK,2015-03-13T08:35:00Z,-0.9,-8.5,0,0,,10.0,30.318897,,,,CLR,,,,,,,,METAR,"['KFPK 130835Z AUTO 00000KT 10SM CLR M01/M08 A3032 ', ' AO2 T10091085']"
KFGX,2015-03-13T08:35:00Z,10.0,-0.6,110,6,,10.0,30.28937,,,,OVC,5500,,,,,,,METAR,"['KFGX 130835Z AUTO 11006KT 10SM OVC055 10/M01 A3029 ', ' AO2 T01001006']"
KETH,2015-03-13T08:35:00Z,4.0,2.0,270,7,,10.0,30.059055,,,,CLR,,,,,,,,METAR,"['KETH 130835Z AUTO 27007KT 10SM CLR 04/02 A3006 ', ' AO2']"
KEIK,2015-03-13T08:35:00Z,8.4,2.8,260,8,,10.0,30.33071,,,,OVC,6000,,,,,,,METAR,"['KEIK 130835Z AUTO 26008KT 10SM OVC060 08/03 A3033 ', ' AO2 T00840028']"
KEDC,2015-03-13T08:35:00Z,13.0,13.0,290,4,,6.0,30.008858,,,BR,BKN,1200,OVC,2100,,,,,METAR,"['KEDC 130835Z AUTO 29004KT 6SM BR BKN012 OVC021 13/13 A3001 ', ' AO2']"
KDTS,2015-03-13T08:35:00Z,21.1,19.4,110,7,,10.0,30.121063,,,,SCT,1000,OVC,2400,,,,,SPECI,"['KDTS 130835Z AUTO 11007KT 10SM SCT010 OVC024 21/19 A3012 ', ' AO2 T02110194 TSNO']"
KDTL,2015-03-13T08:35:00Z,7.0,3.0,300,10,,10.0,30.008858,,,,CLR,,,,,,,,METAR,"['KDTL 130835Z AUTO 30010KT 10SM CLR 07/03 A3001 ', ' AO2']"
KDRM,2015-03-13T08:35:00Z,0.0,-3.7,130,9,,10.0,30.33071,,,,BKN,7000,OVC,8000,,,,,METAR,"['KDRM 130835Z AUTO 13009KT 10SM BKN070 OVC080 00/M04 A3033 ', ' AO2 T00001037']"
KDED,2015-03-13T08:35:00Z,,,100,3,,,30.200787,,,,,,,,,,,,METAR,"['KDED 130835Z AUTO 10003KT A3020 ', ' AO1']"
KCVX,2015-03-13T08:35:00Z,3.9,-9.1,180,6,,10.0,30.301182,,,,SCT,12000,,,,,,,METAR,"['KCVX 130835Z AUTO 18006KT 10SM SCT120 04/M09 A3030 ', ' AO2 T00391091']"
KCQM,2015-03-13T08:35:00Z,1.0,-2.0,0,0,,10.0,29.958662,,,,SCT,12000,,,,,,,METAR,"['KCQM 130835Z AUTO 00000KT 10SM SCT120 01/M02 A2996 ', ' AO2']"
KCKN,2015-03-13T08:35:00Z,1.0,-1.0,300,8,,7.0,30.008858,,,,CLR,,,,,,,,METAR,"['KCKN 130835Z AUTO 30008KT 7SM CLR 01/M01 A3001 ', ' AO2']"
KCGC,2015-03-13T08:35:00Z,20.0,19.0,60,4,,10.0,30.180119,,,,OVC,1100,,,,,,,METAR,"['KCGC 130835Z AUTO 06004KT 10SM OVC011 20/19 A3018 ', ' AO2']"
KCFS,2015-03-13T08:35:00Z,-0.7,-10.3,140,6,,10.0,30.360237,,,,CLR,,,,,,,,METAR,"['KCFS 130835Z AUTO 14006KT 10SM CLR M01/M10 A3036 ', ' AO2 T10071103']"
KCFJ,2015-03-13T08:35:00Z,4.7,-3.2,100,5,,10.0,30.239174,,,,CLR,,,,,,,,METAR,"['KCFJ 130835Z AUTO 10005KT 10SM CLR 05/M03 A3024 ', ' AO2 T00471032']"
KCFE,2015-03-13T08:35:00Z,9.0,3.6,190,3,,10.0,30.02067,,,,CLR,,,,,,,,METAR,"['KCFE 130835Z AUTO 19003KT 10SM CLR 09/04 A3002 ', ' AO2 T00900036']"
KCEY,2015-03-13T08:35:00Z,14.0,14.0,150,6,,5.0,30.15059,,,,FEW,400,OVC,2700,,,,,METAR,"['KCEY 130835Z AUTO 15006KT 5SM FEW004 OVC027 14/14 A3015 ', ' AO1 P0001']"
KCCU,2015-03-13T08:35:00Z,-3.0,-6.0,30,4,,0.25,30.41929,,,HZ,OVC,200,,,,,,,METAR,"['KCCU 130835Z AUTO 03004KT M1/4SM HZ OVC002 M03/M06 A3042 ', ' AO2']"
KCAD,2015-03-13T08:35:00Z,1.2,-9.7,180,6,,10.0,30.280512,,,,CLR,,,,,,,,METAR,"['KCAD 130835Z AUTO 18006KT 10SM CLR 01/M10 A3028 ', ' AO2 T00121097']"
KBDH,2015-03-13T08:35:00Z,6.0,4.0,240,4,,7.0,30.029528,,,,CLR,,,,,,,,METAR,"['KBDH 130835Z AUTO 24004KT 7SM CLR 06/04 A3003 ', ' AO2']"
KBAX,2015-03-13T08:35:00Z,-0.7,-9.5,160,5,,10.0,30.369095,,,,CLR,,,,,,,,METAR,"['KBAX 130835Z AUTO 16005KT 10SM CLR M01/M09 A3037 ', ' AO2 T10071095']"
KBAC,2015-03-13T08:35:00Z,2.0,2.0,300,10,,10.0,30.059055,,,,CLR,,,,,,,,METAR,"['KBAC 130835Z AUTO 30010KT 10SM CLR 02/02 A3006 ', ' AO2']"
KAUM,2015-03-13T08:35:00Z,6.0,4.0,180,11,,4.0,30.121063,,,BR,CLR,,,,,,,,METAR,"['KAUM 130835Z AUTO 18011KT 4SM BR CLR 06/04 A3012 ', ' AO2']"
KAMN,2015-03-13T08:35:00Z,-1.1,-8.3,0,0,,10.0,30.339567,,,,CLR,,,,,,,,METAR,"['KAMN 130835Z AUTO 00000KT 10SM CLR M01/M08 A3034 ', ' AO2 T10111083']"
KALM,2015-03-13T08:35:00Z,8.0,-2.0,300,6,,10.0,30.088583,,,,FEW,11000,,,,,,,METAR,"['KALM 130835Z AUTO 30006KT 10SM FEW110 08/M02 A3009 ', ' AO2']"
KADC,2015-03-13T08:35:00Z,4.0,4.0,270,5,,7.0,29.97933,,,,CLR,,,,,,,,METAR,"['KADC 130835Z AUTO 27005KT 7SM CLR 04/04 A2998 ', ' AO2']"
KACB,2015-03-13T08:35:00Z,2.5,-9.1,190,6,,10.0,30.280512,,,,CLR,,,,,,,,METAR,"['KACB 130835Z AUTO 19006KT 10SM CLR 03/M09 A3028 ', ' AO2 T00251091']"
K46D,2015-03-13T08:35:00Z,1.0,1.0,290,12,,0.25,30.088583,,,FG,OVC,100,,,,,,,METAR,"['K46D 130835Z AUTO 29012KT M1/4SM FG OVC001 01/01 A3009 ', ' AO2']"
K33V,2015-03-13T08:35:00Z,0.0,-1.0,0,0,,10.0,30.398623,,,,OVC,5000,,,,,,,METAR,"['K33V 130835Z AUTO 00000KT 10SM OVC050 00/M01 A3040 ', ' AO2']"
K1V6,2015-03-13T08:35:00Z,10.0,0.0,260,11,,10.0,30.268702,,,,SCT,11000,,,,,,,METAR,"['K1V6 130835Z AUTO 26011KT 10SM SCT110 10/00 A3027 ', ' AO2']"
K0CO,2015-03-13T08:35:00Z,-7.0,-11.0,0,0,,1.5,30.448818,,,-SN,BKN,100,OVC,600,,,,,METAR,"['K0CO 130835Z AUTO 00000KT 1 1/2SM -SN BKN001 OVC006 M07/M11 A3045 ', ' AO2 VIS 1/2V3']"
K06D,2015-03-13T08:35:00Z,1.0,1.0,320,12,17,10.0,30.070866,,,,SCT,6500,BKN,8500,OVC,11000,,,METAR,"['K06D 130835Z AUTO 32012G17KT 10SM SCT065 BKN085 OVC110 01/01 A3007 ', ' AO2']"
KLBE,2015-03-13T08:35:00Z,3.0,-7.0,0,0,,10.0,30.43996,,,,CLR,,,,,,,,METAR,"['KLBE 130835Z AUTO 00000KT 10SM CLR 03/M07 A3044 ', ' AO2']"
KJVW,2015-03-13T08:35:00Z,20.0,17.0,120,6,,5.0,30.029528,,,HZ,FEW,2300,BKN,3200,BKN,5500,,,METAR,"['KJVW 130835Z AUTO 12006KT 5SM HZ FEW023 BKN032 BKN055 20/17 A3003 ', ' AO2']"
KJHN,2015-03-13T08:35:00Z,2.0,-1.8,290,3,,10.0,30.15059,,,,SCT,11000,,,,,,,METAR,"['KJHN 130835Z AUTO 29003KT 10SM SCT110 02/M02 A3015 ', ' AO2 T00201018']"
KJFX,2015-03-13T08:35:00Z,16.0,14.0,90,8,,10.0,30.180119,,,,OVC,2200,,,,,,,METAR,"['KJFX 130835Z AUTO 09008KT 10SM OVC022 16/14 A3018 ', ' A02 P-128']"
KJAC,2015-03-13T08:35:00Z,-3.0,-3.0,20,4,,10.0,30.448818,,,,CLR,,,,,,,,METAR,"['KJAC 130835Z AUTO 02004KT 10SM CLR M03/M03 A3045 ', ' AO1']"
KI67,2015-03-13T08:35:00Z,6.0,-1.0,0,0,,10.0,30.268702,,,,CLR,,,,,,,,METAR,"['KI67 130835Z AUTO 00000KT 10SM CLR 06/M01 A3027 ', ' AO1']"
KHYW,2015-03-13T08:35:00Z,10.0,-1.0,40,9,,7.0,30.46063,,,,OVC,7500,,,,,,,METAR,"['KHYW 130835Z AUTO 04009KT 7SM OVC075 10/M01 A3046 ', ' AO2']"
KHYS,2015-03-13T08:35:00Z,7.0,-2.0,0,0,,10.0,30.15059,,,,CLR,,,,,,,,METAR,"['KHYS 130835Z AUTO 00000KT 10SM CLR 07/M02 A3015 ', ' AO1']"
KHXD,2015-03-13T08:35:00Z,14.0,9.0,30,10,18,10.0,30.351377,,,,OVC,1700,,,,,,,METAR,"['KHXD 130835Z AUTO 03010G18KT 360V360 10SM OVC017 14/09 A3035 ', ' AO2 P0000']"
KHEZ,2015-03-13T08:35:00Z,19.0,17.0,120,8,,10.0,29.991142,,,,OVC,1300,,,,,,,METAR,"['KHEZ 130835Z AUTO 12008KT 10SM OVC013 19/17 A2999 ', ' AO1']"
KHDN,2015-03-13T08:35:00Z,1.0,-2.0,120,6,,10.0,30.360237,,,,BKN,11000,,,,,,,METAR,"['KHDN 130835Z AUTO 12006KT 10SM BKN110 01/M02 A3036 ', ' AO1']"
KGXY,2015-03-13T08:35:00Z,8.0,-1.0,320,9,,10.0,30.301182,,,,CLR,,,,,,,,METAR,"['KGXY 130835Z 32009KT 10SM CLR 08/M01 A3030 ', ' AO1']"
KGUC,2015-03-13T08:35:00Z,1.0,-3.0,0,0,,10.0,30.351377,,,,CLR,,,,,,,,METAR,"['KGUC 130835Z 00000KT 10SM CLR 01/M03 A3035 ', ' AO1']"
KGTR,2015-03-13T08:35:00Z,18.0,16.0,130,14,,10.0,30.100393,,,,OVC,1100,,,,,,,METAR,"['KGTR 130835Z 13014KT 10SM OVC011 18/16 A3010 ', ' AO1']"
KGLY,2015-03-13T08:35:00Z,11.0,11.0,0,0,,9.0,30.15059,,,,FEW,2900,SCT,3300,OVC,4500,,,METAR,"['KGLY 130835Z AUTO 00000KT 9SM FEW029 SCT033 OVC045 11/11 A3015 ', ' AO2']"
KGDV,2015-03-13T08:35:00Z,5.0,-1.0,320,11,,10.0,30.230314,,,,CLR,,,,,,,,METAR,"['KGDV 130835Z AUTO 32011KT 10SM CLR 05/M01 A3023 ', ' AO1']"
KGBD,2015-03-13T08:35:00Z,2.0,-3.0,0,0,,10.0,30.138779,,,,CLR,,,,,,,,METAR,"['KGBD 130835Z AUTO 00000KT 10SM CLR 02/M03 A3014 ', ' AO1']"
KGAD,2015-03-13T08:35:00Z,14.0,12.0,60,7,,10.0,30.239174,,,,OVC,1400,,,,,,,METAR,"['KGAD 130835Z 06007KT 360V090 10SM OVC014 14/12 A3024 ', ' AO1 P0005']"
KFYM,2015-03-13T08:35:00Z,13.0,12.0,140,11,,10.0,30.209646,,,,FEW,1900,SCT,5000,SCT,6500,,,METAR,"['KFYM 130835Z AUTO 14011KT 10SM FEW019 SCT050 SCT065 13/12 A3021 ', '']"
KFOD,2015-03-13T08:35:00Z,7.0,2.0,180,8,,10.0,30.138779,,,,CLR,,,,,,,,METAR,"['KFOD 130835Z AUTO 18008KT 10SM CLR 07/02 A3014 ', ' AO1']"
KFNL,2015-03-13T08:35:00Z,9.0,0.0,10,4,,10.0,30.339567,,,,CLR,,,,,,,,METAR,"['KFNL 130835Z AUTO 01004KT 10SM CLR 09/00 A3034 ', ' AO1']"
KFMM,2015-03-13T08:35:00Z,7.5,-2.1,340,11,,10.0,30.28937,,,,CLR,,,,,,,,METAR,"['KFMM 130835Z AUTO 34011KT 10SM CLR 08/M02 A3029 ', ' AO2 T00751021']"
KFMH,2015-03-13T08:35:00Z,-5.0,-16.0,320,5,,10.0,30.590551,,,,FEW,23000,SCT,25000,SCT,27000,,,METAR,"['KFMH 130835Z AUTO 32005KT 10SM FEW230 SCT250 SCT270 M05/M16 A3059 ', ' AO2 FZRANO']"
KFKA,2015-03-13T08:35:00Z,5.7,4.5,190,15,,3.0,30.138779,,,BR,CLR,,,,,,,,METAR,"['KFKA 130835Z AUTO 19015KT 3SM BR CLR 06/05 A3014 ', ' AO2 T00570045']"
KFAM,2015-03-13T08:35:00Z,11.0,9.0,50,3,,5.0,30.180119,,,,OVC,1200,,,,,,,METAR,"['KFAM 130835Z AUTO 05003KT 5SM OVC012 11/09 A3018 ', ' AO1 P0001']"
KEWK,2015-03-13T08:35:00Z,7.0,-1.0,70,6,,10.0,30.138779,,,,CLR,,,,,,,,METAR,"['KEWK 130835Z AUTO 07006KT 10SM CLR 07/M01 A3014 ', ' AO1']"
KENV,2015-03-13T08:35:00Z,9.0,-1.0,270,7,,10.0,30.389763,,,,CLR,,,,,,,,METAR,"['KENV 130835Z AUTO 27007KT 10SM CLR 09/M01 A3039 ', ' AO1']"
KEGE,2015-03-13T08:35:00Z,3.0,-1.0,0,0,,10.0,30.369095,,,,OVC,11000,,,,,,,METAR,"['KEGE 130835Z AUTO 00000KT 10SM OVC110 03/M01 A3037 ', ' AO1']"
KEEN,2015-03-13T08:35:00Z,-9.0,-13.0,0,0,,10.0,30.590551,,,,CLR,,,,,,,,METAR,"['KEEN 130835Z AUTO 00000KT 10SM CLR M09/M13 A3059 ', ' AO1']"
KEAR,2015-03-13T08:35:00Z,8.0,-1.0,280,5,,10.0,30.159449,,,,CLR,,,,,,,,METAR,"['KEAR 130835Z 28005KT 10SM CLR 08/M01 A3016 ', ' AO1']"
KE80,2015-03-13T08:35:00Z,7.5,-1.1,0,0,,10.0,30.138779,,,,CLR,,,,,,,,METAR,"['KE80 130835Z AUTO 00000KT 10SM CLR 08/M01 A3014 ', ' AO2 T00751011']"
KD57,2015-03-13T08:35:00Z,1.0,-1.0,300,8,,10.0,30.129921,,,,CLR,,,,,,,,METAR,"['KD57 130835Z AUTO 30008KT 10SM CLR 01/M01 A3013 ', ' AO2']"
KCWI,2015-03-13T08:35:00Z,2.0,1.0,100,5,,5.0,30.239174,,,,CLR,,,,,,,,METAR,"['KCWI 130835Z 10005KT 5SM CLR 02/01 A3024 ', ' AO1']"
KCVN,2015-03-13T08:35:00Z,3.0,-2.0,60,5,,10.0,30.121063,,,,CLR,,,,,,,,METAR,"['KCVN 130835Z AUTO 06005KT 10SM CLR 03/M02 A3012 ', ' AO1']"
KCOD,2015-03-13T08:35:00Z,2.0,-4.0,200,4,,10.0,30.389763,,,,CLR,,,,,,,,METAR,"['KCOD 130835Z 20004KT 10SM CLR 02/M04 A3039 ', ' AO1']"
KCLS,2015-03-13T08:35:00Z,8.0,8.0,0,0,,7.0,30.280512,,,,CLR,,,,,,,,METAR,"['KCLS 130835Z AUTO 00000KT 7SM CLR 08/08 A3028 ', ' AO2']"
KCIC,2015-03-13T08:35:00Z,13.0,8.0,0,0,,10.0,30.138779,,,,CLR,,,,,,,,METAR,"['KCIC 130835Z AUTO 00000KT 10SM CLR 13/08 A3014 ', ' AO1']"
KBVU,2015-03-13T08:35:00Z,19.0,2.0,350,12,,10.0,30.180119,,,,CLR,,,,,,,,METAR,"['KBVU 130835Z AUTO 35012KT 10SM CLR 19/02 A3018 ', ' AO2']"
KBID,2015-03-13T08:35:00Z,-2.0,-13.0,,,,10.0,30.578741,,,,CLR,,,,,,,,METAR,"['KBID 130835Z AUTO 10SM CLR M02/M13 A3058 ', ' AO1']"
KBHB,2015-03-13T08:35:00Z,-9.0,-18.0,310,4,,10.0,30.510826,,,,CLR,,,,,,,,METAR,"['KBHB 130835Z 31004KT 10SM CLR M09/M18 A3051 ', ' AO1']"
KBGF,2015-03-13T08:35:00Z,14.0,11.0,140,15,,9.0,30.221457,,,,FEW,5000,BKN,6500,OVC,10000,,,METAR,"['KBGF 130835Z AUTO 14015KT 9SM FEW050 BKN065 OVC100 14/11 A3022 ', '']"
KBDN,2015-03-13T08:35:00Z,2.0,-1.0,0,0,,10.0,30.31004,,,,CLR,,,,,,,,METAR,"['KBDN 130835Z AUTO 00000KT 10SM CLR 02/M01 A3031 ', ' AO2']"
KAUO,2015-03-13T08:35:00Z,13.0,9.0,100,11,17,10.0,30.268702,,,,OVC,1600,,,,,,,METAR,"['KAUO 130835Z AUTO 10011G17KT 070V130 10SM OVC016 13/09 A3027 ', ' AO1']"
KATS,2015-03-13T08:35:00Z,6.0,0.0,0,0,,10.0,30.109253,,,,CLR,,,,,,,,METAR,"['KATS 130835Z AUTO 00000KT 10SM CLR 06/00 A3011 ', ' AO2']"
KARW,2015-03-13T08:35:00Z,14.0,10.0,50,15,21,10.0,30.351377,,,,OVC,2000,,,,,,,METAR,"['KARW 130835Z AUTO 05015G21KT 10SM OVC020 14/10 A3035 ', ' AO2']"
KAQX,2015-03-13T08:35:00Z,14.0,2.0,0,4,,10.0,30.360237,,,,OVC,2600,,,,,,,METAR,"['KAQX 130835Z AUTO VRB04KT 10SM OVC026 14/02 A3036 ', ' AO2']"
KAIZ,2015-03-13T08:35:00Z,11.0,9.0,40,6,,4.0,30.138779,,,,BKN,2500,OVC,3100,,,,,METAR,"['KAIZ 130835Z AUTO 04006KT 4SM BKN025 OVC031 11/09 A3014 ', ' AO1']"
KAEG,2015-03-13T08:35:00Z,7.6,-4.3,350,5,,10.0,30.15059,,,,SCT,11000,,,,,,,METAR,"['KAEG 130835Z AUTO 35005KT 10SM SCT110 08/M04 A3015 ', ' AO2 T00761043']"
K9MN,2015-03-13T08:35:00Z,8.0,5.8,170,13,18,7.0,30.109253,,,,CLR,,,,,,,,METAR,"['K9MN 130835Z AUTO 17013G18KT 7SM CLR 08/06 A3011 ', ' AO1 T00800058']"
K7N0,2015-03-13T08:35:00Z,,,90,3,,,30.008858,,,,BKN,500,OVC,12000,,,,,METAR,"['K7N0 130835Z AUTO 09003KT BKN005 OVC120 A3001 ', ' AO1 P0001']"
K6L4,2015-03-13T08:35:00Z,13.0,-4.0,140,8,16,10.0,30.301182,,,,FEW,5000,SCT,9000,OVC,12000,,,METAR,"['K6L4 130835Z AUTO 14008G16KT 090V210 10SM FEW050 SCT090 OVC120 13/M04 A3030 ', ' AO2']"
K42J,2015-03-13T08:35:00Z,20.0,20.0,80,5,,5.0,30.221457,,,,OVC,400,,,,,,,METAR,"['K42J 130835Z AUTO 08005KT 5SM OVC004 20/20 A3022 ', ' AO1 TSNO']"
K1P1,2015-03-13T08:35:00Z,-7.0,-13.5,290,7,,10.0,30.561024,,,,CLR,,,,,,,,METAR,"['K1P1 130835Z AUTO 29007KT 10SM CLR M07/M13 A3056 ', ' AO2 T10701135']"
K0A9,2015-03-13T08:35:00Z,11.0,-3.0,90,11,,10.0,30.389763,,,,OVC,6000,,,,,,,METAR,"['K0A9 130835Z AUTO 09011KT 10SM OVC060 11/M03 A3039 ', '']"
KYKN,2015-03-13T08:35:00Z,7.0,-2.0,300,8,,10.0,30.109253,,,,CLR,,,,,,,,METAR,"['KYKN 130835Z AUTO 30008KT 10SM CLR 07/M02 A3011 ', ' AO1']"
KVIS,2015-03-13T08:35:00Z,12.0,7.0,110,5,,4.0,30.180119,,,,CLR,,,,,,,,METAR,"['KVIS 130835Z AUTO 11005KT 4SM CLR 12/07 A3018 ', ' AO1']"
KVBT,2015-03-13T08:35:00Z,11.0,9.0,90,5,,8.0,30.079725,,,,OVC,500,,,,,,,METAR,"['KVBT 130835Z AUTO 09005KT 8SM OVC005 11/09 A3008 ', ' AO1']"
KTVF,2015-03-13T08:35:00Z,2.0,1.0,270,9,,5.0,29.97933,,,,CLR,,,,,,,,METAR,"['KTVF 130835Z AUTO 27009KT 5SM CLR 02/01 A2998 ', ' AO1']"
KTPL,2015-03-13T08:35:00Z,13.0,10.0,350,6,,9.0,29.991142,,,,OVC,900,,,,,,,METAR,"['KTPL 130835Z AUTO 35006KT 9SM OVC009 13/10 A2999 ', ' AO1']"
KSUE,2015-03-13T08:35:00Z,3.0,-3.0,190,13,19,10.0,30.239174,,,,CLR,,,,,,,,METAR,"['KSUE 130835Z AUTO 19013G19KT 10SM CLR 03/M03 A3024 ', ' AO1']"
KSQI,2015-03-13T08:35:00Z,2.0,1.0,70,4,,7.0,30.230314,,,,CLR,,,,,,,,METAR,"['KSQI 130835Z AUTO 07004KT 7SM CLR 02/01 A3023 ', ' AO1']"
KSLG,2015-03-13T08:35:00Z,11.0,8.0,60,3,,6.0,30.088583,,,,OVC,600,,,,,,,METAR,"['KSLG 130835Z AUTO 06003KT 6SM OVC006 11/08 A3009 ', ' AO1']"
KSGT,2015-03-13T08:35:00Z,16.0,15.0,100,10,,8.0,30.029528,,,,BKN,900,OVC,5500,,,,,METAR,"['KSGT 130835Z AUTO 10010KT 8SM BKN009 OVC055 16/15 A3003 ', ' AO1']"
KPWT,2015-03-13T08:35:00Z,8.0,7.0,0,0,,10.0,30.33071,,,,CLR,,,,,,,,METAR,"['KPWT 130835Z AUTO 00000KT 10SM CLR 08/07 A3033 ', ' AO1']"
KPWG,2015-03-13T08:35:00Z,13.0,10.0,330,5,,10.0,30.008858,,,,BKN,1100,OVC,1400,,,,,METAR,"['KPWG 130835Z AUTO 33005KT 10SM BKN011 OVC014 13/10 A3001 ', ' AO1']"
KPVG,2015-03-13T08:35:00Z,-2.0,-4.0,0,0,,10.0,30.569881,,,,CLR,,,,,,,,METAR,"['KPVG 130835Z AUTO 00000KT 10SM CLR M02/M04 A3057 ', ' AO1']"
KPTV,2015-03-13T08:35:00Z,12.0,8.0,90,5,,10.0,30.180119,,,,CLR,,,,,,,,METAR,"['KPTV 130835Z AUTO 09005KT 10SM CLR 12/08 A3018 ', ' AO1']"
KPRX,2015-03-13T08:35:00Z,13.0,11.0,360,3,,9.0,30.008858,,,,OVC,400,,,,,,,METAR,"['KPRX 130835Z 36003KT 9SM OVC004 13/11 A3001 ', ' AO1 P0010']"
KOWA,2015-03-13T08:35:00Z,8.0,5.0,170,12,18,7.0,30.079725,,,,CLR,,,,,,,,METAR,"['KOWA 130835Z AUTO 17012G18KT 7SM CLR 08/05 A3008 ', ' AO2']"
KOTH,2015-03-13T08:35:00Z,12.0,12.0,290,4,,2.5,30.188976,,,,CLR,,,,,,,,METAR,"['KOTH 130835Z 29004KT 2 1/2SM CLR 12/12 A3019 ', ' AO1']"
KOTG,2015-03-13T08:35:00Z,8.0,1.0,220,9,,10.0,30.079725,,,,CLR,,,,,,,,METAR,"['KOTG 130835Z AUTO 22009KT 10SM CLR 08/01 A3008 ', ' AO1']"
KOKK,2015-03-13T08:35:00Z,1.0,-2.0,90,5,,10.0,30.268702,,,,CLR,,,,,,,,METAR,"['KOKK 130835Z AUTO 09005KT 10SM CLR 01/M02 A3027 ', ' AO1']"
KOCH,2015-03-13T08:35:00Z,13.0,12.0,0,0,,2.5,29.940945,,,,OVC,300,,,,,,,METAR,"['KOCH 130835Z AUTO 00000KT 2 1/2SM OVC003 13/12 A2994 ', ' AO1']"
KMVN,2015-03-13T08:35:00Z,8.0,5.0,40,7,,10.0,30.180119,,,,FEW,5000,SCT,7000,OVC,10000,,,METAR,"['KMVN 130835Z AUTO 04007KT 10SM FEW050 SCT070 OVC100 08/05 A3018 ', ' AO1 P0010']"
KMNM,2015-03-13T08:35:00Z,3.0,-3.0,210,9,,10.0,30.200787,,,,CLR,,,,,,,,METAR,"['KMNM 130835Z AUTO 21009KT 10SM CLR 03/M03 A3020 ', ' AO1']"
KMML,2015-03-13T08:35:00Z,8.0,1.0,270,10,,10.0,30.070866,,,,CLR,,,,,,,,METAR,"['KMML 130835Z AUTO 27010KT 10SM CLR 08/01 A3007 ', ' AO1']"
KMKT,2015-03-13T08:35:00Z,9.0,3.0,190,15,19,10.0,30.050198,,,,CLR,,,,,,,,METAR,"['KMKT 130835Z AUTO 19015G19KT 10SM CLR 09/03 A3005 ', ' AO1']"
KMBL,2015-03-13T08:35:00Z,3.0,-10.0,130,5,,10.0,30.28937,,,,CLR,,,,,,,,METAR,"['KMBL 130835Z AUTO 13005KT 10SM CLR 03/M10 A3029 ', ' AO1']"
KLPC,2015-03-13T08:35:00Z,9.0,6.0,90,5,,10.0,30.088583,,,,CLR,,,,,,,,METAR,"['KLPC 130835Z AUTO 09005KT 10SM CLR 09/06 A3009 ', ' AO1']"
KLKV,2015-03-13T08:35:00Z,1.0,-2.0,340,7,,10.0,30.360237,,,,CLR,,,,,,,,METAR,"['KLKV 130835Z 34007KT 10SM CLR 01/M02 A3036 ', ' AO1']"
KLGD,2015-03-13T08:35:00Z,3.0,-2.0,10,5,,10.0,30.398623,,,,CLR,,,,,,,,METAR,"['KLGD 130835Z AUTO 01005KT 10SM CLR 03/M02 A3040 ', ' AO1']"
KKLS,2015-03-13T08:35:00Z,8.0,5.0,0,0,,10.0,30.31004,,,,CLR,,,,,,,,METAR,"['KKLS 130835Z 00000KT 10SM CLR 08/05 A3031 ', ' AO1']"
KJHW,2015-03-13T08:35:00Z,-2.0,-14.0,140,4,,10.0,30.431103,,,,CLR,,,,,,,,METAR,"['KJHW 130835Z 14004KT 10SM CLR M02/M14 A3043 ', ' AO1']"
KIWD,2015-03-13T08:35:00Z,7.0,0.0,170,4,,10.0,30.029528,,,,CLR,,,,,,,,METAR,"['KIWD 130835Z AUTO 17004KT 10SM CLR 07/00 A3003 ', ' AO1']"
KILE,2015-03-13T08:35:00Z,13.0,10.0,330,7,,10.0,29.991142,,,,OVC,600,,,,,,,METAR,"['KILE 130835Z AUTO 33007KT 10SM OVC006 13/10 A2999 ', ' AO1']"
KHYI,2015-03-13T08:35:00Z,11.0,9.0,330,5,,10.0,30.008858,,,,CLR,,,,,,,,METAR,"['KHYI 130835Z 33005KT 10SM CLR 11/09 A3001 ', ' AO1']"
KHNB,2015-03-13T08:35:00Z,13.0,2.0,120,7,,10.0,30.200787,,,,CLR,,,,,,,,METAR,"['KHNB 130835Z AUTO 12007KT 10SM CLR 13/02 A3020 ', ' AO1']"
KGPZ,2015-03-13T08:35:00Z,2.0,-1.0,0,0,,10.0,29.970472,,,,CLR,,,,,,,,METAR,"['KGPZ 130835Z AUTO 00000KT 10SM CLR 02/M01 A2997 ', ' AO1']"
KGAI,2015-03-13T08:35:00Z,2.0,-11.0,100,4,,10.0,30.620079,,,,CLR,,,,,,,,METAR,"['KGAI 130835Z AUTO 10004KT 10SM CLR 02/M11 A3062 ', ' AO1']"
KFRM,2015-03-13T08:35:00Z,8.0,1.0,220,10,,10.0,30.088583,,,,CLR,,,,,,,,METAR,"['KFRM 130835Z AUTO 22010KT 10SM CLR 08/01 A3009 ', ' AO1']"
KFLP,2015-03-13T08:35:00Z,12.0,9.0,50,3,,3.0,30.079725,,,,OVC,500,,,,,,,METAR,"['KFLP 130835Z 05003KT 3SM OVC005 12/09 A3008 ', ' AO1']"
KFKL,2015-03-13T08:35:00Z,-1.0,-13.0,110,7,,10.0,30.41929,,,,CLR,,,,,,,,METAR,"['KFKL 130835Z AUTO 11007KT 10SM CLR M01/M13 A3042 ', ' AO1']"
KESC,2015-03-13T08:35:00Z,2.0,-3.0,180,5,,10.0,30.221457,,,,BKN,12000,,,,,,,METAR,"['KESC 130835Z AUTO 18005KT 10SM BKN120 02/M03 A3022 ', ' AO1']"
KEHR,2015-03-13T08:35:00Z,12.0,3.0,100,4,,9.0,30.171259,,,,SCT,2300,BKN,7500,OVC,9000,,,METAR,"['KEHR 130835Z AUTO 10004KT 9SM SCT023 BKN075 OVC090 12/03 A3017 ', ' AO1']"
KDYR,2015-03-13T08:35:00Z,16.0,9.0,130,8,,10.0,30.121063,,,,SCT,1800,BKN,3000,OVC,8000,,,METAR,"['KDYR 130835Z 13008KT 10SM SCT018 BKN030 OVC080 16/09 A3012 ', ' AO1']"
KDWU,2015-03-13T08:35:00Z,8.0,2.0,150,3,,10.0,30.28937,,,,CLR,,,,,,,,METAR,"['KDWU 130835Z AUTO 15003KT 10SM CLR 08/02 A3029 ', ' AO1']"
KDVL,2015-03-13T08:35:00Z,0.0,-2.0,300,10,,0.75,30.070866,,,,OVC,200,,,,,,,METAR,"['KDVL 130835Z AUTO 30010KT 3/4SM OVC002 00/M02 A3007 ', ' AO1']"
KCVO,2015-03-13T08:35:00Z,10.0,8.0,0,0,,10.0,30.230314,,,,CLR,,,,,,,,METAR,"['KCVO 130835Z AUTO 00000KT 10SM CLR 10/08 A3023 ', ' AO1']"
KCOE,2015-03-13T08:35:00Z,3.0,1.0,120,7,,10.0,30.41929,,,,CLR,,,,,,,,METAR,"['KCOE 130835Z AUTO 12007KT 10SM CLR 03/01 A3042 ', ' AO1']"
KCIU,2015-03-13T08:35:00Z,-1.0,-2.0,100,11,,10.0,30.301182,,,,BKN,8000,OVC,8500,,,,,METAR,"['KCIU 130835Z AUTO 10011KT 10SM BKN080 OVC085 M01/M02 A3030 ', ' AO1']"
KCGZ,2015-03-13T08:35:00Z,19.0,2.0,40,8,,10.0,29.958662,,,,CLR,,,,,,,,METAR,"['KCGZ 130835Z AUTO 04008KT 10SM CLR 19/02 A2996 ', ' AO1']"
KBVX,2015-03-13T08:35:00Z,14.0,13.0,290,3,,0.5,30.059055,,,,OVC,400,,,,,,,METAR,"['KBVX 130835Z AUTO 29003KT 1/2SM OVC004 14/13 A3006 ', ' AO1 P0005']"
KBTP,2015-03-13T08:35:00Z,2.0,-9.0,100,6,,10.0,30.431103,,,,CLR,,,,,,,,METAR,"['KBTP 130835Z AUTO 10006KT 10SM CLR 02/M09 A3043 ', ' AO1']"
KAWO,2015-03-13T08:35:00Z,6.0,3.0,0,0,,10.0,30.33071,,,,CLR,,,,,,,,METAR,"['KAWO 130835Z AUTO 00000KT 10SM CLR 06/03 A3033 ', ' AO1']"
KARG,2015-03-13T08:35:00Z,13.0,12.0,340,6,,1.5,30.079725,,,,OVC,500,,,,,,,METAR,"['KARG 130835Z AUTO 34006KT 1 1/2SM OVC005 13/12 A3008 ', ' AO1 P0007']"
KAFJ,2015-03-13T08:35:00Z,-2.0,-6.0,0,0,,10.0,30.410433,,,,CLR,,,,,,,,METAR,"['KAFJ 130835Z AUTO 00000KT 10SM CLR M02/M06 A3041 ', ' AO1']"
KWWD,2015-03-13T08:35:00Z,1.0,-16.0,50,6,,10.0,30.59941,,,,CLR,,,,,,,,METAR,"['KWWD 130835Z AUTO 05006KT 10SM CLR 01/M16 A3060 ', ' AO1']"
KWVL,2015-03-13T08:35:00Z,-9.0,-21.0,320,4,,,30.490158,,,,CLR,,,,,,,,METAR,"['KWVL 130835Z 32004KT CLR M09/M21 A3049 ', ' AO1']"
KUDG,2015-03-13T08:35:00Z,11.0,-4.0,80,11,,10.0,30.490158,,,,OVC,7500,,,,,,,METAR,"['KUDG 130835Z AUTO 08011KT 10SM OVC075 11/M04 A3049 ', ' AO1']"
KTSP,2015-03-13T08:35:00Z,3.0,2.0,0,0,,7.0,30.250984,,,,CLR,,,,,,,,METAR,"['KTSP 130835Z AUTO 00000KT 7SM CLR 03/02 A3025 ', ' AO2']"
KTHA,2015-03-13T08:35:00Z,13.0,11.0,140,10,,10.0,30.230314,,,,FEW,4000,BKN,5000,OVC,7000,,,METAR,"['KTHA 130835Z AUTO 14010KT 10SM FEW040 BKN050 OVC070 13/11 A3023 ', '']"
KTEX,2015-03-13T08:35:00Z,0.0,-3.4,0,0,,10.0,30.33071,,,,SCT,6500,,,,,,,METAR,"['KTEX 130835Z AUTO 00000KT 10SM SCT065 00/M03 A3033 ', ' AO2 T00001034']"
KSUA,2015-03-13T08:35:00Z,22.0,18.0,110,13,17,10.0,30.171259,,,,SCT,2800,,,,,,,METAR,"['KSUA 130835Z AUTO 11013G17KT 10SM SCT028 22/18 A3017 ', ' AO2']"
KSQL,2015-03-13T08:35:00Z,13.0,10.0,0,0,,10.0,30.188976,,,,CLR,,,,,,,,METAR,"['KSQL 130835Z AUTO 00000KT 10SM CLR 13/10 A3019 ', ' AO2']"
KSOP,2015-03-13T08:35:00Z,8.0,-4.0,0,0,,10.0,30.510826,,,,OVC,10000,,,,,,,METAR,"['KSOP 130835Z AUTO 00000KT 10SM OVC100 08/M04 A3051 ', ' AO1']"
KSNH,2015-03-13T08:35:00Z,14.0,14.0,140,8,,3.0,30.15059,,,,SCT,600,BKN,2400,OVC,4000,,,METAR,"['KSNH 130835Z AUTO 14008KT 3SM SCT006 BKN024 OVC040 14/14 A3015 ', '']"
KSKX,2015-03-13T08:35:00Z,8.0,-7.0,70,9,,10.0,30.221457,,,,CLR,,,,,,,,METAR,"['KSKX 130835Z AUTO 07009KT 10SM CLR 08/M07 A3022 ', ' AO1']"
KSGU,2015-03-13T08:35:00Z,16.0,1.0,30,18,24,10.0,30.221457,,,,CLR,,,,,,,,METAR,"['KSGU 130835Z AUTO 03018G24KT 10SM CLR 16/01 A3022 ', ' AO1']"
KSFZ,2015-03-13T08:35:00Z,-7.0,-17.0,330,4,,10.0,30.569881,,,,CLR,,,,,,,,METAR,"['KSFZ 130835Z 33004KT 10SM CLR M07/M17 A3057 ', ' AO1']"
KSFM,2015-03-13T08:35:00Z,-13.0,-18.0,200,3,,10.0,30.561024,,,,CLR,,,,,,,,METAR,"['KSFM 130835Z AUTO 20003KT 10SM CLR M13/M18 A3056 ', ' AO1']"
KSDY,2015-03-13T08:35:00Z,6.0,-1.0,290,10,,10.0,30.209646,,,,CLR,,,,,,,,METAR,"['KSDY 130835Z AUTO 29010KT 10SM CLR 06/M01 A3021 ', ' AO1']"
KRZT,2015-03-13T08:35:00Z,6.0,-5.0,0,0,,10.0,30.301182,,,,CLR,,,,,,,,METAR,"['KRZT 130835Z AUTO 00000KT 10SM CLR 06/M05 A3030 ', ' AO2']"
KRUT,2015-03-13T08:35:00Z,-11.0,-16.0,130,5,,10.0,30.561024,,,,CLR,,,,,,,,METAR,"['KRUT 130835Z 13005KT 10SM CLR M11/M16 A3056 ', ' AO1']"
KROS,2015-03-13T08:35:00Z,8.0,5.0,170,6,,10.0,30.008858,,,,CLR,,,,,,,,METAR,"['KROS 130835Z AUTO 17006KT 10SM CLR 08/05 A3001 ', ' AO2 T00800050']"
KRKD,2015-03-13T08:35:00Z,-8.0,-19.0,300,5,,10.0,30.519686,,,,CLR,,,,,,,,METAR,"['KRKD 130835Z AUTO 30005KT 10SM CLR M08/M19 A3052 ', ' AO1']"
KPVU,2015-03-13T08:35:00Z,3.0,0.0,150,4,,10.0,30.360237,,,,CLR,,,,,,,,METAR,"['KPVU 130835Z AUTO 15004KT 10SM CLR 03/00 A3036 ', ' AO1']"
KPVF,2015-03-13T08:35:00Z,13.0,6.0,130,7,,10.0,30.221457,,,,CLR,,,,,,,,METAR,"['KPVF 130835Z AUTO 13007KT 10SM CLR 13/06 A3022 ', ' AO1']"
KPVE,2015-03-13T08:35:00Z,13.0,12.0,130,3,,8.0,30.138779,,,,SCT,3300,BKN,7000,OVC,8500,,,METAR,"['KPVE 130835Z AUTO 13003KT 8SM SCT033 BKN070 OVC085 13/12 A3014 ', '']"
KPVC,2015-03-13T08:35:00Z,-3.0,-13.0,320,13,17,10.0,30.590551,,,,CLR,,,,,,,,METAR,"['KPVC 130835Z 32013G17KT 10SM CLR M03/M13 A3059 ', ' AO1']"
KPTN,2015-03-13T08:35:00Z,18.0,18.0,170,5,,10.0,29.991142,,,,BKN,2300,BKN,6500,OVC,8500,,,METAR,"['KPTN 130835Z AUTO 17005KT 10SM BKN023 BKN065 OVC085 18/18 A2999 ', ' AO1']"
KPSO,2015-03-13T08:35:00Z,4.6,-4.1,0,0,,10.0,30.268702,,,,SCT,9500,,,,,,,METAR,"['KPSO 130835Z AUTO 00000KT 10SM SCT095 05/M04 A3027 ', ' AO2 T00461041']"
KPQI,2015-03-13T08:35:00Z,-14.0,-22.0,310,5,,10.0,30.410433,,,,CLR,,,,,,,,METAR,"['KPQI 130835Z AUTO 31005KT 10SM CLR M14/M22 A3041 ', ' AO1']"
KPIB,2015-03-13T08:35:00Z,19.0,18.0,150,7,,10.0,30.070866,,,,BKN,600,OVC,1200,,,,,METAR,"['KPIB 130835Z AUTO 15007KT 10SM BKN006 OVC012 19/18 A3007 ', ' AO1 P0003']"
KPHT,2015-03-13T08:35:00Z,14.0,12.0,140,10,,10.0,30.15059,,,,BKN,3000,OVC,3700,,,,,METAR,"['KPHT 130835Z AUTO 14010KT 10SM BKN030 OVC037 14/12 A3015 ', '']"
KPAN,2015-03-13T08:35:00Z,10.0,1.0,60,6,,10.0,30.159449,,,,CLR,,,,,,,,METAR,"['KPAN 130835Z AUTO 06006KT 10SM CLR 10/01 A3016 ', ' AO2']"
KOXC,2015-03-13T08:35:00Z,-5.0,-17.0,340,5,,10.0,30.590551,,,,CLR,,,,,,,,METAR,"['KOXC 130835Z 34005KT 10SM CLR M05/M17 A3059 ', ' AO1']"
KOLU,2015-03-13T08:35:00Z,9.0,-2.0,310,5,,10.0,30.159449,,,,CLR,,,,,,,,METAR,"['KOLU 130835Z AUTO 31005KT 10SM CLR 09/M02 A3016 ', ' AO1']"
KOCF,2015-03-13T08:35:00Z,18.0,17.0,0,0,,10.0,30.200787,,,,CLR,,,,,,,,METAR,"['KOCF 130835Z AUTO 00000KT 10SM CLR 18/17 A3020 ', ' AO1']"
KOAJ,2015-03-13T08:35:00Z,6.0,-1.0,10,7,,10.0,30.499016,,,,CLR,,,,,,,,METAR,"['KOAJ 130835Z AUTO 01007KT 10SM CLR 06/M01 A3050 ', ' AO1']"
KMYR,2015-03-13T08:35:00Z,12.0,-1.0,30,9,,10.0,30.46063,,,,OVC,8000,,,,,,,METAR,"['KMYR 130835Z AUTO 03009KT 10SM OVC080 12/M01 A3046 ', ' AO1']"
KMSV,2015-03-13T08:35:00Z,-8.0,-17.0,,,,10.0,30.540354,,,,CLR,,,,,,,,METAR,"['KMSV 130835Z AUTO 10SM CLR M08/M17 A3054 ', ' AO1']"
KMRF,2015-03-13T08:35:00Z,3.0,-1.0,350,6,,10.0,30.129921,,,,CLR,,,,,,,,METAR,"['KMRF 130835Z AUTO 35006KT 10SM CLR 03/M01 A3013 ', ' AO1']"
KMQJ,2015-03-13T08:35:00Z,6.0,-6.0,0,0,,10.0,30.259842,,,,CLR,,,,,,,,METAR,"['KMQJ 130835Z AUTO 00000KT 10SM CLR 06/M06 A3026 ', ' AO1']"
KMNI,2015-03-13T08:35:00Z,11.0,-4.0,70,7,15,10.0,30.431103,,,,OVC,4800,,,,,,,METAR,"['KMNI 130835Z AUTO 07007G15KT 020V090 10SM OVC048 11/M04 A3043 ', ' AO2']"
KMKY,2015-03-13T08:35:00Z,21.0,19.0,60,3,,10.0,30.129921,,,,CLR,,,,,,,,METAR,"['KMKY 130835Z AUTO 06003KT 10SM CLR 21/19 A3013 ', ' AO1']"
KMJX,2015-03-13T08:35:00Z,-4.0,-8.0,0,0,,10.0,30.59941,,,,CLR,,,,,,,,METAR,"['KMJX 130835Z AUTO 00000KT 10SM CLR M04/M08 A3060 ', ' AO1']"
KMEZ,2015-03-13T08:35:00Z,13.0,12.0,0,0,,0.25,30.02067,,,,OVC,200,,,,,,,METAR,"['KMEZ 130835Z AUTO 00000KT 1/4SM OVC002 13/12 A3002 ', ' AO2']"
KMDS,2015-03-13T08:35:00Z,5.0,2.0,250,4,,10.0,30.100393,,,,CLR,,,,,,,,METAR,"['KMDS 130835Z AUTO 25004KT 10SM CLR 05/02 A3010 ', ' AO2']"
KMAO,2015-03-13T08:35:00Z,10.0,-4.0,80,5,,10.0,30.481298,,,,OVC,8000,,,,,,,METAR,"['KMAO 130835Z AUTO 08005KT 10SM OVC080 10/M04 A3048 ', ' AO2']"
KM91,2015-03-13T08:35:00Z,14.0,14.0,150,6,,8.0,30.188976,,,,SCT,3500,BKN,4100,OVC,4800,,,METAR,"['KM91 130835Z AUTO 15006KT 8SM SCT035 BKN041 OVC048 14/14 A3019 ', '']"
KLEW,2015-03-13T08:35:00Z,-8.0,-19.0,310,7,,10.0,30.528543,,,,CLR,,,,,,,,METAR,"['KLEW 130835Z AUTO 31007KT 10SM CLR M08/M19 A3053 ', ' AO1']"
KLCI,2015-03-13T08:35:00Z,-8.0,-17.0,240,5,,,30.528543,,,,CLR,,,,,,,,METAR,"['KLCI 130835Z AUTO 24005KT CLR M08/M17 A3053 ', ' AO1']"
KLBL,2015-03-13T08:35:00Z,6.0,-1.0,0,0,,10.0,30.159449,,,,CLR,,,,,,,,METAR,"['KLBL 130835Z AUTO 00000KT 10SM CLR 06/M01 A3016 ', ' AO1']"
KUTA,2015-03-13T08:35:00Z,17.0,17.0,130,6,,3.0,30.059055,,,RA,SCT,600,OVC,1300,,,,,SPECI,"['KUTA 130835Z AUTO 13006KT 3SM RA SCT006 OVC013 17/17 A3006 ', ' AO2 P0008']"
KRQO,2015-03-13T08:35:00Z,6.0,5.0,30,3,,,30.079725,,,,,,,,,,,,SPECI,"['KRQO 130835Z AUTO 03003KT 06/05 A3008 ', ' AO2 PWINO']"
KRBW,2015-03-13T08:35:00Z,12.0,1.0,70,14,,10.0,30.389763,,,,OVC,3100,,,,,,,SPECI,"['KRBW 130835Z AUTO 07014KT 10SM OVC031 12/01 A3039 ', ' AO2']"
KN03,2015-03-13T08:35:00Z,-8.0,-11.0,0,0,,10.0,30.561024,,,,SCT,12000,,,,,,,SPECI,"['KN03 130835Z AUTO 00000KT 10SM SCT120 M08/M11 A3056 ', ' AO2']"
KMHL,2015-03-13T08:35:00Z,12.0,10.0,0,0,,7.0,30.180119,,,,SCT,8000,,,,,,,SPECI,"['KMHL 130835Z AUTO 00000KT 7SM SCT080 12/10 A3018 ', ' AO2']"
KIMM,2015-03-13T08:35:00Z,,,0,0,,7.0,30.15059,,,,CLR,,,,,,,,SPECI,"['KIMM 130835Z AUTO 00000KT 7SM CLR A3015 ', ' A01 P000']"
KHVS,2015-03-13T08:35:00Z,11.0,-1.0,80,7,,10.0,30.481298,,,,BKN,6000,OVC,8500,,,,,SPECI,"['KHVS 130835Z AUTO 08007KT 10SM BKN060 OVC085 11/M01 A3048 ', ' AO2']"
KHOB,2015-03-13T08:35:00Z,5.0,0.0,270,6,,10.0,30.109253,,,,CLR,,,,,,,,SPECI,"['KHOB 130835Z AUTO 27006KT 10SM CLR 05/00 A3011 ', ' AO2']"
KCXP,2015-03-13T08:35:00Z,4.0,-2.0,0,0,,10.0,30.380905,,,,CLR,,,,,,,,SPECI,"['KCXP 130835Z AUTO 00000KT 10SM CLR 04/M02 A3038 ', ' AO2']"
KCQW,2015-03-13T08:35:00Z,10.0,-6.0,80,9,,10.0,30.481298,,,,OVC,7500,,,,,,,SPECI,"['KCQW 130835Z AUTO 08009KT 10SM OVC075 10/M06 A3048 ', ' AO2']"
KCDN,2015-03-13T08:35:00Z,12.0,-3.0,80,8,15,10.0,30.46063,,,,OVC,6000,,,,,,,SPECI,"['KCDN 130835Z AUTO 08008G15KT 10SM OVC060 12/M03 A3046 ', ' AO2 TSNO']"
KBOW,2015-03-13T08:35:00Z,22.0,17.0,80,6,,10.0,30.180119,,,,BKN,7500,,,,,,,SPECI,"['KBOW 130835Z AUTO 08006KT 10SM BKN075 22/17 A3018 ', ' AO2']"
KBNL,2015-03-13T08:35:00Z,14.0,2.0,70,9,18,10.0,30.389763,,,,OVC,3100,,,,,,,SPECI,"['KBNL 130835Z AUTO 07009G18KT 10SM OVC031 14/02 A3039 ', ' AO2']"
KBBP,2015-03-13T08:35:00Z,11.0,,80,7,,10.0,30.481298,,,,SCT,8000,OVC,9500,,,,,SPECI,"['KBBP 130835Z AUTO 08007KT 10SM SCT080 OVC095 11/ A3048 ', ' AO2']"
KAIK,2015-03-13T08:35:00Z,13.0,-1.0,60,9,,10.0,30.41929,,,,OVC,3900,,,,,,,SPECI,"['KAIK 130835Z AUTO 06009KT 10SM OVC039 13/M01 A3042 ', ' AO2']"
K2V5,2015-03-13T08:35:00Z,7.1,-1.2,330,11,,10.0,30.209646,,,,CLR,,,,,,,,SPECI,"['K2V5 130835Z AUTO 33011KT 10SM CLR 07/M01 A3021 ', ' AO2 T00711012']"
KQHN,2015-03-13T08:34:00Z,11.0,6.0,240,11,15,6.21,30.088583,,,-SHRA,BKN,1500,OVC,2000,,,,,SPECI,"['KQHN 130834Z 24011G15KT 9999 -SHRA BKN015 OVC020 11/06 A3009 ', ' SLP182 Q1019 DA3554']"
KRQB,2015-03-13T08:34:00Z,-0.5,-10.0,0,0,,10.0,30.318897,,,,CLR,,,,,,,,METAR,"['KRQB 130834Z AUTO 00000KT 10SM CLR 00/M10 A3032 ', ' AO2 T10051100']"
KRNP,2015-03-13T08:34:00Z,-1.8,-8.4,0,0,,10.0,30.339567,,,,CLR,,,,,,,,METAR,"['KRNP 130834Z AUTO 00000KT 10SM CLR M02/M08 A3034 ', ' AO2 T10181084']"
KPZQ,2015-03-13T08:34:00Z,0.0,-6.2,120,3,,10.0,30.33071,,,,OVC,9000,,,,,,,METAR,"['KPZQ 130834Z AUTO 12003KT 10SM OVC090 00/M06 A3033 ', ' AO2 T00001062']"
KOZW,2015-03-13T08:34:00Z,-1.5,-10.0,140,8,,10.0,30.339567,,,,CLR,,,,,,,,METAR,"['KOZW 130834Z AUTO 14008KT 10SM CLR M01/M10 A3034 ', ' AO2 T10151100']"
KOEB,2015-03-13T08:34:00Z,1.7,-7.2,130,3,,10.0,30.318897,,,,CLR,,,,,,,,METAR,"['KOEB 130834Z AUTO 13003KT 10SM CLR 02/M07 A3032 ', ' AO2 T00171072']"
KMOP,2015-03-13T08:34:00Z,-2.5,-6.7,0,0,,10.0,30.339567,,,,CLR,,,,,,,,METAR,"['KMOP 130834Z AUTO 00000KT 10SM CLR M02/M07 A3034 ', ' AO2 T10251067']"
KLMO,2015-03-13T08:34:00Z,10.1,2.0,0,0,,10.0,30.351377,,,,OVC,6000,,,,,,,METAR,"['KLMO 130834Z AUTO 00000KT 10SM OVC060 10/02 A3035 ', ' AO2 T01010020']"
KHYX,2015-03-13T08:34:00Z,0.0,-7.0,120,4,,10.0,30.351377,,,,CLR,,,,,,,,METAR,"['KHYX 130834Z AUTO 12004KT 10SM CLR 00/M07 A3035 ', ' AO2']"
KERY,2015-03-13T08:34:00Z,1.4,-5.0,150,7,,10.0,30.230314,,,,OVC,11000,,,,,,,METAR,"['KERY 130834Z AUTO 15007KT 10SM OVC110 01/M05 A3023 ', ' AO2 T00141050']"
KDUH,2015-03-13T08:34:00Z,0.0,-5.0,0,0,,10.0,30.351377,,,,CLR,,,,,,,,METAR,"['KDUH 130834Z AUTO 00000KT 10SM CLR 00/M05 A3035 ', ' AO2']"
KCPW,2015-03-13T08:34:00Z,-5.0,-7.0,50,17,,10.0,30.389763,,,,BKN,6000,BKN,7500,OVC,12000,,,METAR,"['KCPW 130834Z AUTO 05017KT 10SM BKN060 BKN075 OVC120 M05/M07 A3039 ', ' AO2']"
KCNB,2015-03-13T08:34:00Z,8.7,2.5,260,7,,10.0,30.070866,,,,CLR,,,,,,,,METAR,"['KCNB 130834Z AUTO 26007KT 10SM CLR 09/03 A3007 ', ' AO2 T00870025']"
K7BM,2015-03-13T08:34:00Z,1.0,-1.0,0,0,,10.0,30.389763,,,,SCT,1000,BKN,1400,OVC,5000,,,METAR,"['K7BM 130834Z AUTO 00000KT 10SM SCT010 BKN014 OVC050 01/M01 A3039 ', ' AO2']"
K5SM,2015-03-13T08:34:00Z,-1.0,-2.0,50,6,,10.0,30.41929,,,,OVC,400,,,,,,,METAR,"['K5SM 130834Z AUTO 05006KT 10SM OVC004 M01/M02 A3042 ', ' AO2']"
KIKW,2015-03-13T08:34:00Z,-2.0,-6.6,0,0,,10.0,30.351377,,,,CLR,,,,,,,,METAR,"['KIKW 130834Z AUTO 00000KT 10SM CLR M02/M07 A3035 ', ' AO2 T10201066']"
KHZX,2015-03-13T08:34:00Z,3.0,2.0,0,0,,7.0,29.97933,,,,CLR,,,,,,,,METAR,"['KHZX 130834Z AUTO 00000KT 7SM CLR 03/02 A2998 ', ' AO2']"
KGYL,2015-03-13T08:34:00Z,8.6,5.3,180,5,,10.0,30.02067,,,,CLR,,,,,,,,METAR,"['KGYL 130834Z AUTO 18005KT 10SM CLR 09/05 A3002 ', ' AO2 T00860053']"
KGHW,2015-03-13T08:34:00Z,5.0,4.0,270,5,,5.0,30.02067,,,BR,CLR,,,,,,,,METAR,"['KGHW 130834Z AUTO 27005KT 5SM BR CLR 05/04 A3002 ', ' AO2']"
KFGN,2015-03-13T08:34:00Z,2.0,-3.0,20,3,,10.0,29.958662,,,,SCT,11000,,,,,,,METAR,"['KFGN 130834Z AUTO 02003KT 10SM SCT110 02/M03 A2996 ', ' AO2']"
KFFM,2015-03-13T08:34:00Z,2.0,1.0,310,6,,7.0,30.041338,,,,CLR,,,,,,,,METAR,"['KFFM 130834Z AUTO 31006KT 7SM CLR 02/01 A3004 ', ' AO2']"
KFBL,2015-03-13T08:34:00Z,8.0,6.0,180,7,,10.0,30.070866,,,,CLR,,,,,,,,METAR,"['KFBL 130834Z AUTO 18007KT 10SM CLR 08/06 A3007 ', ' AO2']"
KDXX,2015-03-13T08:34:00Z,6.0,2.0,280,8,,10.0,30.050198,,,,CLR,,,,,,,,METAR,"['KDXX 130834Z AUTO 28008KT 10SM CLR 06/02 A3005 ', ' AO2']"
KDLZ,2015-03-13T08:34:00Z,2.0,-4.0,110,5,,10.0,30.318897,,,,CLR,,,,,,,,METAR,"['KDLZ 130834Z AUTO 11005KT 10SM CLR 02/M04 A3032 ', ' AO2']"
KD95,2015-03-13T08:34:00Z,-1.7,-11.6,130,4,,10.0,30.360237,,,,CLR,,,,,,,,METAR,"['KD95 130834Z AUTO 13004KT 10SM CLR M02/M12 A3036 ', ' AO2 T10171116']"
KBBB,2015-03-13T08:34:00Z,4.0,2.0,340,7,,10.0,30.02067,,,,CLR,,,,,,,,METAR,"['KBBB 130834Z AUTO 34007KT 10SM CLR 04/02 A3002 ', ' AO2']"
KAXV,2015-03-13T08:34:00Z,3.0,-3.0,0,0,,10.0,30.301182,,,,CLR,,,,,,,,METAR,"['KAXV 130834Z AUTO 00000KT 10SM CLR 03/M03 A3030 ', ' AO2']"
KANE,2015-03-13T08:34:00Z,12.0,6.0,190,12,,10.0,30.02067,,,,CLR,,,,,,,,METAR,"['KANE 130834Z AUTO 19012KT 10SM CLR 12/06 A3002 ', ' AO2']"
KPNS,2015-03-13T08:34:00Z,20.0,18.9,140,9,,9.0,30.109253,,TRUE,-RA,BKN,800,BKN,1300,OVC,2200,,,METAR,"['KPNS 130834Z AUTO 14009KT 9SM -RA BKN008 BKN013 OVC022 20/19 A3011 ', ' AO2 RAB32 CIG 005V011 P0000 T02000189 $']"
KAAF,2015-03-13T08:34:00Z,21.1,17.8,70,12,21,10.0,30.129921,,TRUE,,BKN,1000,BKN,1300,OVC,2000,,,METAR,"['KAAF 130834Z AUTO 07012G21KT 10SM BKN010 BKN013 OVC020 21/18 A3013 ', ' AO2 T02110178 $']"
KVVV,2015-03-13T08:34:00Z,8.0,2.0,300,6,,10.0,30.041338,,,,CLR,,,,,,,,METAR,"['KVVV 130834Z AUTO 30006KT 10SM CLR 08/02 A3004 ', ' AO2']"
KULM,2015-03-13T08:34:00Z,9.0,3.0,220,10,,10.0,30.041338,,,,CLR,,,,,,,,METAR,"['KULM 130834Z AUTO 22010KT 10SM CLR 09/03 A3004 ', ' AO2']"
KTWM,2015-03-13T08:34:00Z,3.0,-2.0,40,3,,10.0,30.0,,,,CLR,,,,,,,,METAR,"['KTWM 130834Z AUTO 04003KT 10SM CLR 03/M02 A3000 ', ' AO2']"
KTOB,2015-03-13T08:34:00Z,8.0,6.0,200,19,,5.0,30.088583,,,BR,CLR,,,,,,,,METAR,"['KTOB 130834Z AUTO 20019KT 5SM BR CLR 08/06 A3009 ', ' AO2']"
KTEW,2015-03-13T08:34:00Z,-0.3,-8.6,160,6,,10.0,30.33071,,,,CLR,,,,,,,,METAR,"['KTEW 130834Z AUTO 16006KT 10SM CLR 00/M09 A3033 ', ' AO2 T10031086']"
KSYN,2015-03-13T08:34:00Z,9.4,5.5,190,12,21,7.0,30.041338,,,,CLR,,,,,,,,METAR,"['KSYN 130834Z AUTO 19012G21KT 7SM CLR 09/06 A3004 ', ' AO2 T00940055']"
KRRT,2015-03-13T08:34:00Z,1.0,-1.0,40,5,,10.0,29.949802,,,,CLR,,,,,,,,METAR,"['KRRT 130834Z AUTO 04005KT 10SM CLR 01/M01 A2995 ', ' AO2']"
KROX,2015-03-13T08:34:00Z,1.0,-2.0,0,0,,10.0,29.940945,,,,SCT,12000,,,,,,,METAR,"['KROX 130834Z AUTO 00000KT 10SM SCT120 01/M02 A2994 ', ' AO2']"
KPWC,2015-03-13T08:34:00Z,1.0,1.0,0,0,,2.0,30.0,,,BR,CLR,,,,,,,,METAR,"['KPWC 130834Z AUTO 00000KT 2SM BR CLR 01/01 A3000 ', ' AO2']"
KPQN,2015-03-13T08:34:00Z,6.0,2.0,280,5,,10.0,30.079725,,,,CLR,,,,,,,,METAR,"['KPQN 130834Z AUTO 28005KT 10SM CLR 06/02 A3008 ', ' AO2']"
KPNM,2015-03-13T08:34:00Z,11.0,5.0,200,5,,10.0,30.0,,,,CLR,,,,,,,,METAR,"['KPNM 130834Z AUTO 20005KT 10SM CLR 11/05 A3000 ', ' AO2']"
KPEX,2015-03-13T08:34:00Z,4.7,4.0,190,3,,10.0,30.0,,,,CLR,,,,,,,,METAR,"['KPEX 130834Z AUTO 19003KT 10SM CLR 05/04 A3000 ', ' AO2 T00470040']"
KPBF,2015-03-13T08:34:00Z,15.6,15.6,80,5,,0.5,30.008858,,,-RA FG,OVX,0,,,,,,,METAR,"['KPBF 130834Z AUTO 08005KT 1/2SM -RA FG VV002 16/16 A3001 ', ' AO2 RAB20 P0001 T01560156']"
KOVL,2015-03-13T08:34:00Z,3.0,2.0,220,5,,10.0,30.02067,,,,CLR,,,,,,,,METAR,"['KOVL 130834Z AUTO 22005KT 10SM CLR 03/02 A3002 ', ' AO2']"
KOSC,2015-03-13T08:34:00Z,-1.0,-5.0,200,6,,10.0,30.351377,,,,CLR,,,,,,,,METAR,"['KOSC 130834Z AUTO 20006KT 10SM CLR M01/M05 A3035 ', ' AO2 T10101050']"
KONZ,2015-03-13T08:34:00Z,-2.0,-7.0,20,3,,10.0,30.360237,,,,CLR,,,,,,,,METAR,"['KONZ 130834Z AUTO 02003KT 10SM CLR M02/M07 A3036 ', ' AO2']"
KMVE,2015-03-13T08:34:00Z,8.0,3.0,320,6,,10.0,30.041338,,,,CLR,,,,,,,,METAR,"['KMVE 130834Z AUTO 32006KT 10SM CLR 08/03 A3004 ', ' AO2']"
KMRT,2015-03-13T08:34:00Z,0.1,-3.4,0,0,,10.0,30.318897,,,,CLR,,,,,,,,METAR,"['KMRT 130834Z AUTO 00000KT 10SM CLR 00/M03 A3032 ', ' AO2 T00011034']"
KMCN,2015-03-13T08:34:00Z,,,100,14,,2.5,30.318897,,TRUE,+RA,FEW,1700,OVC,2800,,,,,METAR,"['KMCN 130834Z AUTO 10014KT 2 1/2SM +RA FEW017 OVC028 A3032 ', ' AO2 RAB02 P0010 TSNO $']"
KLXL,2015-03-13T08:34:00Z,6.0,4.0,0,0,,7.0,29.991142,,,,CLR,,,,,,,,METAR,"['KLXL 130834Z AUTO 00000KT 7SM CLR 06/04 A2999 ', ' AO2']"
KBFW,2015-03-13T08:34:00Z,3.0,-3.0,20,4,,10.0,30.008858,,,,BKN,4500,,,,,,,METAR,"['KBFW 130834Z AUTO 02004KT 10SM BKN045 03/M03 A3001 ', ' AO2']"
KAQP,2015-03-13T08:34:00Z,4.0,2.0,280,6,,10.0,30.029528,,,,CLR,,,,,,,,METAR,"['KAQP 130834Z AUTO 28006KT 10SM CLR 04/02 A3003 ', ' AO2']"
KTUP,2015-03-13T08:34:00Z,16.7,15.0,150,11,17,9.0,30.109253,,,-RA,OVC,1000,,,,,,,METAR,"['KTUP 130834Z AUTO 15011G17KT 9SM -RA OVC010 17/15 A3011 ', ' AO2 RAE0758B04 CIG 007V014 P0001 T01670150']"
KBVE,2015-03-13T08:34:00Z,18.3,17.8,60,3,,2.0,30.029528,,,-RA BR,FEW,1100,BKN,3700,OVC,11000,,,SPECI,"['KBVE 130834Z AUTO 06003KT 2SM -RA BR FEW011 BKN037 OVC110 18/18 A3003 ', ' AO2 P0030 T01830178']"
KNDZ,2015-03-13T08:33:00Z,21.7,19.4,100,8,,8.0,30.109253,,TRUE,,OVC,900,,,,,,,SPECI,"['KNDZ 130833Z AUTO 10008KT 8SM OVC009 22/19 A3011 ', ' AO2 CIG 007V013 T02170194 $']"
KRND,2015-03-13T08:33:00Z,11.0,11.0,320,5,,9.0,30.0,,,,CLR,,,,,,,,SPECI,"['KRND 130833Z AUTO 32005KT 9SM R32R/5500FT CLR 11/11 A3000 ', ' AO2']"
KCKC,2015-03-13T08:33:00Z,1.0,-6.0,10,3,,10.0,30.029528,,,,BKN,2600,,,,,,,METAR,"['KCKC 130833Z AUTO 01003KT 10SM BKN026 01/M06 A3003 ', ' AO2']"
KIMS,2015-03-13T08:33:00Z,10.0,-3.0,100,6,,10.0,30.259842,,,,SCT,11000,,,,,,,METAR,"['KIMS 130833Z AUTO 10006KT 10SM SCT110 10/M03 A3026 ', ' AO1']"
KI69,2015-03-13T08:33:00Z,9.0,-3.0,120,3,,10.0,30.268702,,,,CLR,,,,,,,,METAR,"['KI69 130833Z AUTO 12003KT 10SM CLR 09/M03 A3027 ', ' AO1']"
KELO,2015-03-13T08:33:00Z,1.0,-3.0,0,0,,10.0,29.991142,,,,BKN,3200,,,,,,,METAR,"['KELO 130833Z AUTO 00000KT 10SM BKN032 01/M03 A2999 ', ' AO2']"
KDYT,2015-03-13T08:33:00Z,1.0,-1.0,0,0,,10.0,30.050198,,,,CLR,,,,,,,,METAR,"['KDYT 130833Z AUTO 00000KT 10SM CLR 01/M01 A3005 ', ' AO2']"
KAIT,2015-03-13T08:33:00Z,8.0,5.0,0,0,,7.0,29.949802,,,,CLR,,,,,,,,METAR,"['KAIT 130833Z AUTO 00000KT 7SM CLR 08/05 A2995 ', ' AO2']"
K04W,2015-03-13T08:33:00Z,8.0,6.0,170,5,,7.0,29.991142,,,,CLR,,,,,,,,METAR,"['K04W 130833Z AUTO 17005KT 7SM CLR 08/06 A2999 ', ' AO2']"
KY70,2015-03-13T08:33:00Z,-0.5,-5.9,140,4,,10.0,30.318897,,,,CLR,,,,,,,,METAR,"['KY70 130833Z AUTO 14004KT 10SM CLR 00/M06 A3032 ', ' AO2 T10051059']"
KTKC,2015-03-13T08:33:00Z,8.8,3.1,250,8,,10.0,30.050198,,,,CLR,,,,,,,,METAR,"['KTKC 130833Z AUTO 25008KT 10SM CLR 09/03 A3005 ', ' AO2 T00880031']"
KSAZ,2015-03-13T08:33:00Z,2.0,2.0,0,0,,1.25,29.97933,,,BR,BKN,100,,,,,,,METAR,"['KSAZ 130833Z AUTO 00000KT 1 1/4SM BR BKN001 02/02 A2998 ', ' AO2']"
KRMY,2015-03-13T08:33:00Z,,,90,5,,10.0,30.31004,,,,CLR,,,,,,,,METAR,"['KRMY 130833Z AUTO 09005KT 10SM CLR A3031 ', ' AO2']"
KMWM,2015-03-13T08:33:00Z,9.0,3.0,220,13,18,10.0,30.059055,,,,CLR,,,,,,,,METAR,"['KMWM 130833Z AUTO 22013G18KT 10SM CLR 09/03 A3006 ', ' AO2']"
KMOX,2015-03-13T08:33:00Z,3.0,1.0,300,8,,10.0,30.02067,,,,CLR,,,,,,,,METAR,"['KMOX 130833Z AUTO 30008KT 10SM CLR 03/01 A3002 ', ' AO2']"
KMJQ,2015-03-13T08:33:00Z,8.0,1.0,200,12,,10.0,30.079725,,,,CLR,,,,,,,,METAR,"['KMJQ 130833Z AUTO 20012KT 10SM CLR 08/01 A3008 ', ' AO2']"
KLJF,2015-03-13T08:33:00Z,8.0,5.0,220,3,,10.0,30.008858,,,,CLR,,,,,,,,METAR,"['KLJF 130833Z AUTO 22003KT 10SM CLR 08/05 A3001 ', ' AO2']"
KORB,2015-03-13T08:33:00Z,3.0,-2.0,0,0,,10.0,29.949802,,,,SCT,12000,,,,,,,METAR,"['KORB 130833Z AUTO 00000KT 10SM SCT120 03/M02 A2995 ', ' AO2']"
KDVP,2015-03-13T08:33:00Z,6.8,2.0,0,0,,10.0,30.079725,,,,CLR,,,,,,,,METAR,"['KDVP 130833Z AUTO 00000KT 10SM CLR 07/02 A3008 ', ' AO2 T00680020']"
KMIB,2015-03-13T08:33:00Z,0.0,0.0,310,13,,2.0,30.121063,,TRUE,BR,OVC,200,,,,,,,SPECI,"['KMIB 130833Z AUTO 31013KT 2SM R29/3000FT BR OVC002 00/00 A3012 ', ' AO2 VIS 1 1/2V2 $']"
KBLV,2015-03-13T08:33:00Z,9.0,9.0,20,5,,8.0,30.180119,,,-RA,OVC,2100,,,,,,,SPECI,"['KBLV 130833Z AUTO 02005KT 8SM R14L/5500FT -RA OVC021 09/09 A3018 ', ' AO2 OVC V BKN']"
KFOZ,2015-03-13T08:33:00Z,4.0,1.0,0,0,,10.0,29.958662,,,,SCT,12000,,,,,,,SPECI,"['KFOZ 130833Z AUTO 00000KT 10SM SCT120 04/01 A2996 ', ' AO2']"
KGLS,2015-03-13T08:32:00Z,14.4,14.4,250,5,,3.0,29.958662,,,BR,OVC,400,,,,,,,SPECI,"['KGLS 130832Z AUTO 25005KT 3SM BR OVC004 14/14 A2996 ', ' AO2 T01440144']"
KAMW,2015-03-13T08:32:00Z,3.3,2.2,140,3,,2.5,30.159449,,,BR,CLR,,,,,,,,SPECI,"['KAMW 130832Z AUTO 14003KT 2 1/2SM BR CLR 03/02 A3016 ', ' AO2 T00330022']"
KFKS,2015-03-13T08:32:00Z,5.0,-10.0,150,5,,10.0,30.268702,,,,CLR,,,,,,,,METAR,"['KFKS 130832Z AUTO 15005KT 10SM CLR 05/M10 A3027 ', ' AO2 T00501100']"
KMZH,2015-03-13T08:32:00Z,0.0,-1.0,0,0,,10.0,29.97933,,,,CLR,,,,,,,,METAR,"['KMZH 130832Z AUTO 00000KT 10SM CLR 00/M01 A2998 ', ' AO2']"
KFFX,2015-03-13T08:32:00Z,0.0,-11.5,120,3,,10.0,30.31004,,,,CLR,,,,,,,,METAR,"['KFFX 130832Z AUTO 12003KT 10SM CLR 00/M11 A3031 ', ' AO2 T00001115']"
KJKJ,2015-03-13T08:32:00Z,2.0,2.0,280,7,,10.0,30.029528,,,,CLR,,,,,,,,METAR,"['KJKJ 130832Z AUTO 28007KT 10SM CLR 02/02 A3003 ', ' AO2']"
KHCD,2015-03-13T08:32:00Z,8.6,4.5,210,5,,10.0,30.029528,,,,CLR,,,,,,,,METAR,"['KHCD 130832Z AUTO 21005KT 10SM CLR 09/05 A3003 ', ' AO2 T00860045']"
KGDB,2015-03-13T08:32:00Z,6.4,2.4,240,9,,10.0,30.050198,,,,CLR,,,,,,,,METAR,"['KGDB 130832Z AUTO 24009KT 10SM CLR 06/02 A3005 ', ' AO2 T00640024']"
KEVM,2015-03-13T08:32:00Z,2.0,0.0,60,3,,10.0,29.991142,,,,CLR,,,,,,,,METAR,"['KEVM 130832Z AUTO 06003KT 10SM CLR 02/00 A2999 ', ' AO2']"
KD39,2015-03-13T08:32:00Z,4.9,4.3,290,5,,5.0,30.0,,,BR,CLR,,,,,,,,METAR,"['KD39 130832Z AUTO 29005KT 5SM BR CLR 05/04 A3000 ', ' AO2 T00490043']"
KBJI,2015-03-13T08:32:00Z,1.3,0.6,250,3,,10.0,29.949802,,,,CLR,,,,,,,,METAR,"['KBJI 130832Z AUTO 25003KT 10SM CLR 01/01 A2995 ', ' AO2 T00130006']"
KPCW,2015-03-13T08:32:00Z,0.0,-6.0,110,7,,10.0,30.33071,,TRUE,,CLR,,,,,,,,METAR,"['KPCW 130832Z AUTO 11007KT 10SM CLR 00/M06 A3033 ', ' AO2 $']"
KLVN,2015-03-13T08:32:00Z,9.0,5.0,200,5,,10.0,30.041338,,,,CLR,,,,,,,,METAR,"['KLVN 130832Z AUTO 20005KT 10SM CLR 09/05 A3004 ', ' AO2']"
KPKD,2015-03-13T08:31:00Z,1.1,0.6,280,5,,3.0,29.958662,,,BR,CLR,,,,,,,,SPECI,"['KPKD 130831Z AUTO 28005KT 3SM BR CLR 01/01 A2996 ', ' AO2 T00110006']"
KFTW,2015-03-13T08:31:00Z,13.3,11.7,330,3,,8.0,30.008858,,,,BKN,1200,OVC,5000,,,,,SPECI,"['KFTW 130831Z 33003KT 8SM BKN012 OVC050 13/12 A3001 ', ' AO2 T01330117']"
KEET,2015-03-13T08:31:00Z,16.7,15.0,0,6,,3.0,30.188976,,,BR,OVC,600,,,,,,,SPECI,"['KEET 130831Z AUTO VRB06KT 3SM BR OVC006 17/15 A3019 ', ' AO2 CIG 004V009 T01670150']"
KDWH,2015-03-13T08:31:00Z,14.0,13.0,280,4,,1.5,29.958662,,,-RA BR,OVC,500,,,,,,,SPECI,"['KDWH 130831Z AUTO 28004KT 1 1/2SM -RA BR OVC005 14/13 A2996 ', ' AO2 RAB20 P0002']"
KDTN,2015-03-13T08:31:00Z,13.3,12.2,10,3,,2.5,29.949802,,TRUE,BR,OVC,300,,,,,,,SPECI,"['KDTN 130831Z AUTO 01003KT 2 1/2SM BR OVC003 13/12 A2995 ', ' AO2 RAE00 P0000 T01330122 $']"
KQBL,2015-03-13T08:31:00Z,20.0,19.0,110,2,,4.0,30.129921,,,BR,FEW,500,BKN,1000,BKN,2100,,,SPECI,"['KQBL 130831Z AUTO 11002KT 4SM BR FEW005 BKN010 BKN021 20/19 A3013 ', ' AO2 CIG 009V011']"
KRGK,2015-03-13T08:31:00Z,10.0,6.0,200,6,,7.0,30.079725,,,,CLR,,,,,,,,METAR,"['KRGK 130831Z AUTO 20006KT 7SM CLR 10/06 A3008 ', ' AO2']"
KAEL,2015-03-13T08:31:00Z,9.0,6.0,180,10,,7.0,30.100393,,,,CLR,,,,,,,,METAR,"['KAEL 130831Z AUTO 18010KT 7SM CLR 09/06 A3010 ', ' AO2']"
KGPT,2015-03-13T08:30:00Z,18.9,18.3,120,3,,4.0,30.050198,,,RA BR,BKN,800,BKN,6000,OVC,11000,,,SPECI,"['KGPT 130830Z AUTO 12003KT 4SM RA BR BKN008 BKN060 OVC110 19/18 A3005 ', ' AO2 P0010 T01890183']"
KQFX,2015-03-13T08:30:00Z,11.0,-16.0,20,5,,6.21,30.059055,,,,CLR,,,,,,,,METAR,"['KQFX 130830Z AUTO 02005KT 9999 CLR 11/M16 A3006 ', ' A02 TSNO']"
KQFV,2015-03-13T08:30:00Z,7.0,-16.0,330,6,14,6.21,30.02067,,,,CLR,,,,,,,,METAR,"['KQFV 130830Z AUTO 33006G14KT 9999 CLR 07/M16 A3002 ', ' A02 TSNO']"
KQFU,2015-03-13T08:30:00Z,9.0,-15.0,130,3,15,6.21,30.079725,,,,CLR,,,,,,,,METAR,"['KQFU 130830Z AUTO 13003G15KT 9999 CLR 09/M15 A3008 ', ' A02 TSNO']"
KQFT,2015-03-13T08:30:00Z,10.0,-15.0,320,2,,6.21,30.050198,,,,CLR,,,,,,,,METAR,"['KQFT 130830Z AUTO 32002KT 9999 CLR 10/M15 A3005 ', ' A02 TSNO']"
KQFB,2015-03-13T08:30:00Z,11.0,0.0,250,5,,6.21,30.100393,,,,FEW,3900,,,,,,,METAR,"['KQFB 130830Z AUTO 25005KT 9999 FEW039 11/00 A3010 ', ' A02 TSNO']"
KQEY,2015-03-13T08:30:00Z,7.0,3.0,50,1,,3.73,30.079725,,,HZ,CLR,,,,,,,,METAR,"['KQEY 130830Z AUTO 05001KT 6000 HZ CLR 07/03 A3008 ', ' A02 TSNO']"
KQEX,2015-03-13T08:30:00Z,11.0,-5.0,270,3,,6.21,30.088583,,,,CLR,,,,,,,,METAR,"['KQEX 130830Z AUTO 27003KT 9999 CLR 11/M05 A3009 ', ' A02 TSNO']"
KQEW,2015-03-13T08:30:00Z,10.0,-2.0,250,6,12,6.21,30.029528,,,,CLR,,,,,,,,METAR,"['KQEW 130830Z AUTO 25006G12KT 9999 CLR 10/M02 A3003 ', ' A02 TSNO']"
KQEV,2015-03-13T08:30:00Z,10.0,-12.0,340,4,,6.21,30.088583,,,,CLR,,,,,,,,METAR,"['KQEV 130830Z AUTO 34004KT 9999 CLR 10/M12 A3009 ', ' A02 TSNO']"
KQES,2015-03-13T08:30:00Z,6.0,-4.0,,,,6.21,30.15059,,,,CLR,,,,,,,,METAR,"['KQES 130830Z AUTO 9999 // CLR 06/M04 A3015 ', ' A02 TSNO']"
KQER,2015-03-13T08:30:00Z,-6.0,-11.0,,,,4.97,,,,,CLR,,,,,,,,METAR,"['KQER 130830Z AUTO 8000 /CLR M06/M11 / ', ' A02 TSNO']"
KQEQ,2015-03-13T08:30:00Z,9.0,-15.0,320,10,15,6.21,29.940945,,,,CLR,,,,,,,,METAR,"['KQEQ 130830Z AUTO 32010G15KT 9999 CLR 09/M15 A2994 ', ' A02 TSNO']"
KQEP,2015-03-13T08:30:00Z,10.0,-15.0,310,7,17,6.21,30.02067,,,,CLR,,,,,,,,METAR,"['KQEP 130830Z AUTO 31007G17KT 9999 CLR 10/M15 A3002 ', ' A02 TSNO']"
KQEN,2015-03-13T08:30:00Z,-3.0,-5.0,,,,6.21,,,,,CLR,,,,,,,,METAR,"['KQEN 130830Z AUTO 9999 CLR M03/M05 / ', ' A02 TSNO']"
KQEL,2015-03-13T08:30:00Z,10.0,-15.0,300,2,,6.21,30.088583,,,,CLR,,,,,,,,METAR,"['KQEL 130830Z AUTO 30002KT 9999 CLR 10/M15 A3009 ', ' A02 TSNO']"
KQEJ,2015-03-13T08:30:00Z,8.0,-17.0,310,3,12,6.21,30.0,,,,CLR,,,,,,,,METAR,"['KQEJ 130830Z AUTO 31003G12KT 9999 CLR 08/M17 A3000 ', ' A02 TSNO']"
KQEI,2015-03-13T08:30:00Z,9.0,-16.0,210,3,,6.21,30.029528,,,,CLR,,,,,,,,METAR,"['KQEI 130830Z AUTO 21003KT 9999 CLR 09/M16 A3003 ', ' A02 TSNO']"
KAQV,2015-03-13T08:30:00Z,18.3,17.2,150,3,,10.0,29.920275,,,,BKN,1000,BKN,1500,OVC,5500,,,SPECI,"['KAQV 130830Z AUTO 15003KT 10SM BKN010 BKN015 OVC055 18/17 A2992 ', ' AO2 CIG 007V012 T01830172']"
KMTN,2015-03-13T08:30:00Z,0.0,-6.0,0,0,,10.0,30.628937,,,,CLR,,,,,,,,SPECI,"['KMTN 130830Z AUTO 00000KT 10SM CLR 00/M06 A3063 ', ' AO2']"
KO86,2015-03-13T08:30:00Z,7.0,5.0,0,0,,10.0,30.259842,,,,CLR,,,,,,,,METAR,"['KO86 130830Z AUTO 00000KT 10SM CLR 07/05 A3026 ', ' AO1']"
K6I2,2015-03-13T08:30:00Z,13.0,2.0,110,4,,10.0,30.230314,,,,CLR,,,,,,,,METAR,"['K6I2 130830Z AUTO 11004KT 10SM CLR 13/02 A3023 ', ' AO2']"
KSTK,2015-03-13T08:30:00Z,6.0,0.0,10,8,,10.0,30.259842,,,,CLR,,,,,,,,METAR,"['KSTK 130830Z AUTO 01008KT 10SM CLR 06/00 A3026 ', ' AO2']"
KEDJ,2015-03-13T08:30:00Z,5.0,-5.0,130,10,,10.0,30.301182,,,,CLR,,,,,,,,METAR,"['KEDJ 130830Z AUTO 13010KT 10SM CLR 05/M05 A3030 ', ' AO1']"
KCVH,2015-03-13T08:30:00Z,11.0,10.0,0,0,,10.0,30.159449,,,,CLR,,,,,,,,METAR,"['KCVH 130830Z AUTO 00000KT 10SM CLR 11/10 A3016 ', ' AO1']"
K21D,2015-03-13T08:30:00Z,10.0,6.0,190,9,,10.0,30.050198,,,,CLR,,,,,,,,METAR,"['K21D 130830Z AUTO 19009KT 10SM CLR 10/06 A3005 ', ' AO2']"
KSYM,2015-03-13T08:30:00Z,12.0,-2.0,0,5,,10.0,30.31004,,,,BKN,5500,OVC,11000,,,,,METAR,"['KSYM 130830Z AUTO VRB05KT 10SM BKN055 OVC110 12/M02 A3031 ', ' AO2']"
KSGS,2015-03-13T08:30:00Z,10.5,5.5,190,10,,10.0,30.050198,,,,CLR,,,,,,,,METAR,"['KSGS 130830Z AUTO 19010KT 10SM CLR 11/06 A3005 ', ' AO2 T01050055']"
KMWS,2015-03-13T08:30:00Z,,,235,0,0,,,,,,,,,,,,,,METAR
KUTS,2015-03-13T08:29:00Z,12.8,12.8,0,4,,2.5,29.949802,,,BR,OVC,200,,,,,,,SPECI,"['KUTS 130829Z AUTO VRB04KT 2 1/2SM BR OVC002 13/13 A2995 ', ' AO2 T01280128']"
KTXK,2015-03-13T08:29:00Z,12.8,12.8,60,6,,1.75,29.970472,,,-RA BR,OVC,200,,,,,,,SPECI,"['KTXK 130829Z AUTO 06006KT 1 3/4SM -RA BR OVC002 13/13 A2997 ', ' AO2 P0000 T01280128']"
KELD,2015-03-13T08:29:00Z,13.9,13.3,40,5,,2.0,29.970472,,TRUE,VCTS +RA BR,OVC,200,,,,,,,SPECI,"['KELD 130829Z AUTO 04005KT 2SM VCTS +RA BR OVC002 14/13 A2997 ', ' AO2 LTG DSNT SW RAB10 P0006 T01390133 $']"
KNSE,2015-03-13T08:29:00Z,20.6,19.4,110,9,,9.0,30.109253,,TRUE,,BKN,1000,OVC,1700,,,,,SPECI,"['KNSE 130829Z AUTO 11009KT 9SM BKN010 OVC017 21/19 A3011 ', ' AO2 CIG 007V012 T02060194 $']"
KNBG,2015-03-13T08:29:00Z,20.0,18.9,90,8,,10.0,30.008858,,TRUE,-RA,BKN,600,BKN,11000,,,,,SPECI,"['KNBG 130829Z AUTO 09008KT 10SM -RA BKN006 BKN110 20/19 A3001 ', ' AO2 P0000 T02000189 $']"
KCPS,2015-03-13T08:29:00Z,9.4,8.3,60,7,,4.0,30.180119,,,RA BR,BKN,2600,OVC,3900,,,,,SPECI,"['KCPS 130829Z AUTO 06007KT 4SM RA BR BKN026 OVC039 09/08 A3018 ', ' AO2 P0015 T00940083 TSNO']"
KEHA,2015-03-13T08:28:00Z,7.2,-1.6,200,5,,,,,,,,,,,,,,,SPECI,"['KEHA 130828Z AUTO 20005KT 07/M02 ', ' AO1 PK WND 07 000 T00721016']"
KPAM,2015-03-13T08:28:00Z,20.0,18.0,80,7,,10.0,30.109253,,TRUE,,SCT,1100,,,,,,,SPECI,"['KPAM 130828Z AUTO 08007KT 10SM SCT011 20/18 A3011 ', ' AO2 $']"
KBAD,2015-03-13T08:28:00Z,14.0,14.0,10,2,,5.0,29.940945,,,BR,OVC,200,,,,,,,SPECI,"['KBAD 130828Z AUTO 01002KT 5SM R33/4500FT BR OVC002 14/14 A2994 ', ' AO2 RAB06E18']"
KOTM,2015-03-13T08:28:00Z,7.2,6.7,120,5,,2.5,30.180119,,,BR,CLR,,,,,,,,SPECI,"['KOTM 130828Z AUTO 12005KT 2 1/2SM BR CLR 07/07 A3018 ', ' AO2 T00720067']"
KHSV,2015-03-13T08:28:00Z,16.0,13.0,130,16,,10.0,30.200787,,,,BKN,2000,BKN,5500,OVC,7500,,,SPECI,"['KHSV 130828Z AUTO 13016KT 10SM BKN020 BKN055 OVC075 16/13 A3020 ', ' AO2 RAB06E15 P0000']"
KGKY,2015-03-13T08:27:00Z,15.0,11.7,340,5,,10.0,30.02067,,,,BKN,1600,OVC,7000,,,,,SPECI,"['KGKY 130827Z AUTO 34005KT 10SM BKN016 OVC070 15/12 A3002 ', ' AO2 T01500117']"
KBKB,2015-03-13T08:27:00Z,18.9,16.1,0,3,,10.0,29.920275,,TRUE,-RA,SCT,900,BKN,1800,OVC,7000,,,SPECI,"['KBKB 130827Z AUTO VRB03KT 10SM -RA SCT009 BKN018 OVC070 19/16 A2992 ', ' AO2 RAB11 P0000 T01890161 $']"
KCDD,2015-03-13T08:27:00Z,0.0,-4.0,0,0,,10.0,30.0,,,,BKN,12000,,,,,,,METAR,"['KCDD 130827Z AUTO 00000KT 10SM BKN120 00/M04 A3000 ', ' AO2']"
KW29,2015-03-13T08:26:00Z,2.0,-9.0,80,4,,10.0,30.59941,,,,,,,,,,,,SPECI,"['KW29 130826Z AUTO 08004KT 10SM 02/M09 A3060 ', ' AO1']"
KCGE,2015-03-13T08:26:00Z,3.0,-12.0,60,3,,10.0,30.590551,,,,CLR,,,,,,,,SPECI,"['KCGE 130826Z AUTO 06003KT 10SM CLR 03/M12 A3059 ', ' AO1']"
KCBE,2015-03-13T08:26:00Z,0.0,-4.0,0,0,,10.0,30.561024,,,,CLR,,,,,,,,METAR,"['KCBE 130826Z AUTO 00000KT 10SM CLR 00/M04 A3056 ', ' AO1']"
K2W6,2015-03-13T08:26:00Z,2.0,-8.0,80,4,,10.0,30.59941,,,,CLR,,,,,,,,SPECI,"['K2W6 130826Z AUTO 08004KT 10SM CLR 02/M08 A3060 ', ' AO1']"
KUNO,2015-03-13T08:26:00Z,11.1,10.0,50,6,,2.5,30.109253,,,BR,OVC,300,,,,,,,SPECI,"['KUNO 130826Z AUTO 05006KT 2 1/2SM BR OVC003 11/10 A3011 ', ' AO2 T01110100']"
KLVJ,2015-03-13T08:26:00Z,15.0,14.4,0,4,,3.0,29.970472,,,BR,OVC,400,,,,,,,SPECI,"['KLVJ 130826Z AUTO VRB04KT 3SM BR OVC004 15/14 A2997 ', ' AO2 T01500144']"
KBFM,2015-03-13T08:26:00Z,18.3,18.3,90,5,,3.0,30.100393,,,BR,OVC,900,,,,,,,SPECI,"['KBFM 130826Z 09005KT 3SM BR OVC009 18/18 A3010 ', ' AO2 T01830183']"
KSXS,2015-03-13T08:26:00Z,17.0,17.0,100,11,20,4.0,30.188976,,,BR,SCT,300,BKN,500,,,,,METAR,"['KSXS 130826Z AUTO 10011G20KT 4SM BR SCT003 BKN005 17/17 A3019 ', ' AO2 CIG 003V005']"
KFDK,2015-03-13T08:25:00Z,-2.0,-5.0,0,0,,10.0,30.611221,,,,CLR,,,,,,,,SPECI,"['KFDK 130825Z AUTO 00000KT 10SM CLR M02/M05 A3061 ', ' AO2']"
KDMW,2015-03-13T08:25:00Z,2.0,-14.0,0,0,,10.0,30.569881,,,,SCT,9000,,,,,,,SPECI,"['KDMW 130825Z AUTO 00000KT 10SM SCT090 02/M14 A3057 ', ' AO2']"
KCGS,2015-03-13T08:25:00Z,-1.0,-2.0,0,0,,10.0,30.59941,,,,CLR,,,,,,,,SPECI,"['KCGS 130825Z AUTO 00000KT 10SM CLR M01/M02 A3060 ', ' AO1']"
K2G4,2015-03-13T08:25:00Z,1.0,-10.0,120,13,,10.0,30.410433,,,,CLR,,,,,,,,SPECI,"['K2G4 130825Z AUTO 12013KT 10SM CLR 01/M10 A3041 ', ' AO1']"
KDCU,2015-03-13T08:25:00Z,14.4,12.8,120,9,,10.0,30.200787,,,,BKN,1900,BKN,2700,OVC,9000,,,METAR,"['KDCU 130825Z AUTO 12009KT 10SM BKN019 BKN027 OVC090 14/13 A3020 ', ' AO2 RAB0755E13 P0000 T01440128']"
KESF,2015-03-13T08:24:00Z,18.9,17.8,180,7,,10.0,29.958662,,,-RA,SCT,500,BKN,1000,OVC,2100,,,METAR,"['KESF 130824Z AUTO 18007KT 10SM -RA SCT005 BKN010 OVC021 19/18 A2996 ', ' AO2 RAB03 CIG 008V013 P0000 T01890178']"
KANB,2015-03-13T08:24:00Z,15.6,12.8,100,8,,10.0,30.250984,,,-RA,OVC,1500,,,,,,,METAR,"['KANB 130824Z AUTO 10008KT 10SM -RA OVC015 16/13 A3025 ', ' AO2 P0001 T01560128']"
KOZR,2015-03-13T08:23:00Z,18.0,16.0,80,11,,10.0,30.171259,,,,OVC,600,,,,,,,SPECI,"['KOZR 130823Z AUTO 08011KT 10SM OVC006 18/16 A3017 ', ' AO2']"
KBIX,2015-03-13T08:23:00Z,21.0,21.0,110,8,,5.0,30.050198,,,RA BR,OVC,500,,,,,,,SPECI,"['KBIX 130823Z AUTO 11008KT 5SM R03/5000FT RA BR OVC005 21/21 A3005 ', ' AO2']"
KHOP,2015-03-13T08:23:00Z,14.0,13.0,140,8,,10.0,30.171259,,,,BKN,3400,OVC,7500,,,,,SPECI,"['KHOP 130823Z AUTO 14008KT 10SM BKN034 OVC075 14/13 A3017 ', ' AO2 DZB08E23']"
KLSF,2015-03-13T08:22:00Z,15.0,11.0,90,9,,10.0,30.250984,,,-RA,OVC,2500,,,,,,,METAR,"['KLSF 130822Z AUTO 09009KT 10SM -RA OVC025 15/11 A3025 ', ' AO2 RAB22']"
KAEX,2015-03-13T08:22:00Z,18.9,17.8,160,7,,9.0,29.940945,,,,SCT,800,BKN,1700,OVC,2600,,,METAR,"['KAEX 130822Z 16007KT 9SM SCT008 BKN017 OVC026 19/18 A2994 ', ' AO2 T01890178']"
KMOT,2015-03-13T08:22:00Z,0.0,-1.1,290,6,,0.5,30.100393,,,FG,OVX,0,,,,,,,METAR,"['KMOT 130822Z AUTO 29006KT 1/2SM FG VV002 00/M01 A3010 ', ' AO2 T00001011']"
KCRS,2015-03-13T08:21:00Z,13.3,11.7,330,7,,7.0,30.0,,,-RA,OVC,900,,,,,,,METAR,"['KCRS 130821Z AUTO 33007KT 7SM -RA OVC009 13/12 A3000 ', ' AO2 RAB06 P0000 T01330117']"
KIRK,2015-03-13T08:21:00Z,6.7,6.1,0,0,,2.0,30.200787,,,BR,CLR,,,,,,,,METAR,"['KIRK 130821Z AUTO 00000KT 2SM BR CLR 07/06 A3020 ', ' AO2 T00670061 TSNO']"
KROG,2015-03-13T08:21:00Z,11.0,10.0,100,8,,7.0,30.079725,,,,OVC,300,,,,,,,METAR,"['KROG 130821Z AUTO 10008KT 7SM OVC003 11/10 A3008 ', ' AO2 TSNO']"
KHCO,2015-03-13T08:21:00Z,1.0,-1.0,310,9,,10.0,29.97933,,,,CLR,,,,,,,,METAR,"['KHCO 130821Z AUTO 31009KT 10SM CLR 01/M01 A2998 ', ' AO2']"
KSGJ,2015-03-13T08:20:00Z,18.0,18.0,0,0,,9.0,30.230314,,,,BKN,2500,,,,,,,METAR,"['KSGJ 130820Z AUTO 00000KT 9SM BKN025 18/18 A3023 ', ' AO2']"
KARA,2015-03-13T08:20:00Z,18.3,17.2,170,4,,7.0,29.991142,,,-RA,SCT,800,OVC,2800,,,,,METAR,"['KARA 130820Z AUTO 17004KT 7SM -RA SCT008 OVC028 18/17 A2999 ', ' AO2 P0000 T01830172']"
KACQ,2015-03-13T08:19:00Z,9.0,5.0,190,12,,10.0,30.088583,,,,CLR,,,,,,,,METAR,"['KACQ 130819Z AUTO 19012KT 10SM CLR 09/05 A3009 ', ' AO2']"
KBHM,2015-03-13T08:19:00Z,15.0,13.9,100,9,18,10.0,30.221457,,,,SCT,900,BKN,2200,OVC,12000,,,SPECI,"['KBHM 130819Z 10009G18KT 10SM SCT009 BKN022 OVC120 15/14 A3022 ', ' AO2 T01500139']"
KTGI,2015-03-13T08:18:00Z,4.0,-2.0,90,6,,10.0,30.561024,,,,CLR,,,,,,,,METAR,"['KTGI 130818Z AUTO 09006KT 10SM CLR 04/M02 A3056 ', ' AO1']"
KGWW,2015-03-13T08:18:00Z,6.0,-2.0,50,3,,10.0,30.519686,,,,CLR,,,,,,,,SPECI,"['KGWW 130818Z AUTO 05003KT 10SM CLR 06/M02 A3052 ', ' AO2']"
KPOE,2015-03-13T08:18:00Z,17.0,16.0,150,10,,10.0,29.929134,,,,BKN,900,BKN,1400,BKN,2000,,,SPECI,"['KPOE 130818Z AUTO 15010KT 10SM BKN009 BKN014 BKN020 17/16 A2993 ', ' AO2 CIG 009V012']"
KHOT,2015-03-13T08:18:00Z,13.3,12.8,0,0,,2.5,30.02067,,,-RA BR,OVC,700,,,,,,,SPECI,"['KHOT 130818Z AUTO 00000KT 2 1/2SM -RA BR OVC007 13/13 A3002 ', ' AO2 VIS 1 3/4V4 P0000 T01330128']"
KFYV,2015-03-13T08:18:00Z,10.6,10.6,70,4,,5.0,30.079725,,,BR,BKN,1400,OVC,3800,,,,,SPECI,"['KFYV 130818Z AUTO 07004KT 5SM BR BKN014 OVC038 11/11 A3008 ', ' AO2 RAB01E17 P0000 T01060106']"
KTBN,2015-03-13T08:18:00Z,11.0,11.0,50,5,,7.0,30.109253,,,-DZ,OVC,1200,,,,,,,SPECI,"['KTBN 130818Z AUTO 05005KT 7SM -DZ OVC012 11/11 A3011 ', ' AO2 RAE09DZB09E16DZB18']"
KMLC,2015-03-13T08:17:00Z,12.8,11.7,30,4,,5.0,30.050198,,,BR,OVC,400,,,,,,,SPECI,"['KMLC 130817Z AUTO 03004KT 5SM BR OVC004 13/12 A3005 ', ' AO2 T01280117']"
KIOW,2015-03-13T08:17:00Z,1.1,1.1,0,0,,0.25,30.221457,,,FG,OVX,0,,,,,,,SPECI,"['KIOW 130817Z AUTO 00000KT 1/4SM FG VV007 01/01 A3022 ', ' AO2 T00110011']"
KHKA,2015-03-13T08:17:00Z,16.1,15.6,140,9,,8.0,30.100393,,,-RA,SCT,1400,BKN,6000,OVC,7500,,,SPECI,"['KHKA 130817Z AUTO 14009KT 8SM -RA SCT014 BKN060 OVC075 16/16 A3010 ', ' AO2 RAB14 P0000 T01610156']"
KCKV,2015-03-13T08:16:00Z,13.9,12.8,150,8,,3.0,30.180119,,,RA BR,FEW,2600,BKN,3600,OVC,7000,,,SPECI,"['KCKV 130816Z AUTO 15008KT 3SM RA BR FEW026 BKN036 OVC070 14/13 A3018 ', ' AO2 RAB0756 P0015 T01390128']"
KNOW,2015-03-13T08:16:00Z,8.0,7.0,70,3,,4.0,30.318897,,,BR,CLR,,,,,,,,METAR,"['KNOW 130816Z AUTO 07003KT 4SM BR CLR 08/07 A3032 ', ' AO2']"
KAVC,2015-03-13T08:16:00Z,0.9,-1.7,0,0,,10.0,30.59941,,,,CLR,,,,,,,,SPECI,"['KAVC 130816Z AUTO 00000KT 10SM CLR 01/M02 A3060 ', ' AO2 T00091017']"
KNEW,2015-03-13T08:16:00Z,20.0,17.8,110,11,,7.0,30.029528,,,,BKN,300,BKN,4900,BKN,11000,,,SPECI,"['KNEW 130816Z AUTO 11011KT 7SM BKN003 BKN049 BKN110 20/18 A3003 ', ' AO2 RAE10 P0000 T02000178 TSNO']"
KSMN,2015-03-13T08:15:00Z,-1.0,-3.0,0,0,,5.0,30.43996,,,,CLR,,,,,,,,SPECI,"['KSMN 130815Z AUTO 00000KT 5SM CLR M01/M03 A3044 ', ' AO1']"
KBLM,2015-03-13T08:15:00Z,0.0,-14.0,10,5,,10.0,30.578741,,,,CLR,,,,,,,,SPECI,"['KBLM 130815Z AUTO 01005KT 10SM CLR 00/M14 A3058 ', ' AO1']"
KEUL,2015-03-13T08:15:00Z,5.0,-1.0,0,0,,10.0,30.380905,,,,CLR,,,,,,,,SPECI,"['KEUL 130815Z AUTO 00000KT 10SM CLR 05/M01 A3038 ', ' AO1']"
KDYB,2015-03-13T08:15:00Z,12.0,2.0,60,7,,10.0,30.410433,,,,OVC,4000,,,,,,,SPECI,"['KDYB 130815Z AUTO 06007KT 024V094 10SM OVC040 12/02 A3041 ', ' AO1']"
KSIK,2015-03-13T08:15:00Z,13.0,11.0,70,6,,10.0,30.121063,,,,BKN,2100,BKN,4500,OVC,6000,,,METAR,"['KSIK 130815Z AUTO 07006KT 10SM BKN021 BKN045 OVC060 13/11 A3012 ', ' AO2 PWINO']"
KVER,2015-03-13T08:15:00Z,11.2,11.2,140,7,,3.0,30.159449,,,RA,SCT,8000,OVC,9000,,,,,METAR,"['KVER 130815Z AUTO 14007KT 3SM RA SCT080 OVC090 11/11 A3016 ', ' AO2 P0002 T01120112']"
KY19,2015-03-13T08:15:00Z,3.0,0.0,300,8,,10.0,30.121063,,,,CLR,,,,,,,,METAR,"['KY19 130815Z AUTO 30008KT 10SM CLR 03/00 A3012 ', ' AO2']"
KWDG,2015-03-13T08:15:00Z,6.0,3.0,360,6,,10.0,30.088583,,,,CLR,,,,,,,,METAR,"['KWDG 130815Z AUTO 36006KT 10SM CLR 06/03 A3009 ', ' AO2']"
KVNC,2015-03-13T08:15:00Z,20.0,20.0,70,6,,9.0,30.15059,,,,FEW,8500,,,,,,,METAR,"['KVNC 130815Z AUTO 07006KT 9SM FEW085 20/20 A3015 ', ' AO2']"
K28J,2015-03-13T08:15:00Z,19.0,19.0,60,4,,5.0,30.221457,,,BR,OVC,300,,,,,,,METAR,"['K28J 130815Z AUTO 06004KT 5SM BR OVC003 19/19 A3022 ', ' AO2']"
K20U,2015-03-13T08:15:00Z,5.0,0.0,260,12,,10.0,30.209646,,,,CLR,,,,,,,,METAR,"['K20U 130815Z AUTO 26012KT 10SM CLR 05/00 A3021 ', ' AO2']"
K2C8,2015-03-13T08:15:00Z,2.0,-1.0,310,9,,,,,,,CLR,,,,,,,,METAR,"['K2C8 130815Z AUTO 31009KT CLR 02/M01 ', ' AO2']"
K2J9,2015-03-13T08:15:00Z,17.0,17.0,90,7,,9.0,30.221457,,,,OVC,600,,,,,,,METAR,"['K2J9 130815Z AUTO 09007KT 9SM OVC006 17/17 A3022 ', ' AO1 P0016']"
KCCA,2015-03-13T08:15:00Z,12.0,12.0,0,0,,1.5,30.079725,,,BR,OVC,700,,,,,,,METAR,"['KCCA 130815Z AUTO 00000KT 1 1/2SM BR OVC007 12/12 A3008 ', ' AO2']"
KM40,2015-03-13T08:15:00Z,18.0,9.0,110,6,14,8.0,30.129921,,,,OVC,1100,,,,,,,METAR,"['KM40 130815Z AUTO 11006G14KT 8SM OVC011 18/09 A3013 ', ' AO2']"
KFWB,2015-03-13T08:15:00Z,11.0,1.0,70,3,,0.25,30.100393,,,HZ,OVC,200,,,,,,,SPECI,"['KFWB 130815Z AUTO 07003KT 1/4SM HZ OVC002 11/01 A3010 ', ' AO2']"
KVQQ,2015-03-13T08:15:00Z,19.0,19.0,40,7,,5.0,30.230314,,,BR,OVC,500,,,,,,,SPECI,"['KVQQ 130815Z AUTO 04007KT 5SM BR OVC005 19/19 A3023 ', ' AO2']"
KDYA,2015-03-13T08:15:00Z,19.5,,90,4,,10.0,30.109253,,,,SCT,1200,SCT,2000,,,,,SPECI,"['KDYA 130815Z AUTO 09004KT 10SM SCT012 SCT020 20/ A3011 ', ' AO2 T0195']"
KO22,2015-03-13T08:15:00Z,9.0,9.0,0,0,,10.0,30.188976,,,,CLR,,,,,,,,SPECI,"['KO22 130815Z AUTO 00000KT 10SM CLR 09/09 A3019 ', ' AO1']"
KFYG,2015-03-13T08:15:00Z,11.0,9.0,0,0,,3.0,30.171259,,,-RA,SCT,3300,OVC,4400,,,,,SPECI,"['KFYG 130815Z AUTO 00000KT 3SM -RA SCT033 OVC044 11/09 A3017 ', ' AO2']"
KD60,2015-03-13T08:15:00Z,-2.0,-2.0,0,0,,7.0,30.159449,,,,CLR,,,,,,,,SPECI,"['KD60 130815Z AUTO 00000KT 7SM CLR M02/M02 A3016 ', ' AO2']"
KBBG,2015-03-13T08:15:00Z,11.0,11.0,0,0,,0.25,30.100393,,,FG,OVC,200,,,,,,,METAR,"['KBBG 130815Z AUTO 00000KT 1/4SM FG OVC002 11/11 A3010 ', ' AO2']"
K9D7,2015-03-13T08:15:00Z,0.0,0.0,300,9,,0.5,30.070866,,,FZFG,OVC,200,,,,,,,METAR,"['K9D7 130815Z AUTO 30009KT 1/2SM FZFG OVC002 00/00 A3007 ', ' AO2']"
KSNC,2015-03-13T08:15:00Z,-1.0,-15.0,330,4,,10.0,30.590551,,,,CLR,,,,,,,,METAR,"['KSNC 130815Z AUTO 33004KT 10SM CLR M01/M15 A3059 ', ' AO2']"
KO54,2015-03-13T08:15:00Z,7.0,5.0,0,0,,10.0,30.230314,,,,CLR,,,,,,,,METAR,"['KO54 130815Z AUTO 00000KT 10SM CLR 07/05 A3023 ', ' AO1']"
K4A6,2015-03-13T08:15:00Z,14.0,12.0,130,5,,10.0,30.268702,,,,SCT,2400,BKN,4400,OVC,8500,,,METAR,"['K4A6 130815Z AUTO 13005KT 10SM SCT024 BKN044 OVC085 14/12 A3027 ', ' AO2']"
KUOX,2015-03-13T08:15:00Z,17.0,16.0,120,10,17,4.0,30.100393,,,BR,OVC,500,,,,,,,METAR,"['KUOX 130815Z AUTO 12010G17KT 4SM BR OVC005 17/16 A3010 ', ' AO2 PWINO PNO']"
KRUG,2015-03-13T08:15:00Z,0.0,0.0,310,8,,0.25,30.088583,,,FZFG,OVC,100,,,,,,,METAR,"['KRUG 130815Z AUTO 31008KT 1/4SM FZFG OVC001 00/00 A3009 ', ' AO2']"
KANK,2015-03-13T08:15:00Z,4.6,-0.8,320,4,,10.0,30.41929,,,,SCT,7000,BKN,11000,,,,,METAR,"['KANK 130815Z AUTO 32004KT 10SM SCT070 BKN110 05/M01 A3042 ', ' AO1 T00461008']"
KUES,2015-03-13T08:15:00Z,0.0,-2.0,0,0,,10.0,30.268702,,,,CLR,,,,,,,,METAR,"['KUES 130815Z AUTO 00000KT 10SM CLR 00/M02 A3027 ', ' AO2']"
KTMA,2015-03-13T08:15:00Z,13.5,11.1,90,4,,10.0,30.268702,,,,OVC,1500,,,,,,,METAR,"['KTMA 130815Z AUTO 09004KT 10SM OVC015 14/11 A3027 ', ' AO2 T01350111']"
KSRR,2015-03-13T08:15:00Z,5.0,-3.0,270,5,,10.0,30.188976,,,,SCT,7500,,,,,,,METAR,"['KSRR 130815Z AUTO 27005KT 10SM SCT075 05/M03 A3019 ', ' AO2']"
KSEE,2015-03-13T08:15:00Z,13.0,7.0,0,0,,10.0,30.041338,,,,CLR,,,,,,,,METAR,"['KSEE 130815Z AUTO 00000KT 10SM CLR 13/07 A3004 ', ' AO2']"
KLRO,2015-03-13T08:15:00Z,12.0,6.0,50,8,15,10.0,30.389763,,,,OVC,4100,,,,,,,METAR,"['KLRO 130815Z AUTO 05008G15KT 360V360 10SM OVC041 12/06 A3039 ', ' AO2']"
KHOE,2015-03-13T08:15:00Z,17.0,15.0,70,5,,7.0,30.268702,,,,OVC,1200,,,,,,,METAR,"['KHOE 130815Z AUTO 07005KT 7SM OVC012 17/15 A3027 ', ' AO2']"
KGYH,2015-03-13T08:15:00Z,12.0,-3.0,80,10,,10.0,30.431103,,,,OVC,5000,,,,,,,METAR,"['KGYH 130815Z AUTO 08010KT 10SM OVC050 12/M03 A3043 ', ' AO2']"
KEOE,2015-03-13T08:15:00Z,13.0,0.0,80,7,,10.0,30.448818,,,,OVC,5000,,,,,,,METAR,"['KEOE 130815Z AUTO 08007KT 10SM OVC050 13/00 A3045 ', ' AO2']"
KCKM,2015-03-13T08:15:00Z,18.0,18.0,110,10,,,30.050198,,,,OVC,800,,,,,,,METAR,"['KCKM 130815Z AUTO 11010KT OVC008 18/18 A3005 ', ' AO1']"
KBWP,2015-03-13T08:15:00Z,1.0,0.0,280,8,,10.0,30.041338,,,,CLR,,,,,,,,METAR,"['KBWP 130815Z AUTO 28008KT 10SM CLR 01/00 A3004 ', ' AO1']"
KBUU,2015-03-13T08:15:00Z,-1.2,-3.1,0,0,,10.0,30.259842,,,,CLR,,,,,,,,METAR,"['KBUU 130815Z AUTO 00000KT 10SM CLR M01/M03 A3026 ', ' AO2 T10121031']"
KAIG,2015-03-13T08:15:00Z,1.4,-0.2,170,6,,10.0,30.159449,,,,CLR,,,,,,,,METAR,"['KAIG 130815Z AUTO 17006KT 10SM CLR 01/00 A3016 ', ' AO2 T00141002']"
K5H4,2015-03-13T08:15:00Z,0.0,0.0,300,15,19,0.25,30.100393,,,FG,OVC,100,,,,,,,METAR,"['K5H4 130815Z AUTO 30015G19KT 1/4SM FG OVC001 00/00 A3010 ', ' AO2']"
KUNI,2015-03-13T08:15:00Z,,,0,0,,10.0,30.339567,,,,CLR,,,,,,,,SPECI,"['KUNI 130815Z AUTO 00000KT 10SM CLR A3034 ', ' AO2']"
KUKF,2015-03-13T08:15:00Z,8.0,1.0,40,4,,10.0,30.540354,,,,OVC,7000,,,,,,,SPECI,"['KUKF 130815Z AUTO 04004KT 10SM OVC070 08/01 A3054 ', ' AO2']"
KUBE,2015-03-13T08:15:00Z,7.0,3.0,190,8,,10.0,30.050198,,,,CLR,,,,,,,,SPECI,"['KUBE 130815Z AUTO 19008KT 10SM CLR 07/03 A3005 ', ' AO2']"
KU68,2015-03-13T08:15:00Z,5.0,-3.0,240,4,,10.0,30.360237,,,,CLR,,,,,,,,SPECI,"['KU68 130815Z AUTO 24004KT 10SM CLR 05/M03 A3036 ', ' AO2']"
KTVK,2015-03-13T08:15:00Z,7.0,7.0,140,4,,10.0,30.200787,,,,CLR,,,,,,,,SPECI,"['KTVK 130815Z AUTO 14004KT 10SM CLR 07/07 A3020 ', ' AO2']"
KTVI,2015-03-13T08:15:00Z,16.0,16.0,80,8,14,7.0,30.250984,,,,OVC,800,,,,,,,SPECI,"['KTVI 130815Z AUTO 08008G14KT 7SM OVC008 16/16 A3025 ', ' AO2']"
KTRK,2015-03-13T08:15:00Z,-2.0,-3.0,0,0,,10.0,30.369095,,,,CLR,,,,,,,,SPECI,"['KTRK 130815Z AUTO 00000KT 10SM CLR M02/M03 A3037 ', ' AO2']"
KTNU,2015-03-13T08:15:00Z,6.0,6.0,150,7,,3.0,30.171259,,,BR,CLR,,,,,,,,SPECI,"['KTNU 130815Z AUTO 15007KT 3SM BR CLR 06/06 A3017 ', ' AO2']"
KTIF,2015-03-13T08:15:00Z,11.0,0.0,330,6,,10.0,30.200787,,,,CLR,,,,,,,,SPECI,"['KTIF 130815Z AUTO 33006KT 10SM CLR 11/00 A3020 ', ' AO2 T01100000']"
KTFP,2015-03-13T08:15:00Z,14.3,13.4,40,3,,7.0,29.991142,,,,CLR,,,,,,,,SPECI,"['KTFP 130815Z AUTO 04003KT 7SM CLR 14/13 A2999 ', ' AO2 T01430134']"
KTDF,2015-03-13T08:15:00Z,3.0,-1.0,70,3,,10.0,30.549213,,,,CLR,,,,,,,,SPECI,"['KTDF 130815Z AUTO 07003KT 10SM CLR 03/M01 A3055 ', ' AO2']"
KTBR,2015-03-13T08:15:00Z,14.7,3.6,80,6,,10.0,30.339567,,,,OVC,2100,,,,,,,SPECI,"['KTBR 130815Z AUTO 08006KT 10SM OVC021 15/04 A3034 ', ' AO2 T01470036']"
KTAZ,2015-03-13T08:15:00Z,7.0,3.0,100,4,,10.0,30.221457,,,-RA,BKN,8000,OVC,10000,,,,,SPECI,"['KTAZ 130815Z AUTO 10004KT 10SM -RA BKN080 OVC100 07/03 A3022 ', ' AO2 P0001']"
KT82,2015-03-13T08:15:00Z,7.5,6.4,0,0,,10.0,30.029528,,,,CLR,,,,,,,,SPECI,"['KT82 130815Z AUTO 00000KT 10SM CLR 08/06 A3003 ', ' AO2 T00750064']"
KT35,2015-03-13T08:15:00Z,13.2,12.5,320,6,,7.0,29.991142,,,,OVC,1200,,,,,,,SPECI,"['KT35 130815Z AUTO 32006KT 7SM OVC012 13/13 A2999 ', ' AO2 T01320125']"
KSYF,2015-03-13T08:15:00Z,8.5,-3.6,340,9,,10.0,30.171259,,,,CLR,,,,,,,,SPECI,"['KSYF 130815Z AUTO 34009KT 10SM CLR 09/M04 A3017 ', ' AO2 T00851036']"
KSWW,2015-03-13T08:15:00Z,13.3,4.2,0,0,,10.0,30.100393,,,,CLR,,,,,,,,SPECI,"['KSWW 130815Z AUTO 00000KT 10SM CLR 13/04 A3010 ', ' AO2 T01330042']"
KSVH,2015-03-13T08:15:00Z,11.0,-0.6,60,3,,10.0,30.481298,,,,OVC,7500,,,,,,,SPECI,"['KSVH 130815Z AUTO 06003KT 10SM OVC075 11/M01 A3048 ', ' AO2 T01101006']"
KSUW,2015-03-13T08:15:00Z,0.4,-0.5,60,7,,10.0,30.041338,,,,CLR,,,,,,,,SPECI,"['KSUW 130815Z AUTO 06007KT 10SM CLR 00/00 A3004 ', ' AO2 T00041005']"
KSTE,2015-03-13T08:15:00Z,3.7,0.0,190,8,,10.0,30.180119,,,,CLR,,,,,,,,SPECI,"['KSTE 130815Z AUTO 19008KT 10SM CLR 04/00 A3018 ', ' AO2 T00370000']"
KSFQ,2015-03-13T08:15:00Z,-1.0,-3.1,0,0,,10.0,30.561024,,,,CLR,,,,,,,,SPECI,"['KSFQ 130815Z AUTO 00000KT 10SM CLR M01/M03 A3056 ', ' AO2 T10101031']"
KSEZ,2015-03-13T08:15:00Z,11.0,1.0,60,8,,10.0,30.15059,,,,CLR,,,,,,,,SPECI,"['KSEZ 130815Z AUTO 06008KT 030V100 10SM CLR 11/01 A3015 ', ' AO2']"
KSBO,2015-03-13T08:15:00Z,16.0,-6.0,90,8,,10.0,30.339567,,,,OVC,2200,,,,,,,SPECI,"['KSBO 130815Z AUTO 09008KT 10SM OVC022 16/M06 A3034 ', ' AO2']"
KRYV,2015-03-13T08:15:00Z,-0.4,-2.0,0,0,,10.0,30.250984,,,,CLR,,,,,,,,SPECI,"['KRYV 130815Z AUTO 00000KT 10SM CLR 00/M02 A3025 ', ' AO2 T10041020']"
KRNH,2015-03-13T08:15:00Z,9.1,5.0,190,10,,7.0,30.050198,,,,CLR,,,,,,,,SPECI,"['KRNH 130815Z AUTO 19010KT 7SM CLR 09/05 A3005 ', ' AO2 T00910050']"
KRCR,2015-03-13T08:15:00Z,3.0,0.0,100,6,,10.0,30.28937,,,,CLR,,,,,,,,SPECI,"['KRCR 130815Z AUTO 10006KT 10SM CLR 03/00 A3029 ', ' AO2']"
KRBO,2015-03-13T08:15:00Z,14.7,13.6,,,,10.0,29.991142,,,,CLR,,,,,,,,SPECI,"['KRBO 130815Z 10SM CLR 15/14 A2999 ', ' AO2 T01470136']"
KRAS,2015-03-13T08:15:00Z,14.7,13.0,0,0,,10.0,29.991142,,,,CLR,,,,,,,,SPECI,"['KRAS 130815Z AUTO 00000KT 10SM CLR 15/13 A2999 ', ' AO2 T01470130']"
KPYX,2015-03-13T08:15:00Z,2.9,-0.7,0,0,,10.0,30.129921,,,,CLR,,,,,,,,SPECI,"['KPYX 130815Z AUTO 00000KT 10SM CLR 03/M01 A3013 ', ' AO2 T00291007']"
KPSK,2015-03-13T08:15:00Z,7.2,-0.5,100,3,,10.0,30.499016,,,,OVC,11000,,,,,,,SPECI,"['KPSK 130815Z AUTO 10003KT 10SM OVC110 07/00 A3050 ', ' AO2 T00721005']"
KPRS,2015-03-13T08:15:00Z,13.8,1.9,20,6,,10.0,30.050198,,,,CLR,,,,,,,,SPECI,"['KPRS 130815Z AUTO 02006KT 10SM CLR 14/02 A3005 ', ' AO2 T01380019']"
KPPA,2015-03-13T08:15:00Z,4.4,1.1,210,7,,10.0,30.129921,,,,CLR,,,,,,,,SPECI,"['KPPA 130815Z AUTO 21007KT 10SM CLR 04/01 A3013 ', ' AO2 T00440011']"
KPNA,2015-03-13T08:15:00Z,-3.0,-4.0,300,3,,10.0,30.431103,,,,CLR,,,,,,,,SPECI,"['KPNA 130815Z AUTO 30003KT 10SM CLR M03/M04 A3043 ', ' AO2']"
KOOA,2015-03-13T08:15:00Z,4.5,3.7,140,8,,1.25,30.188976,,,BR,OVX,0,,,,,,,SPECI,"['KOOA 130815Z AUTO 14008KT 1 1/4SM BR VV007 05/04 A3019 ', ' AO2 T00450037']"
KOLY,2015-03-13T08:15:00Z,8.0,5.0,90,4,,10.0,30.221457,,,-RA,SCT,4300,SCT,5500,OVC,8000,,,SPECI,"['KOLY 130815Z AUTO 09004KT 10SM -RA SCT043 SCT055 OVC080 08/05 A3022 ', ' AO2']"
KOCQ,2015-03-13T08:15:00Z,2.6,-1.9,180,5,,10.0,30.209646,,,,CLR,,,,,,,,SPECI,"['KOCQ 130815Z AUTO 18005KT 10SM CLR 03/M02 A3021 ', ' AO1 T00261019']"
KNY0,2015-03-13T08:15:00Z,-8.6,-16.0,0,0,,10.0,30.561024,,,,CLR,,,,,,,,SPECI,"['KNY0 130815Z AUTO 00000KT 10SM CLR M09/M16 A3056 ', ' AO2 T10861160']"
KMZZ,2015-03-13T08:15:00Z,1.9,-2.6,100,6,,10.0,30.28937,,,,CLR,,,,,,,,SPECI,"['KMZZ 130815Z AUTO 10006KT 10SM CLR 02/M03 A3029 ', ' AO2 T00191026']"
KEFT,2015-03-13T08:15:00Z,3.0,1.0,180,7,,10.0,30.221457,,,,CLR,,,,,,,,SPECI,"['KEFT 130815Z AUTO 18007KT 10SM CLR 03/01 A3022 ', ' AO2']"
KE11,2015-03-13T08:15:00Z,7.4,0.8,200,4,,10.0,30.100393,,,,CLR,,,,,,,,SPECI,"['KE11 130815Z AUTO 20004KT 10SM CLR 07/01 A3010 ', ' AO2 T00740008']"
KDTA,2015-03-13T08:15:00Z,5.1,1.0,40,6,,10.0,30.33071,,,,CLR,,,,,,,,SPECI,"['KDTA 130815Z AUTO 04006KT 10SM CLR 05/01 A3033 ', ' AO1 T00510010']"
KDNN,2015-03-13T08:15:00Z,15.0,7.0,140,8,20,10.0,30.31004,,,,OVC,3700,,,,,,,SPECI,"['KDNN 130815Z AUTO 14008G20KT 10SM OVC037 15/07 A3031 ', ' AO2']"
KDCY,2015-03-13T08:15:00Z,9.6,2.3,120,3,,10.0,30.209646,,,,OVC,10000,,,,,,,SPECI,"['KDCY 130815Z AUTO 12003KT 10SM OVC100 10/02 A3021 ', ' AO2 T00960023']"
KD25,2015-03-13T08:15:00Z,5.2,0.9,180,7,,10.0,30.088583,,,,SCT,11000,,,,,,,SPECI,"['KD25 130815Z AUTO 18007KT 10SM SCT110 05/01 A3009 ', ' AO2 T00520009']"
KCXE,2015-03-13T08:15:00Z,5.2,-1.1,80,3,,10.0,30.528543,,,,BKN,9000,,,,,,,SPECI,"['KCXE 130815Z AUTO 08003KT 10SM BKN090 05/M01 A3053 ', ' AO1 T00521011']"
KCVB,2015-03-13T08:15:00Z,10.0,9.2,320,5,,10.0,30.029528,,,,CLR,,,,,,,,SPECI,"['KCVB 130815Z AUTO 32005KT 10SM CLR 10/09 A3003 ', ' AO2 T01000092']"
KCMY,2015-03-13T08:15:00Z,6.8,3.4,210,5,,7.0,30.180119,,,,CLR,,,,,,,,SPECI,"['KCMY 130815Z AUTO 21005KT 7SM CLR 07/03 A3018 ', ' AO2 T00680034']"
KCKP,2015-03-13T08:15:00Z,6.3,1.1,220,4,,10.0,30.129921,,,,CLR,,,,,,,,SPECI,"['KCKP 130815Z AUTO 22004KT 10SM CLR 06/01 A3013 ', ' AO2 T00630011']"
KCJR,2015-03-13T08:15:00Z,-1.0,-2.0,0,0,,10.0,30.578741,,,,CLR,,,,,,,,SPECI,"['KCJR 130815Z AUTO 00000KT 10SM CLR M01/M02 A3058 ', ' AO2']"
KCDH,2015-03-13T08:15:00Z,13.0,12.0,0,0,,2.5,29.991142,,,BR,OVC,100,,,,,,,SPECI,"['KCDH 130815Z AUTO 00000KT 2 1/2SM BR OVC001 13/12 A2999 ', ' AO2']"
KCBK,2015-03-13T08:15:00Z,11.0,2.0,200,11,,10.0,30.15059,,,,CLR,,,,,,,,SPECI,"['KCBK 130815Z AUTO 20011KT 10SM CLR 11/02 A3015 ', ' AO2']"
KC75,2015-03-13T08:15:00Z,2.1,0.5,0,0,,7.0,30.239174,,,,CLR,,,,,,,,SPECI,"['KC75 130815Z AUTO 00000KT 7SM CLR 02/01 A3024 ', ' AO2 T00210005']"
KBQP,2015-03-13T08:15:00Z,18.3,18.0,90,5,,5.0,29.991142,,,BR,SCT,200,OVC,3800,,,,,SPECI,"['KBQP 130815Z AUTO 09005KT 5SM BR SCT002 OVC038 18/18 A2999 ', ' AO2 T01830180']"
KBQK,2015-03-13T08:15:00Z,16.0,14.0,40,10,14,7.0,30.28937,,,,OVC,800,,,,,,,SPECI,"['KBQK 130815Z AUTO 04010G14KT 7SM OVC008 16/14 A3029 ', ' AO1']"
KBPG,2015-03-13T08:15:00Z,8.2,3.6,100,4,,10.0,30.088583,,,,CLR,,,,,,,,SPECI,"['KBPG 130815Z AUTO 10004KT 10SM CLR 08/04 A3009 ', ' AO2 T00820036']"
KBMC,2015-03-13T08:15:00Z,4.6,1.4,0,0,,10.0,30.380905,,,,CLR,,,,,,,,SPECI,"['KBMC 130815Z AUTO 00000KT 10SM CLR 05/01 A3038 ', ' AO1 T00460014']"
KBKD,2015-03-13T08:15:00Z,10.4,7.6,0,0,,10.0,30.041338,,,,CLR,,,,,,,,SPECI,"['KBKD 130815Z AUTO 00000KT 10SM CLR 10/08 A3004 ', ' AO2 T01040076']"
KAZE,2015-03-13T08:15:00Z,15.5,11.1,80,6,,10.0,30.28937,,,,OVC,1900,,,,,,,SPECI,"['KAZE 130815Z AUTO 08006KT 10SM OVC019 16/11 A3029 ', ' AO2 T01550111']"
KASJ,2015-03-13T08:15:00Z,-0.1,-2.4,0,0,,10.0,30.549213,,,,CLR,,,,,,,,SPECI,"['KASJ 130815Z AUTO 00000KT 10SM CLR 00/M02 A3055 ', ' AO2 T10011024']"
KARV,2015-03-13T08:15:00Z,5.3,1.6,190,8,,10.0,30.100393,,,,SCT,9500,,,,,,,SPECI,"['KARV 130815Z AUTO 19008KT 10SM SCT095 05/02 A3010 ', ' AO2 T00530016']"
KAQR,2015-03-13T08:15:00Z,12.0,11.0,20,4,,10.0,30.041338,,,,OVC,900,,,,,,,SPECI,"['KAQR 130815Z AUTO 02004KT 10SM OVC009 12/11 A3004 ', ' AO2']"
KAQO,2015-03-13T08:15:00Z,8.0,7.0,0,0,,10.0,30.059055,,,,CLR,,,,,,,,SPECI,"['KAQO 130815Z AUTO 00000KT 10SM CLR 08/07 A3006 ', ' AO2']"
KAFO,2015-03-13T08:15:00Z,-3.0,-5.0,0,0,,10.0,30.431103,,,,CLR,,,,,,,,SPECI,"['KAFO 130815Z AUTO 00000KT 10SM CLR M03/M05 A3043 ', ' AO2']"
KADM,2015-03-13T08:15:00Z,11.1,10.3,360,4,,10.0,30.041338,,,,CLR,,,,,,,,SPECI,"['KADM 130815Z AUTO 36004KT 10SM CLR 11/10 A3004 ', ' AO2 T01110103']"
KACP,2015-03-13T08:15:00Z,17.8,16.7,0,0,,10.0,29.958662,,,,BKN,1000,BKN,1500,OVC,4300,,,SPECI,"['KACP 130815Z AUTO 00000KT 10SM BKN010 BKN015 OVC043 18/17 A2996 ', ' AO2 T01780167']"
KACJ,2015-03-13T08:15:00Z,13.0,8.0,80,7,,10.0,30.301182,,,,OVC,2100,,,,,,,SPECI,"['KACJ 130815Z AUTO 08007KT 10SM OVC021 13/08 A3030 ', ' AO2']"
KA08,2015-03-13T08:15:00Z,19.2,18.0,120,8,15,10.0,30.129921,,,,OVC,1000,,,,,,,METAR,"['KA08 130815Z AUTO 12008G15KT 10SM OVC010 19/18 A3013 ', ' AO2 T01920180']"
K9V9,2015-03-13T08:15:00Z,8.6,-0.2,320,11,,10.0,30.15059,,,,CLR,,,,,,,,SPECI,"['K9V9 130815Z AUTO 32011KT 10SM CLR 09/00 A3015 ', ' AO2 T00861002']"
K8A0,2015-03-13T08:15:00Z,13.0,13.0,100,8,24,7.0,30.239174,,,-RA,OVC,900,,,,,,,SPECI,"['K8A0 130815Z AUTO 10008G24KT 069V129 7SM -RA OVC009 13/13 A3024 ', ' AO2']"
K3T5,2015-03-13T08:15:00Z,15.3,14.2,320,3,,7.0,29.97933,,,,SCT,1400,BKN,8500,,,,,SPECI,"['K3T5 130815Z AUTO 32003KT 7SM SCT014 BKN085 15/14 A2998 ', ' AO2 T01530142']"
K3N8,2015-03-13T08:15:00Z,2.5,1.1,270,6,,10.0,29.97933,,,,CLR,,,,,,,,SPECI,"['K3N8 130815Z AUTO 27006KT 10SM CLR 03/01 A2998 ', ' AO2 T00250011']"
K3K3,2015-03-13T08:15:00Z,3.0,0.0,10,4,,10.0,30.159449,,,,CLR,,,,,,,,METAR,"['K3K3 130815Z AUTO 01004KT 10SM CLR 03/00 A3016 ', ' AO2']"
K3AU,2015-03-13T08:15:00Z,7.0,1.0,40,4,,10.0,30.129921,,,,CLR,,,,,,,,METAR,"['K3AU 130815Z AUTO 04004KT 10SM CLR 07/01 A3013 ', ' AO2']"
K1F0,2015-03-13T08:15:00Z,12.0,10.0,0,0,,10.0,30.041338,,,,CLR,,,,,,,,SPECI,"['K1F0 130815Z AUTO 00000KT 10SM CLR 12/10 A3004 ', ' AO2']"
KY51,2015-03-13T08:15:00Z,4.9,3.5,170,9,,5.0,30.180119,,,,CLR,,,,,,,,SPECI,"['KY51 130815Z AUTO 17009KT 5SM CLR 05/04 A3018 ', ' AO1 T00490035']"
KY49,2015-03-13T08:15:00Z,6.2,4.7,240,4,,7.0,29.958662,,,,CLR,,,,,,,,SPECI,"['KY49 130815Z AUTO 24004KT 7SM CLR 06/05 A2996 ', ' AO2 T00620047']"
KY23,2015-03-13T08:15:00Z,7.3,3.6,140,6,,10.0,30.079725,,,,CLR,,,,,,,,SPECI,"['KY23 130815Z AUTO 14006KT 10SM CLR 07/04 A3008 ', ' AO2 T00730036']"
KWWR,2015-03-13T08:15:00Z,6.0,1.0,280,3,,10.0,30.129921,,,,CLR,,,,,,,,SPECI,"['KWWR 130815Z AUTO 28003KT 10SM CLR 06/01 A3013 ', ' AO2']"
KW99,2015-03-13T08:15:00Z,-1.3,-4.3,0,0,,10.0,30.528543,,,,CLR,,,,,,,,SPECI,"['KW99 130815Z AUTO 00000KT 10SM CLR M01/M04 A3053 ', ' AO2 T10131043']"
KW78,2015-03-13T08:15:00Z,5.8,-1.2,0,0,,10.0,30.540354,,,,OVC,9000,,,,,,,SPECI,"['KW78 130815Z AUTO 00000KT 10SM OVC090 06/M01 A3054 ', ' AO1 T00581012']"
KW22,2015-03-13T08:15:00Z,8.0,-6.0,110,4,,10.0,30.380905,,,,CLR,,,,,,,,SPECI,"['KW22 130815Z AUTO 11004KT 10SM CLR 08/M06 A3038 ', ' AO2']"
KW13,2015-03-13T08:15:00Z,5.6,-6.8,120,4,,10.0,30.510826,,,,CLR,,,,,,,,SPECI,"['KW13 130815Z AUTO 12004KT 10SM CLR 06/M07 A3051 ', ' AO1 T00561068']"
KVVG,2015-03-13T08:15:00Z,20.0,20.0,0,0,,7.0,30.100393,,,,,,,,,,,,SPECI,"['KVVG 130815Z AUTO 00000KT 7SM 20/20 A3010 ', ' A01']"
KVUJ,2015-03-13T08:15:00Z,10.5,-2.4,90,5,,10.0,30.528543,,,,BKN,7500,OVC,9000,,,,,SPECI,"['KVUJ 130815Z AUTO 09005KT 10SM BKN075 OVC090 11/M02 A3053 ', ' AO2 T01051024']"
KVJI,2015-03-13T08:15:00Z,8.2,4.4,90,9,,10.0,30.41929,,,RA,BKN,5000,OVC,6500,,,,,SPECI,"['KVJI 130815Z AUTO 09009KT 10SM RA BKN050 OVC065 08/04 A3042 ', ' AO2 P0001 T00820044']"
KVES,2015-03-13T08:15:00Z,3.0,-1.0,0,0,,10.0,30.28937,,,,CLR,,,,,,,,SPECI,"['KVES 130815Z AUTO 00000KT 10SM CLR 03/M01 A3029 ', ' AO2']"
KUXL,2015-03-13T08:15:00Z,16.6,16.5,170,12,,7.0,29.958662,,,-RA,OVC,300,,,,,,,SPECI,"['KUXL 130815Z AUTO 17012KT 7SM -RA OVC003 17/17 A2996 ', ' AO2 T01660165']"
KUNU,2015-03-13T08:15:00Z,1.5,-1.8,160,7,,10.0,30.250984,,,,CLR,,,,,,,,SPECI,"['KUNU 130815Z AUTO 16007KT 10SM CLR 02/M02 A3025 ', ' AO2 T00151018']"
KMYZ,2015-03-13T08:15:00Z,6.0,0.0,0,0,,10.0,30.138779,,,,CLR,,,,,,,,SPECI,"['KMYZ 130815Z AUTO 00000KT 10SM CLR 06/00 A3014 ', ' AO2']"
KMWK,2015-03-13T08:15:00Z,9.8,-0.4,90,3,,,30.510826,,,,BKN,12000,,,,,,,SPECI,"['KMWK 130815Z AUTO 09003KT BKN120 10/00 A3051 ', ' AO2 T00981004 PWINO']"
KMTV,2015-03-13T08:15:00Z,4.6,2.0,0,0,,10.0,30.549213,,,,CLR,,,,,,,,SPECI,"['KMTV 130815Z AUTO 00000KT 10SM CLR 05/02 A3055 ', ' AO2 T00460020']"
KMPZ,2015-03-13T08:15:00Z,5.5,4.1,130,5,,7.0,30.200787,,,,CLR,,,,,,,,SPECI,"['KMPZ 130815Z AUTO 13005KT 7SM CLR 06/04 A3020 ', ' AO2 T00550041']"
KMNE,2015-03-13T08:15:00Z,15.3,14.5,0,0,,4.0,29.958662,,,RA,SCT,600,SCT,1000,BKN,1500,,,SPECI,"['KMNE 130815Z AUTO 00000KT 4SM RA SCT006 SCT010 BKN015 15/15 A2996 ', ' AO2 P0005 T01530145']"
KMKJ,2015-03-13T08:15:00Z,9.5,-4.1,80,8,,10.0,30.469488,,,,SCT,7500,BKN,11000,,,,,SPECI,"['KMKJ 130815Z AUTO 08008KT 10SM SCT075 BKN110 10/M04 A3047 ', ' AO2 T00951041']"
KMGC,2015-03-13T08:15:00Z,3.0,-5.0,130,6,,10.0,30.28937,,,,CLR,,,,,,,,SPECI,"['KMGC 130815Z AUTO 13006KT 10SM CLR 03/M05 A3029 ', ' AO2']"
KMDZ,2015-03-13T08:15:00Z,2.6,1.5,170,8,,5.0,30.121063,,,BR,CLR,,,,,,,,SPECI,"['KMDZ 130815Z AUTO 17008KT 5SM BR CLR 03/02 A3012 ', ' AO2 T00260015']"
KMDD,2015-03-13T08:15:00Z,8.9,3.5,220,4,,10.0,30.088583,,,,CLR,,,,,,,,SPECI,"['KMDD 130815Z AUTO 22004KT 10SM CLR 09/04 A3009 ', ' AO2 T00890035']"
KLWB,2015-03-13T08:15:00Z,5.7,-3.4,0,0,,10.0,30.46063,,,,CLR,,,,,,,,SPECI,"['KLWB 130815Z AUTO 00000KT 10SM CLR 06/M03 A3046 ', ' AO2 T00571034']"
KLNP,2015-03-13T08:15:00Z,7.0,2.0,160,7,,10.0,30.380905,,,DZ,BKN,7000,OVC,9000,,,,,SPECI,"['KLNP 130815Z AUTO 16007KT 10SM DZ BKN070 OVC090 07/02 A3038 ', ' AO2']"
KLNL,2015-03-13T08:15:00Z,6.0,0.1,190,4,,10.0,30.100393,,,,OVC,9500,,,,,,,SPECI,"['KLNL 130815Z AUTO 19004KT 10SM OVC095 06/00 A3010 ', ' AO2 T00600001']"
KLHZ,2015-03-13T08:15:00Z,1.0,-2.0,0,0,,10.0,30.540354,,,,CLR,,,,,,,,SPECI,"['KLHZ 130815Z AUTO 00000KT 10SM CLR 01/M02 A3054 ', ' AO2']"
KL38,2015-03-13T08:15:00Z,19.6,19.6,130,7,,10.0,29.97933,,,-RA,BKN,700,OVC,6500,,,,,SPECI,"['KL38 130815Z AUTO 13007KT 10SM -RA BKN007 OVC065 20/20 A2998 ', ' AO2 LTG DSNT SE P0001 T01960196']"
KL35,2015-03-13T08:15:00Z,7.0,-2.0,50,10,,10.0,30.280512,,,,CLR,,,,,,,,SPECI,"['KL35 130815Z AUTO 05010KT 10SM CLR 07/M02 A3028 ', ' AO2']"
KJYO,2015-03-13T08:15:00Z,0.0,-3.0,0,0,,10.0,30.590551,,,,CLR,,,,,,,,SPECI,"['KJYO 130815Z AUTO 00000KT 10SM CLR 00/M03 A3059 ', ' AO2']"
KJES,2015-03-13T08:15:00Z,16.0,14.0,80,9,14,7.0,30.301182,,,,OVC,1500,,,,,,,SPECI,"['KJES 130815Z AUTO 08009G14KT 7SM OVC015 16/14 A3030 ', ' AO2']"
KIZA,2015-03-13T08:15:00Z,11.0,6.0,0,0,,10.0,30.100393,,,,CLR,,,,,,,,SPECI,"['KIZA 130815Z AUTO 00000KT 10SM CLR 11/06 A3010 ', ' AO2']"
KIWA,2015-03-13T08:15:00Z,15.0,3.0,0,0,,10.0,29.991142,,,,CLR,,,,,,,,METAR,"['KIWA 130815Z AUTO 00000KT 10SM CLR 15/03 A2999 ', ' AO2']"
KHZR,2015-03-13T08:15:00Z,18.3,18.0,0,0,,3.0,29.97933,,,-RA,OVC,600,,,,,,,SPECI,"['KHZR 130815Z AUTO 00000KT 3SM -RA OVC006 18/18 A2998 ', ' AO2 LTG DSNT SE P0003 T01830180']"
KHWY,2015-03-13T08:15:00Z,-2.4,-2.4,0,0,,10.0,30.569881,,,,CLR,,,,,,,,SPECI,"['KHWY 130815Z AUTO 00000KT 10SM CLR M02/M02 A3057 ', ' AO2 T10241024']"
KHRX,2015-03-13T08:15:00Z,4.4,0.6,0,0,,10.0,30.138779,,,,CLR,,,,,,,,SPECI,"['KHRX 130815Z AUTO 00000KT 10SM CLR 04/01 A3014 ', ' AO2 T00440006']"
KHHG,2015-03-13T08:15:00Z,0.5,-3.5,90,3,,10.0,30.301182,,,,CLR,,,,,,,,SPECI,"['KHHG 130815Z AUTO 09003KT 10SM CLR 01/M03 A3030 ', ' AO2 T00051035']"
KHFJ,2015-03-13T08:15:00Z,10.0,10.0,50,3,,5.0,30.088583,,,BR,OVC,400,,,,,,,SPECI,"['KHFJ 130815Z AUTO 05003KT 5SM BR OVC004 10/10 A3009 ', ' AO2']"
KHDC,2015-03-13T08:15:00Z,19.0,18.0,140,10,14,10.0,30.029528,,,-RA,SCT,500,BKN,9500,OVC,11000,,,SPECI,"['KHDC 130815Z AUTO 14010G14KT 10SM -RA SCT005 BKN095 OVC110 19/18 A3003 ', ' AO2 LTG DSNT SE P0001']"
KGVE,2015-03-13T08:15:00Z,-0.6,-2.1,0,0,,10.0,30.561024,,,,CLR,,,,,,,,SPECI,"['KGVE 130815Z AUTO 00000KT 10SM CLR M01/M02 A3056 ', ' AO1 T10061021']"
KGOP,2015-03-13T08:15:00Z,13.0,13.0,0,0,,3.0,30.050198,,,BR,OVC,200,,,,,,,SPECI,"['KGOP 130815Z AUTO 00000KT 3SM BR OVC002 13/13 A3005 ', ' AO2']"
KGHG,2015-03-13T08:15:00Z,-3.0,-15.0,310,6,,10.0,30.611221,,,,CLR,,,,,,,,SPECI,"['KGHG 130815Z AUTO 31006KT 10SM CLR M03/M15 A3061 ', ' AO2']"
KGGP,2015-03-13T08:15:00Z,2.0,-1.0,90,6,,10.0,30.280512,,,,CLR,,,,,,,,SPECI,"['KGGP 130815Z AUTO 09006KT 10SM CLR 02/M01 A3028 ', ' AO2']"
KFXY,2015-03-13T08:15:00Z,7.0,4.0,180,8,,10.0,30.129921,,,,CLR,,,,,,,,SPECI,"['KFXY 130815Z AUTO 18008KT 10SM CLR 07/04 A3013 ', ' AO2']"
KFWC,2015-03-13T08:15:00Z,9.5,5.5,20,5,,10.0,30.188976,,,RA,SCT,4000,OVC,6000,,,,,SPECI,"['KFWC 130815Z AUTO 02005KT 10SM RA SCT040 OVC060 10/06 A3019 ', ' AO1 P0001 T00950055']"
KFVX,2015-03-13T08:15:00Z,1.1,-1.1,0,0,,10.0,30.549213,,,,CLR,,,,,,,,SPECI,"['KFVX 130815Z AUTO 00000KT 10SM CLR 01/M01 A3055 ', ' AO2 T00111011']"
KFFA,2015-03-13T08:15:00Z,5.3,1.6,20,5,,10.0,30.510826,,,,CLR,,,,,,,,SPECI,"['KFFA 130815Z AUTO 02005KT 10SM CLR 05/02 A3051 ', ' AO2 T00530016']"
KF17,2015-03-13T08:15:00Z,12.7,12.6,340,4,,2.5,29.940945,,,BR,OVC,300,,,,,,,METAR,"['KF17 130815Z AUTO 34004KT 2 1/2SM BR OVC003 13/13 A2994 ', ' AO2 T01270126']"
KEZF,2015-03-13T08:15:00Z,1.1,-2.1,0,0,,10.0,30.578741,,,,CLR,,,,,,,,SPECI,"['KEZF 130815Z AUTO 00000KT 10SM CLR 01/M02 A3058 ', ' AO2 T00111021']"
KEMV,2015-03-13T08:15:00Z,0.0,-1.0,0,0,,10.0,30.561024,,,,CLR,,,,,,,,SPECI,"['KEMV 130815Z AUTO 00000KT 10SM CLR 00/M01 A3056 ', ' AO2']"
KELA,2015-03-13T08:15:00Z,14.2,13.5,300,3,,10.0,29.97933,,,,OVC,1800,,,,,,,METAR,"['KELA 130815Z AUTO 30003KT 10SM OVC018 14/14 A2998 ', ' AO2 T01420135']"
KADF,2015-03-13T08:15:00Z,14.0,14.0,30,5,,7.0,30.008858,,,,OVC,600,,,,,,,SPECI,"['KADF 130815Z AUTO 03005KT 7SM OVC006 14/14 A3001 ', ' AO2 CIG 004V010']"
KLCG,2015-03-13T08:15:00Z,5.3,-1.0,210,5,,10.0,30.129921,,,,CLR,,,,,,,,SPECI,"['KLCG 130815Z AUTO 21005KT 10SM CLR 05/M01 A3013 ', ' AO2 T00531010']"
KLAM,2015-03-13T08:15:00Z,9.0,-7.1,340,13,19,10.0,30.209646,,,,SCT,6000,BKN,7000,OVC,8000,,,SPECI,"['KLAM 130815Z AUTO 34013G19KT 10SM SCT060 BKN070 OVC080 09/M07 A3021 ', ' AO2 T00901071']"
KJOT,2015-03-13T08:15:00Z,4.0,0.1,120,3,,10.0,30.268702,,,,CLR,,,,,,,,SPECI,"['KJOT 130815Z AUTO 12003KT 10SM CLR 04/00 A3027 ', ' AO2 T00400001']"
KJGG,2015-03-13T08:15:00Z,2.0,-1.0,0,0,,10.0,30.578741,,,,CLR,,,,,,,,SPECI,"['KJGG 130815Z AUTO 00000KT 10SM CLR 02/M01 A3058 ', ' AO1']"
KIYA,2015-03-13T08:15:00Z,17.0,16.8,190,4,,10.0,29.991142,,,,BKN,700,BKN,1300,OVC,3200,,,SPECI,"['KIYA 130815Z AUTO 19004KT 10SM BKN007 BKN013 OVC032 17/17 A2999 ', ' AO2 T01700168']"
KISO,2015-03-13T08:15:00Z,6.1,-0.6,50,5,,10.0,30.519686,,,,CLR,,,,,,,,SPECI,"['KISO 130815Z AUTO 05005KT 10SM CLR 06/M01 A3052 ', ' AO2 T00611006']"
KIOB,2015-03-13T08:15:00Z,11.0,0.0,150,6,,10.0,30.301182,,,,OVC,5000,,,,,,,SPECI,"['KIOB 130815Z AUTO 15006KT 10SM OVC050 11/00 A3030 ', ' AO2']"
KINJ,2015-03-13T08:15:00Z,13.6,11.9,310,4,,7.0,30.008858,,,,OVC,1200,,,,,,,SPECI,"['KINJ 130815Z AUTO 31004KT 7SM OVC012 14/12 A3001 ', ' AO2 T01360119']"
KINF,2015-03-13T08:15:00Z,21.0,19.0,50,3,,10.0,30.188976,,,,BKN,6000,BKN,9000,,,,,SPECI,"['KINF 130815Z AUTO 05003KT 10SM BKN060 BKN090 21/19 A3019 ', ' AO2']"
KIKV,2015-03-13T08:15:00Z,7.0,6.0,150,4,,6.0,30.171259,,,BR,CLR,,,,,,,,SPECI,"['KIKV 130815Z AUTO 15004KT 6SM BR CLR 07/06 A3017 ', ' AO2']"
KIKK,2015-03-13T08:15:00Z,2.0,0.0,100,3,,10.0,30.280512,,,,CLR,,,,,,,,SPECI,"['KIKK 130815Z AUTO 10003KT 10SM CLR 02/00 A3028 ', ' AO2 T00200000']"
KIJX,2015-03-13T08:15:00Z,8.2,5.6,120,5,,10.0,30.200787,,,,OVC,10000,,,,,,,SPECI,"['KIJX 130815Z AUTO 12005KT 10SM OVC100 08/06 A3020 ', ' AO2 T00820056']"
KIIB,2015-03-13T08:15:00Z,2.0,2.0,140,9,,1.75,30.188976,,,BR,OVX,0,,,,,,,SPECI,"['KIIB 130815Z AUTO 14009KT 1 3/4SM BR VV007 02/02 A3019 ', ' AO2']"
KIDP,2015-03-13T08:15:00Z,13.0,9.0,70,5,,10.0,30.109253,,,,BKN,2000,OVC,2800,,,,,SPECI,"['KIDP 130815Z AUTO 07005KT 10SM BKN020 OVC028 13/09 A3011 ', ' AO2']"
KI75,2015-03-13T08:15:00Z,8.0,5.7,140,5,,10.0,30.171259,,,,CLR,,,,,,,,SPECI,"['KI75 130815Z AUTO 14005KT 10SM CLR 08/06 A3017 ', ' AO2 T00800057']"
KHSP,2015-03-13T08:15:00Z,3.5,-8.5,150,7,,10.0,30.43996,,,,CLR,,,,,,,,SPECI,"['KHSP 130815Z AUTO 15007KT 10SM CLR 04/M08 A3044 ', ' AO2 T00351085']"
KHQU,2015-03-13T08:15:00Z,15.9,3.9,60,4,,10.0,30.41929,,,,OVC,3700,,,,,,,SPECI,"['KHQU 130815Z AUTO 06004KT 10SM OVC037 16/04 A3042 ', ' AO1 T01590039']"
KHNR,2015-03-13T08:15:00Z,5.0,3.0,200,4,,10.0,30.180119,,,,CLR,,,,,,,,SPECI,"['KHNR 130815Z AUTO 20004KT 10SM CLR 05/03 A3018 ', ' AO2']"
KHII,2015-03-13T08:15:00Z,22.0,1.0,50,6,,10.0,30.050198,,,,CLR,,,,,,,,SPECI,"['KHII 130815Z AUTO 05006KT 10SM CLR 22/01 A3005 ', ' AO2']"
KHHW,2015-03-13T08:15:00Z,13.2,12.2,0,0,,10.0,30.008858,,,,OVC,1000,,,,,,,SPECI,"['KHHW 130815Z AUTO 00000KT 10SM OVC010 13/12 A3001 ', ' AO2 T01320122']"
KHDE,2015-03-13T08:15:00Z,8.1,-0.2,230,5,,10.0,30.15059,,,,CLR,,,,,,,,SPECI,"['KHDE 130815Z AUTO 23005KT 10SM CLR 08/00 A3015 ', ' AO2 T00811002']"
KGVT,2015-03-13T08:15:00Z,13.0,12.0,360,4,,5.0,30.0,,,BR,OVC,400,,,,,,,SPECI,"['KGVT 130815Z AUTO 36004KT 5SM BR OVC004 13/12 A3000 ', ' AO2']"
KGUR,2015-03-13T08:15:00Z,8.1,2.3,270,6,,10.0,30.33071,,,,CLR,,,,,,,,SPECI,"['KGUR 130815Z AUTO 27006KT 10SM CLR 08/02 A3033 ', ' AO2 T00810023']"
KGNT,2015-03-13T08:15:00Z,2.8,-3.3,0,0,,10.0,30.230314,,,,SCT,12000,,,,,,,SPECI,"['KGNT 130815Z AUTO 00000KT 10SM SCT120 03/M03 A3023 ', ' AO2 T00281033']"
KGLE,2015-03-13T08:15:00Z,11.5,10.7,330,6,,10.0,30.050198,,,,BKN,4800,BKN,7500,,,,,SPECI,"['KGLE 130815Z AUTO 33006KT 10SM BKN048 BKN075 12/11 A3005 ', ' AO2 T01150107']"
KGCD,2015-03-13T08:15:00Z,5.0,0.9,120,7,,10.0,30.389763,,,,CLR,,,,,,,,SPECI,"['KGCD 130815Z AUTO 12007KT 10SM CLR 05/01 A3039 ', ' AO2 T00500009']"
KGBG,2015-03-13T08:15:00Z,6.1,2.1,80,4,,10.0,30.221457,,,,CLR,,,,,,,,SPECI,"['KGBG 130815Z AUTO 08004KT 10SM CLR 06/02 A3022 ', ' AO2 T00610021']"
KFWS,2015-03-13T08:15:00Z,13.6,12.3,0,0,,7.0,30.041338,,,,OVC,1500,,,,,,,SPECI,"['KFWS 130815Z AUTO 00000KT 7SM OVC015 14/12 A3004 ', ' AO2 T01360123']"
KFSW,2015-03-13T08:15:00Z,7.0,5.0,80,4,,7.0,30.221457,,,,CLR,,,,,,,,SPECI,"['KFSW 130815Z AUTO 08004KT 7SM CLR 07/05 A3022 ', ' AO2']"
KFQD,2015-03-13T08:15:00Z,12.5,-1.1,70,4,,10.0,30.469488,,,,OVC,7000,,,,,,,SPECI,"['KFQD 130815Z AUTO 07004KT 10SM OVC070 13/M01 A3047 ', ' AO2 T01251011']"
KFOA,2015-03-13T08:15:00Z,9.3,4.1,0,0,,10.0,30.221457,,,-RA,SCT,3800,BKN,5000,OVC,7000,,,SPECI,"['KFOA 130815Z AUTO 00000KT 10SM -RA SCT038 BKN050 OVC070 09/04 A3022 ', ' AO2 P0001 T00930041']"
KFKN,2015-03-13T08:15:00Z,-1.2,-2.8,0,0,,10.0,30.569881,,,,CLR,,,,,,,,SPECI,"['KFKN 130815Z AUTO 00000KT 10SM CLR M01/M03 A3057 ', ' AO2 T10121028']"
KFIN,2015-03-13T08:15:00Z,18.5,18.0,90,3,,4.0,30.200787,,,BR,CLR,,,,,,,,SPECI,"['KFIN 130815Z AUTO 09003KT 4SM BR CLR 19/18 A3020 ', ' AO2 T01850180']"
KFFL,2015-03-13T08:15:00Z,3.0,2.0,110,4,,0.25,30.200787,,,FG,BKN,17000,OVC,20000,,,,,SPECI,"['KFFL 130815Z AUTO 11004KT M1/4SM FG BKN170 OVC200 03/02 A3020 ', ' AO2']"
KFET,2015-03-13T08:15:00Z,10.6,0.5,170,5,,10.0,30.138779,,,,CLR,,,,,,,,SPECI,"['KFET 130815Z AUTO 17005KT 10SM CLR 11/01 A3014 ', ' AO2 T01060005']"
KF70,2015-03-13T08:15:00Z,13.0,4.0,0,0,,10.0,30.070866,,,,CLR,,,,,,,,SPECI,"['KF70 130815Z AUTO 00000KT 10SM CLR 13/04 A3007 ', ' AO1']"
KEXX,2015-03-13T08:15:00Z,10.3,-0.8,70,3,,10.0,30.490158,,,,OVC,7500,,,,,,,SPECI,"['KEXX 130815Z AUTO 07003KT 10SM OVC075 10/M01 A3049 ', ' AO2 T01031008']"
KTTF,2015-03-13T08:15:00Z,-1.0,-6.0,120,0,,10.0,30.360237,,,,CLR,,,,,,,,SPECI,"['KTTF 130815Z AUTO 12000KT 10SM CLR M01/M06 A3036 ', ' AO2']"
KT65,2015-03-13T08:15:00Z,14.1,12.4,190,6,,5.0,30.0,,,BR,CLR,,,,,,,,SPECI,"['KT65 130815Z AUTO 19006KT 5SM BR CLR 14/12 A3000 ', ' AO2 T01410124']"
KSOA,2015-03-13T08:15:00Z,4.0,2.0,360,3,,10.0,30.100393,,,,CLR,,,,,,,,SPECI,"['KSOA 130815Z AUTO 36003KT 10SM CLR 04/02 A3010 ', ' AO2']"
KSNK,2015-03-13T08:15:00Z,7.6,3.6,10,3,,10.0,30.079725,,,,CLR,,,,,,,,SPECI,"['KSNK 130815Z AUTO 01003KT 10SM CLR 08/04 A3008 ', ' AO2 T00760036 TSNO']"
KSME,2015-03-13T08:15:00Z,12.0,4.0,0,0,,10.0,30.280512,,,,OVC,7000,,,,,,,SPECI,"['KSME 130815Z AUTO 00000KT 10SM OVC070 12/04 A3028 ', ' AO2']"
KSLB,2015-03-13T08:15:00Z,7.0,2.0,200,9,,10.0,30.129921,,,,CLR,,,,,,,,SPECI,"['KSLB 130815Z AUTO 20009KT 10SM CLR 07/02 A3013 ', ' AO2']"
KSHL,2015-03-13T08:15:00Z,8.0,2.0,200,10,,10.0,30.088583,,,,CLR,,,,,,,,SPECI,"['KSHL 130815Z AUTO 20010KT 10SM CLR 08/02 A3009 ', ' AO2']"
KSHD,2015-03-13T08:15:00Z,0.1,-2.3,0,0,,10.0,30.540354,,,,CLR,,,,,,,,SPECI,"['KSHD 130815Z AUTO 00000KT 10SM CLR 00/M02 A3054 ', ' AO2 T00011023']"
KSDA,2015-03-13T08:15:00Z,7.0,3.0,150,9,,10.0,30.159449,,,,CLR,,,,,,,,SPECI,"['KSDA 130815Z AUTO 15009KT 10SM CLR 07/03 A3016 ', ' AO2']"
KSCR,2015-03-13T08:15:00Z,7.3,-4.0,100,4,,10.0,30.510826,,,,SCT,8500,,,,,,,SPECI,"['KSCR 130815Z AUTO 10004KT 10SM SCT085 07/M04 A3051 ', ' AO2 T00731040']"
KS25,2015-03-13T08:15:00Z,5.0,1.0,270,11,15,10.0,30.121063,,,,CLR,,,,,,,,SPECI,"['KS25 130815Z AUTO 27011G15KT 10SM CLR 05/01 A3012 ', ' AO2']"
KRUQ,2015-03-13T08:15:00Z,10.8,-1.0,80,4,,10.0,30.481298,,,,SCT,8500,OVC,9000,,,,,SPECI,"['KRUQ 130815Z AUTO 08004KT 10SM SCT085 OVC090 11/M01 A3048 ', ' AO2 T01081010']"
KRRL,2015-03-13T08:15:00Z,5.6,2.7,190,6,,10.0,30.138779,,,,BKN,11000,,,,,,,SPECI,"['KRRL 130815Z AUTO 19006KT 10SM BKN110 06/03 A3014 ', ' AO2 T00560027']"
KRPH,2015-03-13T08:15:00Z,8.5,7.9,60,3,,10.0,30.029528,,,,CLR,,,,,,,,SPECI,"['KRPH 130815Z AUTO 06003KT 10SM CLR 09/08 A3003 ', ' AO2 T00850079']"
KRNC,2015-03-13T08:15:00Z,15.0,11.0,0,4,,8.0,30.239174,,,,FEW,4800,OVC,6500,,,,,METAR,"['KRNC 130815Z AUTO VRB04KT 8SM FEW048 OVC065 15/11 A3024 ', '']"
KRMN,2015-03-13T08:15:00Z,-1.3,-4.7,0,0,,10.0,30.628937,,,,CLR,,,,,,,,SPECI,"['KRMN 130815Z AUTO 00000KT 10SM CLR M01/M05 A3063 ', ' AO2 T10131047']"
KRFI,2015-03-13T08:15:00Z,12.5,12.5,360,4,,1.75,29.958662,,,,OVC,200,,,,,,,SPECI,"['KRFI 130815Z AUTO 36004KT 1 3/4SM OVC002 13/13 A2996 ', ' AO2 T01250125']"
KRDK,2015-03-13T08:15:00Z,6.0,2.0,230,3,,10.0,30.159449,,,,CLR,,,,,,,,SPECI,"['KRDK 130815Z AUTO 23003KT 10SM CLR 06/02 A3016 ', ' AO2']"
KRCM,2015-03-13T08:15:00Z,11.0,7.0,130,4,,10.0,30.159449,,,,CLR,,,,,,,,SPECI,"['KRCM 130815Z AUTO 13004KT 10SM CLR 11/07 A3016 ', ' AO2']"
KPXE,2015-03-13T08:15:00Z,16.1,5.8,90,10,19,10.0,30.31004,,,,OVC,2500,,,,,,,SPECI,"['KPXE 130815Z AUTO 09010G19KT 10SM OVC025 16/06 A3031 ', ' AO2 T01610058']"
KPVW,2015-03-13T08:15:00Z,4.3,1.0,360,4,,10.0,30.109253,,,,SCT,9000,,,,,,,SPECI,"['KPVW 130815Z AUTO 36004KT 10SM SCT090 04/01 A3011 ', ' AO2 T00430010']"
KPVB,2015-03-13T08:15:00Z,2.6,1.2,90,5,,7.0,30.209646,,,,CLR,,,,,,,,SPECI,"['KPVB 130815Z AUTO 09005KT 7SM CLR 03/01 A3021 ', ' AO1 T00260012']"
KPTB,2015-03-13T08:15:00Z,-0.1,-0.6,0,0,,10.0,30.578741,,,,CLR,,,,,,,,SPECI,"['KPTB 130815Z AUTO 00000KT 10SM CLR 00/M01 A3058 ', ' AO2 T10011006']"
KPRG,2015-03-13T08:15:00Z,6.7,1.5,90,3,,10.0,30.239174,,,,SCT,9500,BKN,12000,,,,,SPECI,"['KPRG 130815Z AUTO 09003KT 10SM SCT095 BKN120 07/02 A3024 ', ' AO2 T00670015']"
KPOY,2015-03-13T08:15:00Z,5.0,-4.0,330,7,,10.0,30.369095,,,,CLR,,,,,,,,SPECI,"['KPOY 130815Z AUTO 33007KT 10SM CLR 05/M04 A3037 ', ' AO2']"
KPNT,2015-03-13T08:15:00Z,2.5,1.3,110,5,,10.0,30.259842,,,,CLR,,,,,,,,SPECI,"['KPNT 130815Z AUTO 11005KT 10SM CLR 03/01 A3026 ', ' AO2 T00250013']"
KETC,2015-03-13T08:15:00Z,2.0,0.8,0,0,,10.0,30.549213,,,,CLR,,,,,,,,SPECI,"['KETC 130815Z AUTO 00000KT 10SM CLR 02/01 A3055 ', ' AO2 T00200008']"
KEOK,2015-03-13T08:15:00Z,7.0,6.0,70,4,,7.0,30.200787,,,,CLR,,,,,,,,SPECI,"['KEOK 130815Z AUTO 07004KT 7SM CLR 07/06 A3020 ', ' AO2']"
KENL,2015-03-13T08:15:00Z,8.4,5.7,60,4,,7.0,30.188976,,,RA,BKN,2900,BKN,4100,OVC,6500,,,SPECI,"['KENL 130815Z AUTO 06004KT 7SM RA BKN029 BKN041 OVC065 08/06 A3019 ', ' AO2 P0003 T00840057']"
KEHY,2015-03-13T08:15:00Z,1.0,-1.0,0,0,,10.0,30.360237,,,,CLR,,,,,,,,SPECI,"['KEHY 130815Z AUTO 00000KT 10SM CLR 01/M01 A3036 ', ' AO2']"
KEFK,2015-03-13T08:15:00Z,-11.7,-19.6,0,0,,10.0,30.549213,,,,CLR,,,,,,,,SPECI,"['KEFK 130815Z AUTO 00000KT 10SM CLR M12/M20 A3055 ', ' AO2 T11171196']"
KEBS,2015-03-13T08:15:00Z,5.0,5.0,170,7,,9.0,30.129921,,,,CLR,,,,,,,,SPECI,"['KEBS 130815Z AUTO 17007KT 9SM CLR 05/05 A3013 ', ' AO2']"
KE38,2015-03-13T08:15:00Z,4.5,1.1,250,6,,10.0,30.159449,,,,CLR,,,,,,,,SPECI,"['KE38 130815Z AUTO 25006KT 10SM CLR 05/01 A3016 ', ' AO2 T00450011']"
KDWX,2015-03-13T08:15:00Z,0.8,-0.4,0,0,,10.0,30.398623,,,,CLR,,,,,,,,SPECI,"['KDWX 130815Z AUTO 00000KT 10SM CLR 01/00 A3040 ', ' AO2 T00081004']"
KDKB,2015-03-13T08:15:00Z,2.6,-0.6,150,10,,10.0,30.259842,,,,CLR,,,,,,,,SPECI,"['KDKB 130815Z AUTO 15010KT 10SM CLR 03/M01 A3026 ', ' AO2 T00261006']"
KDEH,2015-03-13T08:15:00Z,5.0,5.0,170,8,,4.0,30.159449,,,BR,CLR,,,,,,,,SPECI,"['KDEH 130815Z AUTO 17008KT 4SM BR CLR 05/05 A3016 ', ' AO2']"
KDBN,2015-03-13T08:15:00Z,15.0,1.0,80,6,,10.0,30.339567,,,-RA,OVC,2500,,,,,,,SPECI,"['KDBN 130815Z AUTO 08006KT 10SM -RA OVC025 15/01 A3034 ', ' AO2']"
KCTZ,2015-03-13T08:15:00Z,8.1,-1.9,60,6,,10.0,30.490158,,,,CLR,,,,,,,,SPECI,"['KCTZ 130815Z AUTO 06006KT 10SM CLR 08/M02 A3049 ', ' AO2 T00811019']"
KCTJ,2015-03-13T08:15:00Z,13.0,13.0,100,8,,4.0,30.33071,,,BR,OVC,500,,,,,,,SPECI,"['KCTJ 130815Z AUTO 10008KT 4SM BR OVC005 13/13 A3033 ', ' AO2']"
KCSQ,2015-03-13T08:15:00Z,9.0,6.0,170,7,,10.0,30.159449,,,,CLR,,,,,,,,SPECI,"['KCSQ 130815Z AUTO 17007KT 10SM CLR 09/06 A3016 ', ' AO2']"
KCQF,2015-03-13T08:15:00Z,20.0,19.0,120,7,,7.0,30.088583,,,,OVC,600,,,,,,,SPECI,"['KCQF 130815Z AUTO 12007KT 7SM OVC006 20/19 A3009 ', ' AO2']"
KCQB,2015-03-13T08:15:00Z,10.0,10.0,20,4,,10.0,30.079725,,,,CLR,,,,,,,,SPECI,"['KCQB 130815Z AUTO 02004KT 10SM CLR 10/10 A3008 ', ' AO2']"
KCPT,2015-03-13T08:15:00Z,13.0,13.0,0,0,,4.0,30.041338,,,BR,OVC,1200,,,,,,,SPECI,"['KCPT 130815Z AUTO 00000KT 4SM BR OVC012 13/13 A3004 ', ' AO2']"
KCPC,2015-03-13T08:15:00Z,9.0,-2.3,40,8,,10.0,30.469488,,,,OVC,10000,,,,,,,SPECI,"['KCPC 130815Z AUTO 04008KT 10SM OVC100 09/M02 A3047 ', ' AO2 T00901023']"
KCOM,2015-03-13T08:15:00Z,8.3,6.3,300,6,,10.0,30.050198,,,,CLR,,,,,,,,SPECI,"['KCOM 130815Z AUTO 30006KT 10SM CLR 08/06 A3005 ', ' AO2 T00830063']"
KCNC,2015-03-13T08:15:00Z,8.0,6.0,160,6,,6.0,30.171259,,,BR,BKN,3900,OVC,18000,,,,,SPECI,"['KCNC 130815Z AUTO 16006KT 6SM BR BKN039 OVC180 08/06 A3017 ', ' AO2']"
KCIN,2015-03-13T08:15:00Z,7.0,4.0,210,10,,10.0,30.138779,,,,FEW,4600,,,,,,,SPECI,"['KCIN 130815Z AUTO 21010KT 10SM FEW046 07/04 A3014 ', ' AO2']"
KCHK,2015-03-13T08:15:00Z,6.0,5.0,0,0,,10.0,30.079725,,,,CLR,,,,,,,,SPECI,"['KCHK 130815Z AUTO 00000KT 10SM CLR 06/05 A3008 ', ' AO2']"
KCFD,2015-03-13T08:15:00Z,13.1,12.3,320,6,,10.0,29.970472,,,,SCT,800,OVC,3400,,,,,SPECI,"['KCFD 130815Z AUTO 32006KT 10SM SCT008 OVC034 13/12 A2997 ', ' AO2 T01310123']"
KCBF,2015-03-13T08:15:00Z,8.0,2.0,170,7,,10.0,30.15059,,,,CLR,,,,,,,,SPECI,"['KCBF 130815Z AUTO 17007KT 10SM CLR 08/02 A3015 ', ' AO2']"
KCAV,2015-03-13T08:15:00Z,6.0,6.0,180,12,,5.0,30.138779,,,BR,CLR,,,,,,,,SPECI,"['KCAV 130815Z AUTO 18012KT 5SM BR CLR 06/06 A3014 ', ' AO2']"
KC35,2015-03-13T08:15:00Z,4.9,1.1,170,4,,10.0,30.200787,,,,CLR,,,,,,,,SPECI,"['KC35 130815Z AUTO 17004KT 10SM CLR 05/01 A3020 ', ' AO2 T00490011']"
KC29,2015-03-13T08:15:00Z,4.2,0.1,160,7,,10.0,30.239174,,,,CLR,,,,,,,,SPECI,"['KC29 130815Z AUTO 16007KT 10SM CLR 04/00 A3024 ', ' AO1 T00420001']"
KC09,2015-03-13T08:15:00Z,2.5,0.0,90,4,,10.0,30.259842,,,,CLR,,,,,,,,SPECI,"['KC09 130815Z AUTO 09004KT 10SM CLR 03/00 A3026 ', ' AO2 T00250000']"
KBXK,2015-03-13T08:15:00Z,17.0,4.0,340,8,,10.0,29.97933,,,,CLR,,,,,,,,SPECI,"['KBXK 130815Z AUTO 34008KT 10SM CLR 17/04 A2998 ', ' AO1']"
KBWD,2015-03-13T08:15:00Z,6.0,6.0,0,0,,10.0,30.041338,,,,CLR,,,,,,,,SPECI,"['KBWD 130815Z AUTO 00000KT 10SM CLR 06/06 A3004 ', ' AO2']"
KBVN,2015-03-13T08:15:00Z,5.8,-1.1,0,0,,10.0,30.129921,,,,CLR,,,,,,,,SPECI,"['KBVN 130815Z AUTO 00000KT 10SM CLR 06/M01 A3013 ', ' AO2 T00581011']"
KBNW,2015-03-13T08:15:00Z,6.0,5.0,180,6,,10.0,30.138779,,,,CLR,,,,,,,,SPECI,"['KBNW 130815Z AUTO 18006KT 10SM CLR 06/05 A3014 ', ' AO2']"
KBMT,2015-03-13T08:15:00Z,14.1,14.1,0,0,,0.5,29.940945,,,-RA,OVC,200,,,,,,,SPECI,"['KBMT 130815Z AUTO 00000KT 1/2SM -RA OVC002 14/14 A2994 ', ' AO2 T01410141']"
KBKT,2015-03-13T08:15:00Z,2.5,-2.3,60,3,,10.0,30.549213,,,,CLR,,,,,,,,SPECI,"['KBKT 130815Z AUTO 06003KT 10SM CLR 03/M02 A3055 ', ' AO1 T00251023']"
KBIJ,2015-03-13T08:15:00Z,17.0,16.0,80,9,14,7.0,30.230314,,,,OVC,700,,,,,,,SPECI,"['KBIJ 130815Z AUTO 08009G14KT 7SM OVC007 17/16 A3023 ', ' AO2']"
KBIE,2015-03-13T08:15:00Z,6.4,0.1,0,0,,10.0,30.15059,,,,CLR,,,,,,,,SPECI,"['KBIE 130815Z AUTO 00000KT 10SM CLR 06/00 A3015 ', ' AO2 T00640001']"
KBEA,2015-03-13T08:15:00Z,12.5,12.5,50,5,,7.0,30.0,,,,CLR,,,,,,,,SPECI,"['KBEA 130815Z AUTO 05005KT 7SM CLR 13/13 A3000 ', ' AO2 T01250125']"
KBDG,2015-03-13T08:15:00Z,5.3,-0.1,320,7,,10.0,30.28937,,,,CLR,,,,,,,,SPECI,"['KBDG 130815Z AUTO 32007KT 10SM CLR 05/00 A3029 ', ' AO1 T00531001']"
KAXH,2015-03-13T08:15:00Z,14.1,14.1,260,4,,2.0,29.970472,,,DZ,OVC,400,,,,,,,SPECI,"['KAXH 130815Z AUTO 26004KT 2SM DZ OVC004 14/14 A2997 ', ' AO2 T01410141']"
K7L2,2015-03-13T08:15:00Z,0.0,0.0,240,4,,10.0,30.109253,,,,CLR,,,,,,,,SPECI,"['K7L2 130815Z AUTO 24004KT 10SM CLR 00/00 A3011 ', ' AO2']"
KPMV,2015-03-13T08:15:00Z,8.8,0.0,160,9,,10.0,30.15059,,,,CLR,,,,,,,,SPECI,"['KPMV 130815Z AUTO 16009KT 10SM CLR 09/00 A3015 ', ' AO2 T00880000']"
KPLU,2015-03-13T08:15:00Z,5.0,5.0,0,0,,10.0,30.301182,,,,CLR,,,,,,,,SPECI,"['KPLU 130815Z AUTO 00000KT 10SM CLR 05/05 A3030 ', ' AO2']"
KPGV,2015-03-13T08:15:00Z,5.0,0.0,0,0,,10.0,30.528543,,,,CLR,,,,,,,,SPECI,"['KPGV 130815Z AUTO 00000KT 10SM CLR 05/00 A3053 ', ' AO2']"
KPEA,2015-03-13T08:15:00Z,7.5,7.2,140,6,,5.0,30.188976,,,BR,CLR,,,,,,,,SPECI,"['KPEA 130815Z AUTO 14006KT 5SM BR CLR 08/07 A3019 ', ' AO2 T00750072']"
KPBX,2015-03-13T08:15:00Z,12.6,0.0,150,6,,10.0,30.31004,,,,OVC,10000,,,,,,,SPECI,"['KPBX 130815Z AUTO 15006KT 10SM OVC100 13/00 A3031 ', ' AO2 T01260000']"
KOZS,2015-03-13T08:15:00Z,10.0,10.0,30,4,,5.0,30.138779,,,BR,OVC,2000,,,,,,,SPECI,"['KOZS 130815Z AUTO 03004KT 5SM BR OVC020 10/10 A3014 ', ' AO2']"
KOZA,2015-03-13T08:15:00Z,4.0,1.0,0,0,,10.0,30.088583,,,,CLR,,,,,,,,SPECI,"['KOZA 130815Z AUTO 00000KT 10SM CLR 04/01 A3009 ', ' AO2']"
KOXV,2015-03-13T08:15:00Z,8.0,6.0,160,7,,7.0,30.159449,,,,BKN,19000,OVC,22000,,,,,SPECI,"['KOXV 130815Z AUTO 16007KT 7SM BKN190 OVC220 08/06 A3016 ', ' AO2']"
KOUN,2015-03-13T08:15:00Z,8.0,8.0,0,0,,10.0,30.088583,,,,BKN,11000,,,,,,,SPECI,"['KOUN 130815Z AUTO 00000KT 10SM BKN110 08/08 A3009 ', ' AO2']"
KOSA,2015-03-13T08:15:00Z,13.0,13.0,350,5,,1.0,30.0,,,,OVC,500,,,,,,,SPECI,"['KOSA 130815Z AUTO 35005KT 1SM OVC005 13/13 A3000 ', ' AO1 P0023 T01300130']"
KORC,2015-03-13T08:15:00Z,8.0,1.0,210,9,,10.0,30.109253,,,,CLR,,,,,,,,SPECI,"['KORC 130815Z AUTO 21009KT 10SM CLR 08/01 A3011 ', ' AO2']"
KOPL,2015-03-13T08:15:00Z,17.7,17.2,190,5,,10.0,29.970472,,,DZ,SCT,500,BKN,3300,OVC,5000,,,SPECI,"['KOPL 130815Z AUTO 19005KT 10SM DZ SCT005 BKN033 OVC050 18/17 A2997 ', ' AO2 T01770172']"
KONL,2015-03-13T08:15:00Z,8.0,-1.3,310,7,,10.0,30.138779,,,,CLR,,,,,,,,SPECI,"['KONL 130815Z AUTO 31007KT 10SM CLR 08/M01 A3014 ', ' AO2 T00801013']"
KOMH,2015-03-13T08:15:00Z,1.0,0.0,0,0,,10.0,30.578741,,,,CLR,,,,,,,,SPECI,"['KOMH 130815Z AUTO 00000KT 10SM CLR 01/00 A3058 ', ' AO2']"
KOLZ,2015-03-13T08:15:00Z,3.0,3.0,150,10,,2.0,30.188976,,,BR,CLR,,,,,,,,SPECI,"['KOLZ 130815Z AUTO 15010KT 2SM BR CLR 03/03 A3019 ', ' AO2']"
KOLG,2015-03-13T08:15:00Z,8.0,3.0,170,5,,10.0,30.02067,,,,CLR,,,,,,,,SPECI,"['KOLG 130815Z AUTO 17005KT 10SM CLR 08/03 A3002 ', ' AO1']"
KOKM,2015-03-13T08:15:00Z,12.3,10.6,40,4,,10.0,30.059055,,,,OVC,1200,,,,,,,SPECI,"['KOKM 130815Z AUTO 04004KT 10SM OVC012 12/11 A3006 ', ' AO2 T01230106']"
KOGA,2015-03-13T08:15:00Z,9.5,-0.7,30,5,,10.0,30.221457,,,,CLR,,,,,,,,SPECI,"['KOGA 130815Z AUTO 03005KT 10SM CLR 10/M01 A3022 ', ' AO2 T00951007']"
KOEO,2015-03-13T08:15:00Z,10.2,5.8,170,7,,10.0,30.059055,,,,CLR,,,,,,,,SPECI,"['KOEO 130815Z AUTO 17007KT 10SM CLR 10/06 A3006 ', ' AO2 T01020058']"
KMXO,2015-03-13T08:15:00Z,4.0,4.0,140,3,,5.0,30.209646,,,BR,CLR,,,,,,,,SPECI,"['KMXO 130815Z AUTO 14003KT 5SM BR CLR 04/04 A3021 ', ' AO2']"
KMWC,2015-03-13T08:15:00Z,2.0,-3.0,160,4,,10.0,30.280512,,,,CLR,,,,,,,,SPECI,"['KMWC 130815Z AUTO 16004KT 10SM CLR 02/M03 A3028 ', ' AO2']"
KMWA,2015-03-13T08:15:00Z,10.0,9.0,30,3,,7.0,30.171259,,,RA,BKN,1700,OVC,2400,,,,,SPECI,"['KMWA 130815Z AUTO 03003KT 7SM RA BKN017 OVC024 10/09 A3017 ', ' AO2 P0001']"
KMUT,2015-03-13T08:15:00Z,3.0,2.0,120,3,,5.0,30.221457,,,BR,CLR,,,,,,,,SPECI,"['KMUT 130815Z AUTO 12003KT 5SM BR CLR 03/02 A3022 ', ' AO2']"
KMOR,2015-03-13T08:15:00Z,14.0,3.0,90,3,,10.0,30.33071,,,,BKN,6000,BKN,9500,,,,,METAR,"['KMOR 130815Z AUTO 09003KT 10SM BKN060 BKN095 14/03 A3033 ', '']"
KMMU,2015-03-13T08:15:00Z,-3.0,-8.0,0,0,,10.0,30.611221,,,,CLR,,,,,,,,SPECI,"['KMMU 130815Z AUTO 00000KT 10SM CLR M03/M08 A3061 ', ' AO2']"
KMLJ,2015-03-13T08:15:00Z,14.0,5.0,100,5,,10.0,30.351377,,,-DZ,OVC,2900,,,,,,,SPECI,"['KMLJ 130815Z AUTO 10005KT 10SM -DZ OVC029 14/05 A3035 ', ' AO2']"
KMLE,2015-03-13T08:15:00Z,7.4,0.8,0,0,,10.0,30.15059,,,,CLR,,,,,,,,SPECI,"['KMLE 130815Z AUTO 00000KT 10SM CLR 07/01 A3015 ', ' AO2 T00740008']"
KMAN,2015-03-13T08:15:00Z,3.0,3.0,140,3,,10.0,30.360237,,,,CLR,,,,,,,,SPECI,"['KMAN 130815Z AUTO 14003KT 10SM CLR 03/03 A3036 ', ' AO1']"
KLSB,2015-03-13T08:15:00Z,9.0,0.0,300,6,,10.0,30.079725,,,,CLR,,,,,,,,SPECI,"['KLSB 130815Z AUTO 30006KT 10SM CLR 09/00 A3008 ', ' AO2']"
KLRU,2015-03-13T08:15:00Z,9.1,-0.8,350,4,,10.0,30.100393,,,,CLR,,,,,,,,SPECI,"['KLRU 130815Z AUTO 35004KT 10SM CLR 09/M01 A3010 ', ' AO2 T00911008']"
KLRJ,2015-03-13T08:15:00Z,4.0,0.0,190,4,,10.0,30.129921,,,,CLR,,,,,,,,SPECI,"['KLRJ 130815Z AUTO 19004KT 10SM CLR 04/00 A3013 ', ' AO2']"
KLOT,2015-03-13T08:15:00Z,3.7,-1.0,160,8,,10.0,30.259842,,,,CLR,,,,,,,,SPECI,"['KLOT 130815Z AUTO 16008KT 10SM CLR 04/M01 A3026 ', ' AO2 T00371010']"
KLKU,2015-03-13T08:15:00Z,1.0,-3.0,0,0,,10.0,30.549213,,,,CLR,,,,,,,,SPECI,"['KLKU 130815Z AUTO 00000KT 10SM CLR 01/M03 A3055 ', ' AO2']"
KLHB,2015-03-13T08:15:00Z,13.1,12.1,290,6,,7.0,29.991142,,,,SCT,1600,BKN,4500,OVC,5000,,,SPECI,"['KLHB 130815Z AUTO 29006KT 7SM SCT016 BKN045 OVC050 13/12 A2999 ', ' AO2 T01310121']"
KLGC,2015-03-13T08:15:00Z,16.1,15.0,130,5,,10.0,30.280512,,,-DZ,SCT,1500,OVC,2200,,,,,SPECI,"['KLGC 130815Z AUTO 13005KT 10SM -DZ SCT015 OVC022 16/15 A3028 ', ' AO2 T01610150']"
KLCQ,2015-03-13T08:15:00Z,17.0,17.0,50,4,,1.5,30.230314,,,BR,OVC,300,,,,,,,SPECI,"['KLCQ 130815Z AUTO 05004KT 1 1/2SM BR OVC003 17/17 A3023 ', ' AO2']"
KLCK,2015-03-13T08:15:00Z,2.9,-3.9,80,3,,10.0,30.31004,,,,CLR,,,,,,,,SPECI,"['KLCK 130815Z AUTO 08003KT 10SM CLR 03/M04 A3031 ', ' AO2 T00291039']"
KTIP,2015-03-13T08:15:00Z,5.3,1.3,80,5,,10.0,30.239174,,,,CLR,,,,,,,,SPECI,"['KTIP 130815Z AUTO 08005KT 10SM CLR 05/01 A3024 ', ' AO2 T00530013']"
KSVC,2015-03-13T08:15:00Z,7.0,0.0,330,4,,10.0,30.129921,,,,CLR,,,,,,,,SPECI,"['KSVC 130815Z AUTO 33004KT 10SM CLR 07/00 A3013 ', ' AO2']"
KRHP,2015-03-13T08:15:00Z,12.0,4.2,90,7,,10.0,30.360237,,,-RA,SCT,4500,BKN,7000,OVC,9000,,,SPECI,"['KRHP 130815Z AUTO 09007KT 10SM -RA SCT045 BKN070 OVC090 12/04 A3036 ', ' AO2 T01200042']"
KAXA,2015-03-13T08:15:00Z,6.0,4.0,200,13,,10.0,30.121063,,,,CLR,,,,,,,,SPECI,"['KAXA 130815Z AUTO 20013KT 10SM CLR 06/04 A3012 ', ' AO2']"
KAWG,2015-03-13T08:15:00Z,4.0,4.0,160,5,,3.0,30.209646,,,BR,CLR,,,,,,,,SPECI,"['KAWG 130815Z AUTO 16005KT 3SM BR CLR 04/04 A3021 ', ' AO2']"
KAVQ,2015-03-13T08:15:00Z,14.3,2.6,0,0,,10.0,29.97933,,,,CLR,,,,,,,,METAR,"['KAVQ 130815Z AUTO 00000KT 10SM CLR 14/03 A2998 ', ' AO2 T01430026']"
KAUH,2015-03-13T08:15:00Z,6.4,-1.0,230,6,,10.0,30.15059,,,,CLR,,,,,,,,SPECI,"['KAUH 130815Z AUTO 23006KT 10SM CLR 06/M01 A3015 ', ' AO2 T00641010']"
KATW,2015-03-13T08:15:00Z,2.0,-2.0,180,7,,10.0,30.221457,,,,CLR,,,,,,,,SPECI,"['KATW 130815Z AUTO 18007KT 10SM CLR 02/M02 A3022 ', ' AO2']"
KASL,2015-03-13T08:15:00Z,13.7,12.6,0,0,,10.0,29.97933,,,,OVC,300,,,,,,,SPECI,"['KASL 130815Z AUTO 00000KT 10SM OVC003 14/13 A2998 ', ' AO1 T01370126']"
KARM,2015-03-13T08:15:00Z,14.0,13.6,290,4,,3.0,29.991142,,,DZ,SCT,2200,OVC,3000,,,,,SPECI,"['KARM 130815Z AUTO 29004KT 3SM DZ SCT022 OVC030 14/14 A2999 ', ' AO2 T01400136']"
KAPY,2015-03-13T08:15:00Z,10.1,9.5,0,0,,10.0,29.97933,,,,CLR,,,,,,,,SPECI,"['KAPY 130815Z AUTO 00000KT 10SM CLR 10/09 A2998 ', ' AO2 T01010095']"
KANW,2015-03-13T08:15:00Z,10.0,0.0,320,5,,10.0,30.180119,,,,CLR,,,,,,,,SPECI,"['KANW 130815Z AUTO 32005KT 10SM CLR 10/00 A3018 ', ' AO2 T01000000']"
KALX,2015-03-13T08:15:00Z,16.5,14.1,100,12,16,4.0,30.230314,,,-RA,OVC,600,,,,,,,SPECI,"['KALX 130815Z AUTO 10012G16KT 4SM -RA OVC006 17/14 A3023 ', ' AO2 P0001 T01650141']"
KAIO,2015-03-13T08:15:00Z,5.0,2.0,210,5,,10.0,30.159449,,,,CLR,,,,,,,,SPECI,"['KAIO 130815Z AUTO 21005KT 10SM CLR 05/02 A3016 ', ' AO2']"
KAHQ,2015-03-13T08:15:00Z,3.3,-1.6,140,5,,10.0,30.138779,,,,CLR,,,,,,,,SPECI,"['KAHQ 130815Z AUTO 14005KT 10SM CLR 03/M02 A3014 ', ' AO2 T00331016']"
KAFP,2015-03-13T08:15:00Z,11.2,-5.5,70,3,,10.0,30.481298,,,,OVC,8000,,,,,,,SPECI,"['KAFP 130815Z AUTO 07003KT 10SM OVC080 11/M05 A3048 ', ' AO2 T01121055']"
KAFK,2015-03-13T08:15:00Z,7.0,-1.1,180,6,,10.0,30.138779,,,,CLR,,,,,,,,SPECI,"['KAFK 130815Z AUTO 18006KT 10SM CLR 07/M01 A3014 ', ' AO2 T00701011']"
KADU,2015-03-13T08:15:00Z,8.0,4.0,210,6,,10.0,30.159449,,,,CLR,,,,,,,,SPECI,"['KADU 130815Z AUTO 21006KT 10SM CLR 08/04 A3016 ', ' AO2']"
K0F2,2015-03-13T08:15:00Z,8.5,8.4,0,0,,0.5,30.041338,,,FG,BKN,200,,,,,,,SPECI,"['K0F2 130815Z AUTO 00000KT 1/2SM FG BKN002 09/08 A3004 ', ' AO2 T00850084']"
KBPK,2015-03-13T08:14:00Z,11.7,11.7,60,5,,3.0,30.079725,,,BR,OVC,400,,,,,,,SPECI,"['KBPK 130814Z AUTO 06005KT 3SM BR OVC004 12/12 A3008 ', ' AO2 T01170117']"
KHOU,2015-03-13T08:14:00Z,14.0,14.0,250,4,,1.5,29.949802,,,BR,OVC,300,,,,,,,SPECI,"['KHOU 130814Z 25004KT 1 1/2SM BR OVC003 14/14 A2995 ', ' AO2 RAE00 P0000']"
KLLQ,2015-03-13T08:14:00Z,17.8,17.2,120,3,,4.0,30.0,,,-RA BR,OVC,200,,,,,,,SPECI,"['KLLQ 130814Z AUTO 12003KT 4SM -RA BR OVC002 18/17 A3000 ', ' AO2 RAB13 P0000 T01780172']"
K79J,2015-03-13T08:14:00Z,22.0,18.0,130,15,,10.0,30.138779,,,,OVC,900,,,,,,,SPECI,"['K79J 130814Z AUTO 13015KT 10SM OVC009 22/18 A3014 ', ' AO2']"
KTUL,2015-03-13T08:13:00Z,13.9,10.6,40,6,,10.0,30.070866,,,,SCT,2800,OVC,10000,,,,,SPECI,"['KTUL 130813Z 04006KT 10SM SCT028 OVC100 14/11 A3007 ', ' AO2 T01390106']"
K6R3,2015-03-13T08:13:00Z,14.0,14.0,0,0,,2.0,29.949802,,,BR,,,,,,,,,SPECI,"['K6R3 130813Z AUTO 00000KT 2SM BR 14/14 A2995 ', ' AO2']"
KLCH,2015-03-13T08:11:00Z,16.7,16.1,180,10,17,4.0,29.949802,,,BR,OVC,300,,,,,,,METAR,"['KLCH 130811Z AUTO 18010G17KT 4SM BR OVC003 17/16 A2995 ', ' AO2 RAB0755E04 CIG 002V006 P0000 T01670161']"
KGGG,2015-03-13T08:11:00Z,12.8,12.2,330,5,,1.5,29.958662,,,BR,OVC,300,,,,,,,METAR,"['KGGG 130811Z AUTO 33005KT 1 1/2SM R13/5000VP6000FT BR OVC003 13/12 A2996 ', ' AO2 T01280122']"
KDTO,2015-03-13T08:11:00Z,12.2,11.7,0,0,,8.0,30.029528,,,,BKN,1200,OVC,6500,,,,,METAR,"['KDTO 130811Z AUTO 00000KT 8SM BKN012 OVC065 12/12 A3003 ', ' AO2 T01220117']"
KASD,2015-03-13T08:11:00Z,19.4,19.4,100,5,,9.0,30.041338,,,-RA,SCT,500,BKN,9000,OVC,11000,,,METAR,"['KASD 130811Z AUTO 10005KT 9SM -RA SCT005 BKN090 OVC110 19/19 A3004 ', ' AO2 P0001 T01940194']"
KVYS,2015-03-13T08:10:00Z,4.2,1.0,110,3,,10.0,30.259842,,,,CLR,,,,,,,,METAR,"['KVYS 130810Z AUTO 11003KT 10SM CLR 04/01 A3026 ', ' AO2 T00420010']"
KGRK,2015-03-13T08:10:00Z,12.0,12.0,360,8,,7.0,30.02067,,,,OVC,400,,,,,,,SPECI,"['KGRK 130810Z 36008KT 7SM OVC004 12/12 A3002 ', ' AO2A']"
KLIT,2015-03-13T08:10:00Z,14.0,13.0,0,0,,2.0,30.041338,,TRUE,RA BR,OVC,400,,,,,,,METAR,"['KLIT 130810Z 00000KT 2SM RA BR OVC004 14/13 A3004 ', ' AO2 CIG RGD P0010 $']"
KFTY,2015-03-13T08:10:00Z,13.3,8.3,80,10,,10.0,30.33071,,,,OVC,3100,,,,,,,METAR,"['KFTY 130810Z 08010KT 10SM OVC031 13/08 A3033 ', ' AO2 T01330083']"
KECU,2015-03-13T08:10:00Z,12.0,7.0,40,5,,10.0,30.059055,,,,CLR,,,,,,,,SPECI,"['KECU 130810Z AUTO 04005KT 10SM CLR 12/07 A3006 ', ' AO2']"
K8S0,2015-03-13T08:10:00Z,,,230,11,,,,,,,,,,,,,,,METAR
KRZN,2015-03-13T08:10:00Z,9.2,4.8,190,7,,10.0,30.029528,,,,CLR,,,,,,,,METAR,"['KRZN 130810Z AUTO 19007KT 10SM CLR 09/05 A3003 ', ' AO2 T00920048']"
KRWV,2015-03-13T08:10:00Z,13.0,13.0,300,5,,9.0,30.008858,,,,BKN,1400,,,,,,,METAR,"['KRWV 130810Z AUTO 30005KT 9SM BKN014 13/13 A3001 ', ' AO2']"
KMRJ,2015-03-13T08:10:00Z,3.0,1.0,140,8,,7.0,30.209646,,,,CLR,,,,,,,,METAR,"['KMRJ 130810Z AUTO 14008KT 7SM CLR 03/01 A3021 ', ' AO2']"
KGLW,2015-03-13T08:10:00Z,14.3,8.5,0,0,,10.0,30.221457,,,,SCT,5000,SCT,7000,OVC,8000,,,METAR,"['KGLW 130810Z AUTO 00000KT 10SM SCT050 SCT070 OVC080 14/09 A3022 ', ' AO2 T01430085']"
KFZG,2015-03-13T08:10:00Z,15.0,8.8,80,6,,10.0,30.301182,,,,OVC,1800,,,,,,,METAR,"['KFZG 130810Z AUTO 08006KT 10SM OVC018 15/09 A3030 ', ' AO2 T01500088 PWINO']"
KETB,2015-03-13T08:10:00Z,1.0,-3.0,0,0,,10.0,30.259842,,,,CLR,,,,,,,,METAR,"['KETB 130810Z AUTO 00000KT 10SM CLR 01/M03 A3026 ', ' AO2']"
KEGV,2015-03-13T08:10:00Z,5.4,0.0,180,5,,10.0,30.109253,,,,BKN,9000,,,,,,,METAR,"['KEGV 130810Z AUTO 18005KT 10SM BKN090 05/00 A3011 ', ' AO2 T00540000']"
KDUB,2015-03-13T08:10:00Z,-1.0,-5.0,300,6,,10.0,30.41929,,,,CLR,,,,,,,,METAR,"['KDUB 130810Z AUTO 30006KT 10SM CLR M01/M05 A3042 ', ' AO2']"
KDLL,2015-03-13T08:10:00Z,4.5,0.5,190,11,,10.0,30.209646,,,,CLR,,,,,,,,METAR,"['KDLL 130810Z AUTO 19011KT 10SM CLR 05/01 A3021 ', ' AO2 T00450005']"
KDKR,2015-03-13T08:10:00Z,14.0,14.0,360,3,,5.0,29.970472,,,-DZ,OVC,300,,,,,,,METAR,"['KDKR 130810Z AUTO 36003KT 5SM -DZ OVC003 14/14 A2997 ', ' AO2']"
KSGF,2015-03-13T08:09:00Z,11.1,10.0,10,5,,5.0,30.100393,,,-RA BR,OVC,900,,,,,,,METAR,"['KSGF 130809Z 01005KT 5SM -RA BR OVC009 11/10 A3010 ', ' AO2 RAB00 P0000 T01110100']"
KCEW,2015-03-13T08:09:00Z,20.6,18.9,110,11,,10.0,30.15059,,,,BKN,1000,OVC,1500,,,,,METAR,"['KCEW 130809Z AUTO 11011KT 10SM BKN010 OVC015 21/19 A3015 ', ' AO2 CIG 008V012 T02060189']"
KBTR,2015-03-13T08:08:00Z,19.4,18.9,130,10,,9.0,29.97933,,,,BKN,900,OVC,1800,,,,,METAR,"['KBTR 130808Z AUTO 13010KT 9SM BKN009 OVC018 19/19 A2998 ', ' AO2 RAE07 P0000 T01940189 TSNO']"
KVCT,2015-03-13T08:06:00Z,14.4,14.4,220,4,,1.25,30.0,,,BR,OVC,200,,,,,,,SPECI,"['KVCT 130806Z AUTO 22004KT 1 1/4SM BR OVC002 14/14 A3000 ', ' AO2 T01440144 TSNO']"
KTVR,2015-03-13T08:06:00Z,18.3,17.2,120,5,,10.0,30.008858,,,,SCT,1300,BKN,7500,,,,,SPECI,"['KTVR 130806Z AUTO 12005KT 10SM SCT013 BKN075 18/17 A3001 ', ' AO2 T01830172']"
KBRD,2015-03-13T08:06:00Z,3.3,2.8,180,3,,1.5,29.97933,,,BR,CLR,,,,,,,,SPECI,"['KBRD 130806Z AUTO 18003KT 1 1/2SM BR CLR 03/03 A2998 ', ' AO2 T00330028']"
KTDR,2015-03-13T08:06:00Z,21.0,19.0,90,12,21,10.0,30.121063,,TRUE,,SCT,1000,BKN,21000,,,,,SPECI,"['KTDR 130806Z AUTO 09012G21KT 10SM SCT010 BKN210 21/19 A3012 ', ' AO2 TSNO $']"
KPAH,2015-03-13T08:03:00Z,12.8,11.1,120,5,,10.0,30.138779,,,,OVC,3000,,,,,,,METAR,"['KPAH 130803Z AUTO 12005KT 10SM OVC030 13/11 A3014 ', ' AO2 T01280111']"
KMGE,2015-03-13T08:03:00Z,14.0,7.0,90,11,20,10.0,30.33071,,TRUE,,OVC,3100,,,,,,,SPECI,"['KMGE 130803Z AUTO 09011G20KT 10SM OVC031 14/07 A3033 ', ' AO2 $']"
KGNV,2015-03-13T08:03:00Z,20.6,19.4,80,5,,10.0,30.209646,,,,BKN,1200,,,,,,,METAR,"['KGNV 130803Z AUTO 08005KT 10SM BKN012 21/19 A3021 ', ' AO2 T02060194']"
KACT,2015-03-13T08:03:00Z,13.3,11.7,330,6,,9.0,30.008858,,,,SCT,1300,OVC,5500,,,,,METAR,"['KACT 130803Z 33006KT 9SM SCT013 OVC055 13/12 A3001 ', ' AO2 T01330117']"
KGLH,2015-03-13T08:02:00Z,18.9,17.8,100,6,,6.0,30.008858,,,BR,FEW,1600,SCT,2700,OVC,4900,,,METAR,"['KGLH 130802Z AUTO 10006KT 6SM BR FEW016 SCT027 OVC049 19/18 A3001 ', ' AO2 T01890178']"
KSGR,2015-03-13T08:01:00Z,13.9,13.3,290,5,,2.0,29.958662,,,-RA BR,OVC,400,,,,,,,METAR,"['KSGR 130801Z AUTO 29005KT 2SM -RA BR OVC004 14/13 A2996 ', ' AO2 P0000 T01390133']"
KMDH,2015-03-13T08:01:00Z,9.4,7.8,50,5,,3.0,30.159449,,,RA BR,BKN,2000,BKN,4000,OVC,8000,,,METAR,"['KMDH 130801Z AUTO 05005KT 3SM RA BR BKN020 BKN040 OVC080 09/08 A3016 ', ' AO2 P0002 T00940078']"
KFFC,2015-03-13T08:01:00Z,14.4,12.8,80,7,,6.0,30.318897,,,BR,SCT,1100,BKN,1600,OVC,2600,,,METAR,"['KFFC 130801Z AUTO 08007KT 6SM BR SCT011 BKN016 OVC026 14/13 A3032 ', ' AO2 T01440128']"
KJEF,2015-03-13T08:00:00Z,11.1,10.6,100,5,,3.0,30.171259,,,-RA BR,BKN,2800,OVC,3500,,,,,METAR,"['KJEF 130800Z AUTO 10005KT 3SM -RA BR BKN028 OVC035 11/11 A3017 ', ' AO2 P0001 T01110106']"
KNGU,2015-03-13T07:59:00Z,4.4,0.0,40,3,,10.0,30.569881,,,,BKN,22000,,,,,,,METAR,"['KNGU 130759Z 04003KT 10SM BKN220 04/00 A3057 ', ' AO2 SLP350 T00440000']"
KMRH,2015-03-13T07:58:00Z,7.8,1.1,40,9,15,10.0,30.481298,,,,CLR,,,,,,,,METAR,"['KMRH 130758Z AUTO 04009G15KT 10SM CLR 08/01 A3048 ', ' AO2 SLP321 T00780011 TSNO']"
KMEI,2015-03-13T07:58:00Z,20.6,18.9,130,8,,10.0,30.088583,,,,BKN,1400,OVC,1900,,,,,METAR,"['KMEI 130758Z AUTO 13008KT 10SM BKN014 OVC019 21/19 A3009 ', ' AO2 SLP185 T02060189']"
KQIR,2015-03-13T07:58:00Z,24.6,7.7,120,8,,6.21,30.050198,,,,CLR,,,,,,,,METAR,"['KQIR 130758Z 12008KT 9999 CLR 25/08 A3005 ', ' AO2A SLP177 T02460077']"
KQGX,2015-03-13T07:58:00Z,26.2,6.5,30,9,,6.21,30.02067,,TRUE,,CLR,,,,,,,,METAR,"['KQGX 130758Z AUTO 03009KT 9999 CLR 26/07 A3002 ', ' AO2 SLP168 T02620065 $']"
KDOV,2015-03-13T07:58:00Z,-1.0,-8.2,10,5,,10.0,30.590551,,TRUE,,CLR,,,,,,,,METAR,"['KDOV 130758Z AUTO 01005KT 10SM CLR M01/M08 A3059 ', ' AO2 SLP362 T10101082 $']"
KSZL,2015-03-13T07:58:00Z,11.1,9.3,140,5,,6.0,30.159449,,TRUE,-RA,BKN,6000,OVC,8000,,,,,METAR,"['KSZL 130758Z 14005KT 6SM -RA BKN060 OVC080 11/09 A3016 ', ' AO2A SLP210 P0000 T01110093 $']"
KXMR,2015-03-13T07:58:00Z,21.4,19.6,110,4,,10.0,30.171259,,,,CLR,,,,,,,,METAR,"['KXMR 130758Z AUTO 11004KT 10SM CLR 21/20 A3017 ', ' AO2 SLP220 T02140196']"
KSVN,2015-03-13T07:58:00Z,14.4,9.7,60,13,19,10.0,30.31004,,TRUE,,OVC,1700,,,,,,,METAR,"['KSVN 130758Z AUTO 06013G19KT 10SM OVC017 14/10 A3031 ', ' AO2 SLP267 T01440097 $']"
KRDR,2015-03-13T07:58:00Z,2.6,0.6,320,8,,10.0,30.0,,,,CLR,,,,,,,,METAR,"['KRDR 130758Z AUTO 32008KT 10SM CLR 03/01 A3000 ', ' AO2 SLP169 T00260006']"
KMUI,2015-03-13T07:58:00Z,-1.3,-9.6,350,1,,10.0,30.578741,,,,CLR,,,,,,,,METAR,"['KMUI 130758Z AUTO 35001KT 10SM CLR M01/M10 A3058 ', ' AO2 SLP363 T10131096']"
KLHW,2015-03-13T07:58:00Z,15.3,9.9,60,13,21,10.0,30.301182,,,,OVC,1800,,,,,,,METAR,"['KLHW 130758Z AUTO 06013G21KT 10SM OVC018 15/10 A3030 ', ' AO2 SLP263 T01530099']"
KHLR,2015-03-13T07:58:00Z,12.7,12.2,340,8,,8.0,30.008858,,,,OVC,600,,,,,,,METAR,"['KHLR 130758Z AUTO 34008KT 8SM OVC006 13/12 A3001 ', ' AO2 SLP157 T01270122']"
KFSI,2015-03-13T07:58:00Z,8.7,7.0,30,5,,10.0,30.059055,,,,CLR,,,,,,,,METAR,"['KFSI 130758Z AUTO 03005KT 10SM CLR 09/07 A3006 ', ' AO2 SLP176 T00870070']"
KFFO,2015-03-13T07:58:00Z,5.6,-4.2,80,4,,10.0,30.301182,,,,BKN,16000,,,,,,,METAR,"['KFFO 130758Z AUTO 08004KT 10SM BKN160 06/M04 A3030 ', ' AO2 SLP266 T00561042']"
KDYS,2015-03-13T07:58:00Z,5.8,4.0,210,4,,10.0,30.059055,,TRUE,,CLR,,,,,,,,METAR,"['KDYS 130758Z AUTO 21004KT 10SM CLR 06/04 A3006 ', ' AO2 SLP165 T00580040 $']"
KDAA,2015-03-13T07:58:00Z,-1.1,-3.7,270,2,,10.0,30.59941,,,,CLR,,,,,,,,METAR,"['KDAA 130758Z AUTO 27002KT 10SM CLR M01/M04 A3060 ', ' AO2 SLP366 T10111037']"
KEGI,2015-03-13T07:58:00Z,21.0,18.9,110,10,,10.0,30.129921,,TRUE,,SCT,1200,,,,,,,METAR,"['KEGI 130758Z AUTO 11010KT 10SM SCT012 21/19 A3013 ', ' AO2 SLP204 T02100189 $']"
KDLF,2015-03-13T07:58:00Z,11.0,6.1,70,2,,10.0,30.02067,,TRUE,,CLR,,,,,,,,METAR,"['KDLF 130758Z AUTO 07002KT 10SM CLR 11/06 A3002 ', ' AO2 SLP159 T01100061 $']"
KLSV,2015-03-13T07:58:00Z,18.0,0.8,10,6,,10.0,30.171259,,,,CLR,,,,,,,,METAR,"['KLSV 130758Z AUTO 01006KT 10SM CLR 18/01 A3017 ', ' AO2 SLP202 T01800008 402590133']"
KGRF,2015-03-13T07:58:00Z,7.1,7.0,30,2,,10.0,30.28937,,TRUE,,CLR,,,,,,,,METAR,"['KGRF 130758Z AUTO 03002KT 10SM CLR 07/07 A3029 ', ' AO2 SLP262 T00710070 401860061 $']"
KFRI,2015-03-13T07:58:00Z,5.7,1.6,40,3,,10.0,30.15059,,,,CLR,,,,,,,,METAR,"['KFRI 130758Z AUTO 04003KT 10SM CLR 06/02 A3015 ', ' AO2 SLP206 T00570016']"
KCVS,2015-03-13T07:58:00Z,4.6,-0.6,340,4,,10.0,30.129921,,TRUE,,CLR,,,,,,,,METAR,"['KCVS 130758Z AUTO 34004KT 10SM CLR 05/M01 A3013 ', ' AO2 SLP174 T00461006 $']"
KTCM,2015-03-13T07:58:00Z,6.1,6.1,0,0,,10.0,30.301182,,TRUE,,CLR,,,,,,,,METAR,"['KTCM 130758Z AUTO 00000KT 10SM CLR 06/06 A3030 ', ' AO2 SLP265 T00610061 401820052 $']"
KSUU,2015-03-13T07:58:00Z,12.8,9.5,220,11,,10.0,30.109253,,TRUE,,CLR,,,,,,,,METAR,"['KSUU 130758Z AUTO 22011KT 10SM CLR 13/10 A3011 ', ' AO2 SLP203 T01280095 402390059 $']"
KSLI,2015-03-13T07:58:00Z,16.2,10.7,260,3,,10.0,30.008858,,,,CLR,,,,,,,,METAR,"['KSLI 130758Z AUTO 26003KT 10SM CLR 16/11 A3001 ', ' AO2 SLP165 T01620107 403180102']"
KSKF,2015-03-13T07:58:00Z,10.9,10.0,340,3,,10.0,30.0,,TRUE,,CLR,,,,,,,,METAR,"['KSKF 130758Z AUTO 34003KT 10SM CLR 11/10 A3000 ', ' AO2 SLP156 T01090100 $']"
KSKA,2015-03-13T07:58:00Z,5.8,1.7,160,3,,10.0,30.389763,,,,CLR,,,,,,,,METAR,"['KSKA 130758Z AUTO 16003KT 10SM CLR 06/02 A3039 ', ' AO2 SLP298 T00580017']"
KMXF,2015-03-13T07:58:00Z,18.8,17.9,70,8,,10.0,30.180119,,,,OVC,900,,,,,,,METAR,"['KMXF 130758Z AUTO 07008KT 10SM OVC009 19/18 A3018 ', ' AO2 RAB37E49 SLP222 P0000 T01880179']"
KMUO,2015-03-13T07:58:00Z,5.8,1.0,10,2,,10.0,30.369095,,TRUE,,CLR,,,,,,,,METAR,"['KMUO 130758Z AUTO 01002KT 10SM CLR 06/01 A3037 ', ' AO2 SLP282 T00580010 $']"
KINS,2015-03-13T07:58:00Z,14.1,-1.0,360,6,,10.0,30.230314,,TRUE,,CLR,,,,,,,,METAR,"['KINS 130758Z AUTO 36006KT 10SM CLR 14/M01 A3023 ', ' AO2 SLP208 T01411010 402360066 $']"
KHIF,2015-03-13T07:58:00Z,6.3,0.5,110,11,,10.0,30.351377,,,,CLR,,,,,,,,METAR,"['KHIF 130758Z AUTO 11011KT 10SM CLR 06/01 A3035 ', ' AO2 SLP260 T00630005']"
KEDW,2015-03-13T07:58:00Z,11.3,-0.6,230,2,,10.0,30.138779,,,,CLR,,,,,,,,METAR,"['KEDW 130758Z AUTO 23002KT 10SM CLR 11/M01 A3014 ', ' AO2 SLP197 T01131006 402520041']"
KDMA,2015-03-13T07:58:00Z,15.5,1.8,90,6,,10.0,30.0,,TRUE,,CLR,,,,,,,,METAR,"['KDMA 130758Z AUTO 09006KT 10SM CLR 16/02 A3000 ', ' AO2 SLP129 T01550018 $']"
KBIF,2015-03-13T07:58:00Z,12.7,-3.4,250,3,,10.0,30.070866,,TRUE,,FEW,16000,SCT,19000,,,,,METAR,"['KBIF 130758Z AUTO 25003KT 10SM FEW160 SCT190 13/M03 A3007 ', ' AO2 SLP141 T01271034 $']"
KAFF,2015-03-13T07:58:00Z,3.8,-0.8,350,10,,10.0,30.318897,,,,CLR,,,,,,,,METAR,"['KAFF 130758Z AUTO 35010KT 10SM CLR 04/M01 A3032 ', ' AO2 SLP230 T00381008']"
KRIV,2015-03-13T07:58:00Z,14.8,2.1,10,5,,10.0,30.059055,,,,CLR,,,,,,,,METAR,"['KRIV 130758Z AUTO 01005KT 10SM CLR 15/02 A3006 ', ' AO2 SLP168 T01480021 402840060']"
KPOB,2015-03-13T07:58:00Z,8.6,-3.1,90,6,,10.0,30.499016,,,,SCT,10000,BKN,17000,,,,,METAR,"['KPOB 130758Z AUTO 09006KT 10SM SCT100 BKN170 09/M03 A3050 ', ' AO2 SLP331 T00861031']"
KLUF,2015-03-13T07:58:00Z,18.6,4.6,320,5,,10.0,29.970472,,TRUE,,CLR,,,,,,,,METAR,"['KLUF 130758Z AUTO 32005KT 10SM CLR 19/05 A2997 ', ' AO2 SLP139 T01860046 $']"
KHMN,2015-03-13T07:58:00Z,8.4,-1.6,0,4,,10.0,30.079725,,TRUE,,FEW,11000,SCT,15000,BKN,18000,,,METAR,"['KHMN 130758Z AUTO VRB04KT 10SM FEW110 SCT150 BKN180 08/M02 A3008 ', ' AO2 SLP145 T00841016 $']"
KGSB,2015-03-13T07:58:00Z,6.3,2.3,70,5,,10.0,30.510826,,TRUE,,OVC,17000,,,,,,,METAR,"['KGSB 130758Z AUTO 07005KT 10SM OVC170 06/02 A3051 ', ' AO2 SLP335 T00630023 $']"
KEND,2015-03-13T07:58:00Z,7.7,3.4,30,2,,10.0,30.079725,,TRUE,,CLR,,,,,,,,METAR,"['KEND 130758Z AUTO 03002KT 10SM CLR 08/03 A3008 ', ' AO2 SLP184 T00770034 $']"
KFCS,2015-03-13T07:58:00Z,9.0,0.0,340,17,24,10.0,30.268702,,,,SCT,10000,BKN,20000,,,,,METAR,"['KFCS 130758Z 34017G24KT 10SM SCT100 BKN200 09/00 A3027 ', ' AO2A SLP226']"
KGTB,2015-03-13T07:58:00Z,-8.4,-13.7,140,9,,10.0,30.549213,,,,BKN,7000,BKN,9000,,,,,METAR,"['KGTB 130758Z AUTO 14009KT 10SM BKN070 BKN090 M08/M14 A3055 ', ' AO2 SLP357 T10841137']"
KOFF,2015-03-13T07:58:00Z,1.6,-1.3,120,4,,10.0,30.138779,,TRUE,,CLR,,,,,,,,METAR,"['KOFF 130758Z AUTO 12004KT 10SM CLR 02/M01 A3014 ', ' AO2 SLP211 T00161013 $']"
KRCA,2015-03-13T07:58:00Z,3.8,-1.2,270,5,,10.0,30.230314,,TRUE,,CLR,,,,,,,,METAR,"['KRCA 130758Z AUTO 27005KT 10SM CLR 04/M01 A3023 ', ' AO2 SLP241 T00381012 $']"
KTTS,2015-03-13T07:58:00Z,21.5,18.8,130,2,,10.0,30.171259,,,,CLR,,,,,,,,METAR,"['KTTS 130758Z AUTO 13002KT 10SM CLR 22/19 A3017 ', ' AO2 SLP221 T02150188']"
KVOK,2015-03-13T07:58:00Z,6.2,5.8,160,9,,10.0,30.171259,,,,CLR,,,,,,,,METAR,"['KVOK 130758Z AUTO 16009KT 10SM CLR 06/06 A3017 ', ' AO2 SLP223 T00620058']"
KCEF,2015-03-13T07:58:00Z,-7.9,-13.2,80,1,,10.0,30.590551,,,,CLR,,,,,,,,METAR,"['KCEF 130758Z AUTO 08001KT 10SM CLR M08/M13 A3059 ', ' AO2 SLP368 T10791132']"
KFBG,2015-03-13T07:58:00Z,8.3,-5.0,80,9,,10.0,30.499016,,TRUE,,SCT,17000,,,,,,,METAR,"['KFBG 130758Z AUTO 08009KT 10SM SCT170 08/M05 A3050 ', ' AO2 SLP331 T00831050 $']"
KFTK,2015-03-13T07:58:00Z,12.2,1.0,70,4,,10.0,30.221457,,,,OVC,14000,,,,,,,METAR,"['KFTK 130758Z AUTO 07004KT 10SM OVC140 12/01 A3022 ', ' AO2 SLP235 T01220010']"
KHST,2015-03-13T07:58:00Z,23.8,18.1,90,13,,10.0,30.121063,,,,CLR,,,,,,,,METAR,"['KHST 130758Z AUTO 09013KT 10SM CLR 24/18 A3012 ', ' AO2 SLP203 T02380181']"
KGUS,2015-03-13T07:58:00Z,2.8,-1.7,80,8,,10.0,30.268702,,,,OVC,17000,,,,,,,METAR,"['KGUS 130758Z AUTO 08008KT 10SM OVC170 03/M02 A3027 ', ' AO2 SLP258 T00281017']"
KHUA,2015-03-13T07:58:00Z,14.6,12.9,130,10,,10.0,30.200787,,,,BKN,2200,OVC,9000,,,,,METAR,"['KHUA 130758Z AUTO 13010KT 10SM BKN022 OVC090 15/13 A3020 ', ' AO2 RAE45 SLP225 P0003 T01460129']"
KLFI,2015-03-13T07:58:00Z,2.1,-2.3,340,1,,10.0,30.549213,,,,BKN,22000,,,,,,,METAR,"['KLFI 130758Z AUTO 34001KT 10SM BKN220 02/M02 A3055 ', ' AO2 SLP352 T00211023']"
KMTC,2015-03-13T07:58:00Z,-4.5,-7.4,0,0,,10.0,30.389763,,TRUE,,CLR,,,,,,,,METAR,"['KMTC 130758Z AUTO 00000KT 10SM CLR M04/M07 A3039 ', ' AO2 SLP302 T10451074 $']"
KBAB,2015-03-13T07:58:00Z,12.3,10.9,0,0,,10.0,30.121063,,TRUE,,CLR,,,,,,,,METAR,"['KBAB 130758Z 00000KT 10SM CLR 12/11 A3012 ', ' AO2A SLP204 T01230109 402460077 $']"
KBKF,2015-03-13T07:58:00Z,8.1,0.8,340,8,,10.0,30.339567,,,,OVC,5000,,,,,,,METAR,"['KBKF 130758Z 34008KT 10SM OVC050 08/01 A3034 ', ' AO2A SLP235 T00810008']"
KADW,2015-03-13T07:58:00Z,1.2,-8.3,50,4,,10.0,30.569881,,TRUE,,CLR,,,,,,,,METAR,"['KADW 130758Z AUTO 05004KT 10SM CLR 01/M08 A3057 ', ' AO2 SLP361 T00121083 $']"
KCOF,2015-03-13T07:58:00Z,22.8,20.5,110,10,,10.0,30.171259,,TRUE,,BKN,8000,,,,,,,METAR,"['KCOF 130758Z AUTO 11010KT 10SM BKN080 23/21 A3017 ', ' AO2 SLP221 T02280205 CHINO RWY02 $']"
KFAF,2015-03-13T07:58:00Z,2.3,-0.5,0,0,,10.0,30.540354,,TRUE,,BKN,22000,,,,,,,METAR,"['KFAF 130758Z AUTO 00000KT 10SM BKN220 02/00 A3054 ', ' AO2 SLP345 T00231005 $']"
KMCF,2015-03-13T07:58:00Z,21.1,20.5,110,5,,10.0,30.159449,,,,CLR,,,,,,,,METAR,"['KMCF 130758Z AUTO 11005KT 10SM CLR 21/21 A3016 ', ' AO2 SLP216 T02110205']"
KPSM,2015-03-13T07:58:00Z,-6.2,-16.1,260,8,,10.0,30.561024,,,,FEW,25000,,,,,,,METAR,"['KPSM 130758Z 26008KT 10SM FEW250 M06/M16 A3056 ', ' AO2A SLP352 T10621161']"
KWRI,2015-03-13T07:58:00Z,-1.5,-13.8,360,6,,10.0,30.569881,,,,CLR,,,,,,,,METAR,"['KWRI 130758Z AUTO 36006KT 10SM CLR M01/M14 A3057 ', ' AO2 SLP356 T10151138']"
KEUF,2015-03-13T07:58:00Z,15.0,12.2,90,8,14,10.0,30.250984,,TRUE,,OVC,1700,,,,,,,METAR,"['KEUF 130758Z AUTO 09008G14KT 10SM OVC017 15/12 A3025 ', ' AO2 RAB33E52 SLP240 P0001 T01500122 $']"
K1J0,2015-03-13T07:58:00Z,19.4,17.8,80,8,16,10.0,30.171259,,,,OVC,800,,,,,,,METAR,"['K1J0 130758Z AUTO 08008G16KT 10SM OVC008 19/18 A3017 ', ' AO2 SLP175 T01940178']"
K0J4,2015-03-13T07:58:00Z,20.0,18.3,90,8,,10.0,30.159449,,,,OVC,900,,,,,,,METAR,"['K0J4 130758Z AUTO 09008KT 10SM OVC009 20/18 A3016 ', ' AO2 SLP208 T02000183']"
KIAB,2015-03-13T07:58:00Z,11.4,3.2,10,4,,10.0,30.129921,,,,CLR,,,,,,,,METAR,"['KIAB 130758Z AUTO 01004KT 10SM CLR 11/03 A3013 ', ' AO2 SLP200 T01140032']"
KLTS,2015-03-13T07:58:00Z,6.3,4.9,20,5,,10.0,30.070866,,TRUE,,CLR,,,,,,,,METAR,"['KLTS 130758Z AUTO 02005KT 10SM CLR 06/05 A3007 ', ' AO2 SLP179 T00630049 $']"
KSSC,2015-03-13T07:58:00Z,13.0,-5.3,80,14,20,10.0,30.431103,,TRUE,,OVC,6000,,,,,,,METAR,"['KSSC 130758Z AUTO 08014G20KT 10SM OVC060 13/M05 A3043 ', ' AO2 SLP305 T01301053 $']"
KMMT,2015-03-13T07:58:00Z,13.6,-3.3,80,10,16,10.0,30.43996,,,,OVC,5000,,,,,,,METAR,"['KMMT 130758Z AUTO 08010G16KT 050V110 10SM OVC050 14/M03 A3044 ', ' AO2 SLP310 T01361033']"
KTIK,2015-03-13T07:58:00Z,10.2,8.6,100,2,,10.0,30.059055,,TRUE,,CLR,,,,,,,,METAR,"['KTIK 130758Z AUTO 10002KT 10SM CLR 10/09 A3006 ', ' AO2 SLP181 T01020086 $']"
KVAD,2015-03-13T07:58:00Z,14.9,13.3,60,4,,10.0,30.250984,,TRUE,,OVC,1200,,,,,,,METAR,"['KVAD 130758Z AUTO 06004KT 10SM OVC012 15/13 A3025 ', ' AO2 SLP245 T01490133 $']"
KU16,2015-03-13T07:58:00Z,5.0,-0.6,60,7,,10.0,30.351377,,TRUE,,CLR,,,,,,,,METAR,"['KU16 130758Z AUTO 06007KT 10SM CLR 05/M01 A3035 ', ' AO2 SLP891 T00501006 $']"
KNJM,2015-03-13T07:57:00Z,7.2,0.0,40,7,,10.0,30.490158,,,,CLR,,,,,,,,METAR,"['KNJM 130757Z AUTO 04007KT 10SM CLR 07/00 A3049 ', ' AO2 SLP328 T00720000']"
KNSI,2015-03-13T07:57:00Z,,,300,10,,10.0,30.050198,,TRUE,,CLR,,,,,,,,METAR,"['KNSI 130757Z AUTO 30010KT 10SM CLR A3005 ', ' AO2 SLPNO $']"
KFLG,2015-03-13T07:57:00Z,4.4,-0.6,60,13,,10.0,30.221457,,,,FEW,4300,,,,,,,METAR,"['KFLG 130757Z AUTO 06013KT 10SM FEW043 04/M01 A3022 ', ' AO2 SLP181 T00441006 TSNO']"
KNYL,2015-03-13T07:57:00Z,21.7,3.9,30,7,,10.0,29.949802,,,,CLR,,,,,,,,METAR,"['KNYL 130757Z AUTO 03007KT 10SM CLR 22/04 A2995 ', ' AO2 SLP140 T02170039']"
KSFO,2015-03-13T07:56:00Z,12.8,12.8,290,11,,10.0,30.171259,,TRUE,,FEW,500,SCT,15000,,,,,METAR,"['KSFO 130756Z 29011KT 10SM FEW005 SCT150 13/13 A3017 ', ' AO2 SLP215 T01280128 402220111 $']"
KSDF,2015-03-13T07:56:00Z,13.3,-0.6,70,4,,10.0,30.250984,,,,BKN,4900,OVC,14000,,,,,METAR,"['KSDF 130756Z 07004KT 10SM BKN049 OVC140 13/M01 A3025 ', ' AO2 SLP242 T01331006']"
KSBP,2015-03-13T07:56:00Z,15.0,7.8,0,0,,10.0,30.100393,,,,CLR,,,,,,,,METAR,"['KSBP 130756Z AUTO 00000KT 10SM CLR 15/08 A3010 ', ' AO2 SLP189 T01500078 402720094']"
KMHS,2015-03-13T07:56:00Z,8.3,2.2,50,4,,10.0,30.259842,,,,CLR,,,,,,,,METAR,"['KMHS 130756Z AUTO 05004KT 10SM CLR 08/02 A3026 ', ' AO2 SLP257 T00830022 401890006']"
KLRD,2015-03-13T07:56:00Z,12.7,9.4,0,0,,10.0,30.008858,,,,CLR,,,,,,,,METAR,"['KLRD 130756Z 00000KT 10SM CLR 13/09 A3001 ', ' AO2 T01270094 SLP153']"
KLNR,2015-03-13T07:56:00Z,2.8,0.0,80,6,,8.0,30.230314,,,,CLR,,,,,,,,METAR,"['KLNR 130756Z AUTO 08006KT 8SM CLR 03/00 A3023 ', ' AO2 SLP236 T00280000']"
KLAS,2015-03-13T07:56:00Z,17.8,1.1,280,6,,10.0,30.138779,,,,CLR,,,,,,,,METAR,"['KLAS 130756Z 28006KT 10SM CLR 18/01 A3014 ', ' AO2 SLP191 T01780011 402610144']"
KJXN,2015-03-13T07:56:00Z,-0.6,-8.3,130,7,,10.0,30.339567,,,,CLR,,,,,,,,METAR,"['KJXN 130756Z 13007KT 10SM CLR M01/M08 A3034 ', ' AO2 SLP283 T10061083']"
KJMS,2015-03-13T07:56:00Z,2.2,0.6,270,9,,10.0,30.050198,,,,CLR,,,,,,,,METAR,"['KJMS 130756Z AUTO 27009KT 10SM CLR 02/01 A3005 ', ' AO2 SLP183 T00220006']"
KJAX,2015-03-13T07:56:00Z,17.8,17.8,50,11,,4.0,30.239174,,,BR,OVC,400,,,,,,,METAR,"['KJAX 130756Z 05011KT 4SM BR OVC004 18/18 A3024 ', ' AO2 SLP240 T01780178']"
KITH,2015-03-13T07:56:00Z,-7.7,-13.3,80,4,,10.0,30.561024,,,,CLR,,,,,,,,METAR,"['KITH 130756Z AUTO 08004KT 10SM CLR M08/M13 A3056 ', ' AO2 T10771133 SLP367']"
KISP,2015-03-13T07:56:00Z,-1.1,-12.8,340,8,,10.0,30.590551,,,,CLR,,,,,,,,METAR,"['KISP 130756Z AUTO 34008KT 10SM CLR M01/M13 A3059 ', ' AO2 SLP358 T10111128']"
KINW,2015-03-13T07:56:00Z,9.4,1.1,20,5,,10.0,30.200787,,,,CLR,,,,,,,,METAR,"['KINW 130756Z AUTO 02005KT 10SM CLR 09/01 A3020 ', ' AO2 SLP191 T00940011']"
KIGX,2015-03-13T07:56:00Z,7.8,-4.4,0,4,,10.0,30.528543,,,,SCT,8500,,,,,,,METAR,"['KIGX 130756Z AUTO VRB04KT 10SM SCT085 08/M04 A3053 ', ' AO2 SLP336 T00781044 TSNO']"
KHYA,2015-03-13T07:56:00Z,-3.3,-12.2,340,11,19,10.0,30.549213,,,,CLR,,,,,,,,METAR,"['KHYA 130756Z AUTO 34011G19KT 10SM CLR M03/M12 A3055 ', ' AO2 SLP347 T10331122']"
KHWV,2015-03-13T07:56:00Z,-1.1,-12.8,350,9,,10.0,30.611221,,,,CLR,,,,,,,,METAR,"['KHWV 130756Z AUTO 35009KT 10SM CLR M01/M13 A3061 ', ' AO2 SLP366 T10111128 TSNO']"
KHPN,2015-03-13T07:56:00Z,-2.2,-17.2,360,9,,10.0,30.569881,,,,CLR,,,,,,,,METAR,"['KHPN 130756Z 36009KT 10SM CLR M02/M17 A3057 ', ' AO2 SLP361 T10221172']"
KHND,2015-03-13T07:56:00Z,15.6,2.8,70,4,,10.0,30.209646,,,,CLR,,,,,,,,METAR,"['KHND 130756Z 07004KT 10SM CLR 16/03 A3021 ', ' AO2 SLP216 T01560028 402500111']"
KGRD,2015-03-13T07:56:00Z,14.4,0.0,50,7,,10.0,30.431103,,,,OVC,5000,,,,,,,METAR,"['KGRD 130756Z AUTO 05007KT 10SM OVC050 14/00 A3043 ', ' AO2 SLP302 T01440000']"
KGON,2015-03-13T07:56:00Z,-5.6,-10.6,20,3,,10.0,30.611221,,,,CLR,,,,,,,,METAR,"['KGON 130756Z AUTO 02003KT 10SM CLR M06/M11 A3061 ', ' AO2 SLP365 T10561106']"
KFSD,2015-03-13T07:56:00Z,8.9,0.6,0,0,,10.0,30.079725,,,,CLR,,,,,,,,METAR,"['KFSD 130756Z AUTO 00000KT 10SM CLR 09/01 A3008 ', ' AO2 SLP185 T00890006']"
KELZ,2015-03-13T07:56:00Z,-4.4,-15.0,130,4,,10.0,30.469488,,,,CLR,,,,,,,,METAR,"['KELZ 130756Z AUTO 13004KT 10SM CLR M04/M15 A3047 ', ' AO2 SLP345 T10441150']"
KEKQ,2015-03-13T07:56:00Z,16.1,10.0,160,6,,10.0,30.28937,,,,SCT,4900,BKN,9500,,,,,METAR,"['KEKQ 130756Z AUTO 16006KT 10SM SCT049 BKN095 16/10 A3029 ', ' AO2 T01610100 SLP255']"
KEKO,2015-03-13T07:56:00Z,1.1,-5.0,0,0,,10.0,30.389763,,,,CLR,,,,,,,,METAR,"['KEKO 130756Z AUTO 00000KT 10SM CLR 01/M05 A3039 ', ' AO2 SLP286 T00111050 401670006']"
KEED,2015-03-13T07:56:00Z,21.7,1.1,350,8,,10.0,30.070866,,,,CLR,,,,,,,,METAR,"['KEED 130756Z AUTO 35008KT 10SM CLR 22/01 A3007 ', ' AO2 SLP155 T02170011 403000178']"
KEAU,2015-03-13T07:56:00Z,7.8,2.8,170,8,,10.0,30.100393,,,,CLR,,,,,,,,METAR,"['KEAU 130756Z AUTO 17008KT 10SM CLR 08/03 A3010 ', ' AO2 SLP195 T00780028']"
KDUG,2015-03-13T07:56:00Z,10.0,2.8,0,0,,10.0,30.070866,,,,CLR,,,,,,,,METAR,"['KDUG 130756Z AUTO 00000KT 10SM CLR 10/03 A3007 ', ' AO2 SLP139 T01000028']"
KMOB,2015-03-13T07:56:00Z,19.4,19.4,110,10,,8.0,30.109253,,,,OVC,300,,,,,,,METAR,"['KMOB 130756Z AUTO 11010KT 8SM OVC003 19/19 A3011 ', ' AO2 SLP192 T01940194']"
KMDT,2015-03-13T07:56:00Z,-2.2,-6.1,0,0,,10.0,30.590551,,,,FEW,25000,,,,,,,METAR,"['KMDT 130756Z 00000KT 10SM FEW250 M02/M06 A3059 ', ' AO2 SLP361 T10221061']"
KLWS,2015-03-13T07:56:00Z,6.1,2.8,130,4,,10.0,30.410433,,,,CLR,,,,,,,,METAR,"['KLWS 130756Z AUTO 13004KT 10SM CLR 06/03 A3041 ', ' AO2 SLP298 T00610028 401940061']"
KY50,2015-03-13T07:56:00Z,3.8,0.5,160,5,,10.0,30.221457,,,,CLR,,,,,,,,METAR,"['KY50 130756Z AUTO 16005KT 10SM CLR 04/01 A3022 ', ' AO2 TSNO T00380005 SLP235']"
KWJF,2015-03-13T07:56:00Z,9.4,1.7,0,0,,10.0,30.171259,,,,CLR,,,,,,,,METAR,"['KWJF 130756Z AUTO 00000KT 10SM CLR 09/02 A3017 ', ' AO2 SLP211 T00940017 402500044']"
KVPZ,2015-03-13T07:56:00Z,1.1,-2.2,70,6,,10.0,30.301182,,,,CLR,,,,,,,,METAR,"['KVPZ 130756Z AUTO 07006KT 10SM CLR 01/M02 A3030 ', ' AO2 SLP264 T00111022 TSNO']"
KUKI,2015-03-13T07:56:00Z,10.6,7.8,0,0,,10.0,30.188976,,,,CLR,,,,,,,,METAR,"['KUKI 130756Z AUTO 00000KT 10SM CLR 11/08 A3019 ', ' AO2 SLP218 T01060078 402440050']"
KUCP,2015-03-13T07:56:00Z,-2.2,-8.3,0,0,,10.0,30.43996,,,,CLR,,,,,,,,METAR,"['KUCP 130756Z AUTO 00000KT 10SM CLR M02/M08 A3044 ', ' AO2 T10221083 SLP334']"
KTPH,2015-03-13T07:56:00Z,7.8,-2.8,10,12,,10.0,30.360237,,,,CLR,,,,,,,,METAR,"['KTPH 130756Z AUTO 01012KT 10SM CLR 08/M03 A3036 ', ' AO2 SLP251 T00781028 401890006']"
KSHV,2015-03-13T07:56:00Z,13.9,13.3,20,5,,4.0,29.949802,,,-RA BR,OVC,700,,,,,,,METAR,"['KSHV 130756Z 02005KT 4SM -RA BR OVC007 14/13 A2995 ', ' AO2 SLP139 P0009 T01390133']"
KSGH,2015-03-13T07:56:00Z,4.4,-2.2,110,11,,8.0,30.31004,,,,CLR,,,,,,,,METAR,"['KSGH 130756Z AUTO 11011KT 8SM CLR 04/M02 A3031 ', ' AO2 T00441022 SLP268']"
KHFF,2015-03-13T07:56:00Z,10.0,-4.4,90,8,,10.0,30.519686,,TRUE,,BKN,8500,BKN,10000,,,,,METAR,"['KHFF 130756Z AUTO 09008KT 10SM BKN085 BKN100 10/M04 A3052 ', ' AO2 SLP337 T01001044 TSNO $']"
KFEW,2015-03-13T07:56:00Z,3.9,-0.7,320,6,,10.0,30.28937,,TRUE,,SCT,12000,,,,,,,METAR,"['KFEW 130756Z AUTO 32006KT 10SM SCT120 04/M01 A3029 ', ' AO2 SLP226 T00391007 $']"
KRDM,2015-03-13T07:56:00Z,2.2,0.0,50,4,,10.0,30.318897,,,,CLR,,,,,,,,METAR,"['KRDM 130756Z AUTO 05004KT 10SM CLR 02/00 A3032 ', ' AO2 SLP269 T00220000 401721022']"
KOWB,2015-03-13T07:56:00Z,13.8,3.8,120,6,,10.0,30.200787,,,,BKN,5500,OVC,8500,,,,,METAR,"['KOWB 130756Z AUTO 12006KT 10SM BKN055 OVC085 14/04 A3020 ', ' AO2 TSNO T01380038 SLP226']"
KOFK,2015-03-13T07:56:00Z,7.2,-0.6,0,0,,10.0,30.138779,,,,CLR,,,,,,,,METAR,"['KOFK 130756Z AUTO 00000KT 10SM CLR 07/M01 A3014 ', ' AO2 SLP201 T00721006']"
KNUQ,2015-03-13T07:56:00Z,14.4,10.6,290,4,,10.0,30.171259,,,,CLR,,,,,,,,METAR,"['KNUQ 130756Z 29004KT 10SM CLR 14/11 A3017 ', ' AO2 SLP218 T01440106 402280106']"
KMTW,2015-03-13T07:56:00Z,2.2,-0.6,180,12,,10.0,30.259842,,,,CLR,,,,,,,,METAR,"['KMTW 130756Z AUTO 18012KT 10SM CLR 02/M01 A3026 ', ' AO2 SLP276 T00221006 FZRANO']"
KMQY,2015-03-13T07:56:00Z,14.4,12.2,160,8,,9.0,30.230314,,,-RA,FEW,2300,SCT,2900,BKN,8000,,,METAR,"['KMQY 130756Z AUTO 16008KT 9SM -RA FEW023 SCT029 BKN080 14/12 A3023 ', ' AO2 T01440122 RAE33B51 P0002 SLP244']"
KGFA,2015-03-13T07:56:00Z,2.9,-2.0,200,12,,10.0,30.33071,,TRUE,,CLR,,,,,,,,METAR,"['KGFA 130756Z AUTO 20012KT 10SM CLR 03/M02 A3033 ', ' AO2 SLP288 T00291020 TSNO $']"
KNTU,2015-03-13T07:56:00Z,2.2,-3.3,0,0,,10.0,30.549213,,,,SCT,28000,,,,,,,METAR,"['KNTU 130756Z 00000KT 10SM SCT280 02/M03 A3055 ', ' AO2 SLP346 T00221033']"
KGNR,2015-03-13T07:56:00Z,-14.4,-21.1,330,12,,,30.351377,,,,,,,,,,,,METAR,"['KGNR 130756Z AUTO 33012KT M14/M21 A3035 ', ' AO1 SLP310 T11441211']"
KNRS,2015-03-13T07:56:00Z,17.2,8.9,60,6,,,30.008858,,,,CLR,,,,,,,,METAR,"['KNRS 130756Z AUTO 06006KT CLR 17/09 A3001 ', ' AO2 SLP161 T01720089 402390111']"
KNFE,2015-03-13T07:56:00Z,3.9,-1.1,0,0,,10.0,30.549213,,,,CLR,,,,,,,,METAR,"['KNFE 130756Z AUTO 00000KT 10SM CLR 04/M01 A3055 ', ' AO2 SLP348 T00391011']"
KNBT,2015-03-13T07:56:00Z,,,,,,,30.490158,,TRUE,,,,,,,,,,METAR,"['KNBT 130756Z AUTO A3049 ', ' AO2 SLP331 PWINO PNO $']"
KPRN,2015-03-13T07:56:00Z,20.0,17.8,100,7,,10.0,30.15059,,,,OVC,1000,,,,,,,METAR,"['KPRN 130756Z AUTO 10007KT 10SM OVC010 20/18 A3015 ', ' AO2 SLP205 T02000178']"
KNOG,2015-03-13T07:56:00Z,12.2,10.6,70,5,,10.0,29.991142,,TRUE,,CLR,,,,,,,,METAR,"['KNOG 130756Z AUTO 07005KT 10SM CLR 12/11 A2999 ', ' AO2 SLP137 T01220106 $']"
KNYG,2015-03-13T07:56:00Z,1.1,-2.8,310,6,,10.0,30.611221,,,,CLR,,,,,,,,METAR,"['KNYG 130756Z AUTO 31006KT 10SM CLR 01/M03 A3061 ', ' AO2 SLP364 T00111028']"
KNGP,2015-03-13T07:56:00Z,14.4,13.9,0,0,,10.0,29.991142,,,,CLR,,,,,,,,METAR,"['KNGP 130756Z AUTO 00000KT 10SM CLR 14/14 A2999 ', ' AO2 SLP155 T01440139']"
KNQI,2015-03-13T07:56:00Z,12.8,12.8,0,0,,10.0,29.991142,,TRUE,,CLR,,,,,,,,METAR,"['KNQI 130756Z AUTO 00000KT 10SM CLR 13/13 A2999 ', ' AO2 SLP153 T01280128 TSNO $']"
K2WX,2015-03-13T07:56:00Z,4.4,-1.1,290,10,,,30.159449,,,,,,,,,,,,METAR,"['K2WX 130756Z AUTO 29010KT 04/M01 A3016 ', ' AO1 SLP217 T00441011']"
KART,2015-03-13T07:56:00Z,-5.6,-12.2,0,0,,10.0,30.578741,,,,BKN,8000,BKN,10000,,,,,METAR,"['KART 130756Z AUTO 00000KT 10SM BKN080 BKN100 M06/M12 A3058 ', ' AO2 SLP363 T10561122']"
KSPD,2015-03-13T07:56:00Z,1.7,-2.2,240,6,,,30.15059,,,,,,,,,,,,METAR,"['KSPD 130756Z AUTO 24006KT 02/M02 A3015 ', ' AO1 SLP177 T00171022']"
KD07,2015-03-13T07:56:00Z,6.1,-1.7,280,9,,,30.188976,,,,,,,,,,,,METAR,"['KD07 130756Z AUTO 28009KT 06/M02 A3019 ', ' AO1 SLP224 T00611017']"
KNLC,2015-03-13T07:56:00Z,11.1,5.0,250,8,,10.0,30.180119,,,,CLR,,,,,,,,METAR,"['KNLC 130756Z AUTO 25008KT 10SM CLR 11/05 A3018 ', ' AO2 SLP218 T01110050 402440111']"
KNUW,2015-03-13T07:56:00Z,8.3,6.1,110,3,,10.0,30.339567,,TRUE,,FEW,10000,,,,,,,METAR,"['KNUW 130756Z 11003KT 10SM FEW100 08/06 A3034 ', ' AO2 SLP277 T00830061 401890078 VISNO E $']"
KNTD,2015-03-13T07:56:00Z,17.8,8.3,360,5,,10.0,30.041338,,TRUE,,CLR,,,,,,,,METAR,"['KNTD 130756Z AUTO 36005KT 10SM CLR 18/08 A3004 ', ' AO2 SLP174 T01780083 403330106 $']"
KNFL,2015-03-13T07:56:00Z,3.3,-3.3,220,3,,10.0,30.351377,,,,CLR,,,,,,,,METAR,"['KNFL 130756Z AUTO 22003KT 10SM CLR 03/M03 A3035 ', ' AO2 SLP234 T00331033 401890017']"
KNPA,2015-03-13T07:56:00Z,18.9,18.9,110,8,,0.25,30.109253,,TRUE,FG,OVX,0,,,,,,,METAR,"['KNPA 130756Z AUTO 11008KT 1/4SM FG VV002 19/19 A3011 ', ' AO2 SLP198 T01890189 $']"
KBOK,2015-03-13T07:56:00Z,13.3,13.3,0,4,,10.0,30.171259,,,,CLR,,,,,,,,METAR,"['KBOK 130756Z AUTO VRB04KT 10SM CLR 13/13 A3017 ', ' AO2 T01330133 SLP215']"
KBMI,2015-03-13T07:56:00Z,5.0,1.6,70,5,,10.0,30.250984,,,,CLR,,,,,,,,METAR,"['KBMI 130756Z AUTO 07005KT 10SM CLR 05/02 A3025 ', ' AO2 T00500016 SLP249']"
KBJJ,2015-03-13T07:56:00Z,2.8,-7.2,110,7,,10.0,30.369095,,,,CLR,,,,,,,,METAR,"['KBJJ 130756Z AUTO 11007KT 10SM CLR 03/M07 A3037 ', ' AO2 SLP293 T00281072 TSNO']"
KBIH,2015-03-13T07:56:00Z,7.2,-3.9,300,5,,10.0,30.318897,,,,CLR,,,,,,,,METAR,"['KBIH 130756Z AUTO 30005KT 10SM CLR 07/M04 A3032 ', ' AO2 SLP240 T00721039 402330039']"
KBED,2015-03-13T07:56:00Z,-6.1,-16.7,280,5,,10.0,30.59941,,,,CLR,,,,,,,,METAR,"['KBED 130756Z AUTO 28005KT 10SM CLR M06/M17 A3060 ', ' AO2 SLP379 T10611167 TSNO']"
KCAE,2015-03-13T07:56:00Z,14.4,-0.6,90,14,,10.0,30.41929,,,,OVC,5000,,,,,,,METAR,"['KCAE 130756Z 09014KT 10SM OVC050 14/M01 A3042 ', ' AO2 SLP299 T01441006']"
KBZN,2015-03-13T07:56:00Z,-2.2,-5.0,160,9,,10.0,30.410433,,,,CLR,,,,,,,,METAR,"['KBZN 130756Z AUTO 16009KT 10SM CLR M02/M05 A3041 ', ' AO2 SLP312 T10221050']"
KCEC,2015-03-13T07:56:00Z,11.1,10.6,170,8,,8.0,30.171259,,,,CLR,,,,,,,,METAR,"['KCEC 130756Z AUTO 17008KT 8SM CLR 11/11 A3017 ', ' AO2 SLP217 T01110106 401610100']"
KDIK,2015-03-13T07:56:00Z,4.4,-0.6,260,9,,10.0,30.138779,,,,CLR,,,,,,,,METAR,"['KDIK 130756Z AUTO 26009KT 10SM CLR 04/M01 A3014 ', ' AO2 SLP209 T00441006']"
KDIJ,2015-03-13T07:56:00Z,-1.1,-3.8,70,6,,9.0,30.431103,,,,CLR,,,,,,,,METAR,"['KDIJ 130756Z AUTO 07006KT 9SM CLR M01/M04 A3043 ', ' AO2 T10111038 SLP282']"
KDAY,2015-03-13T07:56:00Z,5.6,-2.8,130,6,,10.0,30.31004,,,,BKN,25000,,,,,,,METAR,"['KDAY 130756Z 13006KT 10SM BKN250 06/M03 A3031 ', ' AO2 SLP266 T00561028']"
KCXY,2015-03-13T07:56:00Z,-2.2,-8.3,0,0,,10.0,30.590551,,,,CLR,,,,,,,,METAR,"['KCXY 130756Z AUTO 00000KT 10SM CLR M02/M08 A3059 ', ' AO2 SLP363 T10221083']"
KCTB,2015-03-13T07:56:00Z,5.0,-2.8,260,14,,10.0,30.28937,,,,CLR,,,,,,,,METAR,"['KCTB 130756Z AUTO 26014KT 10SM CLR 05/M03 A3029 ', ' AO2 SLP262 T00501028']"
KCHS,2015-03-13T07:56:00Z,12.8,3.3,60,12,,10.0,30.398623,,,,FEW,3000,OVC,4000,,,,,METAR,"['KCHS 130756Z 06012KT 10SM FEW030 OVC040 13/03 A3040 ', ' AO2 SLP293 T01280033']"
KP53,2015-03-13T07:56:00Z,5.0,-4.4,200,15,22,,30.15059,,,,,,,,,,,,METAR,"['KP53 130756Z AUTO 20015G22KT 05/M04 A3015 ', ' AO1 PK WND 19031/0658 SLP216 T00501044']"
KNJK,2015-03-13T07:56:00Z,20.6,4.4,330,6,,10.0,29.970472,,,,CLR,,,,,,,,METAR,"['KNJK 130756Z AUTO 33006KT 10SM CLR 21/04 A2997 ', ' AO2 SLP163 T02060044 403170150']"
KSHM,2015-03-13T07:56:00Z,6.2,-0.7,340,14,21,10.0,30.28937,,,,BKN,20000,,,,,,,METAR,"['KSHM 130756Z AUTO 34014G21KT 10SM BKN200 06/M01 A3029 ', ' AO2 SLP227 T00621007 401610059']"
K2DP,2015-03-13T07:56:00Z,3.0,0.0,30,5,,10.0,30.528543,,,,SCT,20000,,,,,,,METAR,"['K2DP 130756Z AUTO 03005KT 10SM SCT200 03/00 A3053 ', ' AO2 SLPNO T00300000']"
KNXF,2015-03-13T07:56:00Z,14.4,7.8,0,0,,9.0,30.008858,,TRUE,,CLR,,,,,,,,METAR,"['KNXF 130756Z AUTO 00000KT 9SM CLR 14/08 A3001 ', ' AO2 SLP246 T01440078 402220117 $']"
KALK,2015-03-13T07:56:00Z,11.1,1.1,140,11,,10.0,30.100393,,,,CLR,,,,,,,,METAR,"['KALK 130756Z AUTO 14011KT 10SM CLR 11/01 A3010 ', ' AO2 SLP123 T01110011']"
KNMM,2015-03-13T07:56:00Z,19.4,18.3,120,8,,10.0,30.109253,,TRUE,,OVC,800,,,,,,,METAR,"['KNMM 130756Z AUTO 12008KT 10SM OVC008 19/18 A3011 ', ' AO2 CIG 005V011 SLP203 T01940183 $']"
KM63,2015-03-13T07:56:00Z,12.9,-2.6,30,6,,10.0,30.070866,,,,FEW,15000,BKN,21000,,,,,METAR,"['KM63 130756Z AUTO 03006KT 10SM FEW150 BKN210 13/M03 A3007 ', ' AO2 SLP135 T01291026']"
KQRH,2015-03-13T07:56:00Z,29.6,20.8,80,5,,6.21,29.940945,,,,CLR,,,,,,,,METAR,"['KQRH 130756Z AUTO 08005KT 9999 CLR 30/21 A2994 ', ' AO2 SLP132 T02960208']"
KQHY,2015-03-13T07:56:00Z,20.8,19.7,120,5,11,10.0,30.129921,,,,OVC,800,,,,,,,METAR,"['KQHY 130756Z AUTO 12005G11KT 10SM OVC008 21/20 A3013 ', ' AO2 OVC V BKN SLP209 T02080197']"
KQFS,2015-03-13T07:56:00Z,10.8,1.4,280,3,,5.59,30.041338,,TRUE,HZ,,,,,,,,,METAR,"['KQFS 130756Z AUTO 28003KT 9000 HZ M 11/01 A3004 ', ' AO2 SLPNO T01080014 $']"
KCWN,2015-03-13T07:56:00Z,6.3,-2.3,320,15,25,10.0,30.0,,TRUE,,FEW,7500,,,,,,,METAR,"['KCWN 130756Z AUTO 32015G25KT 10SM FEW075 06/M02 A3000 ', ' AO2 PK WND 31029/02 SLP125 T00631023 TSNO $']"
K4MR,2015-03-13T07:56:00Z,7.6,-1.6,30,4,,10.0,30.129921,,TRUE,,CLR,,,,,,,,METAR,"['K4MR 130756Z AUTO 03004KT 10SM CLR 08/M02 A3013 ', ' AO2 SLP173 T00761016 $']"
K1YT,2015-03-13T07:56:00Z,6.2,1.0,350,2,,10.0,30.360237,,,,CLR,,,,,,,,METAR,"['K1YT 130756Z AUTO 35002KT 10SM CLR 06/01 A3036 ', ' AO2 SLPNO T00620010 401890018']"
K1QW,2015-03-13T07:56:00Z,9.6,-0.4,70,2,,,30.339567,,TRUE,,,,,,,,,,METAR,"['K1QW 130756Z AUTO 07002KT M /// /// M 10/00 A3034 ', ' AO2 SLP277 T00961004 401520050 $']"
KMEH,2015-03-13T07:56:00Z,-1.7,-2.8,0,0,,10.0,30.380905,,,,CLR,,,,,,,,METAR,"['KMEH 130756Z AUTO 00000KT 10SM CLR M02/M03 A3038 ', ' AO2 SLP300 T10171028 401391017']"
K1M4,2015-03-13T07:56:00Z,13.8,13.8,110,8,,10.0,30.209646,,TRUE,-RA,,,,,,,,,METAR,"['K1M4 130756Z AUTO 11008KT 10SM -RA 14/14 A3021 ', ' AO2 T01380138 RAE14B50 P0000 SLP239 $']"
KAND,2015-03-13T07:56:00Z,14.4,0.0,70,11,,10.0,30.41929,,,,OVC,5000,,,,,,,METAR,"['KAND 130756Z AUTO 07011KT 10SM OVC050 14/00 A3042 ', ' AO2 SLP296 T01440000']"
KAJO,2015-03-13T07:56:00Z,21.6,2.2,140,4,,10.0,30.029528,,TRUE,,CLR,,,,,,,,METAR,"['KAJO 130756Z AUTO 14004KT 10SM CLR 22/02 A3003 ', ' AO2 T02160022 403050072 SLP162 $']"
KNID,2015-03-13T07:56:00Z,12.8,-1.1,290,9,,10.0,30.159449,,,,CLR,,,,,,,,METAR,"['KNID 130756Z AUTO 29009KT 10SM CLR 13/M01 A3016 ', ' AO2 SLP204 T01281011 402610039']"
KNXP,2015-03-13T07:56:00Z,16.1,1.1,0,3,,10.0,30.188976,,TRUE,,CLR,,,,,,,,METAR,"['KNXP 130756Z AUTO VRB03KT 10SM CLR 16/01 A3019 ', ' AO2 SLP195 T01610011 402500128 $']"
KSXT,2015-03-13T07:56:00Z,10.6,3.3,120,8,,10.0,30.239174,,,,CLR,,,,,,,,METAR,"['KSXT 130756Z AUTO 12008KT 10SM CLR 11/03 A3024 ', ' AO2 SLP220 T01060033 401440056']"
KABH,2015-03-13T07:56:00Z,,,20,18,,10.0,30.268702,,TRUE,,CLR,,,,,,,,METAR,"['KABH 130756Z AUTO 02018KT 10SM CLR A3027 ', ' AO2 SLPNO $']"
KGNA,2015-03-13T07:56:00Z,1.7,-1.7,50,3,,,30.070866,,,,,,,,,,,,METAR,"['KGNA 130756Z AUTO 05003KT 02/M02 A3007 ', ' AO1 SLP193 T00171017']"
KP60,2015-03-13T07:56:00Z,-7.2,-8.9,0,0,,,30.46063,,,,,,,,,,,,METAR,"['KP60 130756Z AUTO 00000KT M07/M09 A3046 ', ' AO1 SLP328 T10721089']"
KNBC,2015-03-13T07:56:00Z,14.4,7.8,60,12,17,10.0,30.360237,,,,OVC,2300,,,,,,,METAR,"['KNBC 130756Z AUTO 06012G17KT 10SM OVC023 14/08 A3036 ', ' AO2 SLP280 T01440078']"
KNCA,2015-03-13T07:56:00Z,7.2,-1.1,30,11,,10.0,30.490158,,,,CLR,,,,,,,,METAR,"['KNCA 130756Z AUTO 03011KT 10SM CLR 07/M01 A3049 ', ' AO2 SLP326 T00721011']"
K8D3,2015-03-13T07:56:00Z,7.8,2.8,310,5,,,30.041338,,,,,,,,,,,,METAR,"['K8D3 130756Z AUTO 31005KT 08/03 A3004 ', ' AO1 SLP169 T00780028']"
KP28,2015-03-13T07:56:00Z,5.6,1.7,70,3,,,30.121063,,,,,,,,,,,,METAR,"['KP28 130756Z AUTO 07003KT 06/02 A3012 ', ' AO1 SLP195 T00560017']"
KWMC,2015-03-13T07:56:00Z,0.0,-2.8,140,6,,10.0,30.389763,,,,CLR,,,,,,,,METAR,"['KWMC 130756Z AUTO 14006KT 10SM CLR 00/M03 A3039 ', ' AO2 SLP287 T00001028 401671011 TSNO']"
KSRC,2015-03-13T07:56:00Z,14.4,14.4,40,4,,3.0,30.059055,,,-RA BR,,,,,,,,,METAR,"['KSRC 130756Z AUTO 04004KT 3SM -RA BR 14/14 A3006 ', ' AO2 SLP187 P0016 T01440144 TSNO']"
KQWM,2015-03-13T07:55:00Z,25.0,8.0,140,11,,6.21,30.02067,,,,SCT,10000,BKN,20000,,,,,METAR,"['KQWM 130755Z 14011KT 9999 SCT100 BKN200 25/08 A3002 ', ' SLP162 QNH1016']"
KQSA,2015-03-13T07:55:00Z,15.0,-2.1,0,2,,6.21,30.138779,,TRUE,,SCT,12000,BKN,17000,BKN,25000,,,METAR,"['KQSA 130755Z VRB02KT 9999 SCT120 BKN170 BKN250 15/M02 A3014 ', ' AO2A SLP152 CONTRAILS T01501021 $']"
KQL5,2015-03-13T07:55:00Z,24.5,-2.0,0,4,,6.21,30.059055,,,,BKN,16000,,,,,,,METAR,"['KQL5 130755Z VRB04KT 9999 BKN160 25/M02 A3006 ', ' SLP169 T02451020']"
KQTH,2015-03-13T07:55:00Z,27.6,-4.5,0,2,,6.21,30.088583,,TRUE,,CLR,,,,,,,,METAR,"['KQTH 130755Z AUTO VRB02KT 9999 CLR 28/M04 A3009 ', ' AO2 SLP169 T02761045 $']"
KQTC,2015-03-13T07:55:00Z,,,120,7,,1.75,,,TRUE,HZ,CLR,,,,,,,,METAR,"['KQTC 130755Z AUTO 12007KT 080V140 1 3/4SM HZ CLR ', ' AO2 SLPNO $']"
KQGV,2015-03-13T07:55:00Z,23.0,12.0,120,11,16,6.21,30.008858,,,,FEW,15000,,,,,,,METAR,"['KQGV 130755Z 12011G16KT 9999 FEW150 23/12 A3001 ', ' SLPNO QNH1017 PA +382']"
KQTZ,2015-03-13T07:55:00Z,19.0,6.0,0,6,,4.97,30.059055,,,DU,CLR,,,,,,,,METAR,"['KQTZ 130755Z VRB06KT 8000 DU CLR 19/06 A3006 ', ' SLP177 WND DATA ESTMD ALSTG/SLP ESTMD']"
K9L2,2015-03-13T07:55:00Z,11.1,-2.2,0,0,,10.0,30.15059,,TRUE,,CLR,,,,,,,,METAR,"['K9L2 130755Z AUTO 00000KT 10SM CLR 11/M02 A3015 ', ' AO2 SLP203 T01111022 402610017 TSNO $']"
KQXT,2015-03-13T07:55:00Z,8.0,7.0,10,5,,6.21,30.171259,,,-RA,FEW,800,BKN,1000,BKN,2000,OVC,3000,METAR,"['KQXT 130755Z 01005KT 9999 -RA FEW008 BKN010 BKN020 OVC030 08/07 A3017 ', ' SLP234 WND DATA ESTMD ALSTG/SLP ESTMD Q1021']"
KFHU,2015-03-13T07:55:00Z,11.0,-2.0,170,7,,10.0,30.079725,,,,SCT,10000,,,,,,,METAR,"['KFHU 130755Z 17007KT 10SM SCT100 11/M02 A3008 ', ' SLP149']"
KQSF,2015-03-13T07:55:00Z,15.4,-6.8,0,3,,6.21,30.221457,,TRUE,,CLR,,,,,,,,METAR,"['KQSF 130755Z AUTO VRB03KT 9999 CLR 15/M07 A3022 ', ' AO2 SLP232 T01541068 $']"
KQQY,2015-03-13T07:55:00Z,25.3,20.1,0,0,,6.21,29.84941,,TRUE,,FEW,10000,BKN,12000,,,,,METAR,"['KQQY 130755Z AUTO 00000KT 9999 FEW100 BKN120 25/20 A2985 ', ' AO2 SLP082 T02530201 $']"
KQFQ,2015-03-13T07:55:00Z,9.9,-13.0,0,5,,10.0,30.041338,,TRUE,,CLR,,,,,,,,METAR,"['KQFQ 130755Z AUTO VRB05KT 10SM CLR 10/M13 A3004 ', ' AO2 SLP175 T00991130 $']"
KQFA,2015-03-13T07:55:00Z,9.7,-13.8,0,6,,6.21,30.041338,,TRUE,,,,,,,,,,METAR,"['KQFA 130755Z AUTO VRB06KT 9999 10/M14 A3004 ', ' AO2 SLP175 T00971138 $']"
KQCL,2015-03-13T07:55:00Z,20.2,-0.6,360,4,,6.21,30.109253,,,,FEW,21000,,,,,,,METAR,"['KQCL 130755Z AUTO 36004KT 9999 FEW210 20/M01 A3011 ', ' AO2 SLP190 T02021006']"
KQAY,2015-03-13T07:55:00Z,25.4,8.3,100,7,,6.21,30.02067,,TRUE,,CLR,,,,,,,,METAR,"['KQAY 130755Z AUTO 10007KT 9999 CLR 25/08 A3002 ', ' AO2 SLP164 T02540083 $']"
KQAJ,2015-03-13T07:55:00Z,26.4,5.6,140,11,17,6.21,30.02067,,,,FEW,10000,BKN,15000,,,,,METAR,"['KQAJ 130755Z 14011G17KT 9999 FEW100 BKN150 26/06 A3002 ', ' SLP160 T02640056']"
KLLJ,2015-03-13T07:55:00Z,2.2,-4.4,0,0,,10.0,30.431103,,,,CLR,,,,,,,,METAR,"['KLLJ 130755Z AUTO 00000KT 10SM CLR 02/M04 A3043 ', ' AO2 SLP290 T00221044']"
KFCI,2015-03-13T07:55:00Z,1.0,-7.0,0,0,,10.0,30.578741,,,,CLR,,,,,,,,METAR,"['KFCI 130755Z AUTO 00000KT 10SM CLR 01/M07 A3058 ', ' AO1']"
KNKX,2015-03-13T07:55:00Z,13.9,5.6,300,4,,10.0,30.02067,,,,CLR,,,,,,,,METAR,"['KNKX 130755Z 30004KT 10SM CLR 14/06 A3002 ', ' AO2 SLP158 T01390056 402610111']"
KVBG,2015-03-13T07:55:00Z,12.8,8.3,100,5,,10.0,30.100393,,TRUE,,CLR,,,,,,,,METAR,"['KVBG 130755Z AUTO 10005KT 10SM CLR 13/08 A3010 ', ' AO2 SLP182 T01280083 TSNO $']"
KBYS,2015-03-13T07:55:00Z,18.6,-0.6,20,8,,10.0,30.15059,,TRUE,,CLR,,,,,,,,METAR,"['KBYS 130755Z AUTO 02008KT 10SM CLR 19/M01 A3015 ', ' AO2 SLP185 T01861006 $']"
KCMA,2015-03-13T07:55:00Z,13.3,7.2,60,4,,10.0,30.041338,,,,CLR,,,,,,,,METAR,"['KCMA 130755Z 06004KT 10SM CLR 13/07 A3004 ', ' AO2 SLP181 T01330072 403170083']"
KCAO,2015-03-13T07:55:00Z,3.3,-1.1,260,3,,10.0,30.15059,,,,CLR,,,,,,,,METAR,"['KCAO 130755Z AUTO 26003KT 10SM CLR 03/M01 A3015 ', ' AO2 SLP181 T00331011']"
KAST,2015-03-13T07:55:00Z,10.0,8.9,70,3,,10.0,30.250984,,,,CLR,,,,,,,,METAR,"['KAST 130755Z AUTO 07003KT 10SM CLR 10/09 A3025 ', ' AO2 SLP244 T01000089 401670089']"
KANJ,2015-03-13T07:55:00Z,-1.7,-7.2,100,12,17,10.0,30.31004,,,,BKN,8000,OVC,10000,,,,,METAR,"['KANJ 130755Z AUTO 10012G17KT 10SM BKN080 OVC100 M02/M07 A3031 ', ' AO2 SLP273 T10171072']"
KAAT,2015-03-13T07:55:00Z,2.8,-0.6,0,0,,9.0,30.339567,,TRUE,,CLR,,,,,,,,METAR,"['KAAT 130755Z AUTO 00000KT 9SM CLR 03/M01 A3034 ', ' AO2 SLP266 T00281006 401721028 $']"
KMWN,2015-03-13T07:55:00Z,-22.0,-26.0,340,55,67,30.0,,,,,FEW,20000,,,,,,,METAR,"['KMWN 130755Z 34055G67KT 130SM FEW200 M22/M26 ', '']"
KQVF,2015-03-13T07:55:00Z,29.8,21.3,0,4,,10.0,30.02067,,,,BKN,5000,,,,,,,METAR,"['KQVF 130755Z AUTO VRB04KT 10SM BKN050 30/21 A3002 ', ' AO2 SLP163 T02980213']"
KQSN,2015-03-13T07:55:00Z,13.5,-5.2,0,2,,6.21,30.15059,,,,SCT,9500,BKN,12000,BKN,14000,,,METAR,"['KQSN 130755Z AUTO VRB02KT 9999 SCT095 BKN120 BKN140 14/M05 A3015 ', ' AO2 SLP224 T01351052']"
KQLP,2015-03-13T07:55:00Z,24.4,7.9,0,4,,,30.295275,,TRUE,,,,,,,,,,METAR,"['KQLP 130755Z AUTO VRB04KT 24/08 Q1026 ', ' AO2 SLP157 T02440079 PWINO TSNO $']"
KQFG,2015-03-13T07:55:00Z,22.9,0.2,0,3,,6.21,30.100393,,,,FEW,15000,,,,,,,METAR,"['KQFG 130755Z AUTO VRB03KT 9999 FEW150 23/00 A3010 ', ' AO2 SLP180 T02290002']"
KQBF,2015-03-13T07:55:00Z,28.3,-4.9,0,6,,1.75,30.041338,,,HZ,CLR,,,,,,,,METAR,"['KQBF 130755Z AUTO VRB06KT 1 3/4SM HZ CLR 28/M05 A3004 ', ' AO2 SLP151 T02831049']"
KVPS,2015-03-13T07:55:00Z,21.1,19.8,90,6,,10.0,30.129921,,TRUE,,BKN,900,OVC,9000,,,,,METAR,"['KVPS 130755Z 09006KT 10SM BKN009 OVC090 21/20 A3013 ', ' AO2A SLP209 T02110198 $']"
KQTI,2015-03-13T07:55:00Z,19.0,8.0,310,6,,4.97,30.050198,,,HZ,FEW,10000,SCT,20000,,,,,SPECI,"['KQTI 130755Z 31006KT 8000 HZ FEW100 SCT200 19/08 A3005 ', ' SLP174']"
KGXA,2015-03-13T07:55:00Z,10.7,-2.3,130,5,,10.0,30.171259,,TRUE,,CLR,,,,,,,,METAR,"['KGXA 130755Z AUTO 13005KT 10SM CLR 11/M02 A3017 ', ' AO2 SLP207 T01071023 TSNO $']"
KUGN,2015-03-13T07:55:00Z,1.1,-1.1,120,3,,10.0,30.268702,,,,CLR,,,,,,,,METAR,"['KUGN 130755Z AUTO 12003KT 10SM CLR 01/M01 A3027 ', ' AO2 SLP259 T00111011']"
KSCK,2015-03-13T07:55:00Z,12.2,9.4,110,4,,10.0,30.15059,,,,CLR,,,,,,,,METAR,"['KSCK 130755Z AUTO 11004KT 10SM CLR 12/09 A3015 ', ' AO2 SLP208 T01220094 402440089']"
KRNO,2015-03-13T07:55:00Z,7.8,-0.6,0,0,,10.0,30.360237,,TRUE,,FEW,25000,,,,,,,METAR,"['KRNO 130755Z 00000KT 10SM FEW250 08/M01 A3036 ', ' AO2 SLP260 T00781006 401780011 $']"
KPHP,2015-03-13T07:55:00Z,3.9,-2.8,260,8,,10.0,30.200787,,,,CLR,,,,,,,,METAR,"['KPHP 130755Z AUTO 26008KT 10SM CLR 04/M03 A3020 ', ' AO2 SLP221 T00391028']"
KMKG,2015-03-13T07:55:00Z,0.0,-8.3,80,4,,10.0,30.318897,,,,CLR,,,,,,,,METAR,"['KMKG 130755Z AUTO 08004KT 10SM CLR 00/M08 A3032 ', ' AO2 SLP274 T00001083']"
KLIC,2015-03-13T07:55:00Z,5.6,-1.1,340,12,,10.0,30.268702,,,,CLR,,,,,,,,METAR,"['KLIC 130755Z AUTO 34012KT 10SM CLR 06/M01 A3027 ', ' AO2 SLP215 T00561011']"
KINL,2015-03-13T07:55:00Z,1.7,-3.3,80,6,,10.0,29.958662,,,,SCT,12000,,,,,,,METAR,"['KINL 130755Z AUTO 08006KT 10SM SCT120 02/M03 A2996 ', ' AO2 SLP157 T00171033']"
KHON,2015-03-13T07:55:00Z,2.2,-0.6,320,6,,10.0,30.100393,,,,CLR,,,,,,,,METAR,"['KHON 130755Z AUTO 32006KT 10SM CLR 02/M01 A3010 ', ' AO2 SLP196 T00221006']"
KGPI,2015-03-13T07:55:00Z,-0.6,-2.8,0,0,,10.0,30.398623,,TRUE,,CLR,,,,,,,,METAR,"['KGPI 130755Z AUTO 00000KT 10SM CLR M01/M03 A3040 ', ' AO2 SLP312 T10061028 $']"
KEAT,2015-03-13T07:55:00Z,8.3,2.2,260,6,,10.0,30.369095,,,,CLR,,,,,,,,METAR,"['KEAT 130755Z AUTO 26006KT 10SM CLR 08/02 A3037 ', ' AO2 SLP285 T00830022 402000061']"
KDLH,2015-03-13T07:55:00Z,1.1,-2.8,120,7,,10.0,30.008858,,,,FEW,12000,,,,,,,METAR,"['KDLH 130755Z 12007KT 10SM FEW120 01/M03 A3001 ', ' AO2 SLP176 T00111028']"
KCNK,2015-03-13T07:55:00Z,7.8,0.0,0,0,,10.0,30.138779,,,,CLR,,,,,,,,METAR,"['KCNK 130755Z AUTO 00000KT 10SM CLR 08/00 A3014 ', ' AO2 SLP202 T00780000']"
KRSP,2015-03-13T07:54:00Z,2.2,-14.4,,,,10.0,,,TRUE,,CLR,,,,,,,,METAR,"['KRSP 130754Z AUTO 10SM CLR 02/M14 ', ' AO2 SLPNO T00221144 $']"
KDMH,2015-03-13T07:54:00Z,3.9,-12.2,,,,,30.590551,,,,,,,,,,,,METAR,"['KDMH 130754Z AUTO 04/M12 A3059 ', ' AO1 SLP357 T00391122']"
KMTP,2015-03-13T07:54:00Z,0.0,-11.7,360,5,,,30.611221,,,,,,,,,,,,METAR,"['KMTP 130754Z AUTO 36005KT 00/M12 A3061 ', ' AO1 SLP366 T00001117']"
KDYL,2015-03-13T07:54:00Z,-3.3,-13.3,0,0,,10.0,30.578741,,,,CLR,,,,,,,,METAR,"['KDYL 130754Z AUTO 00000KT 10SM CLR M03/M13 A3058 ', ' AO2 SLP363 T10331133']"
KDEC,2015-03-13T07:54:00Z,6.1,2.8,90,5,,10.0,30.239174,,,,FEW,4000,FEW,6500,OVC,9500,,,METAR,"['KDEC 130754Z AUTO 09005KT 10SM FEW040 FEW065 OVC095 06/03 A3024 ', ' AO2 SLP240 T00610028 TSNO']"
KEWN,2015-03-13T07:54:00Z,6.1,0.0,50,7,,10.0,30.519686,,,,CLR,,,,,,,,METAR,"['KEWN 130754Z AUTO 05007KT 10SM CLR 06/00 A3052 ', ' AO2 SLP333 T00610000']"
KEVV,2015-03-13T07:54:00Z,13.3,2.2,80,5,,10.0,30.200787,,,,BKN,4600,OVC,7500,,,,,METAR,"['KEVV 130754Z AUTO 08005KT 10SM BKN046 OVC075 13/02 A3020 ', ' AO2 SLP226 T01330022']"
KCRW,2015-03-13T07:54:00Z,12.2,-2.8,120,6,,10.0,30.33071,,TRUE,,FEW,8000,,,,,,,METAR,"['KCRW 130754Z 12006KT 10SM FEW080 12/M03 A3033 ', ' AO2 SLP268 T01221028 $']"
KCOU,2015-03-13T07:54:00Z,11.1,10.0,90,4,,4.0,30.180119,,,-RA BR,OVC,8500,,,,,,,METAR,"['KCOU 130754Z AUTO 09004KT 4SM -RA BR OVC085 11/10 A3018 ', ' AO2 RAB24 SLP217 P0000 T01110100']"
KCOS,2015-03-13T07:54:00Z,6.7,-0.6,310,9,,10.0,30.31004,,,,SCT,10000,BKN,21000,,,,,METAR,"['KCOS 130754Z 31009KT 10SM SCT100 BKN210 07/M01 A3031 ', ' AO2 SLP227 T00671006']"
KRKS,2015-03-13T07:54:00Z,2.8,-1.1,40,3,,10.0,30.380905,,,,CLR,,,,,,,,METAR,"['KRKS 130754Z AUTO 04003KT 10SM CLR 03/M01 A3038 ', ' AO2 SLP268 T00281011']"
KACY,2015-03-13T07:54:00Z,-1.1,-15.0,20,6,,10.0,30.590551,,,,CLR,,,,,,,,METAR,"['KACY 130754Z 02006KT 10SM CLR M01/M15 A3059 ', ' AO2 SLP358 T10111150']"
KGCK,2015-03-13T07:54:00Z,4.4,0.6,150,6,,,30.15059,,TRUE,,CLR,,,,,,,,METAR,"['KGCK 130754Z AUTO 15006KT CLR 04/01 A3015 ', ' AO2 SLP197 T00440006 $']"
KFWA,2015-03-13T07:54:00Z,0.0,-2.8,60,6,,10.0,30.33071,,,,OVC,21000,,,,,,,METAR,"['KFWA 130754Z 06006KT 10SM OVC210 00/M03 A3033 ', ' AO2 SLP276 T00001028']"
KWLD,2015-03-13T07:54:00Z,11.7,6.1,50,4,,10.0,30.129921,,,,CLR,,,,,,,,METAR,"['KWLD 130754Z AUTO 05004KT 10SM CLR 12/06 A3013 ', ' AO2 SLP199 T01170061']"
KVTA,2015-03-13T07:54:00Z,3.3,-4.4,40,5,,10.0,30.339567,,,,CLR,,,,,,,,METAR,"['KVTA 130754Z AUTO 04005KT 10SM CLR 03/M04 A3034 ', ' AO2 SLP276 T00331044']"
KVAY,2015-03-13T07:54:00Z,-0.6,-13.9,0,0,,10.0,30.59941,,,,CLR,,,,,,,,METAR,"['KVAY 130754Z AUTO 00000KT 10SM CLR M01/M14 A3060 ', ' AO2 SLP362 T10061139']"
KMKC,2015-03-13T07:54:00Z,13.9,4.4,0,0,,10.0,30.159449,,,,CLR,,,,,,,,METAR,"['KMKC 130754Z 00000KT 10SM CLR 14/04 A3016 ', ' AO2 SLP211 T01390044']"
KMIV,2015-03-13T07:54:00Z,1.1,-16.7,40,7,,10.0,30.590551,,,,CLR,,,,,,,,METAR,"['KMIV 130754Z AUTO 04007KT 10SM CLR 01/M17 A3059 ', ' AO2 SLP358 T00111167']"
KMGJ,2015-03-13T07:54:00Z,-5.6,-12.2,0,0,,10.0,30.590551,,,,CLR,,,,,,,,METAR,"['KMGJ 130754Z AUTO 00000KT 10SM CLR M06/M12 A3059 ', ' AO2 SLP364 T10561122 TSNO']"
KLEX,2015-03-13T07:54:00Z,12.2,-1.1,130,8,,10.0,30.268702,,,,BKN,4900,BKN,10000,,,,,METAR,"['KLEX 130754Z 13008KT 10SM BKN049 BKN100 12/M01 A3027 ', ' AO2 SLP247 T01221011']"
KLAF,2015-03-13T07:54:00Z,3.3,-1.1,60,5,,10.0,30.268702,,,,CLR,,,,,,,,METAR,"['KLAF 130754Z AUTO 06005KT 10SM CLR 03/M01 A3027 ', ' AO2 SLP252 T00331011 TSNO']"
KIPT,2015-03-13T07:54:00Z,-4.4,-7.8,0,0,,10.0,30.590551,,,,CLR,,,,,,,,METAR,"['KIPT 130754Z AUTO 00000KT 10SM CLR M04/M08 A3059 ', ' AO2 SLP364 T10441078']"
KINT,2015-03-13T07:54:00Z,9.4,-1.7,0,0,,10.0,30.510826,,,,BKN,8000,,,,,,,METAR,"['KINT 130754Z AUTO 00000KT 10SM BKN080 09/M02 A3051 ', ' AO2 SLP329 T00941017']"
KIND,2015-03-13T07:54:00Z,7.2,-2.2,90,6,,10.0,30.250984,,,,FEW,11000,OVC,14000,,,,,METAR,"['KIND 130754Z 09006KT 10SM FEW110 OVC140 07/M02 A3025 ', ' AO2 SLP244 T00721022']"
KILN,2015-03-13T07:54:00Z,3.9,-2.2,110,5,,10.0,30.28937,,,,CLR,,,,,,,,METAR,"['KILN 130754Z AUTO 11005KT 10SM CLR 04/M02 A3029 ', ' AO2 SLP271 T00391022']"
KUZA,2015-03-13T07:54:00Z,13.3,-1.1,0,4,,10.0,30.46063,,,,OVC,6500,,,,,,,METAR,"['KUZA 130754Z AUTO VRB04KT 10SM OVC065 13/M01 A3046 ', ' AO2 SLP310 T01331011']"
KUIN,2015-03-13T07:54:00Z,9.4,6.1,0,0,,7.0,30.209646,,,,BKN,9000,OVC,11000,,,,,METAR,"['KUIN 130754Z AUTO 00000KT 7SM BKN090 OVC110 09/06 A3021 ', ' AO2 RAE49 SLP228 P0001 T00940061']"
KTAD,2015-03-13T07:54:00Z,6.1,-2.8,300,16,,10.0,30.250984,,,,SCT,12000,,,,,,,METAR,"['KTAD 130754Z AUTO 30016KT 10SM SCT120 06/M03 A3025 ', ' AO2 SLP196 T00611028']"
KSUS,2015-03-13T07:54:00Z,10.6,8.9,20,3,,4.0,30.200787,,,RA BR,SCT,3600,OVC,4800,,,,,METAR,"['KSUS 130754Z AUTO 02003KT 4SM RA BR SCT036 OVC048 11/09 A3020 ', ' AO2 SLP223 P0013 T01060089']"
KSJN,2015-03-13T07:54:00Z,6.7,3.3,140,7,,10.0,30.200787,,,,BKN,9500,BKN,12000,,,,,METAR,"['KSJN 130754Z AUTO 14007KT 10SM BKN095 BKN120 07/03 A3020 ', ' AO2 SLP178 T00670033']"
KSET,2015-03-13T07:54:00Z,10.6,6.7,100,5,,7.0,30.209646,,,RA,FEW,4100,BKN,6500,OVC,9000,,,METAR,"['KSET 130754Z AUTO 10005KT 7SM RA FEW041 BKN065 OVC090 11/07 A3021 ', ' AO2 RAB32 SLP228 P0002 T01060067']"
KSBN,2015-03-13T07:54:00Z,2.2,-3.3,110,7,,10.0,30.318897,,,,CLR,,,,,,,,METAR,"['KSBN 130754Z 11007KT 10SM CLR 02/M03 A3032 ', ' AO2 SLP273 T00221033']"
KRFD,2015-03-13T07:54:00Z,3.3,-0.6,150,4,,10.0,30.280512,,,,FEW,18000,OVC,24000,,,,,METAR,"['KRFD 130754Z 15004KT 10SM FEW180 OVC240 03/M01 A3028 ', ' AO2 SLP257 T00331006']"
KHWD,2015-03-13T07:54:00Z,14.4,10.0,0,0,,10.0,30.159449,,,,CLR,,,,,,,,METAR,"['KHWD 130754Z AUTO 00000KT 10SM CLR 14/10 A3016 ', ' AO2 SLP221 T01440100 402330111']"
KGSO,2015-03-13T07:54:00Z,8.9,-1.7,90,3,,10.0,30.490158,,,,BKN,18000,,,,,,,METAR,"['KGSO 130754Z 09003KT 10SM BKN180 09/M02 A3049 ', ' AO2 SLP323 T00891017']"
KGED,2015-03-13T07:54:00Z,1.1,-10.6,50,5,,10.0,30.578741,,,,CLR,,,,,,,,METAR,"['KGED 130754Z AUTO 05005KT 10SM CLR 01/M11 A3058 ', ' AO2 SLP357 T00111106']"
KWAL,2015-03-13T07:54:00Z,3.9,-7.8,80,12,,10.0,30.569881,,,,CLR,,,,,,,,METAR,"['KWAL 130754Z AUTO 08012KT 10SM CLR 04/M08 A3057 ', ' AO2 SLP349 T00391078']"
KVSF,2015-03-13T07:54:00Z,-8.9,-15.6,0,0,,10.0,30.578741,,,,CLR,,,,,,,,METAR,"['KVSF 130754Z AUTO 00000KT 10SM CLR M09/M16 A3058 ', ' AO2 SLP366 T10891156 TSNO']"
KSYR,2015-03-13T07:54:00Z,-6.7,-12.2,120,4,,10.0,30.578741,,,,BKN,14000,,,,,,,METAR,"['KSYR 130754Z 12004KT 10SM BKN140 M07/M12 A3058 ', ' AO2 SLP359 T10671122']"
KSBY,2015-03-13T07:54:00Z,2.2,-8.3,40,3,,10.0,30.578741,,,,CLR,,,,,,,,METAR,"['KSBY 130754Z AUTO 04003KT 10SM CLR 02/M08 A3058 ', ' AO2 SLP356 T00221083']"
KRST,2015-03-13T07:54:00Z,6.7,5.0,180,15,,4.0,30.121063,,,BR,CLR,,,,,,,,METAR,"['KRST 130754Z AUTO 18015KT 4SM BR CLR 07/05 A3012 ', ' AO2 SLP203 T00670050']"
KROC,2015-03-13T07:54:00Z,-3.9,-11.1,190,3,,10.0,30.549213,,,,OVC,10000,,,,,,,METAR,"['KROC 130754Z 19003KT 10SM OVC100 M04/M11 A3055 ', ' AO2 SLP356 T10391111']"
KROA,2015-03-13T07:54:00Z,6.7,-4.4,0,0,,10.0,30.540354,,,,OVC,25000,,,,,,,METAR,"['KROA 130754Z 00000KT 10SM OVC250 07/M04 A3054 ', ' AO2 SLP340 T00671044']"
KRIC,2015-03-13T07:54:00Z,3.3,-2.2,0,0,,10.0,30.569881,,,,BKN,20000,,,,,,,METAR,"['KRIC 130754Z 00000KT 10SM BKN200 03/M02 A3057 ', ' AO2 SLP357 T00331022']"
KPSF,2015-03-13T07:54:00Z,-8.3,-13.3,250,5,,10.0,30.528543,,,,CLR,,,,,,,,METAR,"['KPSF 130754Z AUTO 25005KT 10SM CLR M08/M13 A3053 ', ' AO2 SLP355 T10831133']"
KPLN,2015-03-13T07:54:00Z,0.0,-4.4,30,3,,10.0,30.301182,,,,OVC,8500,,,,,,,METAR,"['KPLN 130754Z AUTO 03003KT 10SM OVC085 00/M04 A3030 ', ' AO2 SLP268 T00001044']"
KPHF,2015-03-13T07:54:00Z,2.2,-1.7,0,0,,10.0,30.561024,,,,CLR,,,,,,,,METAR,"['KPHF 130754Z 00000KT 10SM CLR 02/M02 A3056 ', ' AO2 SLP348 T00221017']"
KORH,2015-03-13T07:54:00Z,-6.7,-17.2,290,4,,10.0,30.549213,,,,CLR,,,,,,,,METAR,"['KORH 130754Z AUTO 29004KT 10SM CLR M07/M17 A3055 ', ' AO2 SLP360 T10671172']"
KOLM,2015-03-13T07:54:00Z,8.3,6.7,0,0,,10.0,30.31004,,,,CLR,,,,,,,,METAR,"['KOLM 130754Z AUTO 00000KT 10SM CLR 08/07 A3031 ', ' AO2 SLP263 T00830067 401830056']"
KOFP,2015-03-13T07:54:00Z,0.0,-3.3,0,0,,10.0,30.590551,,,,CLR,,,,,,,,METAR,"['KOFP 130754Z AUTO 00000KT 10SM CLR 00/M03 A3059 ', ' AO2 SLP357 T00001033']"
KMVL,2015-03-13T07:54:00Z,-12.8,-17.8,0,0,,10.0,30.578741,,,,CLR,,,,,,,,METAR,"['KMVL 130754Z AUTO 00000KT 10SM CLR M13/M18 A3058 ', ' AO2 SLP370 T11281178 TSNO']"
KMFI,2015-03-13T07:54:00Z,5.6,2.2,190,10,,6.0,30.15059,,,HZ,CLR,,,,,,,,METAR,"['KMFI 130754Z AUTO 19010KT 6SM HZ CLR 06/02 A3015 ', ' AO2 SLP219 T00560022']"
KLYH,2015-03-13T07:54:00Z,5.0,-3.9,150,5,,10.0,30.549213,,,,FEW,8500,,,,,,,METAR,"['KLYH 130754Z AUTO 15005KT 10SM FEW085 05/M04 A3055 ', ' AO2 SLP345 T00501039']"
KLWT,2015-03-13T07:54:00Z,0.6,-3.9,160,5,,10.0,30.351377,,,,CLR,,,,,,,,METAR,"['KLWT 130754Z AUTO 16005KT 10SM CLR 01/M04 A3035 ', ' AO2 SLP277 T00061039']"
KLWM,2015-03-13T07:54:00Z,-6.1,-16.1,290,6,,10.0,30.611221,,,,CLR,,,,,,,,METAR,"['KLWM 130754Z AUTO 29006KT 10SM CLR M06/M16 A3061 ', ' AO2 SLP367 T10611161']"
KLNK,2015-03-13T07:54:00Z,6.1,0.0,0,0,,10.0,30.159449,,,,CLR,,,,,,,,METAR,"['KLNK 130754Z 00000KT 10SM CLR 06/00 A3016 ', ' AO2 SLP210 T00610000']"
KLBT,2015-03-13T07:54:00Z,9.4,-3.9,70,10,,10.0,30.490158,,,,BKN,9500,,,,,,,METAR,"['KLBT 130754Z AUTO 07010KT 10SM BKN095 09/M04 A3049 ', ' AO2 SLP324 T00941039']"
KJST,2015-03-13T07:54:00Z,2.2,-13.9,140,4,,10.0,30.448818,,,,CLR,,,,,,,,METAR,"['KJST 130754Z AUTO 14004KT 10SM CLR 02/M14 A3045 ', ' AO2 SLP328 T00221139']"
KJAN,2015-03-13T07:54:00Z,19.4,18.3,150,6,,10.0,30.050198,,,,FEW,2400,BKN,4400,,,,,METAR,"['KJAN 130754Z AUTO 15006KT 10SM FEW024 BKN044 19/18 A3005 ', ' AO2 SLP171 T01940183']"
KIZG,2015-03-13T07:54:00Z,-15.0,-18.3,220,4,,10.0,30.528543,,,,CLR,,,,,,,,METAR,"['KIZG 130754Z AUTO 22004KT 10SM CLR M15/M18 A3053 ', ' AO2 SLP346 T11501183']"
KISW,2015-03-13T07:54:00Z,6.1,1.1,190,8,,10.0,30.188976,,TRUE,,CLR,,,,,,,,METAR,"['KISW 130754Z AUTO 19008KT 10SM CLR 06/01 A3019 ', ' AO2 SLP229 T00610011 $']"
KFZY,2015-03-13T07:54:00Z,-8.3,-12.8,110,3,,10.0,30.578741,,,,CLR,,,,,,,,METAR,"['KFZY 130754Z AUTO 11003KT 10SM CLR M08/M13 A3058 ', ' AO2 SLP363 T10831128']"
KFIG,2015-03-13T07:54:00Z,-3.9,-9.4,20,8,,10.0,30.499016,,,,CLR,,,,,,,,METAR,"['KFIG 130754Z AUTO 02008KT 10SM CLR M04/M09 A3050 ', ' AO2 SLP344 T10391094']"
KEUG,2015-03-13T07:54:00Z,10.0,7.8,50,7,,10.0,30.230314,,,,CLR,,,,,,,,METAR,"['KEUG 130754Z AUTO 05007KT 10SM CLR 10/08 A3023 ', ' AO2 SLP235 T01000078 402000089']"
KECG,2015-03-13T07:54:00Z,4.4,-1.7,50,7,,10.0,30.540354,,,,CLR,,,,,,,,METAR,"['KECG 130754Z AUTO 05007KT 10SM CLR 04/M02 A3054 ', ' AO2 SLP342 T00441017 TSNO']"
KDSV,2015-03-13T07:54:00Z,-5.0,-10.6,140,6,,10.0,30.549213,,,,CLR,,,,,,,,METAR,"['KDSV 130754Z AUTO 14006KT 10SM CLR M05/M11 A3055 ', ' AO2 SLP364 T10501106']"
KDSM,2015-03-13T07:54:00Z,8.9,5.0,170,7,,8.0,30.171259,,TRUE,,FEW,17000,SCT,22000,,,,,METAR,"['KDSM 130754Z 17007KT 8SM FEW170 SCT220 09/05 A3017 ', ' AO2 SLP215 T00890050 $']"
KDDH,2015-03-13T07:54:00Z,-10.0,-15.6,0,0,,10.0,30.569881,,,,CLR,,,,,,,,METAR,"['KDDH 130754Z AUTO 00000KT 10SM CLR M10/M16 A3057 ', ' AO2 SLP365 T11001156']"
KCAR,2015-03-13T07:54:00Z,-15.6,-21.7,320,8,,10.0,30.380905,,,,CLR,,,,,,,,METAR,"['KCAR 130754Z AUTO 32008KT 10SM CLR M16/M22 A3038 ', ' AO2 SLP306 T11561217']"
KBWI,2015-03-13T07:54:00Z,2.8,-8.3,60,7,,10.0,30.578741,,,,SCT,24000,,,,,,,METAR,"['KBWI 130754Z 06007KT 10SM SCT240 03/M08 A3058 ', ' AO2 SLP356 T00281083']"
KBUY,2015-03-13T07:54:00Z,7.2,-2.2,70,5,,10.0,30.510826,,,,CLR,,,,,,,,METAR,"['KBUY 130754Z AUTO 07005KT 10SM CLR 07/M02 A3051 ', ' AO2 SLP329 T00721022']"
KBUF,2015-03-13T07:54:00Z,-3.3,-12.8,120,5,,10.0,30.510826,,,,CLR,,,,,,,,METAR,"['KBUF 130754Z 12005KT 10SM CLR M03/M13 A3051 ', ' AO2 SLP339 T10331128']"
KBTV,2015-03-13T07:54:00Z,-8.3,-13.9,0,0,,10.0,30.611221,,,,CLR,,,,,,,,METAR,"['KBTV 130754Z 00000KT 10SM CLR M08/M14 A3061 ', ' AO2 SLP371 T10831139']"
KBOS,2015-03-13T07:54:00Z,-4.4,-15.6,300,9,,10.0,30.59941,,,,CLR,,,,,,,,METAR,"['KBOS 130754Z 30009KT 10SM CLR M04/M16 A3060 ', ' AO2 SLP362 T10441156']"
KAUW,2015-03-13T07:54:00Z,4.4,1.1,160,7,,10.0,30.15059,,,,CLR,,,,,,,,METAR,"['KAUW 130754Z AUTO 16007KT 10SM CLR 04/01 A3015 ', ' AO2 SLP221 T00440011']"
KAKR,2015-03-13T07:54:00Z,5.0,-10.0,0,5,,10.0,30.380905,,TRUE,,CLR,,,,,,,,METAR,"['KAKR 130754Z AUTO VRB05KT 10SM CLR 05/M10 A3038 ', ' AO2 SLP292 T00501100 $']"
KAKQ,2015-03-13T07:54:00Z,0.0,-2.2,0,0,,10.0,30.561024,,,,CLR,,,,,,,,METAR,"['KAKQ 130754Z AUTO 00000KT 10SM CLR 00/M02 A3056 ', ' AO2 SLP351 T00001022 TSNO']"
KBFL,2015-03-13T07:54:00Z,15.0,8.9,80,5,,10.0,30.180119,,,,CLR,,,,,,,,METAR,"['KBFL 130754Z AUTO 08005KT 10SM CLR 15/09 A3018 ', ' AO2 SLP215 T01500089 402060100']"
KAVP,2015-03-13T07:54:00Z,-2.8,-13.3,100,3,,10.0,30.561024,,,,CLR,,,,,,,,METAR,"['KAVP 130754Z AUTO 10003KT 10SM CLR M03/M13 A3056 ', ' AO2 SLP358 T10281133']"
KAVL,2015-03-13T07:54:00Z,11.7,-3.3,140,6,,10.0,30.448818,,,,OVC,5000,,,,,,,METAR,"['KAVL 130754Z AUTO 14006KT 10SM OVC050 12/M03 A3045 ', ' AO2 SLP301 T01171033']"
KAPC,2015-03-13T07:54:00Z,9.4,7.8,0,0,,10.0,30.159449,,,,CLR,,,,,,,,METAR,"['KAPC 130754Z AUTO 00000KT 10SM CLR 09/08 A3016 ', ' AO2 SLP203 T00940078 402170050']"
KALO,2015-03-13T07:54:00Z,5.6,5.0,160,8,,3.0,30.180119,,,BR,CLR,,,,,,,,METAR,"['KALO 130754Z AUTO 16008KT 3SM BR CLR 06/05 A3018 ', ' AO2 SLP221 T00560050']"
KAKH,2015-03-13T07:54:00Z,13.3,-1.7,70,4,,10.0,30.469488,,,,OVC,6500,,,,,,,METAR,"['KAKH 130754Z AUTO 07004KT 10SM OVC065 13/M02 A3047 ', ' AO2 SLP315 T01331017']"
K12N,2015-03-13T07:54:00Z,-6.1,-8.9,0,0,,,30.590551,,,,,,,,,,,,METAR,"['K12N 130754Z AUTO 00000KT M06/M09 A3059 ', ' AO1 SLP371 T10611089']"
KCEU,2015-03-13T07:54:00Z,15.6,-1.7,80,8,,10.0,30.431103,,,,OVC,5000,,,,,,,METAR,"['KCEU 130754Z AUTO 08008KT 10SM OVC050 16/M02 A3043 ', ' AO2 SLP300 T01561017']"
KRBL,2015-03-13T07:54:00Z,13.3,7.8,330,7,,10.0,30.159449,,,,CLR,,,,,,,,METAR,"['KRBL 130754Z AUTO 33007KT 10SM CLR 13/08 A3016 ', ' AO2 SLP209 T01330078 402440100']"
KPTW,2015-03-13T07:54:00Z,-2.8,-12.2,0,0,,10.0,30.611221,,,,CLR,,,,,,,,METAR,"['KPTW 130754Z AUTO 00000KT 10SM CLR M03/M12 A3061 ', ' AO2 SLP366 T10281122']"
KPNE,2015-03-13T07:54:00Z,0.6,-17.2,50,6,,10.0,30.611221,,TRUE,,CLR,,,,,,,,METAR,"['KPNE 130754Z 05006KT 10SM CLR 01/M17 A3061 ', ' AO2 SLP368 T00061172 $']"
KPIA,2015-03-13T07:54:00Z,8.3,1.1,80,6,,10.0,30.239174,,,,CLR,,,,,,,,METAR,"['KPIA 130754Z 08006KT 10SM CLR 08/01 A3024 ', ' AO2 SLP242 T00830011']"
KPHL,2015-03-13T07:54:00Z,1.1,-16.7,80,7,,10.0,30.611221,,,,FEW,25000,,,,,,,METAR,"['KPHL 130754Z 08007KT 10SM FEW250 01/M17 A3061 ', ' AO2 SLP364 T00111167']"
KOLS,2015-03-13T07:54:00Z,12.8,2.2,40,6,,10.0,30.050198,,,,FEW,11000,,,,,,,METAR,"['KOLS 130754Z AUTO 04006KT 10SM FEW110 13/02 A3005 ', ' AO2 SLP126 T01280022']"
KMRY,2015-03-13T07:54:00Z,11.7,9.4,0,0,,10.0,30.138779,,,,CLR,,,,,,,,METAR,"['KMRY 130754Z AUTO 00000KT 10SM CLR 12/09 A3014 ', ' AO2 SLP218 T01170094 402110089']"
KTQE,2015-03-13T07:54:00Z,3.3,-1.1,170,6,,10.0,30.138779,,,,CLR,,,,,,,,METAR,"['KTQE 130754Z AUTO 17006KT 10SM CLR 03/M01 A3014 ', ' AO2 SLP199 T00331011']"
KRDG,2015-03-13T07:54:00Z,0.0,-17.8,340,3,,10.0,30.590551,,TRUE,,CLR,,,,,,,,METAR,"['KRDG 130754Z 34003KT 10SM CLR 00/M18 A3059 ', ' AO2 SLP365 T00001178 $']"
KIMT,2015-03-13T07:54:00Z,2.8,-2.2,150,7,,10.0,30.159449,,,,BKN,9500,,,,,,,METAR,"['KIMT 130754Z AUTO 15007KT 10SM BKN095 03/M02 A3016 ', ' AO2 SLP223 T00281022']"
KNFG,2015-03-13T07:54:00Z,10.0,7.2,0,3,,8.0,30.02067,,TRUE,,CLR,,,,,,,,METAR,"['KNFG 130754Z AUTO VRB03KT 8SM CLR 10/07 A3002 ', ' AO2 SLP164 T01000072 402780078 $']"
KAPN,2015-03-13T07:54:00Z,0.6,-8.9,180,9,,10.0,30.339567,,,,CLR,,,,,,,,METAR,"['KAPN 130754Z AUTO 18009KT 10SM CLR 01/M09 A3034 ', ' AO2 SLP284 T00061089']"
KAAO,2015-03-13T07:54:00Z,6.7,1.1,60,5,,10.0,30.129921,,,,CLR,,,,,,,,METAR,"['KAAO 130754Z AUTO 06005KT 10SM CLR 07/01 A3013 ', ' AO2 SLP200 T00670011']"
KNAK,2015-03-13T07:54:00Z,2.8,-7.8,60,4,,10.0,30.590551,,,,CLR,,,,,,,,METAR,"['KNAK 130754Z AUTO 06004KT 10SM CLR 03/M08 A3059 ', ' AO2 SLP359 T00281078']"
KNKT,2015-03-13T07:54:00Z,8.9,0.6,60,11,,10.0,30.499016,,TRUE,,CLR,,,,,,,,METAR,"['KNKT 130754Z 06011KT 10SM CLR 09/01 A3050 ', ' AO2 SLP326 T00890006 $']"
KMQE,2015-03-13T07:54:00Z,-6.7,-16.7,310,10,17,,30.540354,,,,,,,,,,,,SPECI,"['KMQE 130754Z AUTO 31010G17KT M07/M17 A3054 ', ' AO1 SLP363 T10671167']"
K1V4,2015-03-13T07:54:00Z,-12.8,-16.7,,,,,30.549213,,,,,,,,,,,,SPECI,"['K1V4 130754Z AUTO M13/M17 A3055 ', ' AO1 SLP364 T11281167']"
KRYT,2015-03-13T07:53:00Z,-0.6,-7.8,0,0,,10.0,30.540354,,TRUE,,CLR,,,,,,,,METAR,"['KRYT 130753Z AUTO 00000KT 10SM CLR M01/M08 A3054 ', ' AO2 SLP353 T10061078 $']"
KGVL,2015-03-13T07:53:00Z,13.3,3.3,90,13,,10.0,30.398623,,,,OVC,3800,,,,,,,SPECI,"['KGVL 130753Z AUTO 09013KT 10SM OVC038 13/03 A3040 ', ' AO2 SLP286 T01330033']"
KMWT,2015-03-13T07:53:00Z,12.2,11.1,0,0,,0.25,30.008858,,,FG,OVX,0,,,,,,,METAR,"['KMWT 130753Z AUTO 00000KT 1/4SM FG VV002 12/11 A3001 ', ' AO2 SLP163 T01220111']"
KCQC,2015-03-13T07:53:00Z,7.2,-3.3,50,8,,10.0,30.159449,,,,OVC,10000,,,,,,,METAR,"['KCQC 130753Z AUTO 05008KT 10SM OVC100 07/M03 A3016 ', ' AO2 SLP152 T00721033']"
K6R6,2015-03-13T07:53:00Z,12.8,3.9,10,5,,,30.050198,,TRUE,,,,,,,,,,METAR,"['K6R6 130753Z AUTO 01005KT 13/04 A3005 ', ' AO1 SLP153 T01280039 $']"
KP68,2015-03-13T07:53:00Z,-1.1,-4.4,0,0,,,30.410433,,,,,,,,,,,,METAR,"['KP68 130753Z AUTO 00000KT M01/M04 A3041 ', ' AO1 SLP277 T10111044 401561017']"
KCTY,2015-03-13T07:53:00Z,20.6,18.9,80,6,,,30.200787,,,,,,,,,,,,METAR,"['KCTY 130753Z AUTO 08006KT 21/19 A3020 ', ' AO1 SLP225 T02060189']"
KNIP,2015-03-13T07:53:00Z,21.1,18.3,40,6,,10.0,30.239174,,,,OVC,700,,,,,,,METAR,"['KNIP 130753Z 04006KT 10SM OVC007 21/18 A3024 ', ' AO2 SLP234 T02110183']"
KOQT,2015-03-13T07:53:00Z,13.3,11.7,260,3,,8.0,30.33071,,,-RA,BKN,5000,OVC,6000,,,,,METAR,"['KOQT 130753Z AUTO 26003KT 8SM -RA BKN050 OVC060 13/12 A3033 ', ' AO2 RAB14 SLP263 P0005 T01330117']"
KNQX,2015-03-13T07:53:00Z,23.9,18.3,110,18,24,10.0,30.100393,,TRUE,,CLR,,,,,,,,METAR,"['KNQX 130753Z AUTO 11018G24KT 10SM CLR 24/18 A3010 ', ' AO2 PK WND 11026/0713 SLP191 T02390183 $']"
KLOR,2015-03-13T07:53:00Z,18.3,16.7,0,5,,8.0,30.180119,,,,OVC,600,,,,,,,METAR,"['KLOR 130753Z AUTO VRB05KT 8SM OVC006 18/17 A3018 ', ' AO2 SLP216 T01830167']"
KNUI,2015-03-13T07:53:00Z,0.0,-5.0,40,5,,10.0,30.569881,,,,CLR,,,,,,,,METAR,"['KNUI 130753Z AUTO 04005KT 10SM CLR 00/M05 A3057 ', ' AO2 SLP350 T00001050']"
KTCS,2015-03-13T07:53:00Z,11.7,1.7,330,7,,10.0,30.109253,,,,CLR,,,,,,,,METAR,"['KTCS 130753Z AUTO 33007KT 10SM CLR 12/02 A3011 ', ' AO2 SLP144 T01170017 TSNO']"
KVGT,2015-03-13T07:53:00Z,18.9,-1.1,10,9,,10.0,30.171259,,,,CLR,,,,,,,,METAR,"['KVGT 130753Z 01009KT 10SM CLR 19/M01 A3017 ', ' AO2 SLP219 T01891011 402560106']"
KVEL,2015-03-13T07:53:00Z,4.4,-1.1,290,6,,10.0,30.318897,,,,CLR,,,,,,,,METAR,"['KVEL 130753Z AUTO 29006KT 10SM CLR 04/M01 A3032 ', ' AO2 SLP251 T00441011']"
KVCB,2015-03-13T07:53:00Z,15.0,6.1,240,5,,10.0,30.138779,,,,CLR,,,,,,,,METAR,"['KVCB 130753Z AUTO 24005KT 10SM CLR 15/06 A3014 ', ' AO2 SLP204 T01500061 402560067']"
KUUU,2015-03-13T07:53:00Z,-3.9,-13.9,340,7,,10.0,30.590551,,,,CLR,,,,,,,,METAR,"['KUUU 130753Z AUTO 34007KT 10SM CLR M04/M14 A3059 ', ' AO2 SLP360 T10391139']"
KRSW,2015-03-13T07:53:00Z,22.2,19.4,100,7,,10.0,30.138779,,,,OVC,8000,,,,,,,METAR,"['KRSW 130753Z 10007KT 10SM OVC080 22/19 A3014 ', ' AO2 SLP203 T02220194']"
KRSL,2015-03-13T07:53:00Z,5.6,1.1,200,4,,10.0,30.129921,,,,CLR,,,,,,,,METAR,"['KRSL 130753Z AUTO 20004KT 10SM CLR 06/01 A3013 ', ' AO2 SLP200 T00560011']"
KHKY,2015-03-13T07:53:00Z,11.7,-1.7,80,5,,10.0,30.481298,,,,OVC,7000,,,,,,,SPECI,"['KHKY 130753Z AUTO 08005KT 10SM OVC070 12/M02 A3048 ', ' AO2 SLP307 T01171017']"
KGSP,2015-03-13T07:53:00Z,13.9,-1.1,80,7,,10.0,30.431103,,,,OVC,6000,,,,,,,SPECI,"['KGSP 130753Z AUTO 08007KT 10SM OVC060 14/M01 A3043 ', ' AO2 SLP300 T01391011']"
KGMU,2015-03-13T07:53:00Z,13.9,-1.7,70,10,,10.0,30.448818,,,,OVC,5500,,,,,,,SPECI,"['KGMU 130753Z AUTO 07010KT 10SM OVC055 14/M02 A3045 ', ' AO2 SLP306 T01391017']"
KEQY,2015-03-13T07:53:00Z,12.2,-1.1,70,5,,10.0,30.46063,,,,OVC,7000,,,,,,,SPECI,"['KEQY 130753Z AUTO 07005KT 10SM OVC070 12/M01 A3046 ', ' AO2 SLP322 T01221011']"
KDNL,2015-03-13T07:53:00Z,15.6,0.0,80,10,,10.0,30.389763,,,,OVC,3600,,,,,,,SPECI,"['KDNL 130753Z AUTO 08010KT 10SM OVC036 16/00 A3039 ', ' AO2 SLP286 T01560000']"
KCSV,2015-03-13T07:53:00Z,12.2,9.4,150,6,,10.0,30.28937,,,,OVC,7500,,,,,,,SPECI,"['KCSV 130753Z AUTO 15006KT 10SM OVC075 12/09 A3029 ', ' AO2 RAE16 SLP247 P0002 T01220094']"
KAGS,2015-03-13T07:53:00Z,14.4,0.0,80,12,,10.0,30.380905,,,,OVC,3800,,,,,,,SPECI,"['KAGS 130753Z AUTO 08012KT 10SM OVC038 14/00 A3038 ', ' AO2 SLP287 T01440000']"
KRQE,2015-03-13T07:53:00Z,6.1,0.0,10,6,,10.0,30.230314,,,,OVC,9500,,,,,,,METAR,"['KRQE 130753Z AUTO 01006KT 10SM OVC095 06/00 A3023 ', ' AO2 SLP173 T00610000 TSNO']"
KPUC,2015-03-13T07:53:00Z,5.0,0.0,350,9,,10.0,30.31004,,,,CLR,,,,,,,,SPECI,"['KPUC 130753Z AUTO 35009KT 10SM CLR 05/00 A3031 ', ' AO2 SLP255 T00500000']"
KODX,2015-03-13T07:53:00Z,6.1,-2.2,280,3,,10.0,30.109253,,,,CLR,,,,,,,,METAR,"['KODX 130753Z AUTO 28003KT 10SM CLR 06/M02 A3011 ', ' AO2 SLP196 T00611022']"
KMTO,2015-03-13T07:53:00Z,8.9,1.1,100,4,,10.0,30.221457,,,-RA,OVC,9000,,,,,,,SPECI,"['KMTO 130753Z AUTO 10004KT 10SM -RA OVC090 09/01 A3022 ', ' AO2 RAB19 SLP234 P0000 T00890011']"
KMSS,2015-03-13T07:53:00Z,-11.7,-13.9,0,0,,10.0,30.628937,,,,CLR,,,,,,,,SPECI,"['KMSS 130753Z AUTO 00000KT 10SM CLR M12/M14 A3063 ', ' AO2 SLP379 T11171139']"
KMLT,2015-03-13T07:53:00Z,-11.7,-20.0,300,11,,10.0,30.448818,,,,CLR,,,,,,,,SPECI,"['KMLT 130753Z AUTO 30011KT 10SM CLR M12/M20 A3045 ', ' AO2 SLP324 T11171200']"
KMIC,2015-03-13T07:53:00Z,12.8,5.0,190,12,18,10.0,30.02067,,,,CLR,,,,,,,,SPECI,"['KMIC 130753Z 19012G18KT 10SM CLR 13/05 A3002 ', ' AO2 SLP167 T01280050']"
KLXT,2015-03-13T07:53:00Z,11.7,5.6,50,3,,10.0,30.171259,,,,CLR,,,,,,,,METAR,"['KLXT 130753Z AUTO 05003KT 10SM CLR 12/06 A3017 ', ' AO2 SLP213 T01170056']"
KLND,2015-03-13T07:53:00Z,3.3,-2.2,0,0,,10.0,30.360237,,,,OVC,7500,,,,,,,METAR,"['KLND 130753Z AUTO 00000KT 10SM OVC075 03/M02 A3036 ', ' AO2 SLP266 T00331022']"
KLBF,2015-03-13T07:53:00Z,7.2,-2.2,0,0,,10.0,30.171259,,TRUE,,CLR,,,,,,,,METAR,"['KLBF 130753Z AUTO 00000KT 10SM CLR 07/M02 A3017 ', ' AO2 SLP205 T00721022 $']"
KGRI,2015-03-13T07:53:00Z,9.4,0.0,210,8,,10.0,30.15059,,,,CLR,,,,,,,,METAR,"['KGRI 130753Z AUTO 21008KT 10SM CLR 09/00 A3015 ', ' AO2 SLP209 T00940000']"
KGFL,2015-03-13T07:53:00Z,-8.9,-13.9,0,0,,10.0,30.611221,,,,CLR,,,,,,,,METAR,"['KGFL 130753Z AUTO 00000KT 10SM CLR M09/M14 A3061 ', ' AO2 SLP376 T10891139']"
KBIL,2015-03-13T07:53:00Z,6.1,-3.3,90,3,,10.0,30.351377,,,,CLR,,,,,,,,METAR,"['KBIL 130753Z 09003KT 10SM CLR 06/M03 A3035 ', ' AO2 SLP272 T00611033']"
KBAF,2015-03-13T07:53:00Z,-4.4,-16.7,50,3,,10.0,30.59941,,,,CLR,,,,,,,,METAR,"['KBAF 130753Z 05003KT 10SM CLR M04/M17 A3060 ', ' AO2 SLP369 T10441167']"
KSWO,2015-03-13T07:53:00Z,8.3,5.6,340,3,,10.0,30.100393,,,,OVC,12000,,,,,,,METAR,"['KSWO 130753Z AUTO 34003KT 10SM OVC120 08/06 A3010 ', ' AO2 SLP186 T00830056 TSNO']"
KRVS,2015-03-13T07:53:00Z,13.9,10.0,50,5,,10.0,30.088583,,TRUE,,SCT,1900,OVC,3000,,,,,METAR,"['KRVS 130753Z AUTO 05005KT 10SM SCT019 OVC030 14/10 A3009 ', ' AO2 SLP196 T01390100 $']"
KMGM,2015-03-13T07:53:00Z,19.4,17.8,80,10,,10.0,30.180119,,,,BKN,900,OVC,1600,,,,,METAR,"['KMGM 130753Z AUTO 08010KT 10SM BKN009 OVC016 19/18 A3018 ', ' AO2 RAB23E36 CIG 007V012 SLP219 P0000 T01940178']"
KVLD,2015-03-13T07:53:00Z,15.6,15.0,90,6,,8.0,30.259842,,,,OVC,1100,,,,,,,METAR,"['KVLD 130753Z AUTO 09006KT 8SM OVC011 16/15 A3026 ', ' AO2 SLP252 T01560150 TSNO']"
KVRB,2015-03-13T07:53:00Z,22.8,19.4,100,10,,10.0,30.159449,,,,CLR,,,,,,,,METAR,"['KVRB 130753Z AUTO 10010KT 10SM CLR 23/19 A3016 ', ' AO2 SLP213 T02280194']"
KVUO,2015-03-13T07:53:00Z,7.8,5.6,0,0,,10.0,30.259842,,,,CLR,,,,,,,,METAR,"['KVUO 130753Z AUTO 00000KT 10SM CLR 08/06 A3026 ', ' AO2 SLP246 T00780056 402000078']"
KWRL,2015-03-13T07:53:00Z,2.8,-0.6,180,7,,10.0,30.33071,,,,FEW,8500,,,,,,,METAR,"['KWRL 130753Z AUTO 18007KT 10SM FEW085 03/M01 A3033 ', ' AO2 SLP273 T00281006']"
KWST,2015-03-13T07:53:00Z,-3.9,-13.3,340,4,,10.0,30.611221,,,,CLR,,,,,,,,METAR,"['KWST 130753Z AUTO 34004KT 10SM CLR M04/M13 A3061 ', ' AO2 SLP365 T10391133']"
KWVI,2015-03-13T07:53:00Z,13.3,10.0,300,3,,10.0,30.15059,,,,CLR,,,,,,,,METAR,"['KWVI 130753Z AUTO 30003KT 10SM CLR 13/10 A3015 ', ' AO2 SLP208 T01330100 402390089']"
KXNA,2015-03-13T07:53:00Z,11.1,10.0,70,4,,5.0,30.079725,,,BR,BKN,600,OVC,4500,,,,,METAR,"['KXNA 130753Z AUTO 07004KT 5SM BR BKN006 OVC045 11/10 A3008 ', ' AO2 RAE20 SLP180 P0000 T01110100']"
KYIP,2015-03-13T07:53:00Z,-1.1,-8.3,30,3,,10.0,30.389763,,,,CLR,,,,,,,,METAR,"['KYIP 130753Z AUTO 03003KT 10SM CLR M01/M08 A3039 ', ' AO2 SLP295 T10111083 TSNO']"
KYKM,2015-03-13T07:53:00Z,5.6,1.1,260,9,,10.0,30.369095,,,,CLR,,,,,,,,METAR,"['KYKM 130753Z AUTO 26009KT 10SM CLR 06/01 A3037 ', ' AO2 SLP285 T00560011 402170017']"
KZZV,2015-03-13T07:53:00Z,2.8,-6.1,90,4,,10.0,30.360237,,,,CLR,,,,,,,,METAR,"['KZZV 130753Z AUTO 09004KT 10SM CLR 03/M06 A3036 ', ' AO2 SLP283 T00281061 TSNO']"
KRTN,2015-03-13T07:53:00Z,8.3,-4.4,360,23,28,10.0,30.209646,,,,SCT,8000,OVC,11000,,,,,METAR,"['KRTN 130753Z AUTO 36023G28KT 10SM SCT080 OVC110 08/M04 A3021 ', ' AO2 PK WND 36028/0749 SLP174 T00831044']"
KRWF,2015-03-13T07:53:00Z,8.3,3.9,220,8,,10.0,30.029528,,,,CLR,,,,,,,,METAR,"['KRWF 130753Z AUTO 22008KT 10SM CLR 08/04 A3003 ', ' AO2 SLP170 T00830039']"
KRWL,2015-03-13T07:53:00Z,-1.7,-3.3,360,5,,10.0,30.380905,,,,CLR,,,,,,,,METAR,"['KRWL 130753Z AUTO 36005KT 10SM CLR M02/M03 A3038 ', ' AO2 SLP279 T10171033']"
KRXE,2015-03-13T07:53:00Z,-1.1,-2.2,60,3,,10.0,30.398623,,,,CLR,,,,,,,,METAR,"['KRXE 130753Z AUTO 06003KT 10SM CLR M01/M02 A3040 ', ' AO2 SLP300 T10111022']"
KSAC,2015-03-13T07:53:00Z,13.3,10.6,130,3,,10.0,30.138779,,,,CLR,,,,,,,,METAR,"['KSAC 130753Z AUTO 13003KT 10SM CLR 13/11 A3014 ', ' AO2 SLP205 T01330106 402440100']"
KSAF,2015-03-13T07:53:00Z,8.9,-5.0,350,8,,10.0,30.15059,,TRUE,,OVC,10000,,,,,,,METAR,"['KSAF 130753Z AUTO 35008KT 10SM OVC100 09/M05 A3015 ', ' AO2 SLP144 T00891050 $']"
KRNT,2015-03-13T07:53:00Z,8.3,6.7,0,0,,10.0,30.318897,,,,CLR,,,,,,,,METAR,"['KRNT 130753Z AUTO 00000KT 10SM CLR 08/07 A3032 ', ' AO2 SLP270 T00830067 401890083']"
KRNM,2015-03-13T07:53:00Z,10.6,4.4,0,0,,10.0,30.059055,,,,CLR,,,,,,,,METAR,"['KRNM 130753Z AUTO 00000KT 10SM CLR 11/04 A3006 ', ' AO2 SLP168 T01060044 402670050']"
KSAV,2015-03-13T07:53:00Z,15.0,8.9,70,13,20,10.0,30.339567,,,,OVC,1800,,,,,,,METAR,"['KSAV 130753Z AUTO 07013G20KT 10SM OVC018 15/09 A3034 ', ' AO2 SLP271 T01500089 TSNO']"
KVPC,2015-03-13T07:53:00Z,14.4,7.2,90,11,19,10.0,30.318897,,,,OVC,3200,,,,,,,METAR,"['KVPC 130753Z AUTO 09011G19KT 10SM OVC032 14/07 A3032 ', ' AO2 SLP260 T01440072']"
KTYS,2015-03-13T07:53:00Z,13.9,11.1,160,3,,10.0,30.301182,,,,FEW,4500,OVC,5500,,,,,METAR,"['KTYS 130753Z 16003KT 10SM FEW045 OVC055 14/11 A3030 ', ' AO2 RAE04B26E46 SLP256 P0000 T01390111']"
KTRI,2015-03-13T07:53:00Z,11.7,0.6,90,7,14,10.0,30.389763,,,,FEW,4700,OVC,6000,,,,,METAR,"['KTRI 130753Z 09007G14KT 10SM FEW047 OVC060 12/01 A3039 ', ' AO2 RAB07E53 SLP273 P0000 T01170006']"
KTOI,2015-03-13T07:53:00Z,18.9,16.7,90,14,22,8.0,30.188976,,,,OVC,1100,,,,,,,METAR,"['KTOI 130753Z AUTO 09014G22KT 8SM OVC011 19/17 A3019 ', ' AO2 RAB0655E04B26E44 SLP219 P0000 T01890167']"
KTCL,2015-03-13T07:53:00Z,18.9,15.6,100,8,18,10.0,30.15059,,,,OVC,1700,,,,,,,METAR,"['KTCL 130753Z AUTO 10008G18KT 10SM OVC017 19/16 A3015 ', ' AO2 SLP209 T01890156']"
KRWI,2015-03-13T07:53:00Z,3.9,0.0,0,0,,10.0,30.540354,,,,CLR,,,,,,,,METAR,"['KRWI 130753Z AUTO 00000KT 10SM CLR 04/00 A3054 ', ' AO2 SLP341 T00390000']"
KHEY,2015-03-13T07:53:00Z,17.2,16.1,100,11,20,10.0,30.188976,,,,OVC,500,,,,,,,METAR,"['KHEY 130753Z AUTO 10011G20KT 10SM OVC005 17/16 A3019 ', ' AO2 SLP111 T01720161']"
KRMG,2015-03-13T07:53:00Z,14.4,9.4,110,7,16,10.0,30.301182,,,,OVC,3100,,,,,,,METAR,"['KRMG 130753Z AUTO 11007G16KT 10SM OVC031 14/09 A3030 ', ' AO2 RAE29 SLP255 P0000 T01440094']"
KRME,2015-03-13T07:53:00Z,-10.0,-13.3,130,3,,10.0,30.611221,,,,CLR,,,,,,,,METAR,"['KRME 130753Z AUTO 13003KT 10SM CLR M10/M13 A3061 ', ' AO2 SLP371 T11001133']"
KRKP,2015-03-13T07:53:00Z,13.9,12.8,130,3,,6.0,30.0,,,BR,CLR,,,,,,,,METAR,"['KRKP 130753Z AUTO 13003KT 6SM BR CLR 14/13 A3000 ', ' AO2 SLP161 T01390128']"
KRIW,2015-03-13T07:53:00Z,4.4,-2.8,300,13,,10.0,30.369095,,TRUE,,CLR,,,,,,,,METAR,"['KRIW 130753Z AUTO 30013KT 10SM CLR 04/M03 A3037 ', ' AO2 SLP268 T00441028 $']"
KRIL,2015-03-13T07:53:00Z,3.9,0.0,120,3,,10.0,30.301182,,TRUE,,SCT,12000,,,,,,,METAR,"['KRIL 130753Z AUTO 12003KT 10SM SCT120 04/00 A3030 ', ' AO2 SLP238 T00390000 $']"
KRHI,2015-03-13T07:53:00Z,5.6,1.7,200,9,,9.0,30.129921,,TRUE,,OVC,10000,,,,,,,METAR,"['KRHI 130753Z AUTO 20009KT 9SM OVC100 06/02 A3013 ', ' AO2 SLP214 T00560017 $']"
KRDD,2015-03-13T07:53:00Z,12.8,9.4,0,0,,10.0,30.159449,,,,CLR,,,,,,,,METAR,"['KRDD 130753Z AUTO 00000KT 10SM CLR 13/09 A3016 ', ' AO2 SLP208 T01280094 402500094']"
KRBG,2015-03-13T07:53:00Z,11.1,9.4,0,0,,10.0,30.209646,,,,CLR,,,,,,,,METAR,"['KRBG 130753Z AUTO 00000KT 10SM CLR 11/09 A3021 ', ' AO2 SLP232 T01110094 402060094']"
KRBD,2015-03-13T07:53:00Z,14.4,12.2,10,3,,9.0,30.008858,,,,OVC,1100,,,,,,,METAR,"['KRBD 130753Z 01003KT 9SM OVC011 14/12 A3001 ', ' AO2 SLP158 T01440122']"
KRAL,2015-03-13T07:53:00Z,23.3,0.6,40,8,,10.0,30.041338,,,,CLR,,,,,,,,METAR,"['KRAL 130753Z AUTO 04008KT 10SM CLR 23/01 A3004 ', ' AO2 SLP157 T02330006 403060128']"
KRAC,2015-03-13T07:53:00Z,1.7,-2.2,160,6,,10.0,30.301182,,,,CLR,,,,,,,,METAR,"['KRAC 130753Z AUTO 16006KT 10SM CLR 02/M02 A3030 ', ' AO2 SLP266 T00171022']"
KPWA,2015-03-13T07:53:00Z,10.0,7.8,0,0,,9.0,30.100393,,,,CLR,,,,,,,,METAR,"['KPWA 130753Z AUTO 00000KT 9SM CLR 10/08 A3010 ', ' AO2 SLP184 T01000078']"
KPUW,2015-03-13T07:53:00Z,3.9,0.6,0,0,,10.0,30.41929,,,,CLR,,,,,,,,METAR,"['KPUW 130753Z AUTO 00000KT 10SM CLR 04/01 A3042 ', ' AO2 SLP309 T00390006 401500039']"
KPUB,2015-03-13T07:53:00Z,10.0,-0.6,360,18,,10.0,30.230314,,,,CLR,,,,,,,,METAR,"['KPUB 130753Z AUTO 36018KT 10SM CLR 10/M01 A3023 ', ' AO2 SLP200 T01001006']"
KPTK,2015-03-13T07:53:00Z,-2.2,-11.7,110,5,,10.0,30.369095,,,,CLR,,,,,,,,METAR,"['KPTK 130753Z AUTO 11005KT 10SM CLR M02/M12 A3037 ', ' AO2 SLP294 T10221117 TSNO']"
KPSX,2015-03-13T07:53:00Z,15.0,15.0,270,5,,4.0,30.0,,TRUE,-RA BR,FEW,700,BKN,4200,OVC,6000,,,METAR,"['KPSX 130753Z AUTO 27005KT 4SM -RA BR FEW007 BKN042 OVC060 15/15 A3000 ', ' AO2 RAB15 SLP156 P0000 T01500150 $']"
KPSP,2015-03-13T07:53:00Z,21.1,2.2,330,8,,10.0,30.059055,,,,CLR,,,,,,,,METAR,"['KPSP 130753Z AUTO 33008KT 10SM CLR 21/02 A3006 ', ' AO2 SLP175 T02110022 403170189 TSNO']"
KPSC,2015-03-13T07:53:00Z,3.3,1.1,0,0,,10.0,30.360237,,,,CLR,,,,,,,,METAR,"['KPSC 130753Z AUTO 00000KT 10SM CLR 03/01 A3036 ', ' AO2 SLP282 T00330011 402170028']"
KPRC,2015-03-13T07:53:00Z,6.1,-0.6,0,0,,10.0,30.180119,,,,CLR,,,,,,,,METAR,"['KPRC 130753Z AUTO 00000KT 10SM CLR 06/M01 A3018 ', ' AO2 SLP172 T00611006']"
KPRB,2015-03-13T07:53:00Z,10.0,6.7,0,0,,10.0,30.159449,,,,CLR,,,,,,,,METAR,"['KPRB 130753Z AUTO 00000KT 10SM CLR 10/07 A3016 ', ' AO2 SLP212 T01000067 402500050 TSNO']"
KPQL,2015-03-13T07:53:00Z,20.6,20.0,110,6,,4.0,30.079725,,,-RA BR,OVC,300,,,,,,,METAR,"['KPQL 130753Z AUTO 11006KT 4SM -RA BR OVC003 21/20 A3008 ', ' AO2 RAB43 SLP187 P0000 T02060200 TSNO']"
KPOU,2015-03-13T07:53:00Z,-6.1,-11.1,0,0,,10.0,30.611221,,,,CLR,,,,,,,,METAR,"['KPOU 130753Z 00000KT 10SM CLR M06/M11 A3061 ', ' AO2 SLP365 T10611111']"
KPOF,2015-03-13T07:53:00Z,12.8,11.1,30,7,,5.0,30.100393,,,-RA BR,OVC,1600,,,,,,,METAR,"['KPOF 130753Z AUTO 03007KT 5SM -RA BR OVC016 13/11 A3010 ', ' AO2 RAE22B36 SLP193 P0017 T01280111']"
KPNC,2015-03-13T07:53:00Z,8.9,5.6,30,3,,10.0,30.121063,,TRUE,,CLR,,,,,,,,METAR,"['KPNC 130753Z AUTO 03003KT 10SM CLR 09/06 A3012 ', ' AO2 SLP193 T00890056 $']"
KPMP,2015-03-13T07:53:00Z,23.9,18.3,110,17,23,10.0,30.129921,,,,CLR,,,,,,,,METAR,"['KPMP 130753Z 11017G23KT 10SM CLR 24/18 A3013 ', ' AO2 SLP203 T02390183']"
KPMD,2015-03-13T07:53:00Z,9.4,1.7,200,4,,10.0,30.171259,,,,CLR,,,,,,,,METAR,"['KPMD 130753Z AUTO 20004KT 10SM CLR 09/02 A3017 ', ' AO2 SLP203 T00940017 402500050']"
KPKB,2015-03-13T07:53:00Z,5.0,-5.0,90,4,,10.0,30.389763,,,,CLR,,,,,,,,METAR,"['KPKB 130753Z AUTO 09004KT 10SM CLR 05/M05 A3039 ', ' AO2 SLP293 T00501050']"
KPIR,2015-03-13T07:53:00Z,6.1,-1.7,300,10,,10.0,30.138779,,,,CLR,,,,,,,,METAR,"['KPIR 130753Z AUTO 30010KT 10SM CLR 06/M02 A3014 ', ' AO2 SLP207 T00611017']"
KPIL,2015-03-13T07:53:00Z,14.4,13.9,200,6,,5.0,30.0,,,BR,CLR,,,,,,,,METAR,"['KPIL 130753Z AUTO 20006KT 5SM BR CLR 14/14 A3000 ', ' AO2 SLP159 T01440139']"
KPIH,2015-03-13T07:53:00Z,6.7,1.7,220,11,,10.0,30.398623,,,,CLR,,,,,,,,METAR,"['KPIH 130753Z AUTO 22011KT 10SM CLR 07/02 A3040 ', ' AO2 SLP286 T00670017']"
KPIE,2015-03-13T07:53:00Z,22.2,19.4,120,8,,10.0,30.159449,,,,FEW,2400,,,,,,,METAR,"['KPIE 130753Z 12008KT 10SM FEW024 22/19 A3016 ', ' AO2 SLP214 T02220194']"
KPHD,2015-03-13T07:53:00Z,0.6,-3.9,0,0,,10.0,30.398623,,,,CLR,,,,,,,,METAR,"['KPHD 130753Z AUTO 00000KT 10SM CLR 01/M04 A3040 ', ' AO2 SLP301 T00061039']"
KPGD,2015-03-13T07:53:00Z,20.6,19.4,120,7,,10.0,30.159449,,,,CLR,,,,,,,,METAR,"['KPGD 130753Z AUTO 12007KT 10SM CLR 21/19 A3016 ', ' AO2 SLP213 T02060194']"
KPEO,2015-03-13T07:53:00Z,-5.0,-11.1,210,6,,10.0,30.549213,,,,CLR,,,,,,,,METAR,"['KPEO 130753Z AUTO 21006KT 10SM CLR M05/M11 A3055 ', ' AO2 SLP360 T10501111']"
KPDX,2015-03-13T07:53:00Z,10.0,7.8,250,3,,10.0,30.259842,,,,BKN,22000,BKN,25000,,,,,METAR,"['KPDX 130753Z 25003KT 10SM BKN220 BKN250 10/08 A3026 ', ' AO2 SLP246 T01000078 402060094']"
KPDT,2015-03-13T07:53:00Z,6.1,2.8,100,7,,10.0,30.339567,,,,CLR,,,,,,,,METAR,"['KPDT 130753Z AUTO 10007KT 10SM CLR 06/03 A3034 ', ' AO2 SLP270 T00610028 401830056']"
KPDK,2015-03-13T07:53:00Z,12.8,6.7,0,6,17,10.0,30.351377,,,-RA,OVC,3200,,,,,,,METAR,"['KPDK 130753Z VRB06G17KT 10SM -RA OVC032 13/07 A3035 ', ' AO2 SLP273 P0000 T01280067']"
KPBI,2015-03-13T07:53:00Z,24.4,18.9,100,17,,10.0,30.129921,,,,SCT,2200,,,,,,,METAR,"['KPBI 130753Z 10017KT 10SM SCT022 24/19 A3013 ', ' AO2 SLP204 T02440189']"
KPBG,2015-03-13T07:53:00Z,-7.2,-16.1,300,3,,10.0,30.611221,,,,CLR,,,,,,,,METAR,"['KPBG 130753Z AUTO 30003KT 10SM CLR M07/M16 A3061 ', ' AO2 SLP370 T10721161']"
KCHA,2015-03-13T07:53:00Z,15.6,8.9,160,6,,10.0,30.31004,,,,OVC,3700,,,,,,,METAR,"['KCHA 130753Z AUTO 16006KT 10SM OVC037 16/09 A3031 ', ' AO2 SLP259 T01560089']"
KHBG,2015-03-13T07:53:00Z,20.6,19.4,140,7,,10.0,30.079725,,,-RA,BKN,1300,BKN,4800,OVC,10000,,,METAR,"['KHBG 130753Z AUTO 14007KT 10SM -RA BKN013 BKN048 OVC100 21/19 A3008 ', ' AO2 SLP181 P0003 T02060194']"
KHAO,2015-03-13T07:53:00Z,5.6,0.0,60,3,,10.0,30.301182,,,,FEW,6000,,,,,,,METAR,"['KHAO 130753Z AUTO 06003KT 10SM FEW060 06/00 A3030 ', ' AO2 SLP263 T00560000']"
KLSE,2015-03-13T07:53:00Z,7.8,3.9,170,12,,8.0,30.171259,,,,CLR,,,,,,,,METAR,"['KLSE 130753Z AUTO 17012KT 8SM CLR 08/04 A3017 ', ' AO2 SLP218 T00780039']"
KHSI,2015-03-13T07:53:00Z,10.0,-0.6,200,7,,10.0,30.138779,,,,CLR,,,,,,,,METAR,"['KHSI 130753Z AUTO 20007KT 10SM CLR 10/M01 A3014 ', ' AO2 SLP200 T01001006']"
KBRO,2015-03-13T07:53:00Z,13.9,13.3,200,5,,5.0,30.008858,,TRUE,BR,CLR,,,,,,,,METAR,"['KBRO 130753Z 20005KT 5SM BR CLR 14/13 A3001 ', ' AO2 SLP162 T01390133 $']"
KUIL,2015-03-13T07:53:00Z,8.9,8.3,60,3,,10.0,30.301182,,TRUE,,CLR,,,,,,,,METAR,"['KUIL 130753Z AUTO 06003KT 10SM CLR 09/08 A3030 ', ' AO2 SLP260 T00890083 401440083 $']"
KUAO,2015-03-13T07:53:00Z,11.1,7.2,10,8,,10.0,30.250984,,,,CLR,,,,,,,,METAR,"['KUAO 130753Z AUTO 01008KT 10SM CLR 11/07 A3025 ', ' AO2 SLP242 T01110072 402000089']"
KTYR,2015-03-13T07:53:00Z,13.3,12.2,360,5,,10.0,29.970472,,,,OVC,400,,,,,,,METAR,"['KTYR 130753Z 36005KT 10SM OVC004 13/12 A2997 ', ' AO2 RAE33 SLP147 P0000 T01330122']"
KTWF,2015-03-13T07:53:00Z,6.1,-0.6,190,11,,10.0,30.410433,,,,CLR,,,,,,,,METAR,"['KTWF 130753Z AUTO 19011KT 10SM CLR 06/M01 A3041 ', ' AO2 SLP274 T00611006']"
KTVL,2015-03-13T07:53:00Z,0.0,-3.9,0,0,,10.0,30.380905,,,,CLR,,,,,,,,METAR,"['KTVL 130753Z AUTO 00000KT 10SM CLR 00/M04 A3038 ', ' AO2 SLP268 T00001039 401501022']"
KTVC,2015-03-13T07:53:00Z,4.4,-9.4,0,4,,10.0,30.280512,,,,CLR,,,,,,,,METAR,"['KTVC 130753Z VRB04KT 10SM CLR 04/M09 A3028 ', ' AO2 SLP256 T00441094']"
KTUS,2015-03-13T07:53:00Z,16.7,1.7,120,7,,10.0,30.02067,,,,CLR,,,,,,,,METAR,"['KTUS 130753Z 12007KT 10SM CLR 17/02 A3002 ', ' AO2 SLP130 T01670017']"
KTTN,2015-03-13T07:53:00Z,-0.6,-16.7,10,4,,10.0,30.590551,,,,CLR,,,,,,,,METAR,"['KTTN 130753Z AUTO 01004KT 10SM CLR M01/M17 A3059 ', ' AO2 SLP354 T10061167']"
KTTD,2015-03-13T07:53:00Z,12.2,7.2,80,13,21,10.0,30.239174,,,,CLR,,,,,,,,METAR,"['KTTD 130753Z AUTO 08013G21KT 10SM CLR 12/07 A3024 ', ' AO2 SLP238 T01220072 402060111']"
KTRL,2015-03-13T07:53:00Z,14.4,12.2,10,6,,10.0,30.008858,,,,OVC,700,,,,,,,METAR,"['KTRL 130753Z AUTO 01006KT 10SM OVC007 14/12 A3001 ', ' AO2 SLP158 T01440122']"
KTPA,2015-03-13T07:53:00Z,22.8,17.8,100,5,,10.0,30.171259,,,,FEW,9000,,,,,,,METAR,"['KTPA 130753Z 10005KT 10SM FEW090 23/18 A3017 ', ' AO2 SLP216 T02280178']"
KTOR,2015-03-13T07:53:00Z,6.1,-1.1,320,8,,10.0,30.28937,,,,CLR,,,,,,,,METAR,"['KTOR 130753Z AUTO 32008KT 10SM CLR 06/M01 A3029 ', ' AO2 SLP242 T00611011']"
KTOP,2015-03-13T07:53:00Z,9.4,2.8,0,0,,10.0,30.171259,,,,CLR,,,,,,,,METAR,"['KTOP 130753Z AUTO 00000KT 10SM CLR 09/03 A3017 ', ' AO2 SLP213 T00940028']"
KTMB,2015-03-13T07:53:00Z,21.7,18.3,100,10,,10.0,30.121063,,,,SCT,2900,SCT,3600,,,,,METAR,"['KTMB 130753Z 10010KT 10SM SCT029 SCT036 22/18 A3012 ', ' AO2 SLP200 T02170183']"
KTLH,2015-03-13T07:53:00Z,18.9,16.1,90,11,,10.0,30.200787,,TRUE,,OVC,800,,,,,,,METAR,"['KTLH 130753Z AUTO 09011KT 10SM OVC008 19/16 A3020 ', ' AO2 SLP226 T01890161 $']"
KTKI,2015-03-13T07:53:00Z,13.9,12.8,0,0,,10.0,30.02067,,,,OVC,700,,,,,,,METAR,"['KTKI 130753Z AUTO 00000KT 10SM OVC007 14/13 A3002 ', ' AO2 SLP169 T01390128']"
KTIW,2015-03-13T07:53:00Z,10.0,6.7,0,0,,10.0,30.31004,,,,CLR,,,,,,,,METAR,"['KTIW 130753Z AUTO 00000KT 10SM CLR 10/07 A3031 ', ' AO2 SLP264 T01000067 401780100']"
KTHV,2015-03-13T07:53:00Z,-5.0,-6.7,0,0,,10.0,30.578741,,,,CLR,,,,,,,,METAR,"['KTHV 130753Z AUTO 00000KT 10SM CLR M05/M07 A3058 ', ' AO2 SLP361 T10501067']"
KTDZ,2015-03-13T07:53:00Z,-0.6,-5.0,0,0,,10.0,30.380905,,,,CLR,,,,,,,,METAR,"['KTDZ 130753Z AUTO 00000KT 10SM CLR M01/M05 A3038 ', ' AO2 SLP293 T10061050 TSNO']"
KTCC,2015-03-13T07:53:00Z,6.1,0.6,0,0,,10.0,30.109253,,,,CLR,,,,,,,,METAR,"['KTCC 130753Z AUTO 00000KT 10SM CLR 06/01 A3011 ', ' AO2 SLP164 T00610006']"
KSTS,2015-03-13T07:53:00Z,10.6,9.4,0,0,,10.0,30.171259,,,,CLR,,,,,,,,METAR,"['KSTS 130753Z AUTO 00000KT 10SM CLR 11/09 A3017 ', ' AO2 SLP209 T01060094 402440056']"
KSTP,2015-03-13T07:53:00Z,11.1,6.1,180,9,,9.0,30.059055,,,,CLR,,,,,,,,METAR,"['KSTP 130753Z AUTO 18009KT 9SM CLR 11/06 A3006 ', ' AO2 SLP179 T01110061']"
KSTJ,2015-03-13T07:53:00Z,7.8,2.8,120,3,,10.0,30.171259,,TRUE,,CLR,,,,,,,,METAR,"['KSTJ 130753Z AUTO 12003KT 10SM CLR 08/03 A3017 ', ' AO2 SLP215 T00780028 $']"
KSTC,2015-03-13T07:53:00Z,7.2,3.9,190,6,,10.0,30.0,,,,CLR,,,,,,,,METAR,"['KSTC 130753Z AUTO 19006KT 10SM CLR 07/04 A3000 ', ' AO2 SLP170 T00720039']"
KSSI,2015-03-13T07:53:00Z,16.1,15.0,30,11,,6.0,30.268702,,,BR,OVC,600,,,,,,,METAR,"['KSSI 130753Z AUTO 03011KT 6SM BR OVC006 16/15 A3027 ', ' AO2 RAB23E38 SLP251 P0000 T01610150']"
KSSF,2015-03-13T07:53:00Z,12.2,10.6,350,3,,10.0,30.0,,TRUE,,CLR,,,,,,,,METAR,"['KSSF 130753Z AUTO 35003KT 10SM CLR 12/11 A3000 ', ' AO2 SLP154 T01220106 $']"
KSRQ,2015-03-13T07:53:00Z,21.1,20.0,70,7,,10.0,30.138779,,,,CLR,,,,,,,,METAR,"['KSRQ 130753Z 07007KT 10SM CLR 21/20 A3014 ', ' AO2 SLP204 T02110200']"
KSPW,2015-03-13T07:53:00Z,8.9,2.2,230,10,,10.0,30.121063,,,,CLR,,,,,,,,METAR,"['KSPW 130753Z AUTO 23010KT 10SM CLR 09/02 A3012 ', ' AO2 SLP199 T00890022 TSNO']"
KSPG,2015-03-13T07:53:00Z,22.2,19.4,120,8,,10.0,30.15059,,,,FEW,2700,FEW,8500,,,,,METAR,"['KSPG 130753Z AUTO 12008KT 10SM FEW027 FEW085 22/19 A3015 ', ' AO2 SLP210 T02220194']"
KSPB,2015-03-13T07:53:00Z,8.3,6.1,270,3,,10.0,30.259842,,,,CLR,,,,,,,,METAR,"['KSPB 130753Z AUTO 27003KT 10SM CLR 08/06 A3026 ', ' AO2 SLP245 T00830061 401940072']"
KSNY,2015-03-13T07:53:00Z,6.7,-1.7,350,9,,10.0,30.259842,,,,CLR,,,,,,,,METAR,"['KSNY 130753Z AUTO 35009KT 10SM CLR 07/M02 A3026 ', ' AO2 SLP225 T00671017']"
KSNS,2015-03-13T07:53:00Z,11.7,9.4,50,3,,10.0,30.15059,,,,CLR,,,,,,,,METAR,"['KSNS 130753Z 05003KT 10SM CLR 12/09 A3015 ', ' AO2 SLP217 T01170094 402500078']"
KSNA,2015-03-13T07:53:00Z,17.8,12.2,200,3,,10.0,30.008858,,,,CLR,,,,,,,,METAR,"['KSNA 130753Z AUTO 20003KT 10SM CLR 18/12 A3001 ', ' AO2 SLP159 T01780122 403110122 TSNO']"
KSMQ,2015-03-13T07:53:00Z,-3.9,-9.4,320,4,,10.0,30.590551,,,,CLR,,,,,,,,METAR,"['KSMQ 130753Z AUTO 32004KT 10SM CLR M04/M09 A3059 ', ' AO2 SLP362 T10391094 TSNO']"
KSMF,2015-03-13T07:53:00Z,12.8,8.9,140,4,,10.0,30.129921,,,,CLR,,,,,,,,METAR,"['KSMF 130753Z 14004KT 10SM CLR 13/09 A3013 ', ' AO2 SLP201 T01280089 402440083']"
KSLN,2015-03-13T07:53:00Z,6.1,-0.6,0,0,,10.0,30.15059,,,,CLR,,,,,,,,METAR,"['KSLN 130753Z AUTO 00000KT 10SM CLR 06/M01 A3015 ', ' AO2 SLP206 T00611006']"
KSLC,2015-03-13T07:53:00Z,6.7,3.3,310,3,,10.0,30.339567,,,,CLR,,,,,,,,METAR,"['KSLC 130753Z 31003KT 10SM CLR 07/03 A3034 ', ' AO2 SLP262 T00670033']"
KSJC,2015-03-13T07:53:00Z,13.9,10.0,0,0,,10.0,30.159449,,,,CLR,,,,,,,,METAR,"['KSJC 130753Z AUTO 00000KT 10SM CLR 14/10 A3016 ', ' AO2 SLP211 T01390100 402220106']"
KSIY,2015-03-13T07:53:00Z,6.1,3.9,0,0,,10.0,30.268702,,,,CLR,,,,,,,,METAR,"['KSIY 130753Z AUTO 00000KT 10SM CLR 06/04 A3027 ', ' AO2 SLP261 T00610039 401720006']"
KSHR,2015-03-13T07:53:00Z,7.8,-2.2,280,11,,10.0,30.339567,,,,BKN,10000,,,,,,,METAR,"['KSHR 130753Z AUTO 28011KT 10SM BKN100 08/M02 A3034 ', ' AO2 SLP269 T00781022']"
KSHN,2015-03-13T07:53:00Z,9.4,7.8,350,6,,10.0,30.28937,,,,CLR,,,,,,,,METAR,"['KSHN 130753Z AUTO 35006KT 10SM CLR 09/08 A3029 ', ' AO2 SLP258 T00940078 401780056']"
KSFF,2015-03-13T07:53:00Z,4.4,1.1,50,5,,10.0,30.41929,,,,CLR,,,,,,,,METAR,"['KSFF 130753Z AUTO 05005KT 10SM CLR 04/01 A3042 ', ' AO2 SLP303 T00440011 401720044']"
KSFB,2015-03-13T07:53:00Z,19.4,18.3,80,5,,10.0,30.188976,,,,BKN,8500,,,,,,,METAR,"['KSFB 130753Z AUTO 08005KT 10SM BKN085 19/18 A3019 ', ' AO2 SLP222 T01940183']"
KSEG,2015-03-13T07:53:00Z,-3.3,-7.2,340,4,,10.0,30.590551,,,,CLR,,,,,,,,METAR,"['KSEG 130753Z AUTO 34004KT 10SM CLR M03/M07 A3059 ', ' AO2 SLP363 T10331072']"
KSEA,2015-03-13T07:53:00Z,10.0,5.0,30,4,,10.0,30.318897,,,,CLR,,,,,,,,METAR,"['KSEA 130753Z 03004KT 10SM CLR 10/05 A3032 ', ' AO2 SLP275 T01000050 401780094']"
KSDM,2015-03-13T07:53:00Z,13.9,7.2,150,5,,10.0,30.008858,,,,CLR,,,,,,,,METAR,"['KSDM 130753Z AUTO 15005KT 10SM CLR 14/07 A3001 ', ' AO2 SLP159 T01390072 402610111']"
KSDL,2015-03-13T07:53:00Z,21.1,1.7,0,6,,10.0,29.97933,,,,CLR,,,,,,,,METAR,"['KSDL 130753Z VRB06KT 10SM CLR 21/02 A2998 ', ' AO2 SLP132 T02110017']"
KSBM,2015-03-13T07:53:00Z,1.7,-2.2,180,9,,10.0,30.268702,,,,CLR,,,,,,,,METAR,"['KSBM 130753Z AUTO 18009KT 10SM CLR 02/M02 A3027 ', ' AO2 SLP256 T00171022']"
KSBA,2015-03-13T07:53:00Z,13.9,10.6,310,3,,10.0,30.041338,,,,CLR,,,,,,,,METAR,"['KSBA 130753Z AUTO 31003KT 10SM CLR 14/11 A3004 ', ' AO2 SLP172 T01390106 402670094']"
KPAE,2015-03-13T07:53:00Z,10.6,6.1,0,4,,10.0,30.33071,,,,CLR,,,,,,,,METAR,"['KPAE 130753Z AUTO VRB04KT 10SM CLR 11/06 A3033 ', ' AO2 SLP270 T01060061 401720106']"
KOXB,2015-03-13T07:53:00Z,3.3,-8.3,40,8,,10.0,30.578741,,,,CLR,,,,,,,,METAR,"['KOXB 130753Z AUTO 04008KT 10SM CLR 03/M08 A3058 ', ' AO2 SLP354 T00331083 TSNO']"
KOWD,2015-03-13T07:53:00Z,-5.0,-16.7,300,6,,10.0,30.611221,,,,CLR,,,,,,,,METAR,"['KOWD 130753Z AUTO 30006KT 10SM CLR M05/M17 A3061 ', ' AO2 SLP365 T10501167']"
KOVS,2015-03-13T07:53:00Z,4.4,1.1,210,4,,6.0,30.221457,,TRUE,HZ,CLR,,,,,,,,METAR,"['KOVS 130753Z AUTO 21004KT 6SM HZ CLR 04/01 A3022 ', ' AO2 SLP239 T00440011 $']"
KOVE,2015-03-13T07:53:00Z,12.2,8.9,80,3,,10.0,30.138779,,,,CLR,,,,,,,,METAR,"['KOVE 130753Z AUTO 08003KT 10SM CLR 12/09 A3014 ', ' AO2 SLP208 T01220089 402440078']"
KOSU,2015-03-13T07:53:00Z,5.0,-5.6,110,7,,10.0,30.318897,,,,CLR,,,,,,,,METAR,"['KOSU 130753Z AUTO 11007KT 10SM CLR 05/M06 A3032 ', ' AO2 SLP269 T00501056']"
KOSH,2015-03-13T07:53:00Z,3.3,-1.7,190,11,,10.0,30.230314,,,,CLR,,,,,,,,METAR,"['KOSH 130753Z 19011KT 10SM CLR 03/M02 A3023 ', ' AO2 SLP241 T00331017']"
KORL,2015-03-13T07:53:00Z,21.7,19.4,150,9,,10.0,30.188976,,,,FEW,1800,SCT,2200,OVC,9000,,,METAR,"['KORL 130753Z AUTO 15009KT 10SM FEW018 SCT022 OVC090 22/19 A3019 ', ' AO2 SLP225 T02170194']"
KOPF,2015-03-13T07:53:00Z,23.3,18.3,100,9,,10.0,30.129921,,,,FEW,2700,,,,,,,METAR,"['KOPF 130753Z AUTO 10009KT 10SM FEW027 23/18 A3013 ', ' AO2 SLP202 T02330183']"
KONT,2015-03-13T07:53:00Z,25.0,-0.6,130,6,,10.0,30.041338,,,,SCT,25000,,,,,,,METAR,"['KONT 130753Z 13006KT 10SM SCT250 25/M01 A3004 ', ' AO2 SLP154 T02501006 402940111']"
KONO,2015-03-13T07:53:00Z,3.9,1.1,240,7,,10.0,30.380905,,,,CLR,,,,,,,,METAR,"['KONO 130753Z AUTO 24007KT 10SM CLR 04/01 A3038 ', ' AO2 SLP294 T00390011']"
KOMK,2015-03-13T07:53:00Z,7.2,-0.6,250,5,,10.0,30.380905,,,,CLR,,,,,,,,METAR,"['KOMK 130753Z AUTO 25005KT 10SM CLR 07/M01 A3038 ', ' AO2 SLP290 T00721006 402000028']"
KOLF,2015-03-13T07:53:00Z,3.9,0.0,230,10,,10.0,30.209646,,,,CLR,,,,,,,,METAR,"['KOLF 130753Z AUTO 23010KT 10SM CLR 04/00 A3021 ', ' AO2 SLP237 T00390000']"
KOJC,2015-03-13T07:53:00Z,11.1,3.9,0,0,,10.0,30.159449,,,,CLR,,,,,,,,METAR,"['KOJC 130753Z AUTO 00000KT 10SM CLR 11/04 A3016 ', ' AO2 SLP207 T01110039']"
KOGD,2015-03-13T07:53:00Z,5.6,1.1,160,6,,10.0,30.351377,,,,CLR,,,,,,,,METAR,"['KOGD 130753Z AUTO 16006KT 10SM CLR 06/01 A3035 ', ' AO2 SLP260 T00560011 TSNO']"
KMHE,2015-03-13T07:53:00Z,7.8,0.6,230,3,,10.0,30.109253,,,,CLR,,,,,,,,METAR,"['KMHE 130753Z AUTO 23003KT 10SM CLR 08/01 A3011 ', ' AO2 SLP195 T00780006']"
KMGY,2015-03-13T07:53:00Z,6.7,-2.8,110,7,,10.0,30.280512,,,,CLR,,,,,,,,METAR,"['KMGY 130753Z AUTO 11007KT 10SM CLR 07/M03 A3028 ', ' AO2 SLP257 T00671028']"
KMGW,2015-03-13T07:53:00Z,7.2,-10.6,0,0,,10.0,30.431103,,,,CLR,,,,,,,,METAR,"['KMGW 130753Z AUTO 00000KT 10SM CLR 07/M11 A3043 ', ' AO2 SLP309 T00721106 TSNO']"
KMFR,2015-03-13T07:53:00Z,11.1,8.3,0,0,,8.0,30.209646,,,,CLR,,,,,,,,METAR,"['KMFR 130753Z AUTO 00000KT 8SM CLR 11/08 A3021 ', ' AO2 SLP226 T01110083 402110072']"
KMFE,2015-03-13T07:53:00Z,13.3,11.7,160,4,,7.0,30.008858,,,,CLR,,,,,,,,METAR,"['KMFE 130753Z AUTO 16004KT 7SM CLR 13/12 A3001 ', ' AO2 SLP161 T01330117']"
KMDW,2015-03-13T07:53:00Z,6.1,-1.7,160,6,,10.0,30.280512,,,,BKN,20000,OVC,23000,,,,,METAR,"['KMDW 130753Z 16006KT 10SM BKN200 OVC230 06/M02 A3028 ', ' AO2 SLP257 T00611017']"
KMCW,2015-03-13T07:53:00Z,5.0,3.9,180,7,,4.0,30.15059,,TRUE,BR,CLR,,,,,,,,METAR,"['KMCW 130753Z AUTO 18007KT 4SM BR CLR 05/04 A3015 ', ' AO2 SLP209 T00500039 $']"
KMCO,2015-03-13T07:53:00Z,21.7,17.8,150,11,,10.0,30.188976,,TRUE,,FEW,2400,OVC,8000,,,,,METAR,"['KMCO 130753Z 15011KT 10SM FEW024 OVC080 22/18 A3019 ', ' AO2 SLP221 T02170178 $']"
KMCK,2015-03-13T07:53:00Z,8.9,-1.7,0,0,,10.0,30.15059,,,,CLR,,,,,,,,METAR,"['KMCK 130753Z AUTO 00000KT 10SM CLR 09/M02 A3015 ', ' AO2 SLP198 T00891017']"
KMCI,2015-03-13T07:53:00Z,11.7,3.9,120,4,,10.0,30.171259,,,,BKN,15000,,,,,,,METAR,"['KMCI 130753Z 12004KT 10SM BKN150 12/04 A3017 ', ' AO2 SLP209 T01170039']"
KMCE,2015-03-13T07:53:00Z,11.1,9.4,170,3,,8.0,30.159449,,,,CLR,,,,,,,,METAR,"['KMCE 130753Z AUTO 17003KT 8SM CLR 11/09 A3016 ', ' AO2 SLP213 T01110094 402330100']"
KMCB,2015-03-13T07:53:00Z,19.4,18.3,150,13,21,10.0,30.02067,,,-RA,BKN,1000,OVC,1500,,,,,METAR,"['KMCB 130753Z AUTO 15013G21KT 10SM -RA BKN010 OVC015 19/18 A3002 ', ' AO2 RAB09 CIG 007V012 SLP162 P0002 T01940183']"
KMBS,2015-03-13T07:53:00Z,-0.6,-8.9,140,4,,10.0,30.380905,,,,CLR,,,,,,,,METAR,"['KMBS 130753Z 14004KT 10SM CLR M01/M09 A3038 ', ' AO2 SLP295 T10061089']"
KMAI,2015-03-13T07:53:00Z,18.9,17.2,100,9,,10.0,30.188976,,TRUE,,OVC,1300,,,,,,,METAR,"['KMAI 130753Z AUTO 10009KT 10SM OVC013 19/17 A3019 ', ' AO2 SLP221 T01890172 $']"
KMAF,2015-03-13T07:53:00Z,6.7,2.2,0,0,,10.0,30.088583,,,,CLR,,,,,,,,METAR,"['KMAF 130753Z AUTO 00000KT 10SM CLR 07/02 A3009 ', ' AO2 SLP166 T00670022']"
KMAE,2015-03-13T07:53:00Z,10.0,7.2,100,4,,10.0,30.171259,,,,CLR,,,,,,,,METAR,"['KMAE 130753Z AUTO 10004KT 10SM CLR 10/07 A3017 ', ' AO2 SLP215 T01000072 402330078']"
KLXV,2015-03-13T07:53:00Z,-3.9,-5.0,100,3,,10.0,30.369095,,,,FEW,3300,,,,,,,METAR,"['KLXV 130753Z AUTO 10003KT 10SM FEW033 M04/M05 A3037 ', ' AO2 SLP222 T10391050']"
KLWV,2015-03-13T07:53:00Z,9.4,3.9,40,4,,10.0,30.221457,,,,OVC,8500,,,,,,,METAR,"['KLWV 130753Z AUTO 04004KT 10SM OVC085 09/04 A3022 ', ' AO2 SLP232 T00940039']"
KLWD,2015-03-13T07:53:00Z,10.0,5.6,160,5,,10.0,30.171259,,,,CLR,,,,,,,,METAR,"['KLWD 130753Z AUTO 16005KT 10SM CLR 10/06 A3017 ', ' AO2 SLP217 T01000056']"
KLVS,2015-03-13T07:53:00Z,5.0,-2.8,20,3,,10.0,30.209646,,,,BKN,7500,,,,,,,METAR,"['KLVS 130753Z AUTO 02003KT 10SM BKN075 05/M03 A3021 ', ' AO2 SLP164 T00501028']"
KLVM,2015-03-13T07:53:00Z,2.2,-3.9,270,5,,10.0,30.380905,,,,CLR,,,,,,,,METAR,"['KLVM 130753Z AUTO 27005KT 10SM CLR 02/M04 A3038 ', ' AO2 SLP284 T00221039']"
KLVK,2015-03-13T07:53:00Z,10.0,6.7,80,3,,10.0,30.159449,,,,CLR,,,,,,,,METAR,"['KLVK 130753Z AUTO 08003KT 10SM CLR 10/07 A3016 ', ' AO2 SLP210 T01000067 402390067']"
KLUK,2015-03-13T07:53:00Z,5.6,1.1,40,3,,10.0,30.301182,,,,CLR,,,,,,,,METAR,"['KLUK 130753Z AUTO 04003KT 10SM CLR 06/01 A3030 ', ' AO2 SLP261 T00560011']"
KLPR,2015-03-13T07:53:00Z,2.2,-7.2,160,8,,10.0,30.380905,,TRUE,,CLR,,,,,,,,METAR,"['KLPR 130753Z AUTO 16008KT 10SM CLR 02/M07 A3038 ', ' AO2 SLP292 T00221072 TSNO $']"
KLOZ,2015-03-13T07:53:00Z,15.6,4.4,140,6,,10.0,30.280512,,,,SCT,4500,BKN,7000,OVC,9500,,,METAR,"['KLOZ 130753Z AUTO 14006KT 10SM SCT045 BKN070 OVC095 16/04 A3028 ', ' AO2 SLP248 T01560044']"
KLOU,2015-03-13T07:53:00Z,13.3,-0.6,80,3,,10.0,30.259842,,,,SCT,5000,,,,,,,METAR,"['KLOU 130753Z AUTO 08003KT 10SM SCT050 13/M01 A3026 ', ' AO2 SLP244 T01331006']"
KLOL,2015-03-13T07:53:00Z,6.1,-0.6,0,0,,10.0,30.360237,,,,CLR,,,,,,,,METAR,"['KLOL 130753Z AUTO 00000KT 10SM CLR 06/M01 A3036 ', ' AO2 SLP273 T00611006 401891011']"
KLNS,2015-03-13T07:53:00Z,-1.1,-9.4,0,0,,10.0,30.578741,,,,CLR,,,,,,,,METAR,"['KLNS 130753Z 00000KT 10SM CLR M01/M09 A3058 ', ' AO2 SLP360 T10111094']"
KLMT,2015-03-13T07:53:00Z,3.9,2.2,0,0,,10.0,30.318897,,,,CLR,,,,,,,,METAR,"['KLMT 130753Z AUTO 00000KT 10SM CLR 04/02 A3032 ', ' AO2 SLP259 T00390022 401441011']"
KOGB,2015-03-13T07:53:00Z,12.8,0.6,70,7,16,10.0,30.41929,,,,OVC,4300,,,,,,,METAR,"['KOGB 130753Z AUTO 07007G16KT 10SM OVC043 13/01 A3042 ', ' AO2 SLP299 T01280006']"
KODO,2015-03-13T07:53:00Z,7.2,1.1,0,0,,10.0,30.100393,,,,CLR,,,,,,,,METAR,"['KODO 130753Z AUTO 00000KT 10SM CLR 07/01 A3010 ', ' AO2 SLP168 T00720011']"
KOAK,2015-03-13T07:53:00Z,12.8,11.1,300,5,,10.0,30.171259,,,,CLR,,,,,,,,METAR,"['KOAK 130753Z 30005KT 10SM CLR 13/11 A3017 ', ' AO2 SLP214 T01280111 402280078']"
KMYV,2015-03-13T07:53:00Z,12.2,9.4,0,0,,10.0,30.138779,,,,CLR,,,,,,,,METAR,"['KMYV 130753Z AUTO 00000KT 10SM CLR 12/09 A3014 ', ' AO2 SLP209 T01220094 402560089']"
KMYF,2015-03-13T07:53:00Z,16.7,6.7,0,0,,10.0,30.02067,,,,CLR,,,,,,,,METAR,"['KMYF 130753Z AUTO 00000KT 10SM CLR 17/07 A3002 ', ' AO2 SLP160 T01670067 402670133 TSNO']"
KMWL,2015-03-13T07:53:00Z,10.0,8.3,0,0,,6.0,30.029528,,,BR,CLR,,,,,,,,METAR,"['KMWL 130753Z AUTO 00000KT 6SM BR CLR 10/08 A3003 ', ' AO2 SLP163 T01000083']"
KMVY,2015-03-13T07:53:00Z,-3.3,-21.1,340,14,18,10.0,30.578741,,,,CLR,,,,,,,,METAR,"['KMVY 130753Z AUTO 34014G18KT 10SM CLR M03/M21 A3058 ', ' AO2 SLP355 T10331211']"
KMTJ,2015-03-13T07:53:00Z,4.4,0.0,150,5,,10.0,30.28937,,,,SCT,12000,,,,,,,METAR,"['KMTJ 130753Z AUTO 15005KT 10SM SCT120 04/00 A3029 ', ' AO2 SLP225 T00440000']"
KMTH,2015-03-13T07:53:00Z,24.4,19.4,100,11,21,10.0,30.088583,,,,CLR,,,,,,,,METAR,"['KMTH 130753Z AUTO 10011G21KT 10SM CLR 24/19 A3009 ', ' AO2 SLP190 T02440194']"
KMSY,2015-03-13T07:53:00Z,19.4,17.8,120,7,,10.0,30.008858,,,,FEW,1100,SCT,3800,BKN,12000,,,METAR,"['KMSY 130753Z 12007KT 10SM FEW011 SCT038 BKN120 19/18 A3001 ', ' AO2 RAE53 SLP166 P0002 T01940178']"
KMSP,2015-03-13T07:53:00Z,11.7,5.6,190,9,,10.0,30.050198,,,,OVC,20000,,,,,,,METAR,"['KMSP 130753Z 19009KT 10SM OVC200 12/06 A3005 ', ' AO2 SLP177 T01170056']"
KMSO,2015-03-13T07:53:00Z,1.1,-2.2,0,0,,10.0,30.43996,,,,CLR,,,,,,,,METAR,"['KMSO 130753Z AUTO 00000KT 10SM CLR 01/M02 A3044 ', ' AO2 SLP323 T00111022']"
KMSN,2015-03-13T07:53:00Z,3.3,-0.6,170,4,,10.0,30.250984,,,,CLR,,,,,,,,METAR,"['KMSN 130753Z AUTO 17004KT 10SM CLR 03/M01 A3025 ', ' AO2 SLP248 T00331006']"
KMSL,2015-03-13T07:53:00Z,14.4,12.2,120,7,,8.0,30.188976,,,-RA,BKN,2300,BKN,4300,OVC,7500,,,METAR,"['KMSL 130753Z AUTO 12007KT 8SM -RA BKN023 BKN043 OVC075 14/12 A3019 ', ' AO2 RAE07B30 SLP220 P0001 T01440122']"
KMRB,2015-03-13T07:53:00Z,1.1,-5.6,0,0,,10.0,30.569881,,,,CLR,,,,,,,,METAR,"['KMRB 130753Z AUTO 00000KT 10SM CLR 01/M06 A3057 ', ' AO2 SLP354 T00111056 TSNO']"
KMPO,2015-03-13T07:53:00Z,-5.6,-17.2,340,3,,10.0,30.499016,,,,CLR,,,,,,,,METAR,"['KMPO 130753Z AUTO 34003KT 10SM CLR M06/M17 A3050 ', ' AO2 SLP352 T10561172']"
KMOD,2015-03-13T07:53:00Z,12.8,11.1,110,5,,10.0,30.159449,,TRUE,,CLR,,,,,,,,METAR,"['KMOD 130753Z AUTO 11005KT 10SM CLR 13/11 A3016 ', ' AO2 SLP212 T01280111 402390111 $']"
KMNN,2015-03-13T07:53:00Z,4.4,-5.6,130,8,,10.0,30.33071,,,,CLR,,,,,,,,METAR,"['KMNN 130753Z AUTO 13008KT 10SM CLR 04/M06 A3033 ', ' AO2 SLP277 T00441056 TSNO']"
KMMV,2015-03-13T07:53:00Z,11.7,6.7,340,6,,10.0,30.250984,,,,CLR,,,,,,,,METAR,"['KMMV 130753Z AUTO 34006KT 10SM CLR 12/07 A3025 ', ' AO2 SLP243 T01170067 402000083']"
KMMK,2015-03-13T07:53:00Z,-2.8,-13.3,350,4,,10.0,30.611221,,TRUE,,CLR,,,,,,,,METAR,"['KMMK 130753Z AUTO 35004KT 10SM CLR M03/M13 A3061 ', ' AO2 SLP368 T10281133 TSNO $']"
KMLU,2015-03-13T07:53:00Z,18.3,18.3,110,4,,10.0,29.991142,,,,OVC,3200,,,,,,,METAR,"['KMLU 130753Z AUTO 11004KT 10SM OVC032 18/18 A2999 ', ' AO2 RAE02 SLP153 P0000 T01830183']"
KMLS,2015-03-13T07:53:00Z,,,,,,,30.259842,,TRUE,,,,,,,,,,METAR,"['KMLS 130753Z AUTO A3026 ', ' AO2 SLPNO PWINO FZRANO $']"
KMLP,2015-03-13T07:53:00Z,1.7,-1.1,220,5,,10.0,30.41929,,TRUE,,CLR,,,,,,,,METAR,"['KMLP 130753Z AUTO 22005KT 10SM CLR 02/M01 A3042 ', ' AO2 SLP269 T00171011 400560011 $']"
KMLB,2015-03-13T07:53:00Z,23.9,20.0,110,10,,10.0,30.171259,,,,OVC,8000,,,,,,,METAR,"['KMLB 130753Z AUTO 11010KT 10SM OVC080 24/20 A3017 ', ' AO2 SLP215 T02390200']"
KMKO,2015-03-13T07:53:00Z,12.2,10.6,10,5,,10.0,30.088583,,TRUE,,OVC,1200,,,,,,,METAR,"['KMKO 130753Z AUTO 01005KT 10SM OVC012 12/11 A3009 ', ' AO2 SLP185 T01220106 $']"
KMKL,2015-03-13T07:53:00Z,16.1,12.8,150,8,16,10.0,30.129921,,,,FEW,3100,OVC,9000,,,,,METAR,"['KMKL 130753Z AUTO 15008G16KT 10SM FEW031 OVC090 16/13 A3013 ', ' AO2 SLP201 T01610128']"
KMIW,2015-03-13T07:53:00Z,6.7,5.0,150,8,,4.0,30.171259,,,BR,CLR,,,,,,,,METAR,"['KMIW 130753Z AUTO 15008KT 4SM BR CLR 07/05 A3017 ', ' AO2 SLP218 T00670050']"
KMIE,2015-03-13T07:53:00Z,4.4,-2.2,,,,10.0,30.28937,,,,CLR,,,,,,,,METAR,"['KMIE 130753Z AUTO 10SM CLR 04/M02 A3029 ', ' AO2 SLP258 T00441022']"
KMIA,2015-03-13T07:53:00Z,23.9,17.2,100,16,,10.0,30.121063,,,,FEW,2500,,,,,,,METAR,"['KMIA 130753Z 10016KT 10SM FEW025 24/17 A3012 ', ' AO2 SLP201 98527 T02390172']"
KMHT,2015-03-13T07:53:00Z,-5.6,-16.1,280,4,,10.0,30.578741,,,,CLR,,,,,,,,METAR,"['KMHT 130753Z 28004KT 10SM CLR M06/M16 A3058 ', ' AO2 SLP376 T10561161']"
KLHX,2015-03-13T07:53:00Z,10.0,-1.7,10,17,,10.0,30.171259,,,,CLR,,,,,,,,METAR,"['KLHX 130753Z AUTO 01017KT 10SM CLR 10/M02 A3017 ', ' AO2 PK WND 01027/0721 SLP182 T01001017']"
KLHQ,2015-03-13T07:53:00Z,6.1,-5.0,130,6,,10.0,30.33071,,,,CLR,,,,,,,,METAR,"['KLHQ 130753Z AUTO 13006KT 10SM CLR 06/M05 A3033 ', ' AO2 SLP271 T00611050']"
KLGB,2015-03-13T07:53:00Z,20.0,9.4,320,3,,10.0,30.008858,,,,CLR,,,,,,,,METAR,"['KLGB 130753Z 32003KT 10SM CLR 20/09 A3001 ', ' AO2 SLP161 T02000094 403110128']"
KLFT,2015-03-13T07:53:00Z,18.3,18.3,180,3,,6.0,29.97933,,,-RA BR,SCT,800,BKN,3100,OVC,11000,,,METAR,"['KLFT 130753Z AUTO 18003KT 6SM -RA BR SCT008 BKN031 OVC110 18/18 A2998 ', ' AO2 RAB02 SLP150 P0002 T01830183']"
KLFK,2015-03-13T07:53:00Z,14.4,12.8,20,4,,1.5,29.940945,,,BR,OVC,200,,,,,,,METAR,"['KLFK 130753Z AUTO 02004KT 1 1/2SM BR OVC002 14/13 A2994 ', ' AO2 SLP137 T01440128']"
KLEE,2015-03-13T07:53:00Z,20.6,19.4,80,5,,10.0,30.200787,,,,BKN,9500,,,,,,,METAR,"['KLEE 130753Z AUTO 08005KT 10SM BKN095 21/19 A3020 ', ' AO2 SLP224 T02060194']"
KLEB,2015-03-13T07:53:00Z,-10.6,-15.0,170,5,,10.0,30.569881,,,,CLR,,,,,,,,METAR,"['KLEB 130753Z AUTO 17005KT 10SM CLR M11/M15 A3057 ', ' AO2 SLP366 T11061150']"
KLBX,2015-03-13T07:53:00Z,13.3,13.3,310,4,,4.0,29.970472,,,BR,OVC,300,,,,,,,METAR,"['KLBX 130753Z AUTO 31004KT 4SM BR OVC003 13/13 A2997 ', ' AO2 SLP148 T01330133']"
KLBB,2015-03-13T07:53:00Z,6.1,1.7,0,0,,10.0,30.109253,,,,SCT,7000,,,,,,,METAR,"['KLBB 130753Z 00000KT 10SM SCT070 06/02 A3011 ', ' AO2 SLP171 T00610017']"
KLAX,2015-03-13T07:53:00Z,23.9,2.8,330,4,,10.0,30.02067,,,,FEW,20000,SCT,28000,,,,,METAR,"['KLAX 130753Z 33004KT 10SM FEW200 SCT280 24/03 A3002 ', ' AO2 SLP162 T02390028 402720122']"
KLAW,2015-03-13T07:53:00Z,7.8,5.6,0,0,,10.0,30.070866,,,,CLR,,,,,,,,METAR,"['KLAW 130753Z AUTO 00000KT 10SM CLR 08/06 A3007 ', ' AO2 SLP180 T00780056']"
KLAR,2015-03-13T07:53:00Z,0.6,-2.2,0,0,,10.0,30.369095,,,,CLR,,,,,,,,METAR,"['KLAR 130753Z AUTO 00000KT 10SM CLR 01/M02 A3037 ', ' AO2 SLP246 T00061022']"
KLAN,2015-03-13T07:53:00Z,-0.6,-9.4,150,7,,10.0,30.351377,,,,CLR,,,,,,,,METAR,"['KLAN 130753Z 15007KT 10SM CLR M01/M09 A3035 ', ' AO2 SLP284 T10061094']"
KLAA,2015-03-13T07:53:00Z,7.2,0.0,10,4,,10.0,30.15059,,,,BKN,10000,,,,,,,METAR,"['KLAA 130753Z AUTO 01004KT 10SM BKN100 07/00 A3015 ', ' AO2 SLP184 T00720000']"
KJLN,2015-03-13T07:53:00Z,10.6,10.0,40,5,,4.0,30.121063,,,BR,BKN,500,OVC,2400,,,,,METAR,"['KJLN 130753Z AUTO 04005KT 4SM BR BKN005 OVC024 11/10 A3012 ', ' AO2 RAE31 SLP195 P0001 T01060100']"
KJKL,2015-03-13T07:53:00Z,13.3,0.6,150,4,,10.0,30.301182,,,,BKN,5500,BKN,10000,,,,,METAR,"['KJKL 130753Z AUTO 15004KT 10SM BKN055 BKN100 13/01 A3030 ', ' AO2 SLP254 T01330006']"
KJER,2015-03-13T07:53:00Z,5.0,-0.6,180,7,,10.0,30.398623,,,,CLR,,,,,,,,METAR,"['KJER 130753Z AUTO 18007KT 10SM CLR 05/M01 A3040 ', ' AO2 SLP291 T00501006']"
KJBR,2015-03-13T07:53:00Z,13.9,13.9,60,7,,6.0,30.079725,,,-RA BR,OVC,800,,,,,,,METAR,"['KJBR 130753Z AUTO 06007KT 6SM -RA BR OVC008 14/14 A3008 ', ' AO2 RAE23B53 CIG 006V011 SLP184 P0002 T01390139']"
KIXD,2015-03-13T07:53:00Z,10.6,3.9,60,5,,10.0,30.171259,,,,CLR,,,,,,,,METAR,"['KIXD 130753Z AUTO 06005KT 10SM CLR 11/04 A3017 ', ' AO2 SLP211 T01060039']"
KIWI,2015-03-13T07:53:00Z,-9.4,-17.2,0,0,,10.0,30.549213,,,,CLR,,,,,,,,METAR,"['KIWI 130753Z AUTO 00000KT 10SM CLR M09/M17 A3055 ', ' AO2 SLP345 T10941172']"
KITR,2015-03-13T07:53:00Z,1.7,-2.8,280,5,,10.0,30.200787,,,,CLR,,,,,,,,METAR,"['KITR 130753Z AUTO 28005KT 10SM CLR 02/M03 A3020 ', ' AO2 SLP208 T00171028']"
KIPL,2015-03-13T07:53:00Z,21.1,7.2,330,6,,10.0,29.958662,,,,CLR,,,,,,,,METAR,"['KIPL 130753Z AUTO 33006KT 10SM CLR 21/07 A2996 ', ' AO2 SLP146 T02110072 403060144']"
KINK,2015-03-13T07:53:00Z,8.3,0.0,90,4,,10.0,30.079725,,,,CLR,,,,,,,,METAR,"['KINK 130753Z AUTO 09004KT 10SM CLR 08/00 A3008 ', ' AO2 SLP163 T00830000']"
KIML,2015-03-13T07:53:00Z,6.1,-2.8,340,10,,10.0,30.188976,,TRUE,,,,,,,,,,METAR,"['KIML 130753Z AUTO 34010KT 10SM 06/M03 A3019 ', ' AO2 SLP214 T00611028 $']"
KILM,2015-03-13T07:53:00Z,6.1,-0.6,30,8,,10.0,30.469488,,,,CLR,,,,,,,,METAR,"['KILM 130753Z AUTO 03008KT 10SM CLR 06/M01 A3047 ', ' AO2 SLP317 T00611006']"
KIDA,2015-03-13T07:53:00Z,0.0,-2.8,340,3,,10.0,30.398623,,,,CLR,,,,,,,,METAR,"['KIDA 130753Z AUTO 34003KT 10SM CLR 00/M03 A3040 ', ' AO2 SLP297 I1000 T00001028']"
KICT,2015-03-13T07:53:00Z,7.2,1.7,340,3,,10.0,30.129921,,,,FEW,12000,SCT,22000,,,,,METAR,"['KICT 130753Z 34003KT 10SM FEW120 SCT220 07/02 A3013 ', ' AO2 SLP198 T00720017']"
KICR,2015-03-13T07:53:00Z,8.3,-2.8,290,8,,10.0,30.171259,,,,CLR,,,,,,,,METAR,"['KICR 130753Z AUTO 29008KT 10SM CLR 08/M03 A3017 ', ' AO2 SLP210 T00831028']"
KIAH,2015-03-13T07:53:00Z,14.4,13.9,310,3,,2.0,29.949802,,,-DZ BR,OVC,400,,,,,,,METAR,"['KIAH 130753Z 31003KT 2SM -DZ BR OVC004 14/14 A2995 ', ' AO2 TWR VIS 2 1/2 SLP142 P0000 T01440139']"
KIAG,2015-03-13T07:53:00Z,-3.9,-12.8,120,5,,10.0,30.510826,,TRUE,,BKN,11000,,,,,,,METAR,"['KIAG 130753Z AUTO 12005KT 10SM BKN110 M04/M13 A3051 ', ' AO2 SLP347 T10391128 $']"
KHZY,2015-03-13T07:53:00Z,0.6,-12.2,120,8,,10.0,30.431103,,,,CLR,,,,,,,,METAR,"['KHZY 130753Z AUTO 12008KT 10SM CLR 01/M12 A3043 ', ' AO2 SLP311 T00061122']"
KHYR,2015-03-13T07:53:00Z,7.8,2.2,200,7,,8.0,30.059055,,,,CLR,,,,,,,,METAR,"['KHYR 130753Z AUTO 20007KT 8SM CLR 08/02 A3006 ', ' AO2 SLP187 T00780022']"
KHWO,2015-03-13T07:53:00Z,23.9,17.8,100,11,,10.0,30.138779,,,,CLR,,,,,,,,METAR,"['KHWO 130753Z AUTO 10011KT 10SM CLR 24/18 A3014 ', ' AO2 SLP204 T02390178']"
KHVR,2015-03-13T07:53:00Z,2.2,-2.2,220,10,,10.0,30.28937,,,,CLR,,,,,,,,METAR,"['KHVR 130753Z AUTO 22010KT 10SM CLR 02/M02 A3029 ', ' AO2 SLP263 T00221022']"
KHVN,2015-03-13T07:53:00Z,-1.1,-14.4,330,6,,10.0,30.611221,,,,CLR,,,,,,,,METAR,"['KHVN 130753Z AUTO 33006KT 10SM CLR M01/M14 A3061 ', ' AO2 SLP366 T10111144']"
KHUL,2015-03-13T07:53:00Z,-13.9,-21.7,310,8,16,10.0,30.389763,,,,CLR,,,,,,,,METAR,"['KHUL 130753Z AUTO 31008G16KT 10SM CLR M14/M22 A3039 ', ' AO2 SLP304 T11391217']"
KHUF,2015-03-13T07:53:00Z,7.2,2.2,80,4,,10.0,30.230314,,,-RA,FEW,7000,OVC,10000,,,,,METAR,"['KHUF 130753Z 08004KT 10SM -RA FEW070 OVC100 07/02 A3023 ', ' AO2 RAB50 SLP238 P0000 T00720022']"
KHTL,2015-03-13T07:53:00Z,-0.6,-11.1,160,7,,10.0,30.33071,,,,CLR,,,,,,,,METAR,"['KHTL 130753Z AUTO 16007KT 10SM CLR M01/M11 A3033 ', ' AO2 SLP284 T10061111']"
KHRO,2015-03-13T07:53:00Z,10.0,10.0,50,3,,0.5,30.100393,,,FG,OVX,0,,,,,,,METAR,"['KHRO 130753Z AUTO 05003KT 1/2SM FG VV003 10/10 A3010 ', ' AO2 SLP190 P0001 T01000100']"
KHRI,2015-03-13T07:53:00Z,5.6,3.3,110,4,,10.0,30.339567,,,,CLR,,,,,,,,METAR,"['KHRI 130753Z AUTO 11004KT 10SM CLR 06/03 A3034 ', ' AO2 SLP272 T00560033 402060050']"
KHQM,2015-03-13T07:53:00Z,10.0,8.9,80,5,,6.0,30.28937,,,BR,CLR,,,,,,,,METAR,"['KHQM 130753Z AUTO 08005KT 6SM BR CLR 10/09 A3029 ', ' AO2 SLP260 T01000089 401610094']"
KHLN,2015-03-13T07:53:00Z,6.1,-2.2,180,3,,10.0,30.380905,,,,CLR,,,,,,,,METAR,"['KHLN 130753Z AUTO 18003KT 10SM CLR 06/M02 A3038 ', ' AO2 SLP302 T00611022']"
KHLG,2015-03-13T07:53:00Z,4.4,-8.9,90,9,,10.0,30.398623,,TRUE,,CLR,,,,,,,,METAR,"['KHLG 130753Z AUTO 09009KT 10SM CLR 04/M09 A3040 ', ' AO2 SLP303 T00441089 $']"
KHLC,2015-03-13T07:53:00Z,8.9,0.0,260,5,,10.0,30.159449,,,,CLR,,,,,,,,METAR,"['KHLC 130753Z AUTO 26005KT 10SM CLR 09/00 A3016 ', ' AO2 SLP202 T00890000']"
KHKS,2015-03-13T07:53:00Z,19.4,18.3,140,6,,10.0,30.050198,,,,FEW,1100,SCT,4100,,,,,METAR,"['KHKS 130753Z AUTO 14006KT 10SM FEW011 SCT041 19/18 A3005 ', ' AO2 SLP167 T01940183']"
KHJO,2015-03-13T07:53:00Z,12.2,8.9,0,0,,6.0,30.180119,,,HZ,CLR,,,,,,,,METAR,"['KHJO 130753Z AUTO 00000KT 6SM HZ CLR 12/09 A3018 ', ' AO2 SLP222 T01220089 402330111']"
KHIO,2015-03-13T07:53:00Z,9.4,6.7,0,0,,10.0,30.250984,,,,CLR,,,,,,,,METAR,"['KHIO 130753Z AUTO 00000KT 10SM CLR 09/07 A3025 ', ' AO2 SLP244 T00940067 401940078']"
KHIB,2015-03-13T07:53:00Z,0.0,-2.8,40,3,,10.0,29.991142,,,,FEW,12000,,,,,,,METAR,"['KHIB 130753Z AUTO 04003KT 10SM FEW120 00/M03 A2999 ', ' AO2 SLP165 T00001028']"
KHHR,2015-03-13T07:53:00Z,18.9,10.0,320,3,,10.0,30.02067,,,,CLR,,,,,,,,METAR,"['KHHR 130753Z AUTO 32003KT 10SM CLR 19/10 A3002 ', ' AO2 SLP163 T01890100 402890139']"
KHFD,2015-03-13T07:53:00Z,-1.7,-14.4,330,5,,10.0,30.620079,,,,CLR,,,,,,,,METAR,"['KHFD 130753Z 33005KT 10SM CLR M02/M14 A3062 ', ' AO2 SLP369 T10171144']"
KHEI,2015-03-13T07:53:00Z,1.1,-1.7,300,4,,10.0,30.188976,,,,SCT,11000,,,,,,,METAR,"['KHEI 130753Z AUTO 30004KT 10SM SCT110 01/M02 A3019 ', ' AO2 SLP228 T00111017']"
KHBR,2015-03-13T07:53:00Z,6.7,3.9,60,9,,10.0,30.088583,,,,CLR,,,,,,,,METAR,"['KHBR 130753Z AUTO 06009KT 10SM CLR 07/04 A3009 ', ' AO2 SLP182 T00670039']"
KGZH,2015-03-13T07:53:00Z,20.6,18.9,110,8,,10.0,30.129921,,,,OVC,900,,,,,,,METAR,"['KGZH 130753Z AUTO 11008KT 10SM OVC009 21/19 A3013 ', ' AO2 SLP201 T02060189']"
KGWO,2015-03-13T07:53:00Z,20.0,17.8,110,9,,10.0,30.041338,,,,FEW,1600,SCT,4900,OVC,6000,,,METAR,"['KGWO 130753Z AUTO 11009KT 10SM FEW016 SCT049 OVC060 20/18 A3004 ', ' AO2 SLP171 T02000178']"
KGUY,2015-03-13T07:53:00Z,7.2,0.0,0,0,,10.0,30.129921,,,,CLR,,,,,,,,METAR,"['KGUY 130753Z AUTO 00000KT 10SM CLR 07/00 A3013 ', ' AO2 SLP180 T00720000']"
KGUP,2015-03-13T07:53:00Z,5.6,0.6,180,3,,10.0,30.230314,,,,OVC,11000,,,,,,,METAR,"['KGUP 130753Z AUTO 18003KT 10SM OVC110 06/01 A3023 ', ' AO2 SLP173 T00560006']"
KGTF,2015-03-13T07:53:00Z,2.8,-2.2,220,10,,10.0,30.318897,,,,CLR,,,,,,,,METAR,"['KGTF 130753Z 22010KT 10SM CLR 03/M02 A3032 ', ' AO2 SLP276 T00281022']"
KGSH,2015-03-13T07:53:00Z,1.1,-4.4,100,6,,10.0,30.318897,,,,CLR,,,,,,,,METAR,"['KGSH 130753Z AUTO 10006KT 10SM CLR 01/M04 A3032 ', ' AO2 SLP273 T00111044']"
KGRR,2015-03-13T07:53:00Z,-1.1,-8.9,130,5,,10.0,30.33071,,,,CLR,,,,,,,,METAR,"['KGRR 130753Z AUTO 13005KT 10SM CLR M01/M09 A3033 ', ' AO2 SLP277 T10111089']"
KGRB,2015-03-13T07:53:00Z,3.3,-1.7,180,9,,10.0,30.230314,,,,CLR,,,,,,,,METAR,"['KGRB 130753Z AUTO 18009KT 10SM CLR 03/M02 A3023 ', ' AO2 SLP243 T00331017']"
KGOK,2015-03-13T07:53:00Z,8.3,6.1,40,3,,10.0,30.100393,,,,CLR,,,,,,,,METAR,"['KGOK 130753Z AUTO 04003KT 10SM CLR 08/06 A3010 ', ' AO2 SLP191 T00830061']"
KGLR,2015-03-13T07:53:00Z,-0.6,-9.4,190,11,,10.0,30.280512,,,,CLR,,,,,,,,METAR,"['KGLR 130753Z AUTO 19011KT 10SM CLR M01/M09 A3028 ', ' AO2 SLP269 T10061094']"
KGLD,2015-03-13T07:53:00Z,6.1,-1.7,290,9,,10.0,30.171259,,,,CLR,,,,,,,,METAR,"['KGLD 130753Z AUTO 29009KT 10SM CLR 06/M02 A3017 ', ' AO2 SLP193 T00611017']"
KGKJ,2015-03-13T07:53:00Z,1.7,-13.9,0,3,,10.0,30.41929,,,,CLR,,,,,,,,METAR,"['KGKJ 130753Z AUTO VRB03KT 10SM CLR 02/M14 A3042 ', ' AO2 SLP313 T00171139 TSNO']"
KGJT,2015-03-13T07:53:00Z,6.7,-1.1,290,5,,10.0,30.250984,,,,OVC,9500,,,,,,,METAR,"['KGJT 130753Z AUTO 29005KT 10SM OVC095 07/M01 A3025 ', ' AO2 SLP217 T00671011']"
KGIF,2015-03-13T07:53:00Z,,,90,12,,10.0,30.180119,,TRUE,,BKN,8000,OVC,9000,,,,,METAR,"['KGIF 130753Z AUTO 09012KT 10SM BKN080 OVC090 A3018 ', ' AO2 SLPNO $']"
KGGW,2015-03-13T07:53:00Z,3.3,-1.7,290,4,,10.0,30.230314,,,,CLR,,,,,,,,METAR,"['KGGW 130753Z AUTO 29004KT 10SM CLR 03/M02 A3023 ', ' AO2 SLP244 T00331017']"
KGFK,2015-03-13T07:53:00Z,1.1,0.0,290,7,,8.0,29.991142,,,,CLR,,,,,,,,METAR,"['KGFK 130753Z AUTO 29007KT 8SM CLR 01/00 A2999 ', ' AO2 SLP165 T00110000 TSNO']"
KGEZ,2015-03-13T07:53:00Z,7.2,-0.6,120,5,,10.0,30.259842,,,,FEW,12000,,,,,,,METAR,"['KGEZ 130753Z AUTO 12005KT 10SM FEW120 07/M01 A3026 ', ' AO2 SLP247 T00721006']"
KGEY,2015-03-13T07:53:00Z,2.8,-2.8,140,6,,10.0,30.33071,,,,CLR,,,,,,,,METAR,"['KGEY 130753Z AUTO 14006KT 10SM CLR 03/M03 A3033 ', ' AO2 SLP270 T00281028']"
KGEG,2015-03-13T07:53:00Z,6.1,1.7,160,7,,10.0,30.398623,,,,CLR,,,,,,,,METAR,"['KGEG 130753Z 16007KT 10SM CLR 06/02 A3040 ', ' AO2 SLP299 T00610017 401560061']"
KGCC,2015-03-13T07:53:00Z,5.6,-1.1,290,13,,10.0,30.301182,,,,CLR,,,,,,,,METAR,"['KGCC 130753Z AUTO 29013KT 10SM CLR 06/M01 A3030 ', ' AO2 SLP250 T00561011 TSNO']"
KGAG,2015-03-13T07:53:00Z,4.4,1.1,260,5,,10.0,30.121063,,,,CLR,,,,,,,,METAR,"['KGAG 130753Z AUTO 26005KT 10SM CLR 04/01 A3012 ', ' AO2 SLP189 T00440011']"
KFXE,2015-03-13T07:53:00Z,24.4,16.7,100,19,,10.0,30.129921,,,,CLR,,,,,,,,METAR,"['KFXE 130753Z 10019KT 10SM CLR 24/17 A3013 ', ' AO2 SLP203 T02440167']"
KFWN,2015-03-13T07:53:00Z,-5.0,-12.2,0,0,,10.0,30.59941,,,,CLR,,,,,,,,METAR,"['KFWN 130753Z AUTO 00000KT 10SM CLR M05/M12 A3060 ', ' AO2 SLP366 T10501122']"
KFVE,2015-03-13T07:53:00Z,-16.1,-22.8,320,12,19,10.0,30.339567,,,,CLR,,,,,,,,METAR,"['KFVE 130753Z AUTO 32012G19KT 10SM CLR M16/M23 A3034 ', ' AO2 SLP295 T11611228']"
KFUL,2015-03-13T07:53:00Z,18.9,6.7,0,0,,10.0,30.0,,,,CLR,,,,,,,,METAR,"['KFUL 130753Z 00000KT 10SM CLR 19/07 A3000 ', ' AO2 SLP159 T01890067 403280122']"
KFST,2015-03-13T07:53:00Z,10.0,2.8,160,8,,10.0,30.088583,,,,CLR,,,,,,,,METAR,"['KFST 130753Z AUTO 16008KT 10SM CLR 10/03 A3009 ', ' AO2 SLP159 T01000028']"
KEEO,2015-03-13T07:53:00Z,0.0,-2.2,0,0,,10.0,30.33071,,,,CLR,,,,,,,,METAR,"['KEEO 130753Z AUTO 00000KT 10SM CLR 00/M02 A3033 ', ' AO2 SLP254 T00001022']"
KECP,2015-03-13T07:53:00Z,20.6,18.9,60,9,,10.0,30.129921,,,,OVC,900,,,,,,,METAR,"['KECP 130753Z AUTO 06009KT 10SM OVC009 21/19 A3013 ', ' AO2 SLP213 T02060189']"
KDXR,2015-03-13T07:53:00Z,-2.8,-18.9,70,5,,10.0,30.59941,,,,CLR,,,,,,,,METAR,"['KDXR 130753Z AUTO 07005KT 10SM CLR M03/M19 A3060 ', ' AO2 SLP366 T10281189']"
KDVT,2015-03-13T07:53:00Z,18.3,2.2,40,3,,10.0,29.97933,,,,CLR,,,,,,,,METAR,"['KDVT 130753Z 04003KT 10SM CLR 18/02 A2998 ', ' AO2 SLP132 T01830022']"
KDUJ,2015-03-13T07:53:00Z,-0.6,-13.3,90,6,,10.0,30.46063,,,,CLR,,,,,,,,METAR,"['KDUJ 130753Z AUTO 09006KT 10SM CLR M01/M13 A3046 ', ' AO2 SLP330 T10061133']"
KDTW,2015-03-13T07:53:00Z,-0.6,-9.4,50,3,,10.0,30.389763,,,,SCT,14000,BKN,25000,,,,,METAR,"['KDTW 130753Z 05003KT 10SM SCT140 BKN250 M01/M09 A3039 ', ' AO2 SLP298 T10061094']"
KDRT,2015-03-13T07:53:00Z,11.7,5.6,0,0,,10.0,30.02067,,,,CLR,,,,,,,,METAR,"['KDRT 130753Z AUTO 00000KT 10SM CLR 12/06 A3002 ', ' AO2 SLP155 T01170056']"
KDRO,2015-03-13T07:53:00Z,5.0,-1.1,0,0,,10.0,30.221457,,,,BKN,10000,,,,,,,METAR,"['KDRO 130753Z AUTO 00000KT 10SM BKN100 05/M01 A3022 ', ' AO2 SLP204 T00501011']"
KDMO,2015-03-13T07:53:00Z,11.1,9.4,100,3,,5.0,30.171259,,,-RA BR,OVC,4000,,,,,,,METAR,"['KDMO 130753Z AUTO 10003KT 5SM -RA BR OVC040 11/09 A3017 ', ' AO2 SLP215 P0002 T01110094']"
KDMN,2015-03-13T07:53:00Z,8.9,0.0,80,3,,10.0,30.088583,,,,BKN,9000,,,,,,,METAR,"['KDMN 130753Z AUTO 08003KT 10SM BKN090 09/00 A3009 ', ' AO2 SLP146 T00890000']"
KDLS,2015-03-13T07:53:00Z,7.2,3.9,0,0,,10.0,30.339567,,,,CLR,,,,,,,,METAR,"['KDLS 130753Z AUTO 00000KT 10SM CLR 07/04 A3034 ', ' AO2 SLP276 T00720039 402110056']"
KDLN,2015-03-13T07:53:00Z,3.9,-4.4,180,5,,10.0,30.398623,,,,CLR,,,,,,,,METAR,"['KDLN 130753Z AUTO 18005KT 10SM CLR 04/M04 A3040 ', ' AO2 SLP281 T00391044']"
KDKK,2015-03-13T07:53:00Z,-5.6,-9.4,0,0,,10.0,30.490158,,,,CLR,,,,,,,,METAR,"['KDKK 130753Z AUTO 00000KT 10SM CLR M06/M09 A3049 ', ' AO2 SLP334 T10561094']"
KDHT,2015-03-13T07:53:00Z,5.6,-1.1,170,7,,10.0,30.15059,,,,CLR,,,,,,,,METAR,"['KDHT 130753Z AUTO 17007KT 10SM CLR 06/M01 A3015 ', ' AO2 SLP180 T00561011']"
KDHN,2015-03-13T07:53:00Z,16.7,16.1,90,12,,9.0,30.230314,,TRUE,,OVC,600,,,,,,,METAR,"['KDHN 130753Z AUTO 09012KT 9SM OVC006 17/16 A3023 ', ' AO2 SLP233 T01670161 $']"
KDGW,2015-03-13T07:53:00Z,3.3,0.0,340,6,,10.0,30.339567,,TRUE,,OVC,8000,,,,,,,METAR,"['KDGW 130753Z AUTO 34006KT 10SM OVC080 03/00 A3034 ', ' AO2 SLP261 T00330000 $']"
KDFW,2015-03-13T07:53:00Z,13.9,12.2,360,6,,10.0,30.02067,,,,BKN,1200,OVC,6500,,,,,METAR,"['KDFW 130753Z 36006KT 10SM BKN012 OVC065 14/12 A3002 ', ' AO2 SLP160 T01390122']"
KDFI,2015-03-13T07:53:00Z,0.6,-4.4,40,5,,10.0,30.339567,,,,CLR,,,,,,,,METAR,"['KDFI 130753Z AUTO 04005KT 10SM CLR 01/M04 A3034 ', ' AO2 SLP280 T00061044']"
KDEW,2015-03-13T07:53:00Z,-0.6,-1.7,0,0,,10.0,30.410433,,,,CLR,,,,,,,,METAR,"['KDEW 130753Z AUTO 00000KT 10SM CLR M01/M02 A3041 ', ' AO2 SLP309 T10061017 401611011']"
KDET,2015-03-13T07:53:00Z,-1.1,-9.4,90,5,,10.0,30.398623,,,,CLR,,,,,,,,METAR,"['KDET 130753Z 09005KT 10SM CLR M01/M09 A3040 ', ' AO2 SLP300 T10111094']"
KDEQ,2015-03-13T07:53:00Z,13.9,12.8,30,3,,8.0,29.97933,,,,OVC,700,,,,,,,METAR,"['KDEQ 130753Z AUTO 03003KT 8SM OVC007 14/13 A2998 ', ' AO2 SLP149 T01390128']"
KDEN,2015-03-13T07:53:00Z,8.9,1.7,350,11,,10.0,30.33071,,,,BKN,4700,OVC,5500,,,,,METAR,"['KDEN 130753Z 35011KT 10SM BKN047 OVC055 09/02 A3033 ', ' AO2 RAB41E50 SLP228 VCSH P0000 T00890017']"
KDBQ,2015-03-13T07:53:00Z,3.9,1.7,170,8,,6.0,30.221457,,,BR,CLR,,,,,,,,METAR,"['KDBQ 130753Z AUTO 17008KT 6SM BR CLR 04/02 A3022 ', ' AO2 SLP239 T00390017']"
KDAN,2015-03-13T07:53:00Z,6.7,-0.6,70,3,,10.0,30.528543,,,,BKN,8500,,,,,,,METAR,"['KDAN 130753Z AUTO 07003KT 10SM BKN085 07/M01 A3053 ', ' AO2 SLP333 T00671006']"
KDAL,2015-03-13T07:53:00Z,15.0,12.2,20,5,,10.0,30.02067,,,,BKN,1400,OVC,12000,,,,,METAR,"['KDAL 130753Z 02005KT 10SM BKN014 OVC120 15/12 A3002 ', ' AO2 SLP161 T01500122']"
KDAB,2015-03-13T07:53:00Z,21.7,18.9,100,5,,10.0,30.200787,,,,FEW,2700,,,,,,,METAR,"['KDAB 130753Z 10005KT 10SM FEW027 22/19 A3020 ', ' AO2 SLP226 T02170189']"
KCYS,2015-03-13T07:53:00Z,5.6,-1.7,340,8,,10.0,30.33071,,,,FEW,12000,,,,,,,METAR,"['KCYS 130753Z AUTO 34008KT 10SM FEW120 06/M02 A3033 ', ' AO2 SLP230 T00561017']"
KCXO,2015-03-13T07:53:00Z,13.3,12.8,0,0,,5.0,29.949802,,,-RA BR,OVC,500,,,,,,,METAR,"['KCXO 130753Z AUTO 00000KT 5SM -RA BR OVC005 13/13 A2995 ', ' AO2 RAB24 SLP142 P0001 T01330128']"
KCUT,2015-03-13T07:53:00Z,3.3,-3.3,0,0,,10.0,30.301182,,,,CLR,,,,,,,,SPECI,"['KCUT 130753Z AUTO 00000KT 10SM CLR 03/M03 A3030 ', ' AO2 SLP234 T00331033']"
KCUB,2015-03-13T07:53:00Z,14.4,-1.1,80,6,,10.0,30.43996,,,,OVC,5500,,,,,,,METAR,"['KCUB 130753Z AUTO 08006KT 10SM OVC055 14/M01 A3044 ', ' AO2 SLP307 T01441011']"
KCSM,2015-03-13T07:53:00Z,6.7,2.2,30,3,,10.0,30.100393,,,,CLR,,,,,,,,METAR,"['KCSM 130753Z AUTO 03003KT 10SM CLR 07/02 A3010 ', ' AO2 SLP185 T00670022']"
KCRQ,2015-03-13T07:53:00Z,18.3,6.1,0,0,,10.0,30.0,,,,CLR,,,,,,,,SPECI,"['KCRQ 130753Z AUTO 00000KT 10SM CLR 18/06 A3000 ', ' AO2 SLP157 T01830061 402330128 TSNO']"
KCRG,2015-03-13T07:53:00Z,18.9,17.2,70,8,,7.0,30.230314,,,,OVC,400,,,,,,,METAR,"['KCRG 130753Z AUTO 07008KT 7SM OVC004 19/17 A3023 ', ' AO2 SLP237 T01890172']"
KCRE,2015-03-13T07:53:00Z,11.1,-2.2,50,11,,10.0,30.448818,,,,OVC,8500,,,,,,,METAR,"['KCRE 130753Z AUTO 05011KT 10SM OVC085 11/M02 A3045 ', ' AO1 SLP311 T01111022']"
KCPR,2015-03-13T07:53:00Z,0.6,-1.7,240,7,,10.0,30.351377,,,,BKN,7500,,,,,,,METAR,"['KCPR 130753Z AUTO 24007KT 10SM BKN075 01/M02 A3035 ', ' AO2 SLP269 T00061017']"
KCOT,2015-03-13T07:53:00Z,13.3,9.4,60,3,,10.0,30.0,,,,CLR,,,,,,,,METAR,"['KCOT 130753Z AUTO 06003KT 10SM CLR 13/09 A3000 ', ' AO2 SLP153 T01330094']"
KCNY,2015-03-13T07:53:00Z,6.7,-1.1,330,7,,10.0,30.230314,,,,CLR,,,,,,,,SPECI,"['KCNY 130753Z AUTO 33007KT 10SM CLR 07/M01 A3023 ', ' AO2 SLP219 T00671011']"
KCNO,2015-03-13T07:53:00Z,19.4,4.4,0,3,,10.0,30.041338,,,,CLR,,,,,,,,METAR,"['KCNO 130753Z AUTO VRB03KT 10SM CLR 19/04 A3004 ', ' AO2 SLP168 T01940044 403000094']"
KCNM,2015-03-13T07:53:00Z,7.2,1.1,120,4,,10.0,30.088583,,,,CLR,,,,,,,,METAR,"['KCNM 130753Z AUTO 12004KT 10SM CLR 07/01 A3009 ', ' AO2 SLP160 T00720011']"
KCMX,2015-03-13T07:53:00Z,2.8,-2.2,100,4,,10.0,30.088583,,,,OVC,6000,,,,,,,METAR,"['KCMX 130753Z AUTO 10004KT 10SM OVC060 03/M02 A3009 ', ' AO2 SLP201 T00281022']"
KCMI,2015-03-13T07:53:00Z,6.1,1.1,80,7,,10.0,30.239174,,,,OVC,12000,,,,,,,METAR,"['KCMI 130753Z AUTO 08007KT 10SM OVC120 06/01 A3024 ', ' AO2 SLP242 T00610011']"
KCLM,2015-03-13T07:53:00Z,9.4,6.7,230,6,,10.0,30.33071,,,,CLR,,,,,,,,METAR,"['KCLM 130753Z AUTO 23006KT 10SM CLR 09/07 A3033 ', ' AO2 SLP271 T00940067 401670056']"
KCLL,2015-03-13T07:53:00Z,13.9,12.2,320,7,,8.0,29.958662,,,-RA,BKN,900,OVC,3400,,,,,SPECI,"['KCLL 130753Z 32007KT 8SM -RA BKN009 OVC034 14/12 A2996 ', ' AO2 RAB47 SLP144 P0000 T01390122']"
KCKB,2015-03-13T07:53:00Z,3.3,-4.4,0,0,,10.0,30.410433,,,,CLR,,,,,,,,METAR,"['KCKB 130753Z 00000KT 10SM CLR 03/M04 A3041 ', ' AO2 SLP298 T00331044']"
KCHO,2015-03-13T07:53:00Z,1.1,-3.3,350,3,,10.0,30.549213,,,,CLR,,,,,,,,METAR,"['KCHO 130753Z AUTO 35003KT 10SM CLR 01/M03 A3055 ', ' AO2 SLP347 T00111033']"
KCGI,2015-03-13T07:53:00Z,12.2,11.1,70,6,,9.0,30.129921,,,,BKN,2100,OVC,2700,,,,,METAR,"['KCGI 130753Z AUTO 07006KT 9SM BKN021 OVC027 12/11 A3013 ', ' AO2 SLP201 P0001 T01220111 TSNO']"
KCEZ,2015-03-13T07:53:00Z,2.2,-1.7,70,4,,10.0,30.209646,,,,BKN,11000,,,,,,,METAR,"['KCEZ 130753Z AUTO 07004KT 10SM BKN110 02/M02 A3021 ', ' AO2 SLP202 T00221017']"
KCDW,2015-03-13T07:53:00Z,-2.8,-11.7,0,0,,10.0,30.611221,,,,CLR,,,,,,,,METAR,"['KCDW 130753Z AUTO 00000KT 10SM CLR M03/M12 A3061 ', ' AO2 SLP374 T10281117 TSNO']"
KCDS,2015-03-13T07:53:00Z,6.7,2.8,320,5,,10.0,30.100393,,,,CLR,,,,,,,,METAR,"['KCDS 130753Z AUTO 32005KT 10SM CLR 07/03 A3010 ', ' AO2 SLP182 T00670028']"
KCDR,2015-03-13T07:53:00Z,2.2,-1.1,260,4,,10.0,30.268702,,,,CLR,,,,,,,,METAR,"['KCDR 130753Z AUTO 26004KT 10SM CLR 02/M01 A3027 ', ' AO2 SLP257 T00221011']"
KCDC,2015-03-13T07:53:00Z,1.7,-0.6,0,0,,10.0,30.301182,,,,CLR,,,,,,,,METAR,"['KCDC 130753Z AUTO 00000KT 10SM CLR 02/M01 A3030 ', ' AO2 SLP239 T00171006']"
KCCR,2015-03-13T07:53:00Z,13.3,9.4,0,3,,10.0,30.15059,,,,CLR,,,,,,,,METAR,"['KCCR 130753Z VRB03KT 10SM CLR 13/09 A3015 ', ' AO2 SLP196 T01330094 402440083']"
KCAG,2015-03-13T07:53:00Z,-1.1,-2.8,0,0,,10.0,30.360237,,,,CLR,,,,,,,,METAR,"['KCAG 130753Z AUTO 00000KT 10SM CLR M01/M03 A3036 ', ' AO2 SLP280 T10111028']"
KBYI,2015-03-13T07:53:00Z,2.8,-1.7,230,6,,10.0,30.398623,,,,CLR,,,,,,,,METAR,"['KBYI 130753Z AUTO 23006KT 10SM CLR 03/M02 A3040 ', ' AO2 SLP288 T00281017']"
KBYG,2015-03-13T07:53:00Z,7.2,-2.2,330,11,,,30.360237,,TRUE,,CLR,,,,,,,,METAR,"['KBYG 130753Z AUTO 33011KT CLR 07/M02 A3036 ', ' AO2 SLP263 T00721022 $']"
KBWG,2015-03-13T07:53:00Z,13.3,7.8,0,0,,10.0,30.221457,,,,BKN,4600,OVC,7500,,,,,METAR,"['KBWG 130753Z AUTO 00000KT 10SM BKN046 OVC075 13/08 A3022 ', ' AO2 SLP231 T01330078']"
KBVY,2015-03-13T07:53:00Z,-6.1,-17.2,300,3,,10.0,30.590551,,,,CLR,,,,,,,,METAR,"['KBVY 130753Z AUTO 30003KT 10SM CLR M06/M17 A3059 ', ' AO2 SLP355 T10611172']"
KBVO,2015-03-13T07:53:00Z,12.2,9.4,80,5,,10.0,30.121063,,,,FEW,12000,,,,,,,METAR,"['KBVO 130753Z AUTO 08005KT 10SM FEW120 12/09 A3012 ', ' AO2 SLP192 T01220094']"
KBUR,2015-03-13T07:53:00Z,20.0,2.2,330,8,,10.0,30.041338,,,,CLR,,,,,,,,METAR,"['KBUR 130753Z 33008KT 10SM CLR 20/02 A3004 ', ' AO2 SLP160 T02000022 403060128']"
KBTM,2015-03-13T07:53:00Z,-1.7,-4.4,150,6,,10.0,30.41929,,,,CLR,,,,,,,,METAR,"['KBTM 130753Z AUTO 15006KT 10SM CLR M02/M04 A3042 ', ' AO2 SLP307 T10171044']"
KBTL,2015-03-13T07:53:00Z,1.1,-8.3,150,4,,10.0,30.33071,,,,CLR,,,,,,,,METAR,"['KBTL 130753Z 15004KT 10SM CLR 01/M08 A3033 ', ' AO2 SLP278 T00111083']"
KBRL,2015-03-13T07:53:00Z,7.8,4.4,90,5,,10.0,30.209646,,,,CLR,,,,,,,,METAR,"['KBRL 130753Z AUTO 09005KT 10SM CLR 08/04 A3021 ', ' AO2 SLP230 T00780044']"
KBPI,2015-03-13T07:53:00Z,0.6,-5.0,0,0,,10.0,30.41929,,,,CLR,,,,,,,,METAR,"['KBPI 130753Z AUTO 00000KT 10SM CLR 01/M05 A3042 ', ' AO2 SLP271 T00061050']"
KBOI,2015-03-13T07:53:00Z,6.7,1.7,150,6,,10.0,30.360237,,,,CLR,,,,,,,,METAR,"['KBOI 130753Z 15006KT 10SM CLR 07/02 A3036 ', ' AO2 SLP278 T00670017']"
KBNO,2015-03-13T07:53:00Z,-0.6,-2.8,280,4,,10.0,30.410433,,,,CLR,,,,,,,,METAR,"['KBNO 130753Z AUTO 28004KT 10SM CLR M01/M03 A3041 ', ' AO2 SLP302 T10061028 401501022']"
KBNA,2015-03-13T07:53:00Z,13.9,12.8,150,4,,10.0,30.221457,,,,FEW,4300,BKN,5000,OVC,10000,,,METAR,"['KBNA 130753Z 15004KT 10SM FEW043 BKN050 OVC100 14/13 A3022 ', ' AO2 RAE04B31E42 SLP230 P0000 T01390128']"
KBMQ,2015-03-13T07:53:00Z,10.6,10.0,0,0,,8.0,30.041338,,,,CLR,,,,,,,,METAR,"['KBMQ 130753Z AUTO 00000KT 8SM CLR 11/10 A3004 ', ' AO2 SLP163 T01060100']"
KBMG,2015-03-13T07:53:00Z,10.6,-1.1,120,8,,10.0,30.230314,,,,FEW,3800,OVC,11000,,,,,METAR,"['KBMG 130753Z AUTO 12008KT 10SM FEW038 OVC110 11/M01 A3023 ', ' AO2 SLP236 T01061011']"
KBLI,2015-03-13T07:53:00Z,8.9,6.7,360,3,,10.0,30.33071,,,,CLR,,,,,,,,METAR,"['KBLI 130753Z AUTO 36003KT 10SM CLR 09/07 A3033 ', ' AO2 SLP279 T00890067 401670083']"
KBKV,2015-03-13T07:53:00Z,21.1,20.0,90,5,,10.0,30.180119,,,,FEW,9500,,,,,,,METAR,"['KBKV 130753Z AUTO 09005KT 10SM FEW095 21/20 A3018 ', ' AO2 SLP218 T02110200']"
KBKL,2015-03-13T07:53:00Z,0.0,-4.4,0,0,,10.0,30.380905,,,,CLR,,,,,,,,METAR,"['KBKL 130753Z 00000KT 10SM CLR 00/M04 A3038 ', ' AO2 SLP294 T00001044']"
KBKE,2015-03-13T07:53:00Z,-2.2,-2.8,0,0,,10.0,30.398623,,,,CLR,,,,,,,,METAR,"['KBKE 130753Z AUTO 00000KT 10SM CLR M02/M03 A3040 ', ' AO2 SLP308 T10221028 401671022 TSNO']"
KBIV,2015-03-13T07:53:00Z,1.1,-6.1,120,5,,10.0,30.31004,,,,CLR,,,,,,,,METAR,"['KBIV 130753Z AUTO 12005KT 10SM CLR 01/M06 A3031 ', ' AO2 SLP271 T00111061']"
KBGR,2015-03-13T07:53:00Z,-10.0,-20.0,310,15,23,10.0,30.481298,,,,CLR,,,,,,,,METAR,"['KBGR 130753Z 31015G23KT 10SM CLR M10/M20 A3048 ', ' AO2 SLP327 T11001200']"
KBGM,2015-03-13T07:53:00Z,-5.6,-13.9,0,0,,10.0,30.519686,,,,CLR,,,,,,,,METAR,"['KBGM 130753Z AUTO 00000KT 10SM CLR M06/M14 A3052 ', ' AO2 SLP357 T10561139']"
KBFI,2015-03-13T07:53:00Z,11.7,6.1,0,0,,10.0,30.31004,,,,CLR,,,,,,,,METAR,"['KBFI 130753Z 00000KT 10SM CLR 12/06 A3031 ', ' AO2 SLP265 T01170061 401940111']"
KBFF,2015-03-13T07:53:00Z,6.7,-0.6,300,8,,10.0,30.280512,,,,SCT,10000,,,,,,,METAR,"['KBFF 130753Z AUTO 30008KT 10SM SCT100 07/M01 A3028 ', ' AO2 SLP232 T00671006']"
KBFD,2015-03-13T07:53:00Z,-5.6,-12.2,140,3,,10.0,30.469488,,,,CLR,,,,,,,,METAR,"['KBFD 130753Z AUTO 14003KT 10SM CLR M06/M12 A3047 ', ' AO2 SLP338 T10561122']"
KBEH,2015-03-13T07:53:00Z,2.2,-3.9,130,7,,10.0,30.31004,,,,CLR,,,,,,,,METAR,"['KBEH 130753Z AUTO 13007KT 10SM CLR 02/M04 A3031 ', ' AO2 SLP268 T00221039']"
KBDE,2015-03-13T07:53:00Z,2.2,-1.1,90,6,,10.0,29.929134,,,,FEW,11000,,,,,,,METAR,"['KBDE 130753Z AUTO 09006KT 10SM FEW110 02/M01 A2993 ', ' AO2 SLP145 T00221011 TSNO']"
KBCE,2015-03-13T07:53:00Z,-3.3,-5.0,350,4,,10.0,30.33071,,,,CLR,,,,,,,,METAR,"['KBCE 130753Z AUTO 35004KT 10SM CLR M03/M05 A3033 ', ' AO2 SLP241 T10331050']"
KBBW,2015-03-13T07:53:00Z,7.2,-2.2,0,0,,10.0,30.15059,,,,CLR,,,,,,,,METAR,"['KBBW 130753Z AUTO 00000KT 10SM CLR 07/M02 A3015 ', ' AO2 SLP199 T00721022']"
KAZO,2015-03-13T07:53:00Z,0.6,-7.8,120,3,,10.0,30.33071,,,,CLR,,,,,,,,METAR,"['KAZO 130753Z AUTO 12003KT 10SM CLR 01/M08 A3033 ', ' AO2 SLP277 T00061078']"
KAXN,2015-03-13T07:53:00Z,5.0,3.9,270,6,,8.0,30.008858,,,,CLR,,,,,,,,METAR,"['KAXN 130753Z AUTO 27006KT 8SM CLR 05/04 A3001 ', ' AO2 SLP169 T00500039']"
KAWM,2015-03-13T07:53:00Z,17.2,17.2,140,8,,5.0,30.070866,,,-RA BR,BKN,1100,BKN,1800,OVC,3200,,,METAR,"['KAWM 130753Z AUTO 14008KT 5SM -RA BR BKN011 BKN018 OVC032 17/17 A3007 ', ' AO2 SLP180 P0005 T01720172']"
KAUS,2015-03-13T07:53:00Z,11.1,11.1,0,0,,9.0,30.008858,,TRUE,,FEW,1500,SCT,15000,,,,,METAR,"['KAUS 130753Z 00000KT 9SM FEW015 SCT150 11/11 A3001 ', ' AO2 SLP160 T01110111 $']"
KAUG,2015-03-13T07:53:00Z,-8.9,-20.0,310,4,,10.0,30.510826,,,,CLR,,,,,,,,METAR,"['KAUG 130753Z AUTO 31004KT 10SM CLR M09/M20 A3051 ', ' AO2 SLP338 T10891200']"
KATY,2015-03-13T07:53:00Z,6.7,1.7,300,9,,10.0,30.070866,,,,CLR,,,,,,,,METAR,"['KATY 130753Z AUTO 30009KT 10SM CLR 07/02 A3007 ', ' AO2 SLP187 T00670017']"
KASX,2015-03-13T07:53:00Z,7.8,-0.6,170,5,,10.0,30.050198,,,,CLR,,,,,,,,METAR,"['KASX 130753Z AUTO 17005KT 10SM CLR 08/M01 A3005 ', ' AO2 SLP180 T00781006']"
KASE,2015-03-13T07:53:00Z,0.6,-1.1,200,4,,10.0,30.33071,,TRUE,,BKN,10000,,,,,,,METAR,"['KASE 130753Z 20004KT 10SM BKN100 01/M01 A3033 ', ' AO2 SLP220 T00061011 $']"
KARB,2015-03-13T07:53:00Z,-2.2,-10.0,70,3,,10.0,30.369095,,,,CLR,,,,,,,,METAR,"['KARB 130753Z AUTO 07003KT 10SM CLR M02/M10 A3037 ', ' AO2 SLP292 T10221100']"
KAPF,2015-03-13T07:53:00Z,22.8,20.6,90,6,,10.0,30.129921,,,,CLR,,,,,,,,METAR,"['KAPF 130753Z AUTO 09006KT 10SM CLR 23/21 A3013 ', ' AO2 SLP200 T02280206']"
KAPA,2015-03-13T07:53:00Z,7.2,1.7,320,6,,10.0,30.33071,,,,OVC,5500,,,,,,,METAR,"['KAPA 130753Z 32006KT 10SM OVC055 07/02 A3033 ', ' AO2 SLP246 T00720017']"
KAOO,2015-03-13T07:53:00Z,-0.6,-9.4,0,0,,10.0,30.510826,,,,CLR,,,,,,,,METAR,"['KAOO 130753Z AUTO 00000KT 10SM CLR M01/M09 A3051 ', ' AO2 SLP346 T10061094']"
KAOH,2015-03-13T07:53:00Z,3.3,-3.3,100,7,,10.0,30.301182,,,,CLR,,,,,,,,METAR,"['KAOH 130753Z AUTO 10007KT 10SM CLR 03/M03 A3030 ', ' AO2 SLP266 T00331033']"
KAMG,2015-03-13T07:53:00Z,15.0,11.1,70,8,,9.0,30.301182,,TRUE,,OVC,1600,,,,,,,METAR,"['KAMG 130753Z AUTO 07008KT 9SM OVC016 15/11 A3030 ', ' AO2 SLP257 T01500111 $']"
KAMA,2015-03-13T07:53:00Z,6.7,1.1,160,7,,10.0,30.138779,,,,CLR,,,,,,,,METAR,"['KAMA 130753Z AUTO 16007KT 10SM CLR 07/01 A3014 ', ' AO2 SLP183 T00670011']"
KALW,2015-03-13T07:53:00Z,8.9,0.6,90,9,,10.0,30.339567,,,,CLR,,,,,,,,METAR,"['KALW 130753Z AUTO 09009KT 10SM CLR 09/01 A3034 ', ' AO2 SLP277 T00890006 401940083']"
KALI,2015-03-13T07:53:00Z,11.7,10.6,0,0,,9.0,29.991142,,,,CLR,,,,,,,,METAR,"['KALI 130753Z AUTO 00000KT 9SM CLR 12/11 A2999 ', ' AO2 SLP153 T01170106']"
KAKO,2015-03-13T07:53:00Z,5.6,-1.7,320,10,,10.0,30.250984,,,,CLR,,,,,,,,METAR,"['KAKO 130753Z AUTO 32010KT 10SM CLR 06/M02 A3025 ', ' AO2 SLP220 T00561017']"
KAIA,2015-03-13T07:53:00Z,5.6,-1.1,350,8,,10.0,30.250984,,,,CLR,,,,,,,,METAR,"['KAIA 130753Z AUTO 35008KT 10SM CLR 06/M01 A3025 ', ' AO2 SLP227 T00561011']"
KAGC,2015-03-13T07:53:00Z,3.3,-11.7,110,5,,10.0,30.41929,,,,CLR,,,,,,,,METAR,"['KAGC 130753Z 11005KT 10SM CLR 03/M12 A3042 ', ' AO2 SLP313 T00331117']"
KAFW,2015-03-13T07:53:00Z,11.7,11.1,340,5,,9.0,30.02067,,,,BKN,1300,BKN,5000,OVC,25000,,,METAR,"['KAFW 130753Z 34005KT 9SM BKN013 BKN050 OVC250 12/11 A3002 ', ' AO2 SLP163 T01170111']"
KADG,2015-03-13T07:53:00Z,-1.1,-5.6,90,6,,10.0,30.380905,,,,CLR,,,,,,,,METAR,"['KADG 130753Z AUTO 09006KT 10SM CLR M01/M06 A3038 ', ' AO2 SLP296 T10111056 TSNO']"
KACV,2015-03-13T07:53:00Z,10.0,10.0,140,3,,10.0,30.180119,,,,FEW,400,,,,,,,METAR,"['KACV 130753Z AUTO 14003KT 10SM FEW004 10/10 A3018 ', ' AO2 SLP226 T01000100 401780067']"
KACK,2015-03-13T07:53:00Z,-2.2,-12.8,340,14,,10.0,30.569881,,,,CLR,,,,,,,,METAR,"['KACK 130753Z AUTO 34014KT 10SM CLR M02/M13 A3057 ', ' AO2 SLP351 T10221128']"
KABY,2015-03-13T07:53:00Z,14.4,11.7,90,8,,10.0,30.280512,,TRUE,,OVC,1700,,,,,,,METAR,"['KABY 130753Z AUTO 09008KT 10SM OVC017 14/12 A3028 ', ' AO2 SLP252 T01440117 $']"
KABR,2015-03-13T07:53:00Z,0.6,-1.1,250,6,,10.0,30.100393,,,,CLR,,,,,,,,METAR,"['KABR 130753Z AUTO 25006KT 10SM CLR 01/M01 A3010 ', ' AO2 SLP197 T00061011']"
KFSM,2015-03-13T07:53:00Z,12.2,11.1,20,4,,4.0,30.050198,,,BR,OVC,600,,,,,,,METAR,"['KFSM 130753Z AUTO 02004KT 4SM BR OVC006 12/11 A3005 ', ' AO2 RAE00 SLP176 P0000 T01220111']"
KFRG,2015-03-13T07:53:00Z,-0.6,-15.0,10,8,,10.0,30.611221,,,,CLR,,,,,,,,METAR,"['KFRG 130753Z AUTO 01008KT 10SM CLR M01/M15 A3061 ', ' AO2 SLP365 T10061150']"
KFPR,2015-03-13T07:53:00Z,22.8,20.0,100,9,,10.0,30.159449,,,,CLR,,,,,,,,METAR,"['KFPR 130753Z AUTO 10009KT 10SM CLR 23/20 A3016 ', ' AO2 SLP211 T02280200']"
KFOK,2015-03-13T07:53:00Z,-2.8,-11.7,350,6,,10.0,30.620079,,,,CLR,,,,,,,,METAR,"['KFOK 130753Z AUTO 35006KT 10SM CLR M03/M12 A3062 ', ' AO2 SLP367 T10281117 TSNO']"
KFOE,2015-03-13T07:53:00Z,7.8,1.7,0,0,,10.0,30.15059,,,,CLR,,,,,,,,METAR,"['KFOE 130753Z AUTO 00000KT 10SM CLR 08/02 A3015 ', ' AO2 SLP208 T00780017']"
KFNT,2015-03-13T07:53:00Z,-1.1,-11.1,130,6,,10.0,30.369095,,,,CLR,,,,,,,,METAR,"['KFNT 130753Z AUTO 13006KT 10SM CLR M01/M11 A3037 ', ' AO2 SLP290 T10111111']"
KFNB,2015-03-13T07:53:00Z,8.9,1.1,150,6,,10.0,30.15059,,,,CLR,,,,,,,,METAR,"['KFNB 130753Z AUTO 15006KT 10SM CLR 09/01 A3015 ', ' AO2 SLP205 T00890011']"
KFMY,2015-03-13T07:53:00Z,22.2,20.0,110,8,,10.0,30.129921,,,,OVC,8000,,,,,,,METAR,"['KFMY 130753Z AUTO 11008KT 10SM OVC080 22/20 A3013 ', ' AO2 SLP205 T02220200']"
KFMN,2015-03-13T07:53:00Z,5.6,-1.1,290,3,,10.0,30.180119,,,,SCT,9500,BKN,12000,,,,,METAR,"['KFMN 130753Z AUTO 29003KT 10SM SCT095 BKN120 06/M01 A3018 ', ' AO2 SLP202 T00561011']"
KFLO,2015-03-13T07:53:00Z,11.7,-4.4,80,13,,10.0,30.469488,,,,OVC,7000,,,,,,,METAR,"['KFLO 130753Z AUTO 08013KT 10SM OVC070 12/M04 A3047 ', ' AO2 SLP316 T01171044']"
KFLL,2015-03-13T07:53:00Z,23.3,18.9,100,18,,10.0,30.121063,,,,FEW,2800,,,,,,,METAR,"['KFLL 130753Z 10018KT 10SM FEW028 23/19 A3012 ', ' AO2 SLP198 T02330189']"
KFLD,2015-03-13T07:53:00Z,3.3,-2.2,180,8,,10.0,30.239174,,,,CLR,,,,,,,,METAR,"['KFLD 130753Z AUTO 18008KT 10SM CLR 03/M02 A3024 ', ' AO2 SLP245 T00331022']"
KFHR,2015-03-13T07:53:00Z,8.3,7.2,0,0,,10.0,30.339567,,,,CLR,,,,,,,,METAR,"['KFHR 130753Z AUTO 00000KT 10SM CLR 08/07 A3034 ', ' AO2 SLP275 T00830072 401720061']"
KFFT,2015-03-13T07:53:00Z,10.6,0.0,80,6,,10.0,30.259842,,,,FEW,11000,,,,,,,METAR,"['KFFT 130753Z AUTO 08006KT 10SM FEW110 11/00 A3026 ', ' AO2 SLP244 T01060000']"
KFDY,2015-03-13T07:53:00Z,1.7,-4.4,90,4,,10.0,30.33071,,,,CLR,,,,,,,,METAR,"['KFDY 130753Z AUTO 09004KT 10SM CLR 02/M04 A3033 ', ' AO2 SLP272 T00171044']"
KFDR,2015-03-13T07:53:00Z,8.9,6.1,30,8,,9.0,30.041338,,TRUE,,CLR,,,,,,,,METAR,"['KFDR 130753Z AUTO 03008KT 9SM CLR 09/06 A3004 ', ' AO2 SLP166 T00890061 $']"
KFCM,2015-03-13T07:53:00Z,11.1,5.0,210,11,,10.0,30.041338,,,,CLR,,,,,,,,METAR,"['KFCM 130753Z AUTO 21011KT 10SM CLR 11/05 A3004 ', ' AO2 SLP174 T01110050']"
KFAY,2015-03-13T07:53:00Z,8.3,-4.4,60,6,,10.0,30.499016,,,,CLR,,,,,,,,METAR,"['KFAY 130753Z AUTO 06006KT 10SM CLR 08/M04 A3050 ', ' AO2 SLP322 T00831044']"
KFAT,2015-03-13T07:53:00Z,12.8,10.0,0,0,,5.0,30.171259,,,HZ,SCT,20000,,,,,,,METAR,"['KFAT 130753Z 00000KT 5SM HZ SCT200 13/10 A3017 ', ' AO2 SLP216 T01280100 402280100']"
KFAR,2015-03-13T07:53:00Z,2.8,0.6,250,6,,10.0,30.02067,,,,CLR,,,,,,,,METAR,"['KFAR 130753Z 25006KT 10SM CLR 03/01 A3002 ', ' AO2 SLP170 T00280006']"
KEYW,2015-03-13T07:53:00Z,24.4,18.3,110,17,25,10.0,30.100393,,,,CLR,,,,,,,,METAR,"['KEYW 130753Z AUTO 11017G25KT 10SM CLR 24/18 A3010 ', ' AO2 PK WND 11028/0716 SLP193 T02440183']"
KEYE,2015-03-13T07:53:00Z,6.1,-2.2,120,3,,10.0,30.259842,,,,CLR,,,,,,,,METAR,"['KEYE 130753Z AUTO 12003KT 10SM CLR 06/M02 A3026 ', ' AO2 SLP249 T00611022']"
KEWB,2015-03-13T07:53:00Z,-4.4,-16.1,320,5,,10.0,30.590551,,,,CLR,,,,,,,,METAR,"['KEWB 130753Z AUTO 32005KT 10SM CLR M04/M16 A3059 ', ' AO2 SLP359 T10441161']"
KEVW,2015-03-13T07:53:00Z,2.2,-2.2,0,0,,10.0,30.410433,,,,CLR,,,,,,,,METAR,"['KEVW 130753Z AUTO 00000KT 10SM CLR 02/M02 A3041 ', ' AO2 SLP271 T00221022']"
KEPH,2015-03-13T07:53:00Z,6.1,0.0,350,5,,10.0,30.360237,,,,CLR,,,,,,,,METAR,"['KEPH 130753Z AUTO 35005KT 10SM CLR 06/00 A3036 ', ' AO2 SLP284 T00610000 402000028']"
KENW,2015-03-13T07:53:00Z,2.2,-1.7,0,0,,10.0,30.280512,,,,CLR,,,,,,,,METAR,"['KENW 130753Z AUTO 00000KT 10SM CLR 02/M02 A3028 ', ' AO2 SLP259 T00221017']"
KEMP,2015-03-13T07:53:00Z,10.0,2.8,60,5,,10.0,30.138779,,,,CLR,,,,,,,,METAR,"['KEMP 130753Z AUTO 06005KT 10SM CLR 10/03 A3014 ', ' AO2 SLP206 T01000028']"
KELY,2015-03-13T07:53:00Z,3.9,-2.8,20,11,,10.0,30.389763,,,,CLR,,,,,,,,METAR,"['KELY 130753Z AUTO 02011KT 10SM CLR 04/M03 A3039 ', ' AO2 SLP257 T00391028 401440006']"
KELN,2015-03-13T07:53:00Z,5.0,0.0,80,4,,10.0,30.360237,,,,CLR,,,,,,,,METAR,"['KELN 130753Z AUTO 08004KT 10SM CLR 05/00 A3036 ', ' AO2 SLP285 T00500000 401940039']"
KELM,2015-03-13T07:53:00Z,-7.8,-10.0,0,0,,10.0,30.569881,,,,CLR,,,,,,,,METAR,"['KELM 130753Z AUTO 00000KT 10SM CLR M08/M10 A3057 ', ' AO2 SLP365 T10781100']"
KP92,2015-03-13T07:53:00Z,17.2,17.2,170,4,,,29.991142,,,,,,,,,,,,SPECI,"['KP92 130753Z AUTO 17004KT 17/17 A2999 ', ' AO1 SLP153 T01720172']"
KRAP,2015-03-13T07:52:00Z,6.7,-1.1,300,8,,10.0,30.239174,,,,CLR,,,,,,,,SPECI,"['KRAP 130752Z AUTO 30008KT 10SM CLR 07/M01 A3024 ', ' AO2 SLP238 T00671011']"
KPYM,2015-03-13T07:52:00Z,-5.0,-16.1,310,6,,10.0,30.590551,,,,CLR,,,,,,,,SPECI,"['KPYM 130752Z AUTO 31006KT 10SM CLR M05/M16 A3059 ', ' AO2 SLP361 T10501161']"
KPWK,2015-03-13T07:52:00Z,2.2,-1.7,0,0,,10.0,30.301182,,,,CLR,,,,,,,,SPECI,"['KPWK 130752Z AUTO 00000KT 10SM CLR 02/M02 A3030 ', ' AO2 SLP264 T00221017']"
KPPF,2015-03-13T07:52:00Z,13.3,9.4,0,0,,10.0,30.129921,,,,OVC,2600,,,,,,,SPECI,"['KPPF 130752Z AUTO 00000KT 10SM OVC026 13/09 A3013 ', ' AO2 SLP197 T01330094']"
KORE,2015-03-13T07:52:00Z,-9.4,-14.4,0,0,,10.0,30.590551,,,,CLR,,,,,,,,SPECI,"['KORE 130752Z AUTO 00000KT 10SM CLR M09/M14 A3059 ', ' AO2 SLP367 T10941144']"
KOMA,2015-03-13T07:52:00Z,7.8,0.6,150,7,,10.0,30.15059,,,,SCT,22000,,,,,,,SPECI,"['KOMA 130752Z 15007KT 10SM SCT220 08/01 A3015 ', ' AO2 SLP207 T00780006']"
KOKC,2015-03-13T07:52:00Z,10.0,7.2,0,0,,10.0,30.079725,,,,FEW,10000,,,,,,,SPECI,"['KOKC 130752Z 00000KT 10SM FEW100 10/07 A3008 ', ' AO2 SLP178 T01000072']"
KOKB,2015-03-13T07:52:00Z,12.2,7.8,0,0,,10.0,30.008858,,,,CLR,,,,,,,,SPECI,"['KOKB 130752Z AUTO 00000KT 10SM CLR 12/08 A3001 ', ' AO2 SLP160 T01220078 402440078']"
KMWH,2015-03-13T07:52:00Z,3.3,0.0,10,6,,10.0,30.369095,,,,CLR,,,,,,,,SPECI,"['KMWH 130752Z AUTO 01006KT 10SM CLR 03/00 A3037 ', ' AO2 SLP288 T00330000 402000033']"
KMLI,2015-03-13T07:52:00Z,2.8,0.6,0,0,,7.0,30.221457,,TRUE,,CLR,,,,,,,,SPECI,"['KMLI 130752Z AUTO 00000KT 7SM CLR 03/01 A3022 ', ' AO2 SLP237 T00280006 $']"
KMLF,2015-03-13T07:52:00Z,3.3,-0.6,350,8,,10.0,30.318897,,,,CLR,,,,,,,,METAR,"['KMLF 130752Z AUTO 35008KT 10SM CLR 03/M01 A3032 ', ' AO2 SLP249 T00331006 TSNO']"
KMKE,2015-03-13T07:52:00Z,2.2,-3.3,170,6,,10.0,30.28937,,,,FEW,25000,,,,,,,SPECI,"['KMKE 130752Z 17006KT 10SM FEW250 02/M03 A3029 ', ' AO2 SLP262 T00221033']"
KMFD,2015-03-13T07:52:00Z,3.9,-7.2,130,9,,10.0,30.351377,,,,CLR,,,,,,,,METAR,"['KMFD 130752Z AUTO 13009KT 10SM CLR 04/M07 A3035 ', ' AO2 SLP286 T00391072']"
KMEB,2015-03-13T07:52:00Z,9.4,-3.9,80,11,,10.0,30.499016,,,,OVC,9500,,,,,,,SPECI,"['KMEB 130752Z AUTO 08011KT 10SM OVC095 09/M04 A3050 ', ' AO2 SLP325 T00941039']"
KMBG,2015-03-13T07:52:00Z,2.8,-1.7,0,0,,10.0,30.100393,,,,CLR,,,,,,,,METAR,"['KMBG 130752Z AUTO 00000KT 10SM CLR 03/M02 A3010 ', ' AO2 SLP197 T00281017']"
KLWC,2015-03-13T07:52:00Z,6.7,1.7,30,3,,10.0,30.159449,,,,CLR,,,,,,,,METAR,"['KLWC 130752Z AUTO 03003KT 10SM CLR 07/02 A3016 ', ' AO2 SLP212 T00670017']"
KISN,2015-03-13T07:52:00Z,0.0,-1.1,340,4,,10.0,30.138779,,,,CLR,,,,,,,,METAR,"['KISN 130752Z AUTO 34004KT 10SM CLR 00/M01 A3014 ', ' AO2 SLP217 T00001011']"
KIJD,2015-03-13T07:52:00Z,-8.3,-11.1,40,3,,10.0,30.611221,,,,CLR,,,,,,,,METAR,"['KIJD 130752Z AUTO 04003KT 10SM CLR M08/M11 A3061 ', ' AO2 SLP369 T10831111']"
KIEN,2015-03-13T07:52:00Z,0.6,-2.8,0,0,,10.0,30.250984,,,,CLR,,,,,,,,METAR,"['KIEN 130752Z AUTO 00000KT 10SM CLR 01/M03 A3025 ', ' AO2 SLP244 T00061028']"
KIAD,2015-03-13T07:52:00Z,-2.2,-5.0,0,0,,10.0,30.578741,,,,SCT,25000,,,,,,,METAR,"['KIAD 130752Z 00000KT 10SM SCT250 M02/M05 A3058 ', ' AO2 SLP358 T10221050']"
KHRL,2015-03-13T07:52:00Z,15.0,13.9,200,10,,7.0,30.0,,,,CLR,,,,,,,,METAR,"['KHRL 130752Z 20010KT 7SM CLR 15/14 A3000 ', ' AO2 SLP159 T01500139']"
KHIE,2015-03-13T07:52:00Z,-15.0,-18.9,0,0,,10.0,30.519686,,,,CLR,,,,,,,,METAR,"['KHIE 130752Z AUTO 00000KT 10SM CLR M15/M19 A3052 ', ' AO2 SLP358 T11501189']"
KFIT,2015-03-13T07:52:00Z,-7.8,-13.9,0,0,,10.0,30.611221,,,,CLR,,,,,,,,METAR,"['KFIT 130752Z AUTO 00000KT 10SM CLR M08/M14 A3061 ', ' AO2 SLP370 T10781139']"
KEST,2015-03-13T07:52:00Z,8.3,2.2,210,14,,10.0,30.100393,,,,CLR,,,,,,,,METAR,"['KEST 130752Z AUTO 21014KT 10SM CLR 08/02 A3010 ', ' AO2 SLP192 T00830022']"
KDVN,2015-03-13T07:52:00Z,3.3,0.6,130,6,,8.0,30.230314,,,,CLR,,,,,,,,METAR,"['KDVN 130752Z AUTO 13006KT 8SM CLR 03/01 A3023 ', ' AO2 SLP238 T00330006']"
KDPA,2015-03-13T07:52:00Z,2.2,-1.7,140,3,,10.0,30.259842,,,,CLR,,,,,,,,METAR,"['KDPA 130752Z 14003KT 10SM CLR 02/M02 A3026 ', ' AO2 SLP252 T00221017']"
KDDC,2015-03-13T07:52:00Z,5.6,0.0,210,5,,10.0,30.15059,,,,CLR,,,,,,,,METAR,"['KDDC 130752Z AUTO 21005KT 10SM CLR 06/00 A3015 ', ' AO2 SLP200 T00560000']"
KDCA,2015-03-13T07:52:00Z,4.4,-1.1,0,0,,10.0,30.59941,,,,SCT,25000,,,,,,,METAR,"['KDCA 130752Z 00000KT 10SM SCT250 04/M01 A3060 ', ' AO2 SLP362 T00441011']"
KCVG,2015-03-13T07:52:00Z,8.3,-2.2,70,3,,10.0,30.280512,,,,SCT,12000,OVC,14000,,,,,METAR,"['KCVG 130752Z 07003KT 10SM SCT120 OVC140 08/M02 A3028 ', ' AO2 SLP252 T00831022']"
KCNU,2015-03-13T07:52:00Z,13.3,8.3,100,5,,10.0,30.138779,,,,OVC,2300,,,,,,,METAR,"['KCNU 130752Z AUTO 10005KT 10SM OVC023 13/08 A3014 ', ' AO2 SLP200 T01330083']"
KCLT,2015-03-13T07:52:00Z,12.8,-3.3,90,4,,10.0,30.469488,,TRUE,,OVC,6500,,,,,,,METAR,"['KCLT 130752Z 09004KT 10SM OVC065 13/M03 A3047 ', ' AO2 SLP314 T01281033 $']"
KCID,2015-03-13T07:52:00Z,6.1,5.0,150,7,,4.0,30.200787,,,BR,CLR,,,,,,,,METAR,"['KCID 130752Z AUTO 15007KT 4SM BR CLR 06/05 A3020 ', ' AO2 SLP228 T00610050']"
KCFV,2015-03-13T07:52:00Z,12.8,10.0,80,5,,10.0,30.121063,,,,OVC,1900,,,,,,,METAR,"['KCFV 130752Z AUTO 08005KT 10SM OVC019 13/10 A3012 ', ' AO2 SLP196 T01280100']"
KBML,2015-03-13T07:52:00Z,-11.7,-20.0,350,6,,10.0,30.481298,,,,CLR,,,,,,,,METAR,"['KBML 130752Z AUTO 35006KT 10SM CLR M12/M20 A3048 ', ' AO2 SLP347 T11171200']"
KBLH,2015-03-13T07:52:00Z,22.2,3.3,310,8,,10.0,30.0,,,,CLR,,,,,,,,METAR,"['KBLH 130752Z AUTO 31008KT 10SM CLR 22/03 A3000 ', ' AO2 SLP155 T02220033 403110172']"
KBLF,2015-03-13T07:52:00Z,10.0,-5.0,170,7,,10.0,30.431103,,,,OVC,10000,,,,,,,METAR,"['KBLF 130752Z AUTO 17007KT 130V200 10SM OVC100 10/M05 A3043 ', ' AO2 SLP289 T01001050']"
KBIS,2015-03-13T07:52:00Z,0.0,-2.2,0,0,,10.0,30.109253,,,,CLR,,,,,,,,METAR,"['KBIS 130752Z AUTO 00000KT 10SM CLR 00/M02 A3011 ', ' AO2 SLP202 T00001022']"
KBDR,2015-03-13T07:52:00Z,-1.7,-14.4,350,7,,10.0,30.620079,,TRUE,,CLR,,,,,,,,METAR,"['KBDR 130752Z AUTO 35007KT 10SM CLR M02/M14 A3062 ', ' AO2 SLP367 T10171144 $']"
KATL,2015-03-13T07:52:00Z,12.8,10.6,80,15,,10.0,30.33071,,,,FEW,1200,OVC,2600,,,,,METAR,"['KATL 130752Z 08015KT 10SM FEW012 OVC026 13/11 A3033 ', ' AO2 RAE33 SLP269 P0000 T01280106']"
KARR,2015-03-13T07:52:00Z,2.8,-1.1,0,0,,8.0,30.280512,,,,CLR,,,,,,,,METAR,"['KARR 130752Z AUTO 00000KT 8SM CLR 03/M01 A3028 ', ' AO2 SLP256 T00281011']"
KAQW,2015-03-13T07:52:00Z,-9.4,-13.9,0,0,,10.0,30.590551,,,,CLR,,,,,,,,METAR,"['KAQW 130752Z AUTO 00000KT 10SM CLR M09/M14 A3059 ', ' AO2 SLP368 T10941139']"
KALS,2015-03-13T07:52:00Z,5.6,-7.2,0,6,,10.0,30.250984,,,,BKN,10000,,,,,,,METAR,"['KALS 130752Z AUTO VRB06KT 10SM BKN100 06/M07 A3025 ', ' AO2 SLP192 T00561072']"
KAFN,2015-03-13T07:52:00Z,-7.2,-18.3,0,0,,10.0,30.540354,,,,CLR,,,,,,,,METAR,"['KAFN 130752Z AUTO 00000KT 10SM CLR M07/M18 A3054 ', ' AO2 SLP364 T10721183']"
KABI,2015-03-13T07:52:00Z,8.3,5.0,140,4,,10.0,30.070866,,,,CLR,,,,,,,,METAR,"['KABI 130752Z 14004KT 10SM CLR 08/05 A3007 ', ' AO2 SLP172 T00830050']"
KTRM,2015-03-13T07:52:00Z,20.6,2.8,50,5,,10.0,29.991142,,,,CLR,,,,,,,,METAR,"['KTRM 130752Z AUTO 05005KT 10SM CLR 21/03 A2999 ', ' AO2 SLP167 T02060028 403220106 TSNO']"
KTOL,2015-03-13T07:52:00Z,-1.7,-5.6,50,4,,10.0,30.369095,,,,CLR,,,,,,,,METAR,"['KTOL 130752Z 05004KT 10SM CLR M02/M06 A3037 ', ' AO2 SLP289 T10171056']"
KTAN,2015-03-13T07:52:00Z,-3.9,-17.2,300,3,,10.0,30.59941,,,,CLR,,,,,,,,METAR,"['KTAN 130752Z AUTO 30003KT 10SM CLR M04/M17 A3060 ', ' AO2 SLP363 T10391172']"
KSUX,2015-03-13T07:52:00Z,8.9,0.0,0,0,,10.0,30.138779,,,,CLR,,,,,,,,METAR,"['KSUX 130752Z 00000KT 10SM CLR 09/00 A3014 ', ' AO2 SLP203 T00890000']"
KSPS,2015-03-13T07:52:00Z,9.4,7.2,60,5,,10.0,30.050198,,,,CLR,,,,,,,,METAR,"['KSPS 130752Z AUTO 06005KT 10SM CLR 09/07 A3005 ', ' AO2 SLP171 T00940072']"
KSPI,2015-03-13T07:52:00Z,9.4,2.8,0,0,,10.0,30.230314,,,-RA,OVC,10000,,,,,,,METAR,"['KSPI 130752Z AUTO 00000KT 10SM -RA OVC100 09/03 A3023 ', ' AO2 RAB39 SLP238 P0000 T00940028']"
KN60,2015-03-13T07:52:00Z,1.1,0.0,290,3,,,30.100393,,,,,,,,,,,,METAR,"['KN60 130752Z AUTO 29003KT 01/00 A3010 ', ' AO1 SLP202 T00110000']"
KP69,2015-03-13T07:52:00Z,4.4,3.9,0,0,,,30.490158,,,,,,,,,,,,METAR,"['KP69 130752Z AUTO 00000KT 04/04 A3049 ', ' AO1 SLP333 T00440039 401780044']"
KBLU,2015-03-13T07:52:00Z,10.6,-5.6,40,7,,10.0,30.31004,,,,CLR,,,,,,,,METAR,"['KBLU 130752Z AUTO 04007KT 10SM CLR 11/M06 A3031 ', ' AO2 SLP213 T01061056 401670044']"
KREO,2015-03-13T07:52:00Z,2.2,-2.2,140,6,,,30.389763,,,,,,,,,,,,METAR,"['KREO 130752Z AUTO 14006KT 02/M02 A3039 ', ' AO1 SLP294 T00221022 401610006']"
KBAN,2015-03-13T07:52:00Z,-1.1,-5.6,0,0,,10.0,30.398623,,,,CLR,,,,,,,,METAR,"['KBAN 130752Z AUTO 00000KT 10SM CLR M01/M06 A3040 ', ' AO2 SLP272 T10111056 401501056']"
KCZZ,2015-03-13T07:52:00Z,9.4,2.2,50,5,,,30.050198,,,,,,,,,,,,METAR,"['KCZZ 130752Z AUTO 05005KT 09/02 A3005 ', ' AO1 SLP152 T00940022 402390028']"
KNRB,2015-03-13T07:52:00Z,16.7,16.1,10,9,,3.0,30.230314,,TRUE,BR,OVC,300,,,,,,,METAR,"['KNRB 130752Z AUTO 01009KT 3SM BR OVC003 17/16 A3023 ', ' AO2 SLP237 T01670161 $']"
KNFW,2015-03-13T07:52:00Z,13.3,11.7,310,5,,10.0,30.070866,,TRUE,,FEW,11000,,,,,,,METAR,"['KNFW 130752Z AUTO 31005KT 10SM FEW110 13/12 A3007 ', ' AO2 SLP166 T01330117 $']"
KCDJ,2015-03-13T07:52:00Z,10.0,6.7,0,0,,,30.200787,,,,,,,,,,,,METAR,"['KCDJ 130752Z AUTO 00000KT 10/07 A3020 ', ' AO1 SLP222 T01000067']"
KNHK,2015-03-13T07:52:00Z,-1.1,-5.6,0,0,,10.0,30.569881,,,,CLR,,,,,,,,METAR,"['KNHK 130752Z AUTO 00000KT 10SM CLR M01/M06 A3057 ', ' AO2 SLP353 T10111056']"
KNZY,2015-03-13T07:52:00Z,16.7,10.6,320,4,,10.0,30.0,,TRUE,,FEW,25000,,,,,,,METAR,"['KNZY 130752Z 32004KT 10SM FEW250 17/11 A3000 ', ' AO2 SLP158 T01670106 402390139 $']"
KVTN,2015-03-13T07:52:00Z,11.7,-1.1,340,8,,10.0,30.180119,,,,CLR,,,,,,,,METAR,"['KVTN 130752Z AUTO 34008KT 10SM CLR 12/M01 A3018 ', ' AO2 SLP213 T01171011']"
KABQ,2015-03-13T07:52:00Z,7.8,-4.4,140,7,,10.0,30.138779,,,,FEW,10000,BKN,18000,,,,,METAR,"['KABQ 130752Z 14007KT 10SM FEW100 BKN180 08/M04 A3014 ', ' AO2 SLP163 T00781044']"
KDRA,2015-03-13T07:52:00Z,14.4,-0.6,30,14,,10.0,30.230314,,,,CLR,,,,,,,,METAR,"['KDRA 130752Z AUTO 03014KT 10SM CLR 14/M01 A3023 ', ' AO2 SLP204 T01441006 402390061']"
KHUT,2015-03-13T07:52:00Z,3.3,-0.6,0,0,,10.0,30.138779,,,,CLR,,,,,,,,METAR,"['KHUT 130752Z AUTO 00000KT 10SM CLR 03/M01 A3014 ', ' AO2 SLP197 T00331006']"
KMHK,2015-03-13T07:52:00Z,4.4,1.1,0,0,,10.0,30.15059,,,,CLR,,,,,,,,METAR,"['KMHK 130752Z AUTO 00000KT 10SM CLR 04/01 A3015 ', ' AO2 SLP209 T00440011 TSNO']"
KCQX,2015-03-13T07:52:00Z,-3.9,-11.7,330,4,,10.0,30.569881,,TRUE,,CLR,,,,,,,,METAR,"['KCQX 130752Z AUTO 33004KT 10SM CLR M04/M12 A3057 ', ' AO2 SLP355 T10391117 $']"
KEWR,2015-03-13T07:51:00Z,-0.6,-13.3,20,6,,10.0,30.611221,,,,FEW,25000,,,,,,,METAR,"['KEWR 130751Z 02006KT 10SM FEW250 M01/M13 A3061 ', ' AO2 SLP365 T10061133']"
KP59,2015-03-13T07:51:00Z,3.9,-2.2,230,10,15,,30.100393,,,,,,,,,,,,METAR,"['KP59 130751Z AUTO 23010G15KT 200V270 04/M02 A3010 ', ' AO1 SLP201 T00391022']"
KP58,2015-03-13T07:51:00Z,0.0,-7.8,160,8,,,30.380905,,,,,,,,,,,,METAR,"['KP58 130751Z AUTO 16008KT 00/M08 A3038 ', ' AO1 SLP300 T00001078']"
KBDL,2015-03-13T07:51:00Z,-2.2,-14.4,320,5,,10.0,30.611221,,,,FEW,25000,,,,,,,METAR,"['KBDL 130751Z 32005KT 10SM FEW250 M02/M14 A3061 ', ' AO2 SLP366 T10221144']"
KBAZ,2015-03-13T07:51:00Z,11.7,10.6,320,6,,9.0,30.0,,TRUE,,CLR,,,,,,,,METAR,"['KBAZ 130751Z AUTO 32006KT 9SM CLR 12/11 A3000 ', ' AO2 SLP153 T01170106 $']"
KAVX,2015-03-13T07:51:00Z,22.2,1.1,60,5,,10.0,30.088583,,,,CLR,,,,,,,,METAR,"['KAVX 130751Z AUTO 06005KT 10SM CLR 22/01 A3009 ', ' AO2 SLP163 T02220011 402500150']"
KASH,2015-03-13T07:51:00Z,-7.7,-14.4,0,0,,10.0,30.620079,,TRUE,,CLR,,,,,,,,METAR,"['KASH 130751Z AUTO 00000KT 10SM CLR M08/M14 A3062 ', ' AO2 FZRANO T10771144 SLP632 $']"
KALB,2015-03-13T07:51:00Z,-5.0,-14.4,0,0,,10.0,30.620079,,,,FEW,26000,,,,,,,METAR,"['KALB 130751Z 00000KT 10SM FEW260 M05/M14 A3062 ', ' AO2 SLP372 T10501144']"
KAHN,2015-03-13T07:51:00Z,13.9,2.8,80,11,,10.0,30.389763,,,,OVC,4000,,,,,,,METAR,"['KAHN 130751Z AUTO 08011KT 10SM OVC040 14/03 A3039 ', ' AO2 SLP289 T01390028']"
KABE,2015-03-13T07:51:00Z,-1.1,-17.2,100,4,,10.0,30.590551,,,,CLR,,,,,,,,METAR,"['KABE 130751Z 10004KT 10SM CLR M01/M17 A3059 ', ' AO2 SLP364 T10111172']"
KYNG,2015-03-13T07:51:00Z,0.6,-10.0,110,8,,10.0,30.410433,,TRUE,,FEW,15000,SCT,22000,,,,,METAR,"['KYNG 130751Z 11008KT 10SM FEW150 SCT220 01/M10 A3041 ', ' AO2 SLP308 T00061100 $']"
KVNY,2015-03-13T07:51:00Z,21.1,2.2,350,9,,10.0,30.050198,,,,CLR,,,,,,,,METAR,"['KVNY 130751Z 35009KT 10SM CLR 21/02 A3005 ', ' AO2 SLP167 T02110022 403000139']"
KTEB,2015-03-13T07:51:00Z,0.0,-16.1,10,4,,10.0,30.611221,,,,CLR,,,,,,,,METAR,"['KTEB 130751Z 01004KT 10SM CLR 00/M16 A3061 ', ' AO2 SLP363 T00001161']"
KSTL,2015-03-13T07:51:00Z,11.1,7.8,100,4,,4.0,30.209646,,,-RA,BKN,5500,OVC,9500,,,,,METAR,"['KSTL 130751Z 10004KT 4SM -RA BKN055 OVC095 11/08 A3021 ', ' AO2 SLP225 P0004 T01110078']"
KSMX,2015-03-13T07:51:00Z,13.9,7.8,150,3,,10.0,30.100393,,,,CLR,,,,,,,,METAR,"['KSMX 130751Z AUTO 15003KT 10SM CLR 14/08 A3010 ', ' AO2 SLP192 T01390078 402830072 TSNO']"
KSMO,2015-03-13T07:51:00Z,22.8,1.7,0,0,,10.0,30.02067,,,,CLR,,,,,,,,METAR,"['KSMO 130751Z AUTO 00000KT 10SM CLR 23/02 A3002 ', ' AO2 SLP163 T02280017 402940139']"
KSJT,2015-03-13T07:51:00Z,5.6,3.9,210,4,,10.0,30.059055,,,,CLR,,,,,,,,METAR,"['KSJT 130751Z AUTO 21004KT 10SM CLR 06/04 A3006 ', ' AO2 SLP176 T00560039']"
KSAT,2015-03-13T07:51:00Z,11.7,10.0,290,5,,10.0,30.02067,,,,SCT,25000,,,,,,,METAR,"['KSAT 130751Z 29005KT 10SM SCT250 12/10 A3002 ', ' AO2 SLP152 T01170100']"
KSAN,2015-03-13T07:51:00Z,18.9,6.7,0,0,,10.0,30.02067,,,,CLR,,,,,,,,METAR,"['KSAN 130751Z 00000KT 10SM CLR 19/07 A3002 ', ' AO2 SLP165 T01890067 402500156']"
KROW,2015-03-13T07:51:00Z,6.7,1.1,110,3,,10.0,30.100393,,,,CLR,,,,,,,,METAR,"['KROW 130751Z AUTO 11003KT 10SM CLR 07/01 A3010 ', ' AO2 SLP155 T00670011']"
KRDU,2015-03-13T07:51:00Z,7.8,-5.0,100,6,,10.0,30.528543,,,,FEW,9000,SCT,19000,BKN,25000,,,METAR,"['KRDU 130751Z 10006KT 10SM FEW090 SCT190 BKN250 08/M05 A3053 ', ' AO2 SLP337 T00781050']"
KPWM,2015-03-13T07:51:00Z,-6.7,-17.2,220,3,,10.0,30.561024,,,,CLR,,,,,,,,METAR,"['KPWM 130751Z AUTO 22003KT 10SM CLR M07/M17 A3056 ', ' AO2 SLP348 T10671172']"
KPVD,2015-03-13T07:51:00Z,-5.0,-14.4,350,5,,10.0,30.611221,,,,CLR,,,,,,,,METAR,"['KPVD 130751Z AUTO 35005KT 10SM CLR M05/M14 A3061 ', ' AO2 SLP365 T10501144']"
KPIT,2015-03-13T07:51:00Z,2.8,-9.4,110,5,,10.0,30.431103,,,,SCT,14000,OVC,22000,,,,,METAR,"['KPIT 130751Z 11005KT 10SM SCT140 OVC220 03/M09 A3043 ', ' AO2 SLP318 T00281094']"
KPHX,2015-03-13T07:51:00Z,18.9,4.4,240,4,,10.0,29.958662,,,,SCT,25000,,,,,,,METAR,"['KPHX 130751Z 24004KT 10SM SCT250 19/04 A2996 ', ' AO2 SLP130 T01890044']"
KOXR,2015-03-13T07:51:00Z,16.7,9.4,40,9,,10.0,30.041338,,,,CLR,,,,,,,,METAR,"['KOXR 130751Z AUTO 04009KT 10SM CLR 17/09 A3004 ', ' AO2 SLP170 T01670094 402670106']"
KORF,2015-03-13T07:51:00Z,2.8,-1.7,40,3,,10.0,30.549213,,,,CLR,,,,,,,,METAR,"['KORF 130751Z AUTO 04003KT 10SM CLR 03/M02 A3055 ', ' AO2 SLP345 T00281017 TSNO']"
KORD,2015-03-13T07:51:00Z,3.9,-1.7,140,4,,10.0,30.268702,,,,BKN,20000,OVC,23000,,,,,METAR,"['KORD 130751Z 14004KT 10SM BKN200 OVC230 04/M02 A3027 ', ' AO2 SLP253 T00391017']"
KNYC,2015-03-13T07:51:00Z,1.1,-17.2,0,3,,10.0,30.620079,,,,CLR,,,,,,,,METAR,"['KNYC 130751Z AUTO VRB03KT 10SM CLR 01/M17 A3062 ', ' AO2 SLP361 T00111172']"
KSNT,2015-03-13T07:51:00Z,-3.3,-7.2,0,0,,,30.481298,,,,,,,,,,,,METAR,"['KSNT 130751Z AUTO 00000KT M03/M07 A3048 ', ' AO1 SLP296 T10331072']"
KSAD,2015-03-13T07:51:00Z,15.6,1.7,100,10,,10.0,30.041338,,,,CLR,,,,,,,,METAR,"['KSAD 130751Z AUTO 10010KT 10SM CLR 16/02 A3004 ', ' AO2 SLP135 T01560017']"
KATT,2015-03-13T07:51:00Z,13.3,11.7,0,0,,10.0,30.02067,,,,CLR,,,,,,,,METAR,"['KATT 130751Z AUTO 00000KT 10SM CLR 13/12 A3002 ', ' AO2 SLP161 T01330117']"
KGDP,2015-03-13T07:51:00Z,8.3,-3.9,60,17,,10.0,30.138779,,,,CLR,,,,,,,,METAR,"['KGDP 130751Z AUTO 06017KT 10SM CLR 08/M04 A3014 ', ' AO2 SLP167 T00831039']"
KSLK,2015-03-13T07:51:00Z,-19.4,-21.1,0,0,,10.0,30.499016,,,,CLR,,,,,,,,METAR,"['KSLK 130751Z AUTO 00000KT 10SM CLR M19/M21 A3050 ', ' AO2 SLP367 T11941211']"
KLGU,2015-03-13T07:51:00Z,2.2,-0.6,0,0,,10.0,30.389763,,,,CLR,,,,,,,,METAR,"['KLGU 130751Z AUTO 00000KT 10SM CLR 02/M01 A3039 ', ' AO2 SLP284 T00221006']"
KBGD,2015-03-13T07:51:00Z,9.4,1.7,0,0,,10.0,30.138779,,,,CLR,,,,,,,,METAR,"['KBGD 130751Z AUTO 00000KT 10SM CLR 09/02 A3014 ', ' AO2 SLP184 T00940017']"
KBHK,2015-03-13T07:51:00Z,5.0,-0.6,0,0,,10.0,30.230314,,,,BKN,10000,,,,,,,METAR,"['KBHK 130751Z AUTO 00000KT 10SM BKN100 05/M01 A3023 ', ' AO2 SLP239 T00501006']"
KBKW,2015-03-13T07:51:00Z,8.3,-4.4,140,12,22,10.0,30.410433,,,,CLR,,,,,,,,METAR,"['KBKW 130751Z AUTO 14012G22KT 10SM CLR 08/M04 A3041 ', ' AO2 SLP293 T00831044']"
KCAK,2015-03-13T07:51:00Z,3.3,-9.4,120,8,,10.0,30.389763,,,,SCT,23000,,,,,,,METAR,"['KCAK 130751Z 12008KT 10SM SCT230 03/M09 A3039 ', ' AO2 SLP299 T00331094']"
KCLE,2015-03-13T07:51:00Z,4.4,-8.9,130,7,,10.0,30.398623,,,,FEW,15000,BKN,24000,,,,,METAR,"['KCLE 130751Z 13007KT 10SM FEW150 BKN240 04/M09 A3040 ', ' AO2 SLP298 T00441089']"
KCMH,2015-03-13T07:51:00Z,6.7,-5.0,110,10,,10.0,30.318897,,,,FEW,14000,BKN,20000,,,,,METAR,"['KCMH 130751Z 11010KT 10SM FEW140 BKN200 07/M05 A3032 ', ' AO2 SLP268 T00671050']"
KIGM,2015-03-13T07:51:00Z,12.2,0.0,20,4,,10.0,30.171259,,,,CLR,,,,,,,,METAR,"['KIGM 130751Z AUTO 02004KT 10SM CLR 12/00 A3017 ', ' AO2 SLP165 T01220000 TSNO']"
KHTS,2015-03-13T07:51:00Z,9.4,-2.8,100,6,,10.0,30.301182,,,,CLR,,,,,,,,METAR,"['KHTS 130751Z 10006KT 10SM CLR 09/M03 A3030 ', ' AO2 SLP260 T00941028']"
KHSE,2015-03-13T07:51:00Z,8.3,2.2,40,8,,10.0,30.499016,,,,CLR,,,,,,,,METAR,"['KHSE 130751Z AUTO 04008KT 10SM CLR 08/02 A3050 ', ' AO2 SLP329 T00830022 TSNO']"
KHDO,2015-03-13T07:51:00Z,9.4,7.2,360,7,,10.0,30.041338,,TRUE,,CLR,,,,,,,,METAR,"['KHDO 130751Z AUTO 36007KT 10SM CLR 09/07 A3004 ', ' AO2 SLP163 T00940072 $']"
KERI,2015-03-13T07:51:00Z,1.7,-13.9,110,4,,10.0,30.448818,,,,CLR,,,,,,,,METAR,"['KERI 130751Z 11004KT 10SM CLR 02/M14 A3045 ', ' AO2 SLP319 T00171139']"
KELP,2015-03-13T07:51:00Z,13.9,-1.7,0,0,,10.0,30.070866,,,,FEW,14000,SCT,19000,BKN,22000,,,METAR,"['KELP 130751Z 00000KT 10SM FEW140 SCT190 BKN220 14/M02 A3007 ', ' AO2 SLP135 T01391017']"
KEKN,2015-03-13T07:51:00Z,1.7,-1.7,,,,10.0,30.43996,,,,CLR,,,,,,,,METAR,"['KEKN 130751Z AUTO 10SM CLR 02/M02 A3044 ', ' AO2 SLP318 T00171017 TSNO']"
KDAW,2015-03-13T07:51:00Z,-7.2,-17.2,0,4,,10.0,30.549213,,,,CLR,,,,,,,,METAR,"['KDAW 130751Z AUTO VRB04KT 10SM CLR M07/M17 A3055 ', ' AO2 SLP347 T10721172']"
KCSG,2015-03-13T07:51:00Z,15.0,11.7,110,9,,10.0,30.268702,,,,OVC,2400,,,,,,,METAR,"['KCSG 130751Z AUTO 11009KT 10SM OVC024 15/12 A3027 ', ' AO2 PK WND 12026/0655 SLP248 T01500117']"
KCRP,2015-03-13T07:51:00Z,13.9,12.8,0,0,,10.0,29.991142,,,,FEW,25000,,,,,,,METAR,"['KCRP 130751Z 00000KT 10SM FEW250 14/13 A2999 ', ' AO2 SLP156 T01390128']"
KCON,2015-03-13T07:51:00Z,-8.9,-15.6,210,3,,10.0,30.578741,,,,CLR,,,,,,,,METAR,"['KCON 130751Z AUTO 21003KT 10SM CLR M09/M16 A3058 ', ' AO2 SLP361 T10891156']"
KMYL,2015-03-13T07:51:00Z,0.0,-2.8,320,3,,10.0,30.398623,,,,CLR,,,,,,,,METAR,"['KMYL 130751Z AUTO 32003KT 10SM CLR 00/M03 A3040 ', ' AO2 SLP305 T00001028']"
KMPV,2015-03-13T07:51:00Z,-8.9,-18.3,310,4,,10.0,30.561024,,,,CLR,,,,,,,,METAR,"['KMPV 130751Z AUTO 31004KT 10SM CLR M09/M18 A3056 ', ' AO2 SLP372 T10891183']"
KLGA,2015-03-13T07:51:00Z,1.1,-15.0,20,7,,10.0,30.59941,,,,FEW,25000,,,,,,,METAR,"['KLGA 130751Z 02007KT 10SM FEW250 01/M15 A3060 ', ' AO2 SLP363 T00111150']"
KJFK,2015-03-13T07:51:00Z,0.6,-15.0,10,6,,10.0,30.620079,,TRUE,,CLR,,,,,,,,METAR,"['KJFK 130751Z 01006KT 10SM CLR 01/M15 A3062 ', ' AO2 SLP366 T00061150 $']"
KJCT,2015-03-13T07:51:00Z,6.7,5.6,0,0,,10.0,30.050198,,,,CLR,,,,,,,,METAR,"['KJCT 130751Z AUTO 00000KT 10SM CLR 07/06 A3005 ', ' AO2 SLP154 T00670056']"
KILG,2015-03-13T07:51:00Z,-0.6,-13.3,40,8,,10.0,30.59941,,,,CLR,,,,,,,,METAR,"['KILG 130751Z 04008KT 10SM CLR M01/M13 A3060 ', ' AO2 SLP362 T10061133']"
KDAG,2015-03-13T07:50:00Z,15.6,-1.1,220,3,,10.0,30.138779,,,,CLR,,,,,,,,METAR,"['KDAG 130750Z AUTO 22003KT 10SM CLR 16/M01 A3014 ', ' AO2 SLP188 T01561011 402670094']"
KEFD,2015-03-13T07:50:00Z,15.0,15.0,260,4,,2.0,29.970472,,,BR,OVC,500,,,,,,,METAR
KJDN,2015-03-13T07:48:00Z,1.7,-1.7,280,8,,,30.250984,,,,,,,,,,,,METAR,"['KJDN 130748Z AUTO 28008KT 02/M02 A3025 ', ' AO1 SLP255 T00171017']"
KSDB,2015-03-13T07:48:00Z,15.0,-2.8,40,11,18,10.0,30.230314,,TRUE,,CLR,,,,,,,,METAR,"['KSDB 130748Z AUTO 04011G18KT 10SM CLR 15/M03 A3023 ', ' AO2 SLP200 T01501028 401780078 $']"
KCQT,2015-03-13T07:47:00Z,19.4,8.3,0,0,,10.0,30.02067,,TRUE,,CLR,,,,,,,,METAR,"['KCQT 130747Z AUTO 00000KT 10SM CLR 19/08 A3002 ', ' AO2 SLP162 T01940083 403000133 $']"
KSWF,2015-03-13T07:45:00Z,-3.0,-13.0,320,4,,10.0,30.59941,,,,SKC,,,,,,,,METAR
