No errors
No warnings
266 ms
data source=metars
4788 results
raw_text,station_id,observation_time,latitude,longitude,temp_c,dewpoint_c,wind_dir_degrees,wind_speed_kt,wind_gust_kt,visibility_statute_mi,altim_in_hg,sea_level_pressure_mb,corrected,auto,auto_station,maintenance_indicator_on,no_signal,lightning_sensor_off,freezing_rain_sensor_off,present_weather_sensor_off,wx_string,sky_cover,cloud_base_ft_agl,sky_cover,cloud_base_ft_agl,sky_cover,cloud_base_ft_agl,sky_cover,cloud_base_ft_agl,flight_category,three_hr_pressure_tendency_mb,maxT_c,minT_c,maxT24hr_c,minT24hr_c,precip_in,pcp3hr_in,pcp6hr_in,pcp24hr_in,snow_in,vert_vis_ft,metar_type,elevation_m
KDLZ 271420Z AUTO 23009G15KT 10SM BKN021 BKN029 BKN034 22/16 A3011 RMK AO2,KDLZ,2015-05-27T14:20:00Z,40.28,-83.12,22.0,16.0,230,9,15,10.0,30.109253,,,TRUE,TRUE,,,,,,,BKN,2100,BKN,2900,BKN,3400,,,MVFR,,,,,,,,,,,,SPECI,289.0
EDVE 271420Z 28008KT 240V320 9999 SCT049 BKN056 14/04 Q1021,EDVE,2015-05-27T14:20:00Z,52.32,10.55,14.0,4.0,280,8,,6.21,30.147638,,,,,,,,,,,SCT,4900,BKN,5600,,,,,VFR,,,,,,,,,,,,METAR,88.0
LATI 271420Z 11013KT 060V140 9999 TS SCT025CB BKN075 19/11 Q1008 NOSIG,LATI,2015-05-27T14:20:00Z,41.42,19.72,19.0,11.0,110,13,,6.21,29.763779,,,,,,TRUE,,,,TS,SCT,2500,BKN,7500,,,,,VFR,,,,,,,,,,,,METAR,90.0
KMOP 271419Z AUTO 21013G18KT 10SM BKN021 OVC032 21/16 A2987 RMK AO2 T02100163,KMOP,2015-05-27T14:19:00Z,43.62,-84.73,21.0,16.3,210,13,18,10.0,29.870079,,,TRUE,TRUE,,,,,,,BKN,2100,OVC,3200,,,,,MVFR,,,,,,,,,,,,SPECI,230.0
KJMR 271419Z AUTO 23005KT 10SM CLR 18/13 A2990 RMK AO2,KJMR,2015-05-27T14:19:00Z,45.88,-93.27,18.0,13.0,230,5,,10.0,29.899607,,,TRUE,TRUE,,,,,,,CLR,,,,,,,,VFR,,,,,,,,,,,,SPECI,309.0
K40B 271419Z AUTO VRB06KT 22/17 A3003 RMK AO1 SLP164 T02210166 57006 ,K40B,2015-05-27T14:19:00Z,46.62,-69.52,22.1,16.6,0,6,,,30.029528,1016.4,,TRUE,TRUE,,,,,,,,,,,,,,,,-0.6,,,,,,,,,,,METAR,314.0
CYTL 271418Z AUTO 01005KT 320V070 9SM OVC011 00/M03 A3003 RMK SLP183,CYTL,2015-05-27T14:18:00Z,53.82,-89.88,0.0,-3.0,10,5,,9.0,30.029528,1018.3,,TRUE,,,,,,,,OVC,1100,,,,,,,MVFR,,,,,,,,,,,,METAR,224.0
KBDU 271418Z AUTO 04003KT 10SM SCT100 15/09 A3008 RMK AO2,KBDU,2015-05-27T14:18:00Z,40.03,-105.23,15.0,9.0,40,3,,10.0,30.079725,,,TRUE,TRUE,,,,,,,SCT,10000,,,,,,,VFR,,,,,,,,,,,,SPECI,1612.0
KPOV 271418Z AUTO 23007KT 170V240 10SM BKN020 OVC026 21/16 A3010 RMK AO2 T02130157,KPOV,2015-05-27T14:18:00Z,41.22,-81.25,21.3,15.7,230,7,,10.0,30.100393,,,TRUE,TRUE,,,,,,,BKN,2000,OVC,2600,,,,,MVFR,,,,,,,,,,,,SPECI,365.0
CYGW 271417Z AUTO 36012G18KT 7SM OVC004 00/00 A2976 RMK SLP079,CYGW,2015-05-27T14:17:00Z,55.27,-77.77,0.0,0.0,360,12,18,7.0,29.760826,1007.9,,TRUE,,,,,,,,OVC,400,,,,,,,LIFR,,,,,,,,,,,,SPECI,12.0
K4I3 271417Z AUTO 23007KT 190V260 10SM BKN018 BKN029 BKN036 22/18 A3012 RMK AO2,K4I3,2015-05-27T14:17:00Z,40.33,-82.53,22.0,18.0,230,7,,10.0,30.121063,,,TRUE,TRUE,,,,,,,BKN,1800,BKN,2900,BKN,3600,,,MVFR,,,,,,,,,,,,SPECI,363.0
KSLH 271417Z AUTO 22011G16KT 3SM BR OVC014 16/15 A2974 RMK AO2 T01680156,KSLH,2015-05-27T14:17:00Z,45.65,-84.52,16.8,15.6,220,11,16,3.0,29.740158,,,TRUE,TRUE,,,,,,BR,OVC,1400,,,,,,,MVFR,,,,,,,,,,,,SPECI,195.0
RODN 271417Z AUTO 13009KT 2 1/2SM R05/3500FT -RA BR OVC022 23/22 A2978 RMK AO2 VIS 2 1/2V5 OVC V BKN,RODN,2015-05-27T14:17:00Z,26.35,127.77,23.0,22.0,130,9,,2.5,29.778543,,,TRUE,TRUE,,,,,,-RA BR,OVC,2200,,,,,,,IFR,,,,,,,,,,,,METAR,45.0
KNFE 271417Z AUTO 19009G14KT 3SM HZ SCT023 29/21 A3025 RMK AO2 T02940206 ,KNFE,2015-05-27T14:17:00Z,36.7,-76.13,29.4,20.6,190,9,14,3.0,30.250984,,,TRUE,TRUE,,,,,,HZ,SCT,2300,,,,,,,MVFR,,,,,,,,,,,,SPECI,5.0
KI69 271417Z AUTO 22010KT 10SM BKN020 BKN028 22/17 A3015 RMK AO1,KI69,2015-05-27T14:17:00Z,39.08,-84.22,22.0,17.0,220,10,,10.0,30.15059,,,TRUE,TRUE,,,,,,,BKN,2000,BKN,2800,,,,,MVFR,,,,,,,,,,,,SPECI,255.0
KMGG 271417Z AUTO 24004KT 10SM CLR 18/15 A2992 RMK AO2 T01800145,KMGG,2015-05-27T14:17:00Z,45.23,-93.98,18.0,14.5,240,4,,10.0,29.920275,,,TRUE,TRUE,,,,,,,CLR,,,,,,,,VFR,,,,,,,,,,,,SPECI,313.0
KMQJ 271417Z AUTO 23012G16KT 10SM CLR 23/16 A3008 RMK AO1,KMQJ,2015-05-27T14:17:00Z,39.85,-85.9,23.0,16.0,230,12,16,10.0,30.079725,,,TRUE,TRUE,,,,,,,CLR,,,,,,,,VFR,,,,,,,,,,,,SPECI,263.0
PAFR 271417Z AUTO 00000KT 10SM OVC050 07/02 A3029 RMK AO1,PAFR,2015-05-27T14:17:00Z,61.27,-149.65,7.0,2.0,0,0,,10.0,30.28937,,,TRUE,TRUE,,,,,,,OVC,5000,,,,,,,VFR,,,,,,,,,,,,METAR,115.0
KSDF 271417Z 21008KT 10SM BKN018 24/19 A3014 RMK AO2 T02390189,KSDF,2015-05-27T14:17:00Z,38.18,-85.73,23.9,18.9,210,8,,10.0,30.138779,,,,TRUE,,,,,,,BKN,1800,,,,,,,MVFR,,,,,,,,,,,,SPECI,146.0
KOLF 271417Z AUTO 31008KT 10SM VCTS SCT120 16/11 A2993 RMK AO2 LTG DSNT S AND SW T01560111,KOLF,2015-05-27T14:17:00Z,48.1,-105.58,15.6,11.1,310,8,,10.0,29.929134,,,TRUE,TRUE,,,,,,VCTS,SCT,12000,,,,,,,VFR,,,,,,,,,,,,SPECI,604.0
KMOB 271417Z 06007KT 7SM SCT012 BKN017 BKN032 26/23 A3017 RMK AO2 T02610228,KMOB,2015-05-27T14:17:00Z,30.68,-88.25,26.1,22.8,60,7,,7.0,30.171259,,,,TRUE,,,,,,,SCT,1200,BKN,1700,BKN,3200,,,MVFR,,,,,,,,,,,,SPECI,63.0
KMGW 271417Z 23005KT 10SM SCT008 BKN014 BKN028 21/18 A3020 RMK AO2 T02110183,KMGW,2015-05-27T14:17:00Z,39.65,-79.92,21.1,18.3,230,5,,10.0,30.200787,,,,TRUE,,,,,,,SCT,800,BKN,1400,BKN,2800,,,MVFR,,,,,,,,,,,,SPECI,378.0
KMAI 271416Z AUTO 09004KT 10SM BKN008 OVC013 23/23 A3020 RMK AO2 T02330228,KMAI,2015-05-27T14:16:00Z,30.83,-85.18,23.3,22.8,90,4,,10.0,30.200787,,,TRUE,TRUE,,,,,,,BKN,800,OVC,1300,,,,,IFR,,,,,,,,,,,,SPECI,32.0
KPHN 271416Z AUTO 19014G17KT 10SM SCT029 SCT035 23/18 A2994 RMK AO2,KPHN,2015-05-27T14:16:00Z,42.92,-82.52,23.0,18.0,190,14,17,10.0,29.940945,,,TRUE,TRUE,,,,,,,SCT,2900,SCT,3500,,,,,VFR,,,,,,,,,,,,SPECI,198.0
PFYU 271416Z 04008KT 10SM CLR 11/03 A3017 RMK AO1,PFYU,2015-05-27T14:16:00Z,66.57,-145.27,11.0,3.0,40,8,,10.0,30.171259,,,,TRUE,,,,,,,CLR,,,,,,,,VFR,,,,,,,,,,,,SPECI,131.0
PAZK 271416Z AUTO 26013KT 10SM BKN050 OVC065 03/M02 A3018 RMK AO1,PAZK,2015-05-27T14:16:00Z,61.93,-147.17,3.0,-2.0,260,13,,10.0,30.180119,,,TRUE,TRUE,,,,,,,BKN,5000,OVC,6500,,,,,VFR,,,,,,,,,,,,SPECI,1003.0
PAWS 271416Z AUTO 00000KT 10SM OVC048 03/03 A3029 RMK AO1,PAWS,2015-05-27T14:16:00Z,61.57,-149.53,3.0,3.0,0,0,,10.0,30.28937,,,TRUE,TRUE,,,,,,,OVC,4800,,,,,,,VFR,,,,,,,,,,,,SPECI,107.0
PAWN 271416Z AUTO 03003KT 10SM CLR 08/05 A3004 RMK AO1,PAWN,2015-05-27T14:16:00Z,67.57,-162.98,8.0,5.0,30,3,,10.0,30.041338,,,TRUE,TRUE,,,,,,,CLR,,,,,,,,VFR,,,,,,,,,,,,SPECI,30.0
PAWG 271416Z 27007KT 10SM SCT010 BKN025 OVC045 11/06 A3017 RMK AO1 WEA:NONE KH,PAWG,2015-05-27T14:16:00Z,56.48,-132.37,11.0,6.0,270,7,,10.0,30.171259,,,,TRUE,,,,,,,SCT,1000,BKN,2500,OVC,4500,,,MVFR,,,,,,,,,,,,SPECI,11.0
PAVD 271416Z 00000KT 10SM FEW020 BKN080 BKN200 07/04 A3019 RMK AO1 1410Z WEA: NONE TWR WND 05004KT FIRST,PAVD,2015-05-27T14:16:00Z,61.13,-146.25,7.0,4.0,0,0,,10.0,30.188976,,,,TRUE,,,,,,,FEW,2000,BKN,8000,BKN,20000,,,VFR,,,,,,,,,,,,SPECI,37.0
PAUN 271416Z AUTO 12008KT 10SM BKN110 08/03 A3015 RMK AO1,PAUN,2015-05-27T14:16:00Z,63.88,-160.8,8.0,3.0,120,8,,10.0,30.15059,,,TRUE,TRUE,,,,,,,BKN,11000,,,,,,,VFR,,,,,,,,,,,,SPECI,6.0
PATG 271416Z AUTO 14017KT 10SM OVC018 07/05 A3017 RMK AO1,PATG,2015-05-27T14:16:00Z,59.05,-160.38,7.0,5.0,140,17,,10.0,30.171259,,,TRUE,TRUE,,,,,,,OVC,1800,,,,,,,MVFR,,,,,,,,,,,,SPECI,4.0
PASX 271416Z AUTO 08004KT 10SM CLR 01/M03 A3028 RMK AO1,PASX,2015-05-27T14:16:00Z,60.48,-151.03,1.0,-3.0,80,4,,10.0,30.280512,,,TRUE,TRUE,,,,,,,CLR,,,,,,,,VFR,,,,,,,,,,,,SPECI,32.0
PASM 271416Z AUTO 12010G16KT 10SM BKN030 OVC038 07/ A3009 RMK AO1,PASM,2015-05-27T14:16:00Z,62.07,-163.3,7.0,,120,10,16,10.0,30.088583,,,TRUE,TRUE,,,,,,,BKN,3000,OVC,3800,,,,,MVFR,,,,,,,,,,,,SPECI,92.0
PASK 271416Z AUTO 03006KT 10SM CLR 05/04 A3015 RMK AO1,PASK,2015-05-27T14:16:00Z,66.6,-160.0,5.0,4.0,30,6,,10.0,30.15059,,,TRUE,TRUE,,,,,,,CLR,,,,,,,,VFR,,,,,,,,,,,,SPECI,8.0
PAPH 271416Z AUTO 13017G24KT 10SM SCT027 BKN055 OVC100 07/01 A3017 RMK AO1,PAPH,2015-05-27T14:16:00Z,56.95,-158.62,7.0,1.0,130,17,24,10.0,30.171259,,,TRUE,TRUE,,,,,,,SCT,2700,BKN,5500,OVC,10000,,,VFR,,,,,,,,,,,,SPECI,29.0
PAPG 271416Z 22007KT 10SM SCT018 BKN036 11/06 A3013 RMK AO1 -RA P0002,PAPG,2015-05-27T14:16:00Z,56.82,-132.97,11.0,6.0,220,7,,10.0,30.129921,,,,TRUE,,,,,,,SCT,1800,BKN,3600,,,,,VFR,,,,,,0.02,,,,,,SPECI,15.0
PANV 271416Z AUTO 10004KT 10SM FEW075 BKN090 OVC110 08/02 A3014 RMK AO1,PANV,2015-05-27T14:16:00Z,62.65,-160.18,8.0,2.0,100,4,,10.0,30.138779,,,TRUE,TRUE,,,,,,,FEW,7500,BKN,9000,OVC,11000,,,VFR,,,,,,,,,,,,SPECI,99.0
PANI 271416Z AUTO 15004KT 1SM OVC100 08/01 A3017 RMK AO1,PANI,2015-05-27T14:16:00Z,61.58,-159.53,8.0,1.0,150,4,,1.0,30.171259,,,TRUE,TRUE,,,,,,,OVC,10000,,,,,,,IFR,,,,,,,,,,,,SPECI,26.0
PAMY 271416Z AUTO 16013G16KT 1 1/2SM OVC003 04/01 A2999 RMK AO1,PAMY,2015-05-27T14:16:00Z,60.37,-166.27,4.0,1.0,160,13,16,1.5,29.991142,,,TRUE,TRUE,,,,,,,OVC,300,,,,,,,LIFR,,,,,,,,,,,,SPECI,13.0
PAMH 271416Z AUTO 00000KT 10SM CLR 07/04 A3017 RMK AO1,PAMH,2015-05-27T14:16:00Z,63.9,-152.32,7.0,4.0,0,0,,10.0,30.171259,,,TRUE,TRUE,,,,,,,CLR,,,,,,,,VFR,,,,,,,,,,,,SPECI,214.0
PAMD 271416Z AUTO 27016G23KT 10SM CLR 09/06 A3021 RMK AO1,PAMD,2015-05-27T14:16:00Z,59.43,-146.3,9.0,6.0,270,16,23,10.0,30.209646,,,TRUE,TRUE,,,,,,,CLR,,,,,,,,VFR,,,,,,,,,,,,SPECI,14.0
PAKK 271416Z AUTO 24005KT 10SM BKN075 OVC090 09/00 A3011 RMK AO1,PAKK,2015-05-27T14:16:00Z,64.93,-161.15,9.0,0.0,240,5,,10.0,30.109253,,,TRUE,TRUE,,,,,,,BKN,7500,OVC,9000,,,,,VFR,,,,,,,,,,,,SPECI,47.0
PAJC 271416Z AUTO 14012G17KT 9SM SCT014 BKN021 OVC027 07/03 A3021 RMK AO1,PAJC,2015-05-27T14:16:00Z,56.32,-158.37,7.0,3.0,140,12,17,9.0,30.209646,,,TRUE,TRUE,,,,,,,SCT,1400,BKN,2100,OVC,2700,,,MVFR,,,,,,,,,,,,SPECI,15.0
PAIN 271416Z AUTO 00000KT 10SM BKN090 07/04 A3021 RMK AO1,PAIN,2015-05-27T14:16:00Z,63.73,-148.92,7.0,4.0,0,0,,10.0,30.209646,,,TRUE,TRUE,,,,,,,BKN,9000,,,,,,,VFR,,,,,,,,,,,,SPECI,524.0
PAII 271416Z AUTO 13013KT 10SM BKN065 OVC100 06/03 A3025 RMK AO1,PAII,2015-05-27T14:16:00Z,58.18,-157.38,6.0,3.0,130,13,,10.0,30.250984,,,TRUE,TRUE,,,,,,,BKN,6500,OVC,10000,,,,,VFR,,,,,,,,,,,,SPECI,30.0
PAHY 271416Z AUTO 10SM BKN024 10/06 A3020 RMK AO1,PAHY,2015-05-27T14:16:00Z,55.2,-132.83,10.0,6.0,,,,10.0,30.200787,,,TRUE,TRUE,,,,,,,BKN,2400,,,,,,,MVFR,,,,,,,,,,,,SPECI,1.0
PAHL 271416Z AUTO 28003KT 10SM OVC110 09/06 A3015 RMK AO1,PAHL,2015-05-27T14:16:00Z,65.7,-156.35,9.0,6.0,280,3,,10.0,30.15059,,,TRUE,TRUE,,,,,,,OVC,11000,,,,,,,VFR,,,,,,,,,,,,SPECI,65.0
PAGS 271416Z AUTO 13006KT 3SM FEW003 OVC010 08/07 A3013 RMK AO1 PNO,PAGS,2015-05-27T14:16:00Z,58.42,-135.73,8.0,7.0,130,6,,3.0,30.129921,,,TRUE,TRUE,,,,,,,FEW,300,OVC,1000,,,,,MVFR,,,,,,,,,,,,SPECI,9.0
PAGM 271416Z AUTO 10018G23KT 3SM OVC008 03/01 A2991 RMK AO1,PAGM,2015-05-27T14:16:00Z,63.77,-171.73,3.0,1.0,100,18,23,3.0,29.911417,,,TRUE,TRUE,,,,,,,OVC,800,,,,,,,IFR,,,,,,,,,,,,SPECI,8.0
PAFE 271416Z AUTO 00000KT 10SM OVC090 10/07 A3019 RMK AO1,PAFE,2015-05-27T14:16:00Z,56.97,-133.92,10.0,7.0,0,0,,10.0,30.188976,,,TRUE,TRUE,,,,,,,OVC,9000,,,,,,,VFR,,,,,,,,,,,,SPECI,9.0
PAEM 271416Z AUTO 13010KT 10SM OVC065 08/04 A3007 RMK AO1,PAEM,2015-05-27T14:16:00Z,62.77,-164.52,8.0,4.0,130,10,,10.0,30.070866,,,TRUE,TRUE,,,,,,,OVC,6500,,,,,,,VFR,,,,,,,,,,,,SPECI,3.0
PADL 271416Z 14008KT 10SM OVC040 07/06 A3023 RMK AO1,PADL,2015-05-27T14:16:00Z,59.05,-158.52,7.0,6.0,140,8,,10.0,30.230314,,,,TRUE,,,,,,,OVC,4000,,,,,,,VFR,,,,,,,,,,,,SPECI,26.0
PABV 271416Z AUTO 00000KT 10SM OVC050 08/05 A3031 RMK AO1,PABV,2015-05-27T14:16:00Z,61.42,-149.52,8.0,5.0,0,0,,10.0,30.31004,,,TRUE,TRUE,,,,,,,OVC,5000,,,,,,,VFR,,,,,,,,,,,,SPECI,29.0
PABL 271416Z AUTO 16003KT 10SM FEW100 06/04 A3013 RMK AO1,PABL,2015-05-27T14:16:00Z,65.98,-161.15,6.0,4.0,160,3,,10.0,30.129921,,,TRUE,TRUE,,,,,,,FEW,10000,,,,,,,VFR,,,,,,,,,,,,SPECI,7.0
KAUM 271416Z AUTO 28003KT 10SM CLR 18/13 A2997 RMK AO2,KAUM,2015-05-27T14:16:00Z,43.67,-92.92,18.0,13.0,280,3,,10.0,29.970472,,,TRUE,TRUE,,,,,,,CLR,,,,,,,,VFR,,,,,,,,,,,,SPECI,375.0
PAHP 271416Z AUTO 16018KT 6SM BKN006 OVC015 06/04 A2999 RMK AO1,PAHP,2015-05-27T14:16:00Z,61.53,-166.15,6.0,4.0,160,18,,6.0,29.991142,,,TRUE,TRUE,,,,,,,BKN,600,OVC,1500,,,,,IFR,,,,,,,,,,,,SPECI,5.0
PAGL 271416Z AUTO 12006KT 10SM BKN060 BKN080 OVC090 10/04 A3014 RMK AO1,PAGL,2015-05-27T14:16:00Z,64.55,-163.03,10.0,4.0,120,6,,10.0,30.138779,,,TRUE,TRUE,,,,,,,BKN,6000,BKN,8000,OVC,9000,,,VFR,,,,,,,,,,,,SPECI,8.0
PADK 271416Z 20010KT 10SM FEW034 OVC045 04/M01 A2986 RMK AO1,PADK,2015-05-27T14:16:00Z,51.88,-176.65,4.0,-1.0,200,10,,10.0,29.861221,,,,TRUE,,,,,,,FEW,3400,OVC,4500,,,,,VFR,,,,,,,,,,,,SPECI,4.0
PAAK 271416Z 17007KT 10SM 06/01 A2989 RMK AO1,PAAK,2015-05-27T14:16:00Z,52.22,-174.2,6.0,1.0,170,7,,10.0,29.890747,,,,TRUE,,,,,,,,,,,,,,,,,,,,,,,,,,,SPECI,17.0
KSJX 271416Z AUTO 24012KT 3SM BR OVC002 08/08 A2976 RMK AO2 T00780075,KSJX,2015-05-27T14:16:00Z,45.7,-85.57,7.8,7.5,240,12,,3.0,29.760826,,,TRUE,TRUE,,,,,,BR,OVC,200,,,,,,,LIFR,,,,,,,,,,,,SPECI,204.0
KMZH 271416Z AUTO 27004KT 10SM CLR 18/16 A2985 RMK AO2,KMZH,2015-05-27T14:16:00Z,46.42,-92.8,18.0,16.0,270,4,,10.0,29.84941,,,TRUE,TRUE,,,,,,,CLR,,,,,,,,VFR,,,,,,,,,,,,SPECI,328.0
KGSB 271416Z AUTO 22009KT 10SM BKN025 BKN070 27/21 A3024 RMK AO2 CIG 024V070 BKN025 V SCT,KGSB,2015-05-27T14:16:00Z,35.32,-77.97,27.0,21.0,220,9,,10.0,30.239174,,,TRUE,TRUE,,,,,,,BKN,2500,BKN,7000,,,,,MVFR,,,,,,,,,,,,SPECI,33.0
CYXZ 271416Z 00000KT 1SM +RA BR OVC006 14/13 A2968 RMK ST8 SLP054 DENSITY ALT 1200FT,CYXZ,2015-05-27T14:16:00Z,47.97,-84.77,14.0,13.0,0,0,,1.0,29.681103,1005.4,,,,,,,,,+RA BR,OVC,600,,,,,,,IFR,,,,,,,,,,,,SPECI,287.0
KWRB 271416Z AUTO 13005KT 10SM BKN009 BKN050 23/21 A3025 RMK AO2 CIG 007V009,KWRB,2015-05-27T14:16:00Z,32.62,-83.58,23.0,21.0,130,5,,10.0,30.250984,,,TRUE,TRUE,,,,,,,BKN,900,BKN,5000,,,,,IFR,,,,,,,,,,,,METAR,90.0
KCSG 271416Z 13003KT 10SM SCT006 BKN037 BKN045 23/20 A3022 RMK AO2,KCSG,2015-05-27T14:16:00Z,32.52,-84.95,23.0,20.0,130,3,,10.0,30.221457,,,,TRUE,,,,,,,SCT,600,BKN,3700,BKN,4500,,,VFR,,,,,,,,,,,,SPECI,135.0
KAVC 271416Z AUTO 19011G15KT 10SM OVC021 25/20 A3030 RMK AO2 T02510204,KAVC,2015-05-27T14:16:00Z,36.68,-78.03,25.1,20.4,190,11,15,10.0,30.301182,,,TRUE,TRUE,,,,,,,OVC,2100,,,,,,,MVFR,,,,,,,,,,,,METAR,135.0
KAEX 271416Z 14010KT 4SM VCTS RA BR BKN110 19/19 A3012 RMK AO2 LTG DSNT NE-SE P0006 T01940189,KAEX,2015-05-27T14:16:00Z,31.33,-92.57,19.4,18.9,140,10,,4.0,30.121063,,,,TRUE,,,,,,VCTS RA BR,BKN,11000,,,,,,,MVFR,,,,,,0.06,,,,,,SPECI,27.0
KFAY 271416Z 21009KT 10SM SCT019 27/21 A3025 RMK AO2 T02670206,KFAY,2015-05-27T14:16:00Z,34.98,-78.88,26.7,20.6,210,9,,10.0,30.250984,,,,TRUE,,,,,,,SCT,1900,,,,,,,VFR,,,,,,,,,,,,SPECI,55.0
KROS 271416Z AUTO 22006KT 10SM CLR 19/13 A2990 RMK AO2 T01850132,KROS,2015-05-27T14:16:00Z,45.7,-92.95,18.5,13.2,220,6,,10.0,29.899607,,,TRUE,TRUE,,,,,,,CLR,,,,,,,,VFR,,,,,,,,,,,,SPECI,281.0
KLXL 271416Z AUTO 00000KT 10SM CLR 17/13 A2991 RMK AO2,KLXL,2015-05-27T14:16:00Z,45.95,-94.33,17.0,13.0,0,0,,10.0,29.911417,,,TRUE,TRUE,,,,,,,CLR,,,,,,,,VFR,,,,,,,,,,,,SPECI,342.0
K14Y 271416Z AUTO 22005KT 10SM BKN110 17/12 A2991 RMK AO2,K14Y,2015-05-27T14:16:00Z,45.9,-94.87,17.0,12.0,220,5,,10.0,29.911417,,,TRUE,TRUE,,,,,,,BKN,11000,,,,,,,VFR,,,,,,,,,,,,SPECI,406.0
KMNH 271416Z AUTO 10009KT CLR 14/03 A3017 RMK AO2 PWINO,KMNH,2015-05-27T14:16:00Z,39.22,-104.65,14.0,3.0,100,9,,,30.171259,,,TRUE,TRUE,,,,,TRUE,,CLR,,,,,,,,,,,,,,,,,,,,SPECI,2152.0
KXVG 271416Z AUTO 30003KT 10SM CLR 17/13 A2988 RMK AO2,KXVG,2015-05-27T14:16:00Z,46.98,-94.2,17.0,13.0,300,3,,10.0,29.878937,,,TRUE,TRUE,,,,,,,CLR,,,,,,,,VFR,,,,,,,,,,,,METAR,407.0
KW13 271415Z AUTO 23007KT 200V260 10SM CLR 24/18 A3022 RMK AO1 T02360184,KW13,2015-05-27T14:15:00Z,38.08,-78.95,23.6,18.4,230,7,,10.0,30.221457,,,TRUE,TRUE,,,,,,,CLR,,,,,,,,VFR,,,,,,,,,,,,METAR,443.0
KVTI 271415Z AUTO 30009KT 10SM BKN015 18/14 A3000 RMK AO2 T01800137,KVTI,2015-05-27T14:15:00Z,42.22,-92.02,18.0,13.7,300,9,,10.0,30.0,,,TRUE,TRUE,,,,,,,BKN,1500,,,,,,,MVFR,,,,,,,,,,,,METAR,255.0
KVBW 271415Z AUTO 20006KT 10SM SCT120 23/19 A3020 RMK AO2 T02320190,KVBW,2015-05-27T14:15:00Z,38.37,-78.97,23.2,19.0,200,6,,10.0,30.200787,,,TRUE,TRUE,,,,,,,SCT,12000,,,,,,,VFR,,,,,,,,,,,,METAR,355.0
KTVI 271415Z AUTO 16007KT 10SM SCT013 25/22 A3023 RMK AO2,KTVI,2015-05-27T14:15:00Z,30.9,-83.88,25.0,22.0,160,7,,10.0,30.230314,,,TRUE,TRUE,,,,,,,SCT,1300,,,,,,,VFR,,,,,,,,,,,,METAR,80.0
KTTA 271415Z AUTO 27005KT 10SM SCT009 SCT014 BKN024 25/22 A3025 RMK AO2 T02470218,KTTA,2015-05-27T14:15:00Z,35.58,-79.1,24.7,21.8,270,5,,10.0,30.250984,,,TRUE,TRUE,,,,,,,SCT,900,SCT,1400,BKN,2400,,,MVFR,,,,,,,,,,,,METAR,75.0
KTMK 271415Z AUTO 00000KT 10SM OVC006 12/11 A3010 RMK AO2,KTMK,2015-05-27T14:15:00Z,45.42,-123.82,12.0,11.0,0,0,,10.0,30.100393,,,TRUE,TRUE,,,,,,,OVC,600,,,,,,,IFR,,,,,,,,,,,,METAR,11.0
KTBX 271415Z AUTO 00000KT 1 1/2SM BR OVC001 07/07 A3019 RMK AO2 VIS 1/2V5,KTBX,2015-05-27T14:15:00Z,43.47,-108.23,7.0,7.0,0,0,,1.5,30.188976,,,TRUE,TRUE,,,,,,BR,OVC,100,,,,,,,LIFR,,,,,,,,,,,,METAR,2225.0
KSNL 271415Z AUTO 21003KT SCT090 22/20 A3009 RMK AO2 PWINO,KSNL,2015-05-27T14:15:00Z,35.35,-96.95,22.0,20.0,210,3,,,30.088583,,,TRUE,TRUE,,,,,TRUE,,SCT,9000,,,,,,,,,,,,,,,,,,,METAR,327.0
KSLO 271415Z AUTO 25013G19KT 10SM -VCTSRA SCT037 BKN045 OVC050 19/16 A3011 RMK AO2 T01940160,KSLO,2015-05-27T14:15:00Z,38.65,-88.97,19.4,16.0,250,13,19,10.0,30.109253,,,TRUE,TRUE,,,,,,VCTS -RA,SCT,3700,BKN,4500,OVC,5000,,,VFR,,,,,,,,,,,,METAR,175.0
KSIF 271415Z AUTO 26005KT 10SM CLR 24/19 A3026 RMK AO2 T02380186,KSIF,2015-05-27T14:15:00Z,36.43,-79.85,23.8,18.6,260,5,,10.0,30.259842,,,TRUE,TRUE,,,,,,,CLR,,,,,,,,VFR,,,,,,,,,,,,METAR,211.0
KSEP 271415Z AUTO 18007KT 10SM CLR 22/19 A3010 RMK AO2 T02210186,KSEP,2015-05-27T14:15:00Z,32.22,-98.17,22.1,18.6,180,7,,10.0,30.100393,,,TRUE,TRUE,,,,,,,CLR,,,,,,,,VFR,,,,,,,,,,,,METAR,402.0
KSCD 271415Z AUTO 00000KT 10SM SCT019 24/21 A3023 RMK AO2 T02390212,KSCD,2015-05-27T14:15:00Z,33.17,-86.3,23.9,21.2,0,0,,10.0,30.230314,,,TRUE,TRUE,,,,,,,SCT,1900,,,,,,,VFR,,,,,,,,,,,,METAR,173.0
KSAR 271415Z AUTO 21004G15KT 10SM -TSRA SCT047 BKN060 OVC110 17/16 A3009 RMK AO2 T01740160,KSAR,2015-05-27T14:15:00Z,38.15,-89.7,17.4,16.0,210,4,15,10.0,30.088583,,,TRUE,TRUE,,,,,,-TSRA,SCT,4700,BKN,6000,OVC,11000,,,VFR,,,,,,,,,,,,METAR,164.0
KRYW 271415Z AUTO 09005KT 10SM OVC013 20/19 A3010 RMK AO2 LTG DSNT S T02020190,KRYW,2015-05-27T14:15:00Z,30.5,-97.97,20.2,19.0,90,5,,10.0,30.100393,,,TRUE,TRUE,,,,,,,OVC,1300,,,,,,,MVFR,,,,,,,,,,,,METAR,376.0
KRSV 271415Z AUTO 22009KT 10SM SCT095 24/17 A3008 RMK AO2 T02390170,KRSV,2015-05-27T14:15:00Z,39.02,-87.65,23.9,17.0,220,9,,10.0,30.079725,,,TRUE,TRUE,,,,,,,SCT,9500,,,,,,,VFR,,,,,,,,,,,,METAR,141.0
KRSN 271415Z AUTO 14005KT 10SM -RA SCT028 BKN044 OVC120 20/20 A3014 RMK AO2 LTG DSNT NE THRU SE P0001 T02010201,KRSN,2015-05-27T14:15:00Z,32.52,-92.58,20.1,20.1,140,5,,10.0,30.138779,,,TRUE,TRUE,,,,,,-RA,SCT,2800,BKN,4400,OVC,12000,,,VFR,,,,,,0.01,,,,,,METAR,95.0
KRKR 271415Z AUTO 36004KT 10SM CLR 22/18 A3009 RMK AO2 T02230180,KRKR,2015-05-27T14:15:00Z,35.02,-94.62,22.3,18.0,360,4,,10.0,30.088583,,,TRUE,TRUE,,,,,,,CLR,,,,,,,,VFR,,,,,,,,,,,,METAR,138.0
KHNZ 271415Z AUTO 19008KT 10SM SCT021 26/19 A3025 RMK AO2 T02570186,KHNZ,2015-05-27T14:15:00Z,36.37,-78.53,25.7,18.6,190,8,,10.0,30.250984,,,TRUE,TRUE,,,,,,,SCT,2100,,,,,,,VFR,,,,,,,,,,,,METAR,161.0
KHLX 271415Z AUTO 21004KT 10SM SCT018 OVC028 20/16 A3030 RMK AO2 T02020164,KHLX,2015-05-27T14:15:00Z,36.77,-80.82,20.2,16.4,210,4,,10.0,30.301182,,,TRUE,TRUE,,,,,,,SCT,1800,OVC,2800,,,,,MVFR,,,,,,,,,,,,METAR,834.0
KGYI 271415Z AUTO 00000KT 10SM CLR 23/18 A3010 RMK AO2 T02280175,KGYI,2015-05-27T14:15:00Z,33.72,-96.67,22.8,17.5,0,0,,10.0,30.100393,,,TRUE,TRUE,,,,,,,CLR,,,,,,,,VFR,,,,,,,,,,,,METAR,228.0
KGWW 271415Z AUTO 23008KT 10SM BKN021 BKN032 OVC070 26/21 A3026 RMK AO2 T02640210,KGWW,2015-05-27T14:15:00Z,35.47,-77.97,26.4,21.0,230,8,,10.0,30.259842,,,TRUE,TRUE,,,,,,,BKN,2100,BKN,3200,OVC,7000,,,MVFR,,,,,,,,,,,,METAR,41.0
KGMJ 271415Z AUTO 08004KT 10SM CLR 23/19 A3011 RMK AO2,KGMJ,2015-05-27T14:15:00Z,36.6,-94.73,23.0,19.0,80,4,,10.0,30.109253,,,TRUE,TRUE,,,,,,,CLR,,,,,,,,VFR,,,,,,,,,,,,METAR,254.0
KGIC 271415Z AUTO 00000KT 10SM OVC080 11/07 A3007 RMK AO1 T01080073,KGIC,2015-05-27T14:15:00Z,45.95,-116.12,10.8,7.3,0,0,,10.0,30.070866,,,TRUE,TRUE,,,,,,,OVC,8000,,,,,,,VFR,,,,,,,,,,,,METAR,1009.0
KGGI 271415Z AUTO 29005KT 10SM SCT013 17/14 A3002 RMK AO2 T01710141,KGGI,2015-05-27T14:15:00Z,41.72,-92.73,17.1,14.1,290,5,,10.0,30.02067,,,TRUE,TRUE,,,,,,,SCT,1300,,,,,,,VFR,,,,,,,,,,,,METAR,307.0
KGEV 271415Z AUTO 25004KT 10SM CLR 20/12 A3031 RMK AO2 T02010117,KGEV,2015-05-27T14:15:00Z,36.43,-81.42,20.1,11.7,250,4,,10.0,30.31004,,,TRUE,TRUE,,,,,,,CLR,,,,,,,,VFR,,,,,,,,,,,,METAR,969.0
KMCX 271415Z AUTO 23014G20KT 10SM SCT020 SCT055 OVC090 22/18 A3001 RMK AO2 T02180182,KMCX,2015-05-27T14:15:00Z,40.72,-86.77,21.8,18.2,230,14,20,10.0,30.008858,,,TRUE,TRUE,,,,,,,SCT,2000,SCT,5500,OVC,9000,,,VFR,,,,,,,,,,,,METAR,206.0
KLUM 271415Z AUTO 22005KT 10SM CLR 18/15 A2993 RMK AO2 T01750148,KLUM,2015-05-27T14:15:00Z,44.9,-91.87,17.5,14.8,220,5,,10.0,29.929134,,,TRUE,TRUE,,,,,,,CLR,,,,,,,,VFR,,,,,,,,,,,,METAR,273.0
KLNC 271415Z AUTO 17005KT 10SM CLR 21/17 A3010 RMK AO2 T02130165,KLNC,2015-05-27T14:15:00Z,32.58,-96.72,21.3,16.5,170,5,,10.0,30.100393,,,TRUE,TRUE,,,,,,,CLR,,,,,,,,VFR,,,,,,,,,,,,METAR,153.0
KLHB 271415Z AUTO 12005KT 10SM CLR 21/19 A3010 RMK AO2 T02100190,KLHB,2015-05-27T14:15:00Z,30.87,-96.62,21.0,19.0,120,5,,10.0,30.100393,,,TRUE,TRUE,,,,,,,CLR,,,,,,,,VFR,,,,,,,,,,,,METAR,87.0
KL18 271415Z AUTO 00000KT 10SM OVC019 15/13 A2998 RMK AO2,KL18,2015-05-27T14:15:00Z,33.35,-117.25,15.0,13.0,0,0,,10.0,29.97933,,,TRUE,TRUE,,,,,,,OVC,1900,,,,,,,MVFR,,,,,,,,,,,,METAR,216.0
KJWY 271415Z AUTO 15009KT 10SM CLR 21/18 A3010 RMK AO2 T02140181,KJWY,2015-05-27T14:15:00Z,32.45,-96.92,21.4,18.1,150,9,,10.0,30.100393,,,TRUE,TRUE,,,,,,,CLR,,,,,,,,VFR,,,,,,,,,,,,METAR,217.0
KJWG 271415Z AUTO 14005KT 10SM CLR 20/20 A3008 RMK AO2 T02040198,KJWG,2015-05-27T14:15:00Z,35.87,-98.42,20.4,19.8,140,5,,10.0,30.079725,,,TRUE,TRUE,,,,,,,CLR,,,,,,,,VFR,,,,,,,,,,,,METAR,472.0
KJSO 271415Z AUTO 20008KT 10SM CLR 19/17 A3010 RMK AO2 T01960176,KJSO,2015-05-27T14:15:00Z,31.87,-95.22,19.6,17.6,200,8,,10.0,30.100393,,,TRUE,TRUE,,,,,,,CLR,,,,,,,,VFR,,,,,,,,,,,,METAR,206.0
KJKA 271415Z AUTO 13012KT 10SM OVC012 28/24 A3015 RMK AO2 T02770244,KJKA,2015-05-27T14:15:00Z,30.28,-87.67,27.7,24.4,130,12,,10.0,30.15059,,,TRUE,TRUE,,,,,,,OVC,1200,,,,,,,MVFR,,,,,,,,,,,,METAR,5.0
KJFZ 271415Z AUTO 25006G15KT 10SM SCT024 BKN030 20/16 A3029 RMK AO2 T01990155,KJFZ,2015-05-27T14:15:00Z,37.07,-81.8,19.9,15.5,250,6,15,10.0,30.28937,,,TRUE,TRUE,,,,,,,SCT,2400,BKN,3000,,,,,MVFR,,,,,,,,,,,,METAR,809.0
KIXA 271415Z AUTO 22010KT 10SM OVC023 25/20 A3025 RMK AO2,KIXA,2015-05-27T14:15:00Z,36.33,-77.63,25.0,20.0,220,10,,10.0,30.250984,,,TRUE,TRUE,,,,,,,OVC,2300,,,,,,,MVFR,,,,,,,,,,,,METAR,44.0
KIPJ 271415Z AUTO 21004KT 10SM BKN011 22/18 A3027 RMK AO2 T02170180,KIPJ,2015-05-27T14:15:00Z,35.48,-81.17,21.7,18.0,210,4,,10.0,30.268702,,,TRUE,TRUE,,,,,,,BKN,1100,,,,,,,MVFR,,,,,,,,,,,,METAR,267.0
KIIY 271415Z AUTO 00000KT 10SM OVC013 24/23 A3027 RMK AO2,KIIY,2015-05-27T14:15:00Z,33.78,-82.82,24.0,23.0,0,0,,10.0,30.268702,,,TRUE,TRUE,,,,,,,OVC,1300,,,,,,,MVFR,,,,,,,,,,,,METAR,197.0
KIGQ 271415Z AUTO 23014G22KT 10SM BKN025 SCT030 BKN050 22/15 A2996 RMK AO2 T02170151,KIGQ,2015-05-27T14:15:00Z,41.53,-87.53,21.7,15.1,230,14,22,10.0,29.958662,,,TRUE,TRUE,,,,,,,BKN,2500,SCT,3000,BKN,5000,,,MVFR,,,,,,,,,,,,METAR,188.0
KIFA 271415Z AUTO 27007KT 10SM CLR 19/15 A3001 RMK AO2 T01870145,KIFA,2015-05-27T14:15:00Z,42.47,-93.27,18.7,14.5,270,7,,10.0,30.008858,,,TRUE,TRUE,,,,,,,CLR,,,,,,,,VFR,,,,,,,,,,,,METAR,347.0
KICL 271415Z AUTO 00000KT 10SM CLR 19/14 A3007 RMK AO2,KICL,2015-05-27T14:15:00Z,40.72,-95.02,19.0,14.0,0,0,,10.0,30.070866,,,TRUE,TRUE,,,,,,,CLR,,,,,,,,VFR,,,,,,,,,,,,METAR,303.0
KI35 271415Z AUTO 30003KT 10SM SCT019 OVC027 21/16 A3025 RMK AO1,KI35,2015-05-27T14:15:00Z,36.87,-83.37,21.0,16.0,300,3,,10.0,30.250984,,,TRUE,TRUE,,,,,,,SCT,1900,OVC,2700,,,,,MVFR,,,,,,,,,,,,METAR,473.0
KHZL 271415Z AUTO 19009KT 10SM BKN017 24/18 A3021 RMK AO2,KHZL,2015-05-27T14:15:00Z,40.98,-76.0,24.0,18.0,190,9,,10.0,30.209646,,,TRUE,TRUE,,,,,,,BKN,1700,,,,,,,MVFR,,,,,,,,,,,,METAR,489.0
KHVE 271415Z AUTO 33004KT 10SM CLR 16/07 A3013 RMK AO2,KHVE,2015-05-27T14:15:00Z,38.42,-110.7,16.0,7.0,330,4,,10.0,30.129921,,,TRUE,TRUE,,,,,,,CLR,,,,,,,,VFR,,,,,,,,,,,,METAR,1350.0
KHSB 271415Z AUTO 29017G25KT 3SM +VCTSRA SCT014 BKN021 OVC037 21/19 A3015 RMK AO2 LTG DSNT ALQS P0009 T02070191,KHSB,2015-05-27T14:15:00Z,37.82,-88.55,20.7,19.1,290,17,25,3.0,30.15059,,,TRUE,TRUE,,,,,,VCTS +RA,SCT,1400,BKN,2100,OVC,3700,,,MVFR,,,,,,0.09,,,,,,METAR,121.0
PAUT 271415Z AUTO 17008KT 7SM CLR 03/03 A3002 RMK AO2 T00320028,PAUT,2015-05-27T14:15:00Z,54.15,-165.6,3.2,2.8,170,8,,7.0,30.02067,,,TRUE,TRUE,,,,,,,CLR,,,,,,,,VFR,,,,,,,,,,,,METAR,25.0
KXBP 271415Z AUTO 13004KT 10SM CLR 22/17 A3010 RMK AO2 T02200174,KXBP,2015-05-27T14:15:00Z,33.18,-97.83,22.0,17.4,130,4,,10.0,30.100393,,,TRUE,TRUE,,,,,,,CLR,,,,,,,,VFR,,,,,,,,,,,,METAR,260.0
KW96 271415Z AUTO 24006KT 10SM SCT022 SCT027 26/21 A3021 RMK AO1 T02620206,KW96,2015-05-27T14:15:00Z,37.5,-77.12,26.2,20.6,240,6,,10.0,30.209646,,,TRUE,TRUE,,,,,,,SCT,2200,SCT,2700,,,,,VFR,,,,,,,,,,,,METAR,37.0
KW75 271415Z AUTO 22006KT 190V260 10SM OVC075 26/21 A3021 RMK AO1 T02620207,KW75,2015-05-27T14:15:00Z,37.6,-76.45,26.2,20.7,220,6,,10.0,30.209646,,,TRUE,TRUE,,,,,,,OVC,7500,,,,,,,VFR,,,,,,,,,,,,METAR,9.0
KW63 271415Z AUTO 20008KT 10SM CLR 26/20 A3023 RMK AO1,KW63,2015-05-27T14:15:00Z,36.6,-78.55,26.0,20.0,200,8,,10.0,30.230314,,,TRUE,TRUE,,,,,,,CLR,,,,,,,,VFR,,,,,,,,,,,,METAR,129.0
KW31 271415Z AUTO 10SM SCT025 25/20 A3023 RMK AO1 T02540195,KW31,2015-05-27T14:15:00Z,36.95,-78.18,25.4,19.5,,,,10.0,30.230314,,,TRUE,TRUE,,,,,,,SCT,2500,,,,,,,VFR,,,,,,,,,,,,METAR,162.0
KW29 271415Z AUTO 16009G14KT 10SM A3018 RMK AO1,KW29,2015-05-27T14:15:00Z,38.98,-76.33,,,160,9,14,10.0,30.180119,,,TRUE,TRUE,,,,,,,,,,,,,,,,,,,,,,,,,,,METAR,15.0
KPKV 271415Z AUTO 11009KT 7SM SCT013 SCT023 BKN028 27/25 A3007 RMK AO2 T02730250,KPKV,2015-05-27T14:15:00Z,28.65,-96.68,27.3,25.0,110,9,,7.0,30.070866,,,TRUE,TRUE,,,,,,,SCT,1300,SCT,2300,BKN,2800,,,MVFR,,,,,,,,,,,,METAR,9.0
KOWP 271415Z AUTO 17005KT 10SM SCT007 24/21 A3007 RMK AO2 T02400210,KOWP,2015-05-27T14:15:00Z,36.18,-96.15,24.0,21.0,170,5,,10.0,30.070866,,,TRUE,TRUE,,,,,,,SCT,700,,,,,,,VFR,,,,,,,,,,,,METAR,272.0
KORG 271415Z AUTO 08004KT 5SM RA SCT037 OVC044 19/18 A3019 RMK AO2 LTG DSNT N THRU S T01930183,KORG,2015-05-27T14:15:00Z,30.07,-93.8,19.3,18.3,80,4,,5.0,30.188976,,,TRUE,TRUE,,,,,,RA,SCT,3700,OVC,4400,,,,,MVFR,,,,,,,,,,,,METAR,4.0
KOKZ 271415Z AUTO 25003KT 10SM BKN013 OVC018 24/21 A3026 RMK AO2 T02390207,KOKZ,2015-05-27T14:15:00Z,32.97,-82.83,23.9,20.7,250,3,,10.0,30.259842,,,TRUE,TRUE,,,,,,,BKN,1300,OVC,1800,,,,,MVFR,,,,,,,,,,,,METAR,134.0
KOKV 271415Z AUTO 20006KT 10SM SCT021 27/17 A3016 RMK AO2,KOKV,2015-05-27T14:15:00Z,39.13,-78.15,27.0,17.0,200,6,,10.0,30.159449,,,TRUE,TRUE,,,,,,,SCT,2100,,,,,,,VFR,,,,,,,,,,,,METAR,222.0
KOJA 271415Z AUTO 14005KT 10SM CLR 20/17 A3008 RMK AO2,KOJA,2015-05-27T14:15:00Z,35.55,-98.67,20.0,17.0,140,5,,10.0,30.079725,,,TRUE,TRUE,,,,,,,CLR,,,,,,,,VFR,,,,,,,,,,,,METAR,490.0
KOCW 271415Z AUTO 20005KT 10SM SCT020 SCT027 26/21 A3027 RMK AO2 T02590209,KOCW,2015-05-27T14:15:00Z,35.57,-77.05,25.9,20.9,200,5,,10.0,30.268702,,,TRUE,TRUE,,,,,,,SCT,2000,SCT,2700,,,,,VFR,,,,,,,,,,,,METAR,12.0
KOBE 271415Z AUTO 07004KT 10SM SCT031 28/20 A3017 RMK AO2,KOBE,2015-05-27T14:15:00Z,27.27,-80.85,28.0,20.0,70,4,,10.0,30.171259,,,TRUE,TRUE,,,,,,,SCT,3100,,,,,,,VFR,,,,,,,,,,,,METAR,11.0
KMQS 271415Z AUTO 24006KT 10SM OVC011 24/22 A3019 RMK AO2,KMQS,2015-05-27T14:15:00Z,39.98,-75.87,24.0,22.0,240,6,,10.0,30.188976,,,TRUE,TRUE,,,,,,,OVC,1100,,,,,,,MVFR,,,,,,,,,,,,METAR,201.0
KMQB 271415Z AUTO 25010KT 10SM BKN016 OVC021 20/17 A3004 RMK AO2 T02020170,KMQB,2015-05-27T14:15:00Z,40.52,-90.65,20.2,17.0,250,10,,10.0,30.041338,,,TRUE,TRUE,,,,,,,BKN,1600,OVC,2100,,,,,MVFR,,,,,,,,,,,,METAR,215.0
KMMH 271415Z AUTO 00000KT 10SM CLR 08/04 A3017 RMK AO1,KMMH,2015-05-27T14:15:00Z,37.62,-118.82,8.0,4.0,0,0,,10.0,30.171259,,,TRUE,TRUE,,,,,,,CLR,,,,,,,,VFR,,,,,,,,,,,,METAR,2173.0
KMKN 271415Z AUTO 15008KT 10SM SCT015 23/23 A3008 RMK AO2 T02300226,KMKN,2015-05-27T14:15:00Z,31.92,-98.6,23.0,22.6,150,8,,10.0,30.079725,,,TRUE,TRUE,,,,,,,SCT,1500,,,,,,,VFR,,,,,,,,,,,,METAR,423.0
KMFV 271415Z AUTO 17009KT 10SM OVC018 26/22 A3022 RMK AO2,KMFV,2015-05-27T14:15:00Z,37.63,-75.77,26.0,22.0,170,9,,10.0,30.221457,,,TRUE,TRUE,,,,,,,OVC,1800,,,,,,,MVFR,,,,,,,,,,,,METAR,15.0
KPVJ 271415Z AUTO 00000KT 10SM SCT044 BKN060 BKN070 20/17 A3007 RMK AO2 T01990174,KPVJ,2015-05-27T14:15:00Z,34.72,-97.22,19.9,17.4,0,0,,10.0,30.070866,,,TRUE,TRUE,,,,,,,SCT,4400,BKN,6000,BKN,7000,,,VFR,,,,,,,,,,,,METAR,295.0
KPUJ 271415Z AUTO 00000KT 10SM BKN004 BKN009 OVC018 23/23 A3025 RMK AO2,KPUJ,2015-05-27T14:15:00Z,33.92,-84.93,23.0,23.0,0,0,,10.0,30.250984,,,TRUE,TRUE,,,,,,,BKN,400,BKN,900,OVC,1800,,,LIFR,,,,,,,,,,,,METAR,393.0
KPSN 271415Z AUTO 13006KT 10SM CLR 20/17 A3010 RMK AO2 T02040180,KPSN,2015-05-27T14:15:00Z,31.78,-95.7,20.4,18.0,130,6,,10.0,30.100393,,,TRUE,TRUE,,,,,,,CLR,,,,,,,,VFR,,,,,,,,,,,,METAR,129.0
KMHL 271415Z AUTO 28004KT 10SM CLR 22/16 A3009 RMK AO2,KMHL,2015-05-27T14:15:00Z,39.1,-93.2,22.0,16.0,280,4,,10.0,30.088583,,,TRUE,TRUE,,,,,,,CLR,,,,,,,,VFR,,,,,,,,,,,,METAR,237.0
K1P1 271415Z AUTO 00000KT 10SM CLR 26/21 A3008 RMK AO2 T02610210,K1P1,2015-05-27T14:15:00Z,43.78,-71.75,26.1,21.0,0,0,,10.0,30.079725,,,TRUE,TRUE,,,,,,,CLR,,,,,,,,VFR,,,,,,,,,,,,METAR,154.0
KSVC 271415Z AUTO 10004KT 10SM 19/M05 A3017 RMK AO2,KSVC,2015-05-27T14:15:00Z,32.63,-108.15,19.0,-5.0,100,4,,10.0,30.171259,,,TRUE,TRUE,,,,,,,,,,,,,,,,,,,,,,,,,,,SPECI,1659.0
KSTF 271415Z AUTO 14005KT 10SM OVC003 22/21 A3017 RMK AO2,KSTF,2015-05-27T14:15:00Z,33.43,-88.85,22.0,21.0,140,5,,10.0,30.171259,,,TRUE,TRUE,,,,,,,OVC,300,,,,,,,LIFR,,,,,,,,,,,,SPECI,102.0
KRZL 271415Z AUTO 21015G20KT 10SM BKN070 BKN080 BKN090 21/18 A3000 RMK AO2,KRZL,2015-05-27T14:15:00Z,40.95,-87.18,21.0,18.0,210,15,20,10.0,30.0,,,TRUE,TRUE,,,,,,,BKN,7000,BKN,8000,BKN,9000,,,VFR,,,,,,,,,,,,SPECI,213.0
KRNC 271415Z AUTO 23005KT 10SM FEW017 SCT023 BKN027 24/21 A3022 RMK,KRNC,2015-05-27T14:15:00Z,35.7,-85.85,24.0,21.0,230,5,,10.0,30.221457,,,TRUE,,,,,,,,FEW,1700,SCT,2300,BKN,2700,,,MVFR,,,,,,,,,,,,METAR,315.0
KPCM 271415Z AUTO 14005KT 10SM SCT025 SCT032 28/21 A3022 RMK AO2,KPCM,2015-05-27T14:15:00Z,28.0,-82.17,28.0,21.0,140,5,,10.0,30.221457,,,TRUE,TRUE,,,,,,,SCT,2500,SCT,3200,,,,,VFR,,,,,,,,,,,,SPECI,47.0
KO54 271415Z AUTO 00000KT 10SM CLR 09/04 A3003 RMK AO1,KO54,2015-05-27T14:15:00Z,40.75,-122.92,9.0,4.0,0,0,,10.0,30.029528,,,TRUE,TRUE,,,,,,,CLR,,,,,,,,VFR,,,,,,,,,,,,SPECI,717.0
KMRC 271415Z AUTO 19004KT 10SM BKN017 OVC036 24/21 A3018 RMK,KMRC,2015-05-27T14:15:00Z,35.55,-87.18,24.0,21.0,190,4,,10.0,30.180119,,,TRUE,,,,,,,,BKN,1700,OVC,3600,,,,,MVFR,,,,,,,,,,,,METAR,208.0
KMCD 271415Z AUTO 24016G24KT 1/4SM FG OVC003 11/11 A2973 RMK AO2 T01110111,KMCD,2015-05-27T14:15:00Z,45.85,-84.63,11.1,11.1,240,16,24,0.25,29.731298,,,TRUE,TRUE,,,,,,FG,OVC,300,,,,,,,LIFR,,,,,,,,,,,,SPECI,226.0
KMAN 271415Z AUTO 00000KT 10SM CLR 14/14 A3000 RMK AO1,KMAN,2015-05-27T14:15:00Z,43.58,-116.52,14.0,14.0,0,0,,10.0,30.0,,,TRUE,TRUE,,,,,,,CLR,,,,,,,,VFR,,,,,,,,,,,,SPECI,774.0
KLUL 271415Z AUTO 16006KT 10SM BKN010 BKN015 25/24 A3017 RMK AO2 T02530243,KLUL,2015-05-27T14:15:00Z,,,25.3,24.3,160,6,,10.0,30.171259,,,TRUE,TRUE,,,,,,,BKN,1000,BKN,1500,,,,,MVFR,,,,,,,,,,,,SPECI,
KHAE 271415Z AUTO 28009KT 10SM CLR 21/13 A3006 RMK AO2,KHAE,2015-05-27T14:15:00Z,39.73,-91.45,21.0,13.0,280,9,,10.0,30.059055,,,TRUE,TRUE,,,,,,,CLR,,,,,,,,VFR,,,,,,,,,,,,SPECI,234.0
KEOE 271415Z AUTO 24003KT 10SM SCT007 BKN011 OVC020 21/21 A3030 RMK AO2,KEOE,2015-05-27T14:15:00Z,34.32,-81.63,21.0,21.0,240,3,,10.0,30.301182,,,TRUE,TRUE,,,,,,,SCT,700,BKN,1100,OVC,2000,,,MVFR,,,,,,,,,,,,SPECI,174.0
KEDC 271415Z AUTO 14003KT 10SM OVC020 20/19 A3009 RMK AO2,KEDC,2015-05-27T14:15:00Z,30.4,-97.57,20.0,19.0,140,3,,10.0,30.088583,,,TRUE,TRUE,,,,,,,OVC,2000,,,,,,,MVFR,,,,,,,,,,,,SPECI,189.0
KDED 271415Z AUTO 10004KT 10SM 27/19 A3023 RMK AO1,KDED,2015-05-27T14:15:00Z,29.07,-81.28,27.0,19.0,100,4,,10.0,30.230314,,,TRUE,TRUE,,,,,,,,,,,,,,,,,,,,,,,,,,,SPECI,24.0
KCFJ 271415Z AUTO 21011G18KT 10SM SCT110 23/15 A3005 RMK AO2 T02260147,KCFJ,2015-05-27T14:15:00Z,,,22.6,14.7,210,11,18,10.0,30.050198,,,TRUE,TRUE,,,,,,,SCT,11000,,,,,,,VFR,,,,,,,,,,,,SPECI,
KBAC 271415Z AUTO 34004KT 10SM CLR 20/11 A2995 RMK AO2,KBAC,2015-05-27T14:15:00Z,46.93,-98.02,20.0,11.0,340,4,,10.0,29.949802,,,TRUE,TRUE,,,,,,,CLR,,,,,,,,VFR,,,,,,,,,,,,SPECI,684.0
KANK 271415Z AUTO 20011G15KT 10SM CLR 14/02 A3031 RMK AO1 T01370021,KANK,2015-05-27T14:15:00Z,38.53,-106.05,13.7,2.1,200,11,15,10.0,30.31004,,,TRUE,TRUE,,,,,,,CLR,,,,,,,,VFR,,,,,,,,,,,,SPECI,2293.0
KAJZ 271415Z AUTO 12004KT 10SM CLR 13/08 A3017 RMK AO2 T01320079,KAJZ,2015-05-27T14:15:00Z,38.78,-108.07,13.2,7.9,120,4,,10.0,30.171259,,,TRUE,TRUE,,,,,,,CLR,,,,,,,,VFR,,,,,,,,,,,,SPECI,1583.0
KAIB 271415Z AUTO 34003KT 10SM CLR 11/06 A3022 RMK AO2,KAIB,2015-05-27T14:15:00Z,38.23,-108.57,11.0,6.0,340,3,,10.0,30.221457,,,TRUE,TRUE,,,,,,,CLR,,,,,,,,VFR,,,,,,,,,,,,SPECI,1811.0
K46D 271415Z AUTO 33005KT 10SM CLR 19/11 A2997 RMK AO2,K46D,2015-05-27T14:15:00Z,47.45,-99.15,19.0,11.0,330,5,,10.0,29.970472,,,TRUE,TRUE,,,,,,,CLR,,,,,,,,VFR,,,,,,,,,,,,SPECI,490.0
K1R7 271415Z AUTO 16004KT OVC006 24/24 A3017 RMK AO2,K1R7,2015-05-27T14:15:00Z,31.6,-90.42,24.0,24.0,160,4,,,30.171259,,,TRUE,TRUE,,,,,,,OVC,600,,,,,,,,,,,,,,,,,,,SPECI,149.0
KJYG 271415Z AUTO 25007KT 10SM CLR 19/14 A2996 RMK AO2,KJYG,2015-05-27T14:15:00Z,43.98,-94.55,19.0,14.0,250,7,,10.0,29.958662,,,TRUE,TRUE,,,,,,,CLR,,,,,,,,VFR,,,,,,,,,,,,SPECI,325.0
KJCT 271415Z AUTO 14007KT 7SM SCT017 SCT023 BKN038 25/21 A3006 RMK AO2 T02500211,KJCT,2015-05-27T14:15:00Z,30.5,-99.77,25.0,21.1,140,7,,7.0,30.059055,,,TRUE,TRUE,,,,,,,SCT,1700,SCT,2300,BKN,3800,,,VFR,,,,,,,,,,,,SPECI,522.0
KISQ 271415Z AUTO 27004KT 10SM -DZ OVC004 10/10 A2976 RMK AO2 T01020095,KISQ,2015-05-27T14:15:00Z,45.97,-86.17,10.2,9.5,270,4,,10.0,29.760826,,,TRUE,TRUE,,,,,,-DZ,OVC,400,,,,,,,LIFR,,,,,,,,,,,,SPECI,209.0
KIRS 271415Z AUTO 23015G20KT 10SM SCT024 SCT080 22/17 A2997 RMK AO2,KIRS,2015-05-27T14:15:00Z,41.8,-85.43,22.0,17.0,230,15,20,10.0,29.970472,,,TRUE,TRUE,,,,,,,SCT,2400,SCT,8000,,,,,VFR,,,,,,,,,,,,SPECI,282.0
KHYX 271415Z AUTO 22018G21KT 10SM BKN027 BKN034 OVC040 22/17 A2989 RMK AO2,KHYX,2015-05-27T14:15:00Z,43.43,-83.87,22.0,17.0,220,18,21,10.0,29.890747,,,TRUE,TRUE,,,,,,,BKN,2700,BKN,3400,OVC,4000,,,MVFR,,,,,,,,,,,,SPECI,183.0
KHAI 271415Z AUTO 23008G14KT 10SM CLR 23/17 A2997 RMK AO2 T02250167,KHAI,2015-05-27T14:15:00Z,41.97,-85.6,22.5,16.7,230,8,14,10.0,29.970472,,,TRUE,TRUE,,,,,,,CLR,,,,,,,,VFR,,,,,,,,,,,,SPECI,251.0
KFPK 271415Z AUTO 22015G20KT 10SM SCT023 SCT030 SCT035 22/16 A2993 RMK AO2 T02160159,KFPK,2015-05-27T14:15:00Z,42.57,-84.82,21.6,15.9,220,15,20,10.0,29.929134,,,TRUE,TRUE,,,,,,,SCT,2300,SCT,3000,SCT,3500,,,VFR,,,,,,,,,,,,SPECI,272.0
KETH 271415Z AUTO 28008KT 10SM CLR 19/12 A2995 RMK AO2,KETH,2015-05-27T14:15:00Z,45.78,-96.55,19.0,12.0,280,8,,10.0,29.949802,,,TRUE,TRUE,,,,,,,CLR,,,,,,,,VFR,,,,,,,,,,,,SPECI,313.0
KERY 271415Z AUTO 26007G15KT 1 1/2SM BR OVC005 12/11 A2971 RMK AO2 T01170114,KERY,2015-05-27T14:15:00Z,46.3,-85.45,11.7,11.4,260,7,15,1.5,29.71063,,,TRUE,TRUE,,,,,,BR,OVC,500,,,,,,,IFR,,,,,,,,,,,,SPECI,265.0
KEET 271415Z AUTO 14006KT 10SM SCT015 23/20 A3021 RMK AO2 T02330200,KEET,2015-05-27T14:15:00Z,33.18,-86.78,23.3,20.0,140,6,,10.0,30.209646,,,TRUE,TRUE,,,,,,,SCT,1500,,,,,,,VFR,,,,,,,,,,,,SPECI,173.0
KDUH 271415Z AUTO 25011G20KT 10SM CLR 23/17 A3000 RMK AO2,KDUH,2015-05-27T14:15:00Z,41.73,-83.65,23.0,17.0,250,11,20,10.0,30.0,,,TRUE,TRUE,,,,,,,CLR,,,,,,,,VFR,,,,,,,,,,,,SPECI,204.0
KDRM 271415Z AUTO 22010G18KT 10SM OVC018 16/14 A2973 RMK AO2 T01600140,KDRM,2015-05-27T14:15:00Z,46.0,-83.75,16.0,14.0,220,10,18,10.0,29.731298,,,TRUE,TRUE,,,,,,,OVC,1800,,,,,,,MVFR,,,,,,,,,,,,SPECI,204.0
KCQM 271415Z AUTO 29004KT 10SM CLR 18/13 A2985 RMK AO2,KCQM,2015-05-27T14:15:00Z,47.82,-92.68,18.0,13.0,290,4,,10.0,29.84941,,,TRUE,TRUE,,,,,,,CLR,,,,,,,,VFR,,,,,,,,,,,,SPECI,404.0
KCOT 271415Z AUTO 15010KT 5SM HZ FEW010 BKN016 OVC025 27/23 A3000 RMK AO2 T02720233,KCOT,2015-05-27T14:15:00Z,28.45,-99.22,27.2,23.3,150,10,,5.0,30.0,,,TRUE,TRUE,,,,,,HZ,FEW,1000,BKN,1600,OVC,2500,,,MVFR,,,,,,,,,,,,SPECI,140.0
KCOQ 271415Z AUTO 27006KT 10SM CLR 19/12 A2986 RMK AO2,KCOQ,2015-05-27T14:15:00Z,46.7,-92.5,19.0,12.0,270,6,,10.0,29.861221,,,TRUE,TRUE,,,,,,,CLR,,,,,,,,VFR,,,,,,,,,,,,SPECI,390.0
KCFS 271415Z AUTO 21015G23KT 10SM SCT030 BKN036 BKN043 23/17 A2990 RMK AO2 T02250169,KCFS,2015-05-27T14:15:00Z,43.47,-83.45,22.5,16.9,210,15,23,10.0,29.899607,,,TRUE,TRUE,,,,,,,SCT,3000,BKN,3600,BKN,4300,,,VFR,,,,,,,,,,,,SPECI,214.0
KCBG 271415Z AUTO 22008KT 10SM CLR 19/13 A2988 RMK AO2,KCBG,2015-05-27T14:15:00Z,45.57,-93.27,19.0,13.0,220,8,,10.0,29.878937,,,TRUE,TRUE,,,,,,,CLR,,,,,,,,VFR,,,,,,,,,,,,SPECI,287.0
KCAD 271415Z AUTO 21019G22KT 10SM BKN022 OVC050 17/13 A2983 RMK AO2 T01780141,KCAD,2015-05-27T14:15:00Z,44.27,-85.42,17.8,13.0,210,19,22,10.0,29.828741,,,TRUE,TRUE,,,,,,,BKN,2200,OVC,5000,,,,,MVFR,,,,,,,,,,,,SPECI,398.0
KBDH 271415Z AUTO 30008KT 10SM CLR 18/13 A2994 RMK AO2,KBDH,2015-05-27T14:15:00Z,45.12,-95.13,18.0,13.0,300,8,,10.0,29.940945,,,TRUE,TRUE,,,,,,,CLR,,,,,,,,VFR,,,,,,,,,,,,SPECI,247.0
KARA 271415Z AUTO 28010G17KT 250V340 7SM -TSRA BKN006 BKN012 OVC095 25/24 A3017 RMK AO2 LTG DSNT ALQDS RAB04 TSB1357 P0000 T02500239,KARA,2015-05-27T14:15:00Z,30.03,-91.88,25.0,23.9,280,10,17,7.0,30.171259,,,TRUE,TRUE,,,,,,-TSRA,BKN,600,BKN,1200,OVC,9500,,,IFR,,,,,,0.0050,,,,,,SPECI,18.0
KANB 271415Z AUTO 06006KT 10SM BKN017 24/19 A3022 RMK AO2 T02440194,KANB,2015-05-27T14:15:00Z,33.58,-85.85,24.4,19.4,60,6,,10.0,30.221457,,,TRUE,TRUE,,,,,,,BKN,1700,,,,,,,MVFR,,,,,,,,,,,,SPECI,183.0
KACQ 271415Z AUTO 21007KT 10SM CLR 17/14 A2997 RMK AO2,KACQ,2015-05-27T14:15:00Z,44.07,-93.55,17.0,14.0,210,7,,10.0,29.970472,,,TRUE,TRUE,,,,,,,CLR,,,,,,,,VFR,,,,,,,,,,,,SPECI,343.0
KACB 271415Z AUTO 21008G18KT 180V240 10SM OVC020 18/14 A2978 RMK AO2 T01800136,KACB,2015-05-27T14:15:00Z,44.98,-85.2,18.0,13.6,210,8,18,10.0,29.778543,,,TRUE,TRUE,,,,,,,OVC,2000,,,,,,,MVFR,,,,,,,,,,,,SPECI,190.0
KSEM 271415Z AUTO 14006KT 9SM BKN018 BKN024 25/20 A3020 RMK AO2,KSEM,2015-05-27T14:15:00Z,32.35,-86.98,25.0,20.0,140,6,,9.0,30.200787,,,TRUE,TRUE,,,,,,,BKN,1800,BKN,2400,,,,,MVFR,,,,,,,,,,,,SPECI,51.0
KRNP 271415Z AUTO 21013G23KT 10SM SCT029 SCT035 SCT042 23/15 A2992 RMK AO2 T02310152,KRNP,2015-05-27T14:15:00Z,43.0,-84.13,23.1,15.2,210,13,23,10.0,29.920275,,,TRUE,TRUE,,,,,,,SCT,2900,SCT,3500,SCT,4200,,,VFR,,,,,,,,,,,,SPECI,224.0
KPZQ 271415Z AUTO 23014G25KT 10SM SCT036 SCT042 21/15 A2976 RMK AO2 T02120145,KPZQ,2015-05-27T14:15:00Z,45.4,-83.82,21.2,14.5,230,14,25,10.0,29.760826,,,TRUE,TRUE,,,,,,,SCT,3600,SCT,4200,,,,,VFR,,,,,,,,,,,,SPECI,204.0
KOEB 271415Z AUTO 23013G21KT 10SM BKN025 BKN060 OVC070 22/17 A2998 RMK AO2 T02220165,KOEB,2015-05-27T14:15:00Z,41.92,-85.03,22.2,16.5,230,13,21,10.0,29.97933,,,TRUE,TRUE,,,,,,,BKN,2500,BKN,6000,OVC,7000,,,MVFR,,,,,,,,,,,,SPECI,292.0
KMNN 271415Z AUTO 21013KT 8SM BKN021 22/17 A3009 RMK AO2 T02220172 TSNO,KMNN,2015-05-27T14:15:00Z,40.62,-83.07,22.2,17.2,210,13,,8.0,30.088583,,,TRUE,TRUE,,,TRUE,,,,BKN,2100,,,,,,,MVFR,,,,,,,,,,,,SPECI,301.0
KMKG 271415Z 22017G27KT 10SM FEW008 BKN017 OVC022 16/13 A2991 RMK AO2 PK WND 22027/1409 T01610133,KMKG,2015-05-27T14:15:00Z,43.17,-86.23,16.1,13.3,220,17,27,10.0,29.911417,,,,TRUE,,,,,,,FEW,800,BKN,1700,OVC,2200,,,MVFR,,,,,,,,,,,,SPECI,191.0
KVDF 271415Z AUTO 10006KT 10SM SCT025 SCT032 28/20 A3020 RMK AO2,KVDF,2015-05-27T14:15:00Z,28.02,-82.33,28.0,20.0,100,6,,10.0,30.200787,,,TRUE,TRUE,,,,,,,SCT,2500,SCT,3200,,,,,VFR,,,,,,,,,,,,METAR,7.0
KORS 271415Z AUTO 00000KT 10SM OVC042 12/10 A3006 RMK AO2,KORS,2015-05-27T14:15:00Z,48.7,-122.92,12.0,10.0,0,0,,10.0,30.059055,,,TRUE,TRUE,,,,,,,OVC,4200,,,,,,,VFR,,,,,,,,,,,,METAR,9.0
KJFX 271415Z AUTO 15004KT 9SM SCT013 24/20 A3021 RMK A02 P-128,KJFX,2015-05-27T14:15:00Z,33.9,-87.32,24.0,20.0,150,4,,9.0,30.209646,,,TRUE,TRUE,,,,,,,SCT,1300,,,,,,,VFR,,,,,,,,,,,,METAR,148.0
KAIK 271415Z AUTO 22003KT 10SM OVC012 22/19 A3031 RMK AO2,KAIK,2015-05-27T14:15:00Z,33.65,-81.68,22.0,19.0,220,3,,10.0,30.31004,,,TRUE,TRUE,,,,,,,OVC,1200,,,,,,,MVFR,,,,,,,,,,,,METAR,161.0
KTSP 271415Z AUTO 00000KT 8SM CLR 14/08 A3005 RMK AO2,KTSP,2015-05-27T14:15:00Z,35.13,-118.43,14.0,8.0,0,0,,8.0,30.050198,,,TRUE,TRUE,,,,,,,CLR,,,,,,,,VFR,,,,,,,,,,,,SPECI,1220.0
KTPF 271415Z AUTO 11006KT 10SM BKN029 BKN036 28/21 A3019 RMK AO2,KTPF,2015-05-27T14:15:00Z,27.92,-82.45,28.0,21.0,110,6,,10.0,30.188976,,,TRUE,TRUE,,,,,,,BKN,2900,BKN,3600,,,,,MVFR,,,,,,,,,,,,SPECI,3.0
AGGH 271415Z 00000KT 9999 -TS FEW014 FEW015CB SCT026 24/24 Q1011,AGGH,2015-05-27T14:15:00Z,-9.42,160.05,24.0,24.0,0,0,,6.21,29.852362,,,,,,,,,,-TS,FEW,1400,FEW,1500,SCT,2600,,,VFR,,,,,,,,,,,,SPECI,9.0
CWPF 271415Z AUTO 34001KT 12/10 RMK AO1 T01230102,CWPF,2015-05-27T14:15:00Z,48.43,-123.43,12.3,10.2,340,1,,,,,,TRUE,TRUE,,,,,,,,,,,,,,,,,,,,,,,,,,,METAR,12.0
WSAP 271415Z 07002KT 9999 FEW018 BKN300 29/25 Q1011 RETS,WSAP,2015-05-27T14:15:00Z,1.37,103.92,29.0,25.0,70,2,,6.21,29.852362,,,,,,,,,,,FEW,1800,BKN,30000,,,,,VFR,,,,,,,,,,,,SPECI,32.0
UMII 271415Z 11003G06MPS P6000 BKN032CB 18/12 Q1003 R05/D TEMPO 2000 TSRA BKN005,UMII,2015-05-27T14:15:00Z,55.13,30.35,18.0,12.0,110,6,12,3.73,29.616142,,,,,,,,,,,BKN,3200,,,,,,,MVFR,,,,,,,,,,,,METAR,208.0
KFYJ 271415Z AUTO 20008KT 10SM CLR 28/20 A3023 RMK AO2 T02820195,KFYJ,2015-05-27T14:15:00Z,37.52,-76.77,28.2,19.5,200,8,,10.0,30.230314,,,TRUE,TRUE,,,,,,,CLR,,,,,,,,VFR,,,,,,,,,,,,METAR,7.0
KFSO 271415Z AUTO 19007KT 150V230 10SM SCT080 26/20 A2999 RMK AO2 T02620195,KFSO,2015-05-27T14:15:00Z,44.93,-73.1,26.2,19.5,190,7,,10.0,29.991142,,,TRUE,TRUE,,,,,,,SCT,8000,,,,,,,VFR,,,,,,,,,,,,METAR,70.0
KFRR 271415Z AUTO 25005KT 10SM CLR 26/21 A3015 RMK AO1,KFRR,2015-05-27T14:15:00Z,38.92,-78.25,26.0,21.0,250,5,,10.0,30.15059,,,TRUE,TRUE,,,,,,,CLR,,,,,,,,VFR,,,,,,,,,,,,METAR,216.0
KEYF 271415Z AUTO 20005KT 10SM OVC060 26/22 A3028 RMK AO2 T02550215,KEYF,2015-05-27T14:15:00Z,34.6,-78.58,25.5,21.5,200,5,,10.0,30.280512,,,TRUE,TRUE,,,,,,,OVC,6000,,,,,,,VFR,,,,,,,,,,,,METAR,41.0
KELK 271415Z AUTO 16005KT 10SM BKN026 19/16 A3012 RMK AO2,KELK,2015-05-27T14:15:00Z,35.43,-99.4,19.0,16.0,160,5,,10.0,30.121063,,,TRUE,TRUE,,,,,,,BKN,2600,,,,,,,MVFR,,,,,,,,,,,,METAR,610.0
KEHY 271415Z AUTO 24013G17KT 10SM OVC020 08/05 A3014 RMK AO2,KEHY,2015-05-27T14:15:00Z,41.73,-106.47,8.0,5.0,240,13,17,10.0,30.138779,,,TRUE,TRUE,,,,,,,OVC,2000,,,,,,,MVFR,,,,,,,,,,,,METAR,2225.0
KEDN 271415Z AUTO 11005KT 10SM CLR 24/21 A3019 RMK AO2,KEDN,2015-05-27T14:15:00Z,31.3,-85.9,24.0,21.0,110,5,,10.0,30.188976,,,TRUE,TRUE,,,,,,,CLR,,,,,,,,VFR,,,,,,,,,,,,METAR,110.0
KEDE 271415Z AUTO 21008KT 10SM BKN050 26/21 A3027 RMK AO2 T02570211,KEDE,2015-05-27T14:15:00Z,36.02,-76.57,25.7,21.1,210,8,,10.0,30.268702,,,TRUE,TRUE,,,,,,,BKN,5000,,,,,,,VFR,,,,,,,,,,,,METAR,6.0
KDVO 271415Z AUTO 27003KT 10SM OVC010 11/09 A3002 RMK AO2,KDVO,2015-05-27T14:15:00Z,38.15,-122.55,11.0,9.0,270,3,,10.0,30.02067,,,TRUE,TRUE,,,,,,,OVC,1000,,,,,,,MVFR,,,,,,,,,,,,METAR,1.0
KDVK 271415Z AUTO 22011G15KT 10SM OVC015 22/18 A3020 RMK AO2,KDVK,2015-05-27T14:15:00Z,37.58,-84.77,22.0,18.0,220,11,15,10.0,30.200787,,,TRUE,TRUE,,,,,,,OVC,1500,,,,,,,MVFR,,,,,,,,,,,,METAR,312.0
KDUC 271415Z AUTO 12003KT 10SM SCT041 22/18 A3009 RMK AO2,KDUC,2015-05-27T14:15:00Z,34.47,-97.97,22.0,18.0,120,3,,10.0,30.088583,,,TRUE,TRUE,,,,,,,SCT,4100,,,,,,,VFR,,,,,,,,,,,,METAR,339.0
KDUA 271415Z AUTO 00000KT 10SM SCT065 23/17 A3009 RMK AO2,KDUA,2015-05-27T14:15:00Z,33.95,-96.4,23.0,17.0,0,0,,10.0,30.088583,,,TRUE,TRUE,,,,,,,SCT,6500,,,,,,,VFR,,,,,,,,,,,,METAR,213.0
KDRI 271415Z AUTO 09003G08KT 10SM -TSDZ SCT008 SCT020 BKN120 19/18 A3013 RMK AO2 LTG DSNT ALQS T01900182,KDRI,2015-05-27T14:15:00Z,30.83,-93.33,19.0,18.2,90,3,8,10.0,30.129921,,,TRUE,TRUE,,,,,,-TSDZ,SCT,800,SCT,2000,BKN,12000,,,VFR,,,,,,,,,,,,METAR,63.0
KDNS 271415Z AUTO 25007KT 18/16 A3003 RMK AO2,KDNS,2015-05-27T14:15:00Z,41.97,-95.37,18.0,16.0,250,7,,,30.029528,,,TRUE,TRUE,,,,,,,,,,,,,,,,,,,,,,,,,,,METAR,388.0
KDMW 271415Z AUTO 20008KT 10SM SCT018 BKN024 25/22 A3017 RMK AO2,KDMW,2015-05-27T14:15:00Z,39.6,-77.0,25.0,22.0,200,8,,10.0,30.171259,,,TRUE,TRUE,,,,,,,SCT,1800,BKN,2400,,,,,MVFR,,,,,,,,,,,,METAR,241.0
KCZT 271415Z AUTO 14008KT 5SM BR OVC013 26/23 A2999 RMK AO2,KCZT,2015-05-27T14:15:00Z,28.52,-99.82,26.0,23.0,140,8,,5.0,29.991142,,,TRUE,TRUE,,,,,,BR,OVC,1300,,,,,,,MVFR,,,,,,,,,,,,METAR,183.0
KCWC 271415Z AUTO 00000KT 10SM CLR 22/16 A3007 RMK AO2 T02230164,KCWC,2015-05-27T14:15:00Z,33.85,-98.48,22.3,16.4,0,0,,10.0,30.070866,,,TRUE,TRUE,,,,,,,CLR,,,,,,,,VFR,,,,,,,,,,,,METAR,305.0
KCVC 271415Z AUTO 00000KT 10SM SCT032 23/19 A3026 RMK AO2,KCVC,2015-05-27T14:15:00Z,33.63,-83.85,23.0,19.0,0,0,,10.0,30.259842,,,TRUE,TRUE,,,,,,,SCT,3200,,,,,,,VFR,,,,,,,,,,,,METAR,247.0
KCMD 271415Z AUTO 15005KT 10SM OVC007 21/19 A3023 RMK AO2 T02070192,KCMD,2015-05-27T14:15:00Z,34.27,-86.85,20.7,19.2,150,5,,10.0,30.230314,,,TRUE,TRUE,,,,,,,OVC,700,,,,,,,IFR,,,,,,,,,,,,METAR,294.0
KCLK 271415Z AUTO 14005KT 10SM CLR 21/16 A3008 RMK AO2,KCLK,2015-05-27T14:15:00Z,35.53,-98.93,21.0,16.0,140,5,,10.0,30.079725,,,TRUE,TRUE,,,,,,,CLR,,,,,,,,VFR,,,,,,,,,,,,METAR,492.0
KCLI 271415Z AUTO 30006KT 3SM +RA SCT008 BKN014 OVC039 14/13 A2988 RMK AO2 P0002,KCLI,2015-05-27T14:15:00Z,44.62,-88.73,14.0,13.0,300,6,,3.0,29.878937,,,TRUE,TRUE,,,,,,+RA,SCT,800,BKN,1400,OVC,3900,,,MVFR,,,,,,0.02,,,,,,METAR,250.0
KCDH 271415Z AUTO 00000KT 10SM -RA CLR 22/19 A3011 RMK AO2,KCDH,2015-05-27T14:15:00Z,33.62,-92.77,22.0,19.0,0,0,,10.0,30.109253,,,TRUE,TRUE,,,,,,-RA,CLR,,,,,,,,VFR,,,,,,,,,,,,METAR,35.0
KCDA 271415Z AUTO 14007KT 10SM CLR 25/18 A3009 RMK AO2 T02540175,KCDA,2015-05-27T14:15:00Z,44.57,-72.02,25.4,17.5,140,7,,10.0,30.088583,,,TRUE,TRUE,,,,,,,CLR,,,,,,,,VFR,,,,,,,,,,,,METAR,363.0
KCCY 271415Z AUTO 28008KT 10SM CLR 17/16 A3000 RMK AO2,KCCY,2015-05-27T14:15:00Z,43.07,-92.62,17.0,16.0,280,8,,10.0,30.0,,,TRUE,TRUE,,,,,,,CLR,,,,,,,,VFR,,,,,,,,,,,,METAR,343.0
KBXA 271415Z AUTO 18005KT 10SM 26/23 A3018 RMK AO2 T02610234,KBXA,2015-05-27T14:15:00Z,30.82,-89.87,26.1,23.4,180,5,,10.0,30.180119,,,TRUE,TRUE,,,,,,,,,,,,,,,,,,,,,,,,,,,METAR,36.0
KBEA 271415Z AUTO 15011KT 10SM BKN014 BKN019 27/26 A3003 RMK AO2 T02740260,KBEA,2015-05-27T14:15:00Z,28.37,-97.78,27.4,26.0,150,11,,10.0,30.029528,,,TRUE,TRUE,,,,,,,BKN,1400,BKN,1900,,,,,MVFR,,,,,,,,,,,,METAR,82.0
KBDG 271415Z AUTO 03003KT 10SM CLR 14/07 A3024 RMK AO1 T01400070,KBDG,2015-05-27T14:15:00Z,37.58,-109.47,14.0,7.0,30,3,,10.0,30.239174,,,TRUE,TRUE,,,,,,,CLR,,,,,,,,VFR,,,,,,,,,,,,METAR,1788.0
KBCK 271415Z AUTO 25005KT 10SM BKN008 BKN085 17/16 A2994 RMK AO2 T01700157,KBCK,2015-05-27T14:15:00Z,44.25,-90.85,17.0,15.7,250,5,,10.0,29.940945,,,TRUE,TRUE,,,,,,,BKN,800,BKN,8500,,,,,IFR,,,,,,,,,,,,METAR,255.0
KBCB 271415Z AUTO 25004KT 10SM SCT021 22/17 A3030 RMK AO2 T02240165,KBCB,2015-05-27T14:15:00Z,37.22,-80.42,22.4,16.5,250,4,,10.0,30.301182,,,TRUE,TRUE,,,,,,,SCT,2100,,,,,,,VFR,,,,,,,,,,,,METAR,650.0
KAZC 271415Z AUTO 14003KT 10SM CLR 14/08 A3013 RMK AO2 T01410081,KAZC,2015-05-27T14:15:00Z,36.97,-113.02,14.1,8.1,140,3,,10.0,30.129921,,,TRUE,TRUE,,,,,,,CLR,,,,,,,,VFR,,,,,,,,,,,,METAR,1486.0
KAXS 271415Z AUTO 13009KT 10SM OVC030 21/17 A3008 RMK AO2 T02100169,KAXS,2015-05-27T14:15:00Z,34.7,-99.33,21.0,16.9,130,9,,10.0,30.079725,,,TRUE,TRUE,,,,,,,OVC,3000,,,,,,,MVFR,,,,,,,,,,,,METAR,437.0
KAUN 271415Z AUTO 00000KT 10SM CLR 14/09 A2997 RMK AO1,KAUN,2015-05-27T14:15:00Z,38.95,-121.08,14.0,9.0,0,0,,10.0,29.970472,,,TRUE,TRUE,,,,,,,CLR,,,,,,,,VFR,,,,,,,,,,,,METAR,467.0
KASW 271415Z AUTO 24014G18KT 10SM BKN023 22/17 A3000 RMK AO2,KASW,2015-05-27T14:15:00Z,41.27,-85.83,22.0,17.0,240,14,18,10.0,30.0,,,TRUE,TRUE,,,,,,,BKN,2300,,,,,,,MVFR,,,,,,,,,,,,METAR,259.0
KASN 271415Z AUTO 15003KT 10SM SCT017 25/23 A3022 RMK AO2 T02480229,KASN,2015-05-27T14:15:00Z,33.57,-86.05,24.8,22.9,150,3,,10.0,30.221457,,,TRUE,TRUE,,,,,,,SCT,1700,,,,,,,VFR,,,,,,,,,,,,METAR,162.0
KAJG 271415Z AUTO 23010KT 10SM SCT090 25/17 A3009 RMK AO2 LTG DSNT W,KAJG,2015-05-27T14:15:00Z,38.62,-87.73,25.0,17.0,230,10,,10.0,30.088583,,,TRUE,TRUE,,,,,,,SCT,9000,,,,,,,VFR,,,,,,,,,,,,METAR,131.0
KAFO 271415Z AUTO 00000KT 10SM SCT003 BKN038 05/03 A3014 RMK AO2,KAFO,2015-05-27T14:15:00Z,42.72,-110.95,5.0,3.0,0,0,,10.0,30.138779,,,TRUE,TRUE,,,,,,,SCT,300,BKN,3800,,,,,VFR,,,,,,,,,,,,METAR,1897.0
KAAA 271415Z AUTO 24004KT 10SM SCT016 OVC075 22/18 A3000 RMK AO2 T02210180,KAAA,2015-05-27T14:15:00Z,40.17,-89.33,22.1,18.0,240,4,,10.0,30.0,,,TRUE,TRUE,,,,,,,SCT,1600,OVC,7500,,,,,VFR,,,,,,,,,,,,METAR,182.0
K8W2 271415Z AUTO 22006KT 10SM SCT025 25/19 A3016 RMK AO1 T02490189,K8W2,2015-05-27T14:15:00Z,38.65,-78.7,24.9,18.9,220,6,,10.0,30.159449,,,TRUE,TRUE,,,,,,,SCT,2500,,,,,,,VFR,,,,,,,,,,,,METAR,297.0
K7W4 271415Z AUTO 23008KT 10SM CLR 27/19 A3019 RMK AO1 T02670190,K7W4,2015-05-27T14:15:00Z,37.97,-77.75,26.7,19.0,230,8,,10.0,30.188976,,,TRUE,TRUE,,,,,,,CLR,,,,,,,,VFR,,,,,,,,,,,,METAR,106.0
K6A2 271415Z AUTO 00000KT 10SM BKN007 OVC024 21/19 A3027 RMK AO2,K6A2,2015-05-27T14:15:00Z,33.23,-84.27,21.0,19.0,0,0,,10.0,30.268702,,,TRUE,TRUE,,,,,,,BKN,700,OVC,2400,,,,,IFR,,,,,,,,,,,,METAR,292.0
K5R8 271415Z AUTO 15003KT 7SM TSRA SCT075 OVC100 19/19 A3015 RMK AO2 LTG DSNT ALQS T01880188,K5R8,2015-05-27T14:15:00Z,30.43,-93.47,18.8,18.8,150,3,,7.0,30.15059,,,TRUE,TRUE,,,,,,TSRA,SCT,7500,OVC,10000,,,,,VFR,,,,,,,,,,,,METAR,24.0
K5A6 271415Z AUTO 16006KT 10SM SCT015 BKN110 25/22 A3015 RMK AO2 LTG DSNT N AND W T02480219,K5A6,2015-05-27T14:15:00Z,33.47,-89.73,24.8,21.9,160,6,,10.0,30.15059,,,TRUE,TRUE,,,,,,,SCT,1500,BKN,11000,,,,,VFR,,,,,,,,,,,,METAR,111.0
K4O4 271415Z AUTO 08003KT 10SM CLR 22/16 A3010 RMK AO2,K4O4,2015-05-27T14:15:00Z,33.92,-94.87,22.0,16.0,80,3,,10.0,30.100393,,,TRUE,TRUE,,,,,,,CLR,,,,,,,,VFR,,,,,,,,,,,,METAR,144.0
K4A7 271415Z AUTO 20003KT 10SM SCT010 BKN024 23/20 A3027 RMK AO2 T02330203,K4A7,2015-05-27T14:15:00Z,,,23.3,20.3,200,3,,10.0,30.268702,,,TRUE,TRUE,,,,,,,SCT,1000,BKN,2400,,,,,MVFR,,,,,,,,,,,,METAR,
K49A 271415Z AUTO 20003KT 10SM SCT007 BKN017 OVC022 A3029 RMK AO2,K49A,2015-05-27T14:15:00Z,34.63,-84.53,,,200,3,,10.0,30.28937,,,TRUE,TRUE,,,,,,,SCT,700,BKN,1700,OVC,2200,,,MVFR,,,,,,,,,,,,METAR,453.0
K3J7 271415Z AUTO 00000KT 10SM BKN014 BKN018 15/14 A3024 RMK AO2,K3J7,2015-05-27T14:15:00Z,33.6,-83.13,15.0,14.0,0,0,,10.0,30.239174,,,TRUE,TRUE,,,,,,,BKN,1400,BKN,1800,,,,,MVFR,,,,,,,,,,,,METAR,206.0
K3I2 271415Z AUTO 22006KT 10SM BKN018 BKN028 24/20 A3019 RMK AO2,K3I2,2015-05-27T14:15:00Z,38.92,-82.1,24.0,20.0,220,6,,10.0,30.188976,,,TRUE,TRUE,,,,,,,BKN,1800,BKN,2800,,,,,MVFR,,,,,,,,,,,,METAR,196.0
K3D2 271415Z AUTO 31008G15KT 280V340 4SM DZ OVC003 13/13 A2979 RMK AO2 P0001 T01300126,K3D2,2015-05-27T14:15:00Z,45.13,-87.18,13.0,12.6,310,8,15,4.0,29.790354,,,TRUE,TRUE,,,,,,DZ,OVC,300,,,,,,,LIFR,,,,,,0.01,,,,,,METAR,234.0
K2W6 271415Z AUTO 22007KT 10SM SCT017 26/20 A3020 RMK AO1,K2W6,2015-05-27T14:15:00Z,38.32,-76.55,26.0,20.0,220,7,,10.0,30.200787,,,TRUE,TRUE,,,,,,,SCT,1700,,,,,,,VFR,,,,,,,,,,,,METAR,44.0
K2G4 271415Z AUTO 23004KT 7SM BKN003 OVC010 16/ A3025 RMK AO1,K2G4,2015-05-27T14:15:00Z,39.58,-79.33,16.0,,230,4,,7.0,30.250984,,,TRUE,TRUE,,,,,,,BKN,300,OVC,1000,,,,,LIFR,,,,,,,,,,,,METAR,894.0
K1K1 271415Z AUTO 11006KT 10SM CLR 20/14 A3008 RMK AO2 T01980139,K1K1,2015-05-27T14:15:00Z,37.77,-97.12,19.8,13.9,110,6,,10.0,30.079725,,,TRUE,TRUE,,,,,,,CLR,,,,,,,,VFR,,,,,,,,,,,,METAR,416.0
K1A9 271415Z AUTO 00000KT 10SM SCT018 SCT027 BKN036 22/20 A3020 RMK AO2 T02240200,K1A9,2015-05-27T14:15:00Z,32.43,-86.52,22.4,20.0,0,0,,10.0,30.200787,,,TRUE,TRUE,,,,,,,SCT,1800,SCT,2700,BKN,3600,,,VFR,,,,,,,,,,,,METAR,69.0
CMGB 271415Z AUTO 20006KT 27/20 RMK AO1 SLP148 T02700198 58008,CMGB,2015-05-27T14:15:00Z,45.37,-72.77,27.0,19.8,200,6,,,,1014.8,,TRUE,TRUE,,,,,,,,,,,,,,,,-0.8,,,,,,,,,,,METAR,86.0
KFOA 271415Z AUTO 23009KT 10SM -RA CLR 21/18 A3010 RMK AO2 LTG DSNT S AND SW T02050177,KFOA,2015-05-27T14:15:00Z,38.67,-88.45,20.5,17.7,230,9,,10.0,30.100393,,,TRUE,TRUE,,,,,,-RA,CLR,,,,,,,,VFR,,,,,,,,,,,,METAR,144.0
KFME 271415Z AUTO 22008G15KT 10SM OVC019 23/20 A3019 RMK AO1,KFME,2015-05-27T14:15:00Z,39.08,-76.77,23.0,20.0,220,8,15,10.0,30.188976,,,TRUE,TRUE,,,,,,,OVC,1900,,,,,,,MVFR,,,,,,,,,,,,METAR,46.0
KFKR 271415Z AUTO 20015G20KT 10SM CLR 25/18 A3005 RMK AO2 T02450177,KFKR,2015-05-27T14:15:00Z,40.27,-86.57,24.5,17.7,200,15,20,10.0,30.050198,,,TRUE,TRUE,,,,,,,CLR,,,,,,,,VFR,,,,,,,,,,,,METAR,262.0
KFEP 271415Z AUTO 28007KT 10SM -RA BKN013 OVC021 16/15 A2998 RMK AO2 T01640147,KFEP,2015-05-27T14:15:00Z,42.25,-89.58,16.4,14.7,280,7,,10.0,29.97933,,,TRUE,TRUE,,,,,,-RA,BKN,1300,OVC,2100,,,,,MVFR,,,,,,,,,,,,METAR,262.0
KF46 271415Z AUTO 10006KT 10SM CLR A3009 RMK AO2,KF46,2015-05-27T14:15:00Z,32.93,-96.43,,,100,6,,10.0,30.088583,,,TRUE,TRUE,,,,,,,CLR,,,,,,,,VFR,,,,,,,,,,,,METAR,176.0
KGCM 271415Z AUTO 00000KT 10SM 22/18 A3010 RMK AO2,KGCM,2015-05-27T14:15:00Z,36.3,-95.48,22.0,18.0,0,0,,10.0,30.100393,,,TRUE,TRUE,,,,,,,,,,,,,,,,,,,,,,,,,,,METAR,221.0
KFZG 271415Z AUTO 00000KT 10SM BKN011 OVC080 26/23 A3027 RMK AO2 T02550227,KFZG,2015-05-27T14:15:00Z,31.68,-83.27,25.5,22.7,0,0,,10.0,30.268702,,,TRUE,TRUE,,,,,,,BKN,1100,OVC,8000,,,,,MVFR,,,,,,,,,,,,METAR,111.0
PAAD 271415Z AUTO 10009KT 3SM BR OVC002 00/00 A3029 RMK AO2,PAAD,2015-05-27T14:15:00Z,70.13,-146.28,0.0,0.0,100,9,,3.0,30.28937,,,TRUE,TRUE,,,,,,BR,OVC,200,,,,,,,LIFR,,,,,,,,,,,,METAR,8.0
SBRB 271415Z 05005KT 9999 SCT011 BKN100 27/24 Q1015,SBRB,2015-05-27T14:15:00Z,-10.0,-67.78,27.0,24.0,50,5,,6.21,29.970472,,,,,,,,,,,SCT,1100,BKN,10000,,,,,VFR,,,,,,,,,,,,METAR,143.0
KMGN 271415Z AUTO 26008KT 1SM +DZ OVC001 12/12 A2976 RMK AO2 T01250121,KMGN,2015-05-27T14:15:00Z,45.43,-84.92,12.5,12.1,260,8,,1.0,29.760826,,,TRUE,TRUE,,,,,,+DZ,OVC,100,,,,,,,LIFR,,,,,,,,,,,,SPECI,209.0
KPWT 271415Z AUTO 26003KT 10SM BKN002 OVC050 12/12 A3009 RMK AO1,KPWT,2015-05-27T14:15:00Z,47.5,-122.75,12.0,12.0,260,3,,10.0,30.088583,,,TRUE,TRUE,,,,,,,BKN,200,OVC,5000,,,,,LIFR,,,,,,,,,,,,SPECI,147.0
KPVG 271415Z AUTO 20009KT 10SM BKN023 28/21 A3025 RMK AO1,KPVG,2015-05-27T14:15:00Z,36.78,-76.45,28.0,21.0,200,9,,10.0,30.250984,,,TRUE,TRUE,,,,,,,BKN,2300,,,,,,,MVFR,,,,,,,,,,,,SPECI,7.0
KPVE 271415Z AUTO 17005KT 10SM FEW012 SCT047 SCT055 23/20 A3017 RMK,KPVE,2015-05-27T14:15:00Z,35.65,-88.2,23.0,20.0,170,5,,10.0,30.171259,,,TRUE,,,,,,,,FEW,1200,SCT,4700,SCT,5500,,,VFR,,,,,,,,,,,,METAR,149.0
KPVC 271415Z 20016G21KT 10SM CLR 20/15 A3020 RMK AO1,KPVC,2015-05-27T14:15:00Z,42.07,-70.22,20.0,15.0,200,16,21,10.0,30.200787,,,,TRUE,,,,,,,CLR,,,,,,,,VFR,,,,,,,,,,,,SPECI,2.0
KPTV 271415Z AUTO 18003KT 10SM CLR 15/09 A2997 RMK AO1,KPTV,2015-05-27T14:15:00Z,36.02,-119.07,15.0,9.0,180,3,,10.0,29.970472,,,TRUE,TRUE,,,,,,,CLR,,,,,,,,VFR,,,,,,,,,,,,SPECI,135.0
KPSO 271415Z AUTO 00000KT 10SM CLR 10/04 A3029 RMK AO2 T00950043,KPSO,2015-05-27T14:15:00Z,37.28,-107.05,9.5,4.3,0,0,,10.0,30.28937,,,TRUE,TRUE,,,,,,,CLR,,,,,,,,VFR,,,,,,,,,,,,SPECI,2334.0
KPQI 271415Z AUTO 14004KT 10SM FEW120 26/17 A3002 RMK AO1,KPQI,2015-05-27T14:15:00Z,46.67,-68.03,26.0,17.0,140,4,,10.0,30.02067,,,TRUE,TRUE,,,,,,,FEW,12000,,,,,,,VFR,,,,,,,,,,,,SPECI,146.0
LIRU 271415Z VRB03KT 9999 SCT030 13/13 Q1010 RESHRA,LIRU,2015-05-27T14:15:00Z,41.95,12.5,13.0,13.0,0,3,,6.21,29.822834,,,,,,,,,,,SCT,3000,,,,,,,VFR,,,,,,,,,,,,SPECI,24.0
K0S9 271415Z AUTO 00000KT 10SM OVC004 12/11 A3008 RMK AO2,K0S9,2015-05-27T14:15:00Z,,,12.0,11.0,0,0,,10.0,30.079725,,,TRUE,TRUE,,,,,,,OVC,400,,,,,,,LIFR,,,,,,,,,,,,SPECI,
KYKN 271415Z AUTO 22004KT 10SM CLR 19/13 A3002 RMK AO1,KYKN,2015-05-27T14:15:00Z,42.92,-97.37,19.0,13.0,220,4,,10.0,30.02067,,,TRUE,TRUE,,,,,,,CLR,,,,,,,,VFR,,,,,,,,,,,,SPECI,398.0
KWWD 271415Z AUTO 18010KT 10SM CLR 26/18 A3022 RMK AO1,KWWD,2015-05-27T14:15:00Z,39.02,-74.92,26.0,18.0,180,10,,10.0,30.221457,,,TRUE,TRUE,,,,,,,CLR,,,,,,,,VFR,,,,,,,,,,,,SPECI,7.0
KWVL 271415Z 18003KT 10SM CLR 23/18 A3006 RMK AO1,KWVL,2015-05-27T14:15:00Z,44.52,-69.67,23.0,18.0,180,3,,10.0,30.059055,,,,TRUE,,,,,,,CLR,,,,,,,,VFR,,,,,,,,,,,,SPECI,101.0
KVIS 271415Z AUTO 27003KT 10SM CLR 14/08 A2995 RMK AO1,KVIS,2015-05-27T14:15:00Z,36.32,-119.4,14.0,8.0,270,3,,10.0,29.949802,,,TRUE,TRUE,,,,,,,CLR,,,,,,,,VFR,,,,,,,,,,,,SPECI,89.0
KUCY 271415Z AUTO 23008KT 10SM FEW016 BKN031 24/00 A3013 RMK,KUCY,2015-05-27T14:15:00Z,36.38,-88.98,24.0,0.0,230,8,,10.0,30.129921,,,TRUE,,,,,,,,FEW,1600,BKN,3100,,,,,VFR,,,,,,,,,,,,METAR,104.0
KTVF 271415Z AUTO 33007KT 10SM CLR 15/09 A2993 RMK AO1,KTVF,2015-05-27T14:15:00Z,48.07,-96.17,15.0,9.0,330,7,,10.0,29.929134,,,TRUE,TRUE,,,,,,,CLR,,,,,,,,VFR,,,,,,,,,,,,SPECI,340.0
KTME 271415Z AUTO 27008KT 3SM RA SCT006 BKN047 OVC100 20/20 A3017 RMK AO2,KTME,2015-05-27T14:15:00Z,29.8,-95.9,20.0,20.0,270,8,,3.0,30.171259,,,TRUE,TRUE,,,,,,RA,SCT,600,BKN,4700,OVC,10000,,,MVFR,,,,,,,,,,,,SPECI,51.0
KTHA 271415Z AUTO 19006KT 10SM BKN014 22/19 A3023 RMK,KTHA,2015-05-27T14:15:00Z,35.38,-86.25,22.0,19.0,190,6,,10.0,30.230314,,,TRUE,,,,,,,,BKN,1400,,,,,,,MVFR,,,,,,,,,,,,METAR,331.0
KSRB 271415Z AUTO 22007KT 10SM BKN017 OVC022 23/19 A3021 RMK,KSRB,2015-05-27T14:15:00Z,36.05,-85.53,23.0,19.0,220,7,,10.0,30.209646,,,TRUE,,,,,,,,BKN,1700,OVC,2200,,,,,MVFR,,,,,,,,,,,,METAR,313.0
KSPL 271415Z AUTO 20011KT 43/43 A3001 RMK AO1,KSPL,2015-05-27T14:15:00Z,26.07,-97.15,43.0,43.0,200,11,,,30.008858,,,TRUE,TRUE,,,,,,,,,,,,,,,,,,,,,,,,,,,SPECI,4.0
KSOP 271415Z AUTO 25007KT 10SM FEW055 27/19 A3026 RMK AO1,KSOP,2015-05-27T14:15:00Z,35.22,-79.4,27.0,19.0,250,7,,10.0,30.259842,,,TRUE,TRUE,,,,,,,FEW,5500,,,,,,,VFR,,,,,,,,,,,,SPECI,141.0
KSNH 271415Z AUTO 00000KT 10SM SCT012 SCT040 BKN047 23/00 A3019 RMK,KSNH,2015-05-27T14:15:00Z,35.17,-88.22,23.0,0.0,0,0,,10.0,30.188976,,,TRUE,,,,,,,,SCT,1200,SCT,4000,BKN,4700,,,VFR,,,,,,,,,,,,METAR,144.0
KSMS 271415Z AUTO VRB05KT 10SM FEW021 SCT028 BKN080 29/25 A3026 RMK AO2,KSMS,2015-05-27T14:15:00Z,34.0,-80.37,29.0,25.0,0,5,,10.0,30.259842,,,TRUE,TRUE,,,,,,,FEW,2100,SCT,2800,BKN,8000,,,VFR,,,,,,,,,,,,SPECI,56.0
KSFZ 271415Z 20006KT 10SM CLR 23/16 A3019 RMK AO1,KSFZ,2015-05-27T14:15:00Z,41.92,-71.5,23.0,16.0,200,6,,10.0,30.188976,,,,TRUE,,,,,,,CLR,,,,,,,,VFR,,,,,,,,,,,,SPECI,134.0
KSFM 271415Z 23009KT 10SM CLR 27/17 A3012 RMK AO1,KSFM,2015-05-27T14:15:00Z,43.38,-70.72,27.0,17.0,230,9,,10.0,30.121063,,,,TRUE,,,,,,,CLR,,,,,,,,VFR,,,,,,,,,,,,SPECI,74.0
KRUT 271415Z AUTO 22010G15KT 10SM CLR 27/17 A3008 RMK AO1,KRUT,2015-05-27T14:15:00Z,43.52,-72.95,27.0,17.0,220,10,15,10.0,30.079725,,,TRUE,TRUE,,,,,,,CLR,,,,,,,,VFR,,,,,,,,,,,,SPECI,240.0
KRKD 271415Z AUTO 24013KT 10SM CLR 19/15 A3011 RMK AO1,KRKD,2015-05-27T14:15:00Z,44.07,-69.08,19.0,15.0,240,13,,10.0,30.109253,,,TRUE,TRUE,,,,,,,CLR,,,,,,,,VFR,,,,,,,,,,,,SPECI,17.0
KRBW 271415Z AUTO 14007KT 10SM CLR 27/20 A3027 RMK AO2,KRBW,2015-05-27T14:15:00Z,32.92,-80.63,27.0,20.0,140,7,,10.0,30.268702,,,TRUE,TRUE,,,,,,,CLR,,,,,,,,VFR,,,,,,,,,,,,SPECI,31.0
KNMM 271415Z 16007KT 10SM OVC005 23/22 A3019 RMK AO2 T02330217 $,KNMM,2015-05-27T14:15:00Z,32.53,-88.57,23.3,21.7,160,7,,10.0,30.188976,,,,TRUE,TRUE,,,,,,OVC,500,,,,,,,IFR,,,,,,,,,,,,SPECI,97.0
KJYM 271415Z AUTO 23008G14KT 10SM SCT021 BKN028 22/18 A2999 RMK AO2 T02230183,KJYM,2015-05-27T14:15:00Z,41.92,-84.58,22.3,18.3,230,8,14,10.0,29.991142,,,TRUE,TRUE,,,,,,,SCT,2100,BKN,2800,,,,,MVFR,,,,,,,,,,,,SPECI,360.0
KLDM 271415Z AUTO 23010G16KT 10SM SCT006 SCT020 BKN070 16/14 A2987 RMK AO2 T01600136,KLDM,2015-05-27T14:15:00Z,43.97,-86.4,16.0,13.6,230,10,16,10.0,29.870079,,,TRUE,TRUE,,,,,,,SCT,600,SCT,2000,BKN,7000,,,VFR,,,,,,,,,,,,SPECI,197.0
KLWA 271415Z AUTO 24015G23KT 10SM CLR 21/16 A2995 RMK AO2 T02090156,KLWA,2015-05-27T14:15:00Z,42.35,-86.25,20.9,15.6,240,15,23,10.0,29.949802,,,TRUE,TRUE,,,,,,,CLR,,,,,,,,VFR,,,,,,,,,,,,SPECI,203.0
KARW 271415Z AUTO 17003KT 7SM SCT030 SCT035 27/20 A3027 RMK AO2,KARW,2015-05-27T14:15:00Z,32.42,-80.63,27.0,20.0,170,3,,7.0,30.268702,,,TRUE,TRUE,,,,,,,SCT,3000,SCT,3500,,,,,VFR,,,,,,,,,,,,SPECI,4.0
KPIB 271415Z AUTO 16008KT 10SM BKN008 BKN015 OVC021 24/22 A3018 RMK AO1,KPIB,2015-05-27T14:15:00Z,31.47,-89.32,24.0,22.0,160,8,,10.0,30.180119,,,TRUE,TRUE,,,,,,,BKN,800,BKN,1500,OVC,2100,,,IFR,,,,,,,,,,,,SPECI,91.0
KPAN 271415Z AUTO 05004KT 10SM CLR 17/02 A3014 RMK AO2,KPAN,2015-05-27T14:15:00Z,34.25,-111.33,17.0,2.0,50,4,,10.0,30.138779,,,TRUE,TRUE,,,,,,,CLR,,,,,,,,VFR,,,,,,,,,,,,SPECI,1572.0
KOZS 271415Z AUTO 24004KT 10SM CLR 20/18 A3010 RMK AO2,KOZS,2015-05-27T14:15:00Z,37.97,-92.68,20.0,18.0,240,4,,10.0,30.100393,,,TRUE,TRUE,,,,,,,CLR,,,,,,,,VFR,,,,,,,,,,,,SPECI,324.0
KFAM 271415Z AUTO 24004KT 10SM SCT110 17/15 A3009 RMK AO1,KFAM,2015-05-27T14:15:00Z,37.77,-90.42,17.0,15.0,240,4,,10.0,30.088583,,,TRUE,TRUE,,,,,,,SCT,11000,,,,,,,VFR,,,,,,,,,,,,SPECI,288.0
KEEN 271415Z AUTO 22008KT 180V240 10SM CLR A3012 RMK AO1,KEEN,2015-05-27T14:15:00Z,42.88,-72.27,,,220,8,,10.0,30.121063,,,TRUE,TRUE,,,,,,,CLR,,,,,,,,VFR,,,,,,,,,,,,SPECI,149.0
KEAR 271415Z AUTO 22008KT 10SM CLR 18/11 A3011 RMK AO1,KEAR,2015-05-27T14:15:00Z,40.72,-99.0,18.0,11.0,220,8,,10.0,30.109253,,,TRUE,TRUE,,,,,,,CLR,,,,,,,,VFR,,,,,,,,,,,,SPECI,649.0
KE80 271415Z AUTO 33004KT 10SM CLR 16/08 A3017 RMK AO2 T01640082,KE80,2015-05-27T14:15:00Z,34.65,-106.83,16.4,8.2,330,4,,10.0,30.171259,,,TRUE,TRUE,,,,,,,CLR,,,,,,,,VFR,,,,,,,,,,,,SPECI,1582.0
KDVL 271415Z AUTO 05007KT 10SM CLR 15/08 A2996 RMK AO1,KDVL,2015-05-27T14:15:00Z,48.12,-98.92,15.0,8.0,50,7,,10.0,29.958662,,,TRUE,TRUE,,,,,,,CLR,,,,,,,,VFR,,,,,,,,,,,,SPECI,443.0
KDCM 271415Z AUTO 00000KT 10SM SCT005 SCT120 22/20 A3028 RMK AO2,KDCM,2015-05-27T14:15:00Z,34.78,-81.2,22.0,20.0,0,0,,10.0,30.280512,,,TRUE,TRUE,,,,,,,SCT,500,SCT,12000,,,,,VFR,,,,,,,,,,,,SPECI,200.0
KD57 271415Z AUTO 14003KT 10SM CLR 18/10 A2997 RMK AO2,KD57,2015-05-27T14:15:00Z,46.82,-101.87,18.0,10.0,140,3,,10.0,29.970472,,,TRUE,TRUE,,,,,,,CLR,,,,,,,,VFR,,,,,,,,,,,,SPECI,637.0
KCWI 271415Z AUTO 28015KT 10SM FEW019 BKN025 OVC034 18/14 A3001 RMK AO1,KCWI,2015-05-27T14:15:00Z,41.82,-90.32,18.0,14.0,280,15,,10.0,30.008858,,,TRUE,TRUE,,,,,,,FEW,1900,BKN,2500,OVC,3400,,,MVFR,,,,,,,,,,,,SPECI,216.0
KCVO 271415Z 30004KT 10SM CLR 12/09 A3008 RMK AO1,KCVO,2015-05-27T14:15:00Z,44.5,-123.27,12.0,9.0,300,4,,10.0,30.079725,,,,TRUE,,,,,,,CLR,,,,,,,,VFR,,,,,,,,,,,,SPECI,75.0
KCOE 271415Z AUTO 09004KT 10SM FEW004 11/M13 A3002 RMK AO1,KCOE,2015-05-27T14:15:00Z,47.77,-116.82,11.0,-13.0,90,4,,10.0,30.02067,,,TRUE,TRUE,,,,,,,FEW,400,,,,,,,VFR,,,,,,,,,,,,SPECI,707.0
KCMR 271415Z AUTO 16005KT 10SM CLR 14/02 A3026 RMK AO2,KCMR,2015-05-27T14:15:00Z,35.3,-112.2,14.0,2.0,160,5,,10.0,30.259842,,,TRUE,TRUE,,,,,,,CLR,,,,,,,,VFR,,,,,,,,,,,,SPECI,2036.0
KCGZ 271415Z AUTO 14003KT 10SM CLR 22/03 A2993 RMK AO1,KCGZ,2015-05-27T14:15:00Z,32.95,-111.77,22.0,3.0,140,3,,10.0,29.929134,,,TRUE,TRUE,,,,,,,CLR,,,,,,,,VFR,,,,,,,,,,,,SPECI,446.0
KCGC 271415Z AUTO 13005KT 10SM SCT023 27/21 A3021 RMK AO2,KCGC,2015-05-27T14:15:00Z,28.87,-82.57,27.0,21.0,130,5,,10.0,30.209646,,,TRUE,TRUE,,,,,,,SCT,2300,,,,,,,VFR,,,,,,,,,,,,SPECI,3.0
KGPH 271415Z AUTO 00000KT 10SM CLR 20/13 A3007 RMK AO2,KGPH,2015-05-27T14:15:00Z,39.33,-94.32,20.0,13.0,0,0,,10.0,30.070866,,,TRUE,TRUE,,,,,,,CLR,,,,,,,,VFR,,,,,,,,,,,,METAR,235.0
K0CO 271415Z AUTO 28027G32KT 10SM SCT017 BKN024 BKN032 M01/M06 A3038 RMK AO2,K0CO,2015-05-27T14:15:00Z,39.8,-105.77,-1.0,-6.0,280,27,32,10.0,30.380905,,,TRUE,TRUE,,,,,,,SCT,1700,BKN,2400,BKN,3200,,,MVFR,,,,,,,,,,,,SPECI,3807.0
K0A9 271415Z AUTO 00000KT 10SM FEW021 21/16 A3026 RMK,K0A9,2015-05-27T14:15:00Z,36.37,-82.17,21.0,16.0,0,0,,10.0,30.259842,,,TRUE,,,,,,,,FEW,2100,,,,,,,VFR,,,,,,,,,,,,METAR,486.0
K08D 271415Z AUTO 09005KT 10SM CLR 19/10 A2997 RMK AO2,K08D,2015-05-27T14:15:00Z,48.3,-102.4,19.0,10.0,90,5,,10.0,29.970472,,,TRUE,TRUE,,,,,,,CLR,,,,,,,,VFR,,,,,,,,,,,,SPECI,684.0
KCXP 271415Z AUTO 00000KT 10SM CLR 11/04 A3009 RMK AO2,KCXP,2015-05-27T14:15:00Z,39.18,-119.73,11.0,4.0,0,0,,10.0,30.088583,,,TRUE,TRUE,,,,,,,CLR,,,,,,,,VFR,,,,,,,,,,,,SPECI,1435.0
KSKX 271415Z AUTO 09003KT 10SM CLR 12/02 A3027 RMK AO1,KSKX,2015-05-27T14:15:00Z,36.45,-105.67,12.0,2.0,90,3,,10.0,30.268702,,,TRUE,TRUE,,,,,,,CLR,,,,,,,,VFR,,,,,,,,,,,,SPECI,2161.0
KSGU 271415Z AUTO 00000KT 10SM CLR 18/03 A3004 RMK AO1,KSGU,2015-05-27T14:15:00Z,37.07,-113.52,18.0,3.0,0,0,,10.0,30.041338,,,TRUE,TRUE,,,,,,,CLR,,,,,,,,VFR,,,,,,,,,,,,SPECI,896.0
KSGT 271415Z AUTO 17011KT 10SM FEW038 BKN050 24/18 A3012 RMK AO1 LTG DSNT SE,KSGT,2015-05-27T14:15:00Z,34.6,-91.57,24.0,18.0,170,11,,10.0,30.121063,,,TRUE,TRUE,,,,,,,FEW,3800,BKN,5000,,,,,VFR,,,,,,,,,,,,SPECI,68.0
KSDY 271415Z AUTO 00000KT 10SM CLR 17/09 A2993 RMK AO1,KSDY,2015-05-27T14:15:00Z,47.7,-104.2,17.0,9.0,0,0,,10.0,29.929134,,,TRUE,TRUE,,,,,,,CLR,,,,,,,,VFR,,,,,,,,,,,,SPECI,605.0
KRZT 271415Z AUTO 25010KT 10SM SCT024 SCT035 SCT041 22/17 A3015 RMK AO2,KRZT,2015-05-27T14:15:00Z,39.43,-83.02,22.0,17.0,250,10,,10.0,30.15059,,,TRUE,TRUE,,,,,,,SCT,2400,SCT,3500,SCT,4100,,,VFR,,,,,,,,,,,,SPECI,221.0
KFOT 271415Z AUTO 00000KT 1SM OVC002 09/09 A3004 RMK AO1,KFOT,2015-05-27T14:15:00Z,40.55,-124.13,9.0,9.0,0,0,,1.0,30.041338,,,TRUE,TRUE,,,,,,,OVC,200,,,,,,,LIFR,,,,,,,,,,,,METAR,120.0
KEDU 271415Z AUTO 29003KT 10SM CLR 13/10 A2997 RMK AO1,KEDU,2015-05-27T14:15:00Z,38.53,-121.78,13.0,10.0,290,3,,10.0,29.970472,,,TRUE,TRUE,,,,,,,CLR,,,,,,,,VFR,,,,,,,,,,,,METAR,21.0
KE16 271415Z AUTO 13003KT 10SM OVC014 12/10 A3004 RMK AO2,KE16,2015-05-27T14:15:00Z,37.08,-121.6,12.0,10.0,130,3,,10.0,30.041338,,,TRUE,TRUE,,,,,,,OVC,1400,,,,,,,MVFR,,,,,,,,,,,,METAR,86.0
KCRX 271415Z AUTO 17004KT 10SM FEW013 SCT050 SCT100 23/20 A3017 RMK AO2,KCRX,2015-05-27T14:15:00Z,34.92,-88.6,23.0,20.0,170,4,,10.0,30.171259,,,TRUE,TRUE,,,,,,,FEW,1300,SCT,5000,SCT,10000,,,VFR,,,,,,,,,,,,METAR,130.0
K65S 271415Z AUTO 17003KT 10SM CLR 12/10 A3003 RMK AO2,K65S,2015-05-27T14:15:00Z,48.73,-116.3,12.0,10.0,170,3,,10.0,30.029528,,,TRUE,TRUE,,,,,,,CLR,,,,,,,,VFR,,,,,,,,,,,,METAR,713.0
KSUE 271415Z AUTO 29008KT 4SM OVC004 14/12 A2984 RMK AO1,KSUE,2015-05-27T14:15:00Z,44.85,-87.42,14.0,12.0,290,8,,4.0,29.840551,,,TRUE,TRUE,,,,,,,OVC,400,,,,,,,LIFR,,,,,,,,,,,,SPECI,221.0
KSQI 271415Z AUTO 28015KT 10SM FEW017 21/16 A2997 RMK AO1,KSQI,2015-05-27T14:15:00Z,41.75,-89.67,21.0,16.0,280,15,,10.0,29.970472,,,TRUE,TRUE,,,,,,,FEW,1700,,,,,,,VFR,,,,,,,,,,,,SPECI,197.0
KSMN 271415Z AUTO 00000KT 10SM BKN050 BKN055 10/07 A3004 RMK AO1,KSMN,2015-05-27T14:15:00Z,45.12,-113.87,10.0,7.0,0,0,,10.0,30.041338,,,TRUE,TRUE,,,,,,,BKN,5000,BKN,5500,,,,,VFR,,,,,,,,,,,,SPECI,1233.0
KSLG 271415Z AUTO 06004KT 10SM CLR 22/16 A3013 RMK AO1,KSLG,2015-05-27T14:15:00Z,36.2,-94.47,22.0,16.0,60,4,,10.0,30.129921,,,TRUE,TRUE,,,,,,,CLR,,,,,,,,VFR,,,,,,,,,,,,SPECI,300.0
K20V 271415Z AUTO 00000KT 10SM OVC075 10/05 A3022 RMK AO2,K20V,2015-05-27T14:15:00Z,40.05,-106.37,10.0,5.0,0,0,,10.0,30.221457,,,TRUE,TRUE,,,,,,,OVC,7500,,,,,,,VFR,,,,,,,,,,,,SPECI,2259.0
K42J 271415Z AUTO 14007KT 10SM SCT035 27/19 A3023 RMK AO1 TSNO,K42J,2015-05-27T14:15:00Z,29.85,-82.05,27.0,19.0,140,7,,10.0,30.230314,,,TRUE,TRUE,,,TRUE,,,,SCT,3500,,,,,,,VFR,,,,,,,,,,,,SPECI,60.0
K33V 271415Z AUTO 18013KT 10SM SCT043 08/02 A3021 RMK AO2,K33V,2015-05-27T14:15:00Z,40.75,-106.28,8.0,2.0,180,13,,10.0,30.209646,,,TRUE,TRUE,,,,,,,SCT,4300,,,,,,,VFR,,,,,,,,,,,,SPECI,2484.0
K4BM 271415Z AUTO 22009G15KT 10SM CLR 02/00 A3038 RMK AO2,K4BM,2015-05-27T14:15:00Z,39.05,-105.52,2.0,0.0,220,9,15,10.0,30.380905,,,TRUE,TRUE,,,,,,,CLR,,,,,,,,VFR,,,,,,,,,,,,SPECI,3438.0
K6L4 271415Z AUTO VRB04KT 10SM SCT036 BKN044 BKN050 22/18 A3020 RMK AO2,K6L4,2015-05-27T14:15:00Z,37.85,-81.92,22.0,18.0,0,4,,10.0,30.200787,,,TRUE,TRUE,,,,,,,SCT,3600,BKN,4400,BKN,5000,,,VFR,,,,,,,,,,,,SPECI,508.0
KM25 271415Z AUTO 21009KT 10SM BKN013 24/21 A3013 RMK AO2,KM25,2015-05-27T14:15:00Z,36.77,-88.58,24.0,21.0,210,9,,10.0,30.129921,,,TRUE,TRUE,,,,,,,BKN,1300,,,,,,,MVFR,,,,,,,,,,,,SPECI,160.0
KDYB 271415Z AUTO 15006KT 10SM SCT025 SCT033 SCT040 26/21 A3028 RMK AO1,KDYB,2015-05-27T14:15:00Z,33.07,-80.28,26.0,21.0,150,6,,10.0,30.280512,,,TRUE,TRUE,,,,,,,SCT,2500,SCT,3300,SCT,4000,,,VFR,,,,,,,,,,,,SPECI,18.0
KD55 271415Z AUTO 02010KT 10SM SCT100 SCT120 13/08 A2998 RMK AO2,KD55,2015-05-27T14:15:00Z,48.75,-98.4,13.0,8.0,20,10,,10.0,29.97933,,,TRUE,TRUE,,,,,,,SCT,10000,SCT,12000,,,,,VFR,,,,,,,,,,,,SPECI,491.0
KCKI 271415Z AUTO 21006KT 10SM SCT021 SCT028 BKN060 28/26 A3026 RMK AO2,KCKI,2015-05-27T14:15:00Z,33.72,-79.85,28.0,26.0,210,6,,10.0,30.259842,,,TRUE,TRUE,,,,,,,SCT,2100,SCT,2800,BKN,6000,,,VFR,,,,,,,,,,,,SPECI,21.0
KAQX 271415Z AUTO 21005KT 10SM BKN017 BKN023 BKN041 26/22 A3026 RMK AO2,KAQX,2015-05-27T14:15:00Z,32.98,-81.27,26.0,22.0,210,5,,10.0,30.259842,,,TRUE,TRUE,,,,,,,BKN,1700,BKN,2300,BKN,4100,,,MVFR,,,,,,,,,,,,SPECI,49.0
KAQP 271415Z AUTO 32006KT 10SM CLR 20/12 A2993 RMK AO2,KAQP,2015-05-27T14:15:00Z,45.22,-96.0,20.0,12.0,320,6,,10.0,29.929134,,,TRUE,TRUE,,,,,,,CLR,,,,,,,,VFR,,,,,,,,,,,,SPECI,311.0
KAWO 271415Z AUTO 00000KT 6SM 12/09 A3008 RMK AO1,KAWO,2015-05-27T14:15:00Z,48.17,-122.17,12.0,9.0,0,0,,6.0,30.079725,,,TRUE,TRUE,,,,,,,,,,,,,,,,,,,,,,,,,,,SPECI,42.0
KATS 271415Z AUTO 13005KT 10SM CLR 20/10 A3010 RMK AO2,KATS,2015-05-27T14:15:00Z,32.85,-104.47,20.0,10.0,130,5,,10.0,30.100393,,,TRUE,TRUE,,,,,,,CLR,,,,,,,,VFR,,,,,,,,,,,,SPECI,1081.0
KLDJ 271415Z AUTO 28005KT 10SM OVC016 26/22 A3019 RMK AO2 T02630216,KLDJ,2015-05-27T14:15:00Z,40.62,-74.25,26.3,21.6,280,5,,10.0,30.188976,,,TRUE,TRUE,,,,,,,OVC,1600,,,,,,,MVFR,,,,,,,,,,,,SPECI,7.0
KJZI 271415Z AUTO 00000KT 10SM OVC001 27/19 A3028 RMK A02 P000,KJZI,2015-05-27T14:15:00Z,32.7,-80.0,27.0,19.0,0,0,,10.0,30.280512,,,TRUE,TRUE,,,,,,,OVC,100,,,,,,,LIFR,,,,,,,,,,,,SPECI,6.0
KBFW 271415Z AUTO 00000KT 10SM CLR 22/12 A2979 RMK AO2,KBFW,2015-05-27T14:15:00Z,47.25,-91.4,22.0,12.0,0,0,,10.0,29.790354,,,TRUE,TRUE,,,,,,,CLR,,,,,,,,VFR,,,,,,,,,,,,SPECI,331.0
KBGF 271415Z AUTO VRB03KT 10SM SCT018 SCT023 BKN039 23/19 A3022 RMK,KBGF,2015-05-27T14:15:00Z,35.18,-86.07,23.0,19.0,0,3,,10.0,30.221457,,,TRUE,,,,,,,,SCT,1800,SCT,2300,BKN,3900,,,VFR,,,,,,,,,,,,METAR,299.0
KBID 271415Z AUTO 21013KT 10SM OVC009 17/13 A3024 RMK AO1,KBID,2015-05-27T14:15:00Z,41.17,-71.58,17.0,13.0,210,13,,10.0,30.239174,,,TRUE,TRUE,,,,,,,OVC,900,,,,,,,IFR,,,,,,,,,,,,SPECI,33.0
KBHB 271415Z 20009KT 10SM CLR 17/16 A3013 RMK AO1,KBHB,2015-05-27T14:15:00Z,44.45,-68.37,17.0,16.0,200,9,,10.0,30.129921,,,,TRUE,,,,,,,CLR,,,,,,,,VFR,,,,,,,,,,,,SPECI,26.0
KBKX 271415Z AUTO 30008KT 10SM CLR 19/12 A2999 RMK AO1,KBKX,2015-05-27T14:15:00Z,44.28,-96.82,19.0,12.0,300,8,,10.0,29.991142,,,TRUE,TRUE,,,,,,,CLR,,,,,,,,VFR,,,,,,,,,,,,SPECI,502.0
KBVU 271415Z AUTO 04005KT 10SM CLR 23/02 A2994 RMK AO2,KBVU,2015-05-27T14:15:00Z,35.95,-114.87,23.0,2.0,40,5,,10.0,29.940945,,,TRUE,TRUE,,,,,,,CLR,,,,,,,,VFR,,,,,,,,,,,,SPECI,671.0
KBLM 271415Z AUTO 22008KT 10SM BKN016 26/19 A3019 RMK AO1,KBLM,2015-05-27T14:15:00Z,40.17,-74.12,26.0,19.0,220,8,,10.0,30.188976,,,TRUE,TRUE,,,,,,,BKN,1600,,,,,,,MVFR,,,,,,,,,,,,SPECI,48.0
KCCU 271415Z AUTO 23012G19KT 190V250 10SM CLR 03/M02 A3039 RMK AO2,KCCU,2015-05-27T14:15:00Z,39.48,-106.15,3.0,-2.0,230,12,19,10.0,30.389763,,,TRUE,TRUE,,,,,,,CLR,,,,,,,,VFR,,,,,,,,,,,,SPECI,3680.0
KCDN 271415Z AUTO 00000KT 9SM CLR 25/20 A3027 RMK AO2 TSNO,KCDN,2015-05-27T14:15:00Z,34.28,-80.57,25.0,20.0,0,0,,9.0,30.268702,,,TRUE,TRUE,,,TRUE,,,,CLR,,,,,,,,VFR,,,,,,,,,,,,SPECI,92.0
KY63 271415Z AUTO 30007KT 10SM CLR 17/13 A2993 RMK AO2 T01670125,KY63,2015-05-27T14:15:00Z,45.98,-96.0,16.7,12.5,300,7,,10.0,29.929134,,,TRUE,TRUE,,,,,,,CLR,,,,,,,,VFR,,,,,,,,,,,,SPECI,367.0
KVBT 271415Z AUTO 03007KT 10SM CLR 22/16 A3012 RMK AO1,KVBT,2015-05-27T14:15:00Z,36.35,-94.22,22.0,16.0,30,7,,10.0,30.121063,,,TRUE,TRUE,,,,,,,CLR,,,,,,,,VFR,,,,,,,,,,,,SPECI,395.0
KTPL 271415Z AUTO 11010KT 10SM FEW008 SCT037 21/17 A3009 RMK AO1,KTPL,2015-05-27T14:15:00Z,31.13,-97.4,21.0,17.0,110,10,,10.0,30.088583,,,TRUE,TRUE,,,,,,,FEW,800,SCT,3700,,,,,VFR,,,,,,,,,,,,SPECI,208.0
KGXY 271415Z 00000KT 10SM CLR 14/09 A3007 RMK AO1,KGXY,2015-05-27T14:15:00Z,40.42,-104.62,14.0,9.0,0,0,,10.0,30.070866,,,,TRUE,,,,,,,CLR,,,,,,,,VFR,,,,,,,,,,,,SPECI,1420.0
KGUC 271415Z AUTO 01004KT 10SM CLR 07/03 A3031 RMK AO1,KGUC,2015-05-27T14:15:00Z,38.52,-106.92,7.0,3.0,10,4,,10.0,30.31004,,,TRUE,TRUE,,,,,,,CLR,,,,,,,,VFR,,,,,,,,,,,,SPECI,2339.0
KHNB 271415Z AUTO 20007KT 10SM SCT016 SCT024 23/18 A3011 RMK AO1,KHNB,2015-05-27T14:15:00Z,38.25,-86.95,23.0,18.0,200,7,,10.0,30.109253,,,TRUE,TRUE,,,,,,,SCT,1600,SCT,2400,,,,,VFR,,,,,,,,,,,,SPECI,161.0
KHDN 271415Z AUTO 09005KT 10SM BKN050 09/06 A3019 RMK AO1,KHDN,2015-05-27T14:15:00Z,40.47,-107.22,9.0,6.0,90,5,,10.0,30.188976,,,TRUE,TRUE,,,,,,,BKN,5000,,,,,,,VFR,,,,,,,,,,,,SPECI,2012.0
KILE 271415Z 14007KT 10SM BKN025 BKN030 OVC035 20/17 A3009 RMK AO1,KILE,2015-05-27T14:15:00Z,31.07,-97.67,20.0,17.0,140,7,,10.0,30.088583,,,,TRUE,,,,,,,BKN,2500,BKN,3000,OVC,3500,,,MVFR,,,,,,,,,,,,SPECI,258.0
KIWD 271415Z AUTO 25010KT 10SM CLR 14/12 A2981 RMK AO1,KIWD,2015-05-27T14:15:00Z,46.52,-90.12,14.0,12.0,250,10,,10.0,29.811024,,,TRUE,TRUE,,,,,,,CLR,,,,,,,,VFR,,,,,,,,,,,,SPECI,375.0
KMBL 271415Z AUTO 24012G17KT 10SM BKN023 OVC032 17/12 A2984 RMK AO1,KMBL,2015-05-27T14:15:00Z,44.27,-86.25,17.0,12.0,240,12,17,10.0,29.840551,,,TRUE,TRUE,,,,,,,BKN,2300,OVC,3200,,,,,MVFR,,,,,,,,,,,,SPECI,189.0
KJHW 271415Z 22007G15KT 10SM SCT019 BKN040 OVC065 19/16 A3011 RMK AO1,KJHW,2015-05-27T14:15:00Z,42.13,-79.27,19.0,16.0,220,7,15,10.0,30.109253,,,,TRUE,,,,,,,SCT,1900,BKN,4000,OVC,6500,,,VFR,,,,,,,,,,,,SPECI,525.0
KMNM 271415Z AUTO 33005KT 10SM FEW010 SCT038 BKN048 14/12 A2981 RMK AO1 P0002,KMNM,2015-05-27T14:15:00Z,45.12,-87.62,14.0,12.0,330,5,,10.0,29.811024,,,TRUE,TRUE,,,,,,,FEW,1000,SCT,3800,BKN,4800,,,VFR,,,,,,0.02,,,,,,SPECI,191.0
KMKY 271415Z AUTO 09006KT 28/19 A3013 RMK AO1,KMKY,2015-05-27T14:15:00Z,26.0,-81.67,28.0,19.0,90,6,,,30.129921,,,TRUE,TRUE,,,,,,,,,,,,,,,,,,,,,,,,,,,SPECI,2.0
KMRF 271415Z AUTO 00000KT 10SM CLR 22/14 A3018 RMK AO1,KMRF,2015-05-27T14:15:00Z,30.37,-104.02,22.0,14.0,0,0,,10.0,30.180119,,,TRUE,TRUE,,,,,,,CLR,,,,,,,,VFR,,,,,,,,,,,,SPECI,1481.0
KMVN 271415Z AUTO 25013G17KT 10SM FEW060 OVC110 19/16 A3013 RMK AO1 LTG DSNT SE TSB00E15 P0003,KMVN,2015-05-27T14:15:00Z,38.32,-88.87,19.0,16.0,250,13,17,10.0,30.129921,,,TRUE,TRUE,,,,,,,FEW,6000,OVC,11000,,,,,VFR,,,,,,0.03,,,,,,SPECI,146.0
KOCH 271415Z AUTO 20006KT 10SM CLR 19/18 A3007 RMK AO1,KOCH,2015-05-27T14:15:00Z,31.57,-94.72,19.0,18.0,200,6,,10.0,30.070866,,,TRUE,TRUE,,,,,,,CLR,,,,,,,,VFR,,,,,,,,,,,,SPECI,108.0
KOKK 271415Z AUTO 24015G25KT 10SM FEW025 SCT120 24/17 A3003 RMK AO1,KOKK,2015-05-27T14:15:00Z,40.53,-86.07,24.0,17.0,240,15,25,10.0,30.029528,,,TRUE,TRUE,,,,,,,FEW,2500,SCT,12000,,,,,VFR,,,,,,,,,,,,SPECI,253.0
K7N0 271415Z AUTO 16006KT A3015 RMK AO1,K7N0,2015-05-27T14:15:00Z,29.95,-90.07,,,160,6,,,30.15059,,,TRUE,TRUE,,,,,,,,,,,,,,,,,,,,,,,,,,,SPECI,0.0
K21D 271415Z AUTO 21007KT 10SM CLR 18/15 A2994 RMK AO2,K21D,2015-05-27T14:15:00Z,45.0,-92.85,18.0,15.0,210,7,,10.0,29.940945,,,TRUE,TRUE,,,,,,,CLR,,,,,,,,VFR,,,,,,,,,,,,SPECI,285.0
KD39 271415Z AUTO 29007KT 10SM BKN110 18/13 A2992 RMK AO2 T01820129,KD39,2015-05-27T14:15:00Z,45.7,-94.93,18.2,12.9,290,7,,10.0,29.920275,,,TRUE,TRUE,,,,,,,BKN,11000,,,,,,,VFR,,,,,,,,,,,,SPECI,380.0
KCVN 271415Z AUTO 14003KT 10SM CLR 18/13 RMK AO1,KCVN,2015-05-27T14:15:00Z,34.42,-103.07,18.0,13.0,140,3,,10.0,,,,TRUE,TRUE,,,,,,,CLR,,,,,,,,VFR,,,,,,,,,,,,SPECI,1284.0
KCOD 271415Z AUTO 00000KT 10SM OVC090 12/08 A3003 RMK AO1,KCOD,2015-05-27T14:15:00Z,44.52,-109.02,12.0,8.0,0,0,,10.0,30.029528,,,TRUE,TRUE,,,,,,,OVC,9000,,,,,,,VFR,,,,,,,,,,,,SPECI,1553.0
KCIU 271415Z AUTO 21008G14KT 180V240 7SM OVC003 13/13 A2970 RMK AO1,KCIU,2015-05-27T14:15:00Z,46.25,-84.47,13.0,13.0,210,8,14,7.0,29.698818,,,TRUE,TRUE,,,,,,,OVC,300,,,,,,,LIFR,,,,,,,,,,,,SPECI,244.0
KBVX 271415Z AUTO 12005KT 10SM SCT050 23/20 A3012 RMK AO1,KBVX,2015-05-27T14:15:00Z,35.73,-91.65,23.0,20.0,120,5,,10.0,30.121063,,,TRUE,TRUE,,,,,,,SCT,5000,,,,,,,VFR,,,,,,,,,,,,SPECI,141.0
KBTP 271415Z AUTO 25008KT 10SM FEW012 SCT017 BKN026 21/17 A3017 RMK AO1,KBTP,2015-05-27T14:15:00Z,40.77,-79.95,21.0,17.0,250,8,,10.0,30.171259,,,TRUE,TRUE,,,,,,,FEW,1200,SCT,1700,BKN,2600,,,MVFR,,,,,,,,,,,,SPECI,380.0
KARG 271415Z AUTO 22009KT 10SM TS FEW060 23/19 A3012 RMK AO1 LTG DSNT NE,KARG,2015-05-27T14:15:00Z,36.12,-90.92,23.0,19.0,220,9,,10.0,30.121063,,,TRUE,TRUE,,,,,,TS,FEW,6000,,,,,,,VFR,,,,,,,,,,,,SPECI,83.0
KAFJ 271415Z AUTO 21006KT 10SM SCT018 BKN031 OVC055 20/18 A3018 RMK AO1,KAFJ,2015-05-27T14:15:00Z,40.12,-80.27,20.0,18.0,210,6,,10.0,30.180119,,,TRUE,TRUE,,,,,,,SCT,1800,BKN,3100,OVC,5500,,,VFR,,,,,,,,,,,,SPECI,361.0
KDWU 271415Z AUTO 23006KT 10SM SCT017 SCT025 BKN039 24/21 A3016 RMK AO1,KDWU,2015-05-27T14:15:00Z,38.55,-82.73,24.0,21.0,230,6,,10.0,30.159449,,,TRUE,TRUE,,,,,,,SCT,1700,SCT,2500,BKN,3900,,,VFR,,,,,,,,,,,,SPECI,166.0
KDYR 271415Z 23005KT 10SM FEW017 FEW030 BKN034 25/15 A3015 RMK AO1,KDYR,2015-05-27T14:15:00Z,36.0,-89.4,25.0,15.0,230,5,,10.0,30.15059,,,,TRUE,,,,,,,FEW,1700,FEW,3000,BKN,3400,,,VFR,,,,,,,,,,,,SPECI,103.0
KEHR 271415Z AUTO 20010KT 10SM FEW022 23/19 A3009 RMK AO1,KEHR,2015-05-27T14:15:00Z,37.82,-87.67,23.0,19.0,200,10,,10.0,30.088583,,,TRUE,TRUE,,,,,,,FEW,2200,,,,,,,VFR,,,,,,,,,,,,SPECI,117.0
KESC 271415Z AUTO 29009G14KT 10SM FEW047 OVC055 14/12 A2977 RMK AO1,KESC,2015-05-27T14:15:00Z,45.75,-87.08,14.0,12.0,290,9,14,10.0,29.769686,,,TRUE,TRUE,,,,,,,FEW,4700,OVC,5500,,,,,VFR,,,,,,,,,,,,SPECI,187.0
KENV 271415Z AUTO 09006KT 10SM CLR 12/09 A3007 RMK AO1,KENV,2015-05-27T14:15:00Z,40.72,-114.02,12.0,9.0,90,6,,10.0,30.070866,,,TRUE,TRUE,,,,,,,CLR,,,,,,,,VFR,,,,,,,,,,,,SPECI,1292.0
KEUL 271415Z AUTO 00000KT 10SM CLR 14/07 A3001 RMK AO1,KEUL,2015-05-27T14:15:00Z,43.62,-116.62,14.0,7.0,0,0,,10.0,30.008858,,,TRUE,TRUE,,,,,,,CLR,,,,,,,,VFR,,,,,,,,,,,,SPECI,740.0
KFKA 271415Z AUTO 31006KT 10SM CLR 17/14 A2998 RMK AO2 T01710139,KFKA,2015-05-27T14:15:00Z,43.68,-92.17,17.1,13.9,310,6,,10.0,29.97933,,,TRUE,TRUE,,,,,,,CLR,,,,,,,,VFR,,,,,,,,,,,,SPECI,389.0
KFKL 271415Z AUTO 22007KT 10SM SCT012 BKN023 OVC032 19/16 A3014 RMK AO1,KFKL,2015-05-27T14:15:00Z,41.37,-79.87,19.0,16.0,220,7,,10.0,30.138779,,,TRUE,TRUE,,,,,,,SCT,1200,BKN,2300,OVC,3200,,,MVFR,,,,,,,,,,,,SPECI,469.0
KFLP 271415Z AUTO 35003KT 10SM CLR 24/20 A3010 RMK AO1,KFLP,2015-05-27T14:15:00Z,36.28,-92.58,24.0,20.0,350,3,,10.0,30.100393,,,TRUE,TRUE,,,,,,,CLR,,,,,,,,VFR,,,,,,,,,,,,SPECI,219.0
KFNL 271415Z AUTO 00000KT 10SM CLR 14/09 A3008 RMK AO1,KFNL,2015-05-27T14:15:00Z,40.45,-105.02,14.0,9.0,0,0,,10.0,30.079725,,,TRUE,TRUE,,,,,,,CLR,,,,,,,,VFR,,,,,,,,,,,,SPECI,1529.0
KGDV 271415Z AUTO 20004KT 10SM CLR 17/11 A2994 RMK AO1,KGDV,2015-05-27T14:15:00Z,47.12,-104.78,17.0,11.0,200,4,,10.0,29.940945,,,TRUE,TRUE,,,,,,,CLR,,,,,,,,VFR,,,,,,,,,,,,SPECI,749.0
KGAI 271415Z AUTO 19006KT 10SM OVC023 24/19 A3021 RMK AO1,KGAI,2015-05-27T14:15:00Z,39.17,-77.17,24.0,19.0,190,6,,10.0,30.209646,,,TRUE,TRUE,,,,,,,OVC,2300,,,,,,,MVFR,,,,,,,,,,,,SPECI,165.0
KGAD 271415Z 00000KT 10SM OVC010 A3021 RMK AO1,KGAD,2015-05-27T14:15:00Z,33.97,-86.07,,,0,0,,10.0,30.209646,,,,TRUE,,,,,,,OVC,1000,,,,,,,MVFR,,,,,,,,,,,,SPECI,173.0
KFYM 271415Z AUTO 10SM OVC008 A3021 RMK,KFYM,2015-05-27T14:15:00Z,35.07,-86.57,,,,,,10.0,30.209646,,,TRUE,,,,,,,,OVC,800,,,,,,,IFR,,,,,,,,,,,,METAR,300.0
KFRM 271415Z AUTO 27007KT 10SM CLR 19/12 A2997 RMK AO1,KFRM,2015-05-27T14:15:00Z,43.63,-94.42,19.0,12.0,270,7,,10.0,29.970472,,,TRUE,TRUE,,,,,,,CLR,,,,,,,,VFR,,,,,,,,,,,,SPECI,354.0
KFOD 271415Z AUTO 24005KT 10SM CLR 19/14 A3002 RMK AO1,KFOD,2015-05-27T14:15:00Z,42.53,-94.17,19.0,14.0,240,5,,10.0,30.02067,,,TRUE,TRUE,,,,,,,CLR,,,,,,,,VFR,,,,,,,,,,,,SPECI,355.0
KFMM 271415Z AUTO 08004KT 10SM CLR 14/10 A3007 RMK AO2 T01430104,KFMM,2015-05-27T14:15:00Z,40.33,-103.8,14.3,10.4,80,4,,10.0,30.070866,,,TRUE,TRUE,,,,,,,CLR,,,,,,,,VFR,,,,,,,,,,,,SPECI,1393.0
KGBD 271415Z AUTO 11009KT 10SM CLR 19/13 A3007 RMK AO1,KGBD,2015-05-27T14:15:00Z,38.35,-98.87,19.0,13.0,110,9,,10.0,30.070866,,,TRUE,TRUE,,,,,,,CLR,,,,,,,,VFR,,,,,,,,,,,,SPECI,575.0
KGKT 271415Z AUTO 00000KT 10SM CLR 23/16 A3024 RMK,KGKT,2015-05-27T14:15:00Z,35.85,-83.53,23.0,16.0,0,0,,10.0,30.239174,,,TRUE,,,,,,,,CLR,,,,,,,,VFR,,,,,,,,,,,,METAR,309.0
KGZL 271415Z AUTO 21003KT 10SM CLR 23/17 A3009 RMK AO2,KGZL,2015-05-27T14:15:00Z,35.28,-95.1,23.0,17.0,210,3,,10.0,30.088583,,,TRUE,TRUE,,,,,,,CLR,,,,,,,,VFR,,,,,,,,,,,,SPECI,183.0
KGPZ 271415Z AUTO 29005KT 10SM FEW110 17/12 A2987 RMK AO1,KGPZ,2015-05-27T14:15:00Z,47.22,-93.52,17.0,12.0,290,5,,10.0,29.870079,,,TRUE,TRUE,,,,,,,FEW,11000,,,,,,,VFR,,,,,,,,,,,,SPECI,413.0
KHEQ 271415Z AUTO 15011KT 10SM CLR 16/11 A3009 RMK AO2,KHEQ,2015-05-27T14:15:00Z,40.57,-102.28,16.0,11.0,150,11,,10.0,30.088583,,,TRUE,TRUE,,,,,,,CLR,,,,,,,,VFR,,,,,,,,,,,,SPECI,1137.0
KI67 271415Z AUTO 21008KT 10SM SCT019 22/17 A3011 RMK AO1,KI67,2015-05-27T14:15:00Z,39.25,-84.78,22.0,17.0,210,8,,10.0,30.109253,,,TRUE,TRUE,,,,,,,SCT,1900,,,,,,,VFR,,,,,,,,,,,,SPECI,178.0
KHYW 271415Z AUTO 17003KT 5SM RA BKN017 BKN023 OVC030 23/23 A3028 RMK AO2 P0003,KHYW,2015-05-27T14:15:00Z,33.83,-79.12,23.0,23.0,170,3,,5.0,30.280512,,,TRUE,TRUE,,,,,,RA,BKN,1700,BKN,2300,OVC,3000,,,MVFR,,,,,,0.03,,,,,,SPECI,11.0
KHYS 271415Z 11009KT 10SM CLR 19/11 A3008 RMK AO1,KHYS,2015-05-27T14:15:00Z,38.85,-99.27,19.0,11.0,110,9,,10.0,30.079725,,,,TRUE,,,,,,,CLR,,,,,,,,VFR,,,,,,,,,,,,SPECI,609.0
KHEZ 271415Z AUTO 18006KT 10SM OVC006 23/22 A3015 RMK AO1 LTG DSNT SW,KHEZ,2015-05-27T14:15:00Z,31.62,-91.3,23.0,22.0,180,6,,10.0,30.15059,,,TRUE,TRUE,,,,,,,OVC,600,,,,,,,IFR,,,,,,,,,,,,SPECI,83.0
KINF 271415Z AUTO 00000KT 10SM SCT020 BKN032 26/22 A3022 RMK AO2,KINF,2015-05-27T14:15:00Z,28.8,-82.32,26.0,22.0,0,0,,10.0,30.221457,,,TRUE,TRUE,,,,,,,SCT,2000,BKN,3200,,,,,VFR,,,,,,,,,,,,SPECI,15.0
KIDI 271415Z AUTO 23007KT 10SM BKN008 OVC024 20/19 A3020 RMK A01,KIDI,2015-05-27T14:15:00Z,40.62,-79.08,20.0,19.0,230,7,,10.0,30.200787,,,TRUE,TRUE,,,,,,,BKN,800,OVC,2400,,,,,IFR,,,,,,,,,,,,SPECI,429.0
KJVW 271415Z AUTO 16007KT 9SM BKN012 BKN017 BKN100 25/22 A3014 RMK AO2 LTG DSNT NW,KJVW,2015-05-27T14:15:00Z,32.3,-90.42,25.0,22.0,160,7,,9.0,30.138779,,,TRUE,TRUE,,,,,,,BKN,1200,BKN,1700,BKN,10000,,,MVFR,,,,,,,,,,,,SPECI,76.0
KKLS 271415Z 31004KT 10SM OVC010 12/09 A3011 RMK AO1,KKLS,2015-05-27T14:15:00Z,46.12,-122.9,12.0,9.0,310,4,,10.0,30.109253,,,,TRUE,,,,,,,OVC,1000,,,,,,,MVFR,,,,,,,,,,,,SPECI,5.0
KLBL 271415Z AUTO 19009KT 10SM CLR 21/17 A3009 RMK AO1,KLBL,2015-05-27T14:15:00Z,37.03,-100.97,21.0,17.0,190,9,,10.0,30.088583,,,TRUE,TRUE,,,,,,,CLR,,,,,,,,VFR,,,,,,,,,,,,SPECI,879.0
KIMM 271415Z AUTO 10010KT CLR A3015 RMK A01 P000,KIMM,2015-05-27T14:15:00Z,26.43,-81.4,,,100,10,,,30.15059,,,TRUE,TRUE,,,,,,,CLR,,,,,,,,,,,,,,,,,,,,METAR,12.0
KGAF 271415Z AUTO 34013KT 10SM CLR 14/08 A2996 RMK AO2,KGAF,2015-05-27T14:15:00Z,48.4,-97.37,14.0,8.0,340,13,,10.0,29.958662,,,TRUE,TRUE,,,,,,,CLR,,,,,,,,VFR,,,,,,,,,,,,METAR,252.0
KSPA 271415Z AUTO 17003KT 10SM SCT010 BKN019 21/21 A3027 RMK AO2,KSPA,2015-05-27T14:15:00Z,34.92,-81.93,21.0,21.0,170,3,,10.0,30.268702,,,TRUE,TRUE,,,,,,,SCT,1000,BKN,1900,,,,,MVFR,,,,,,,,,,,,METAR,303.0
KRQO 271415Z AUTO 16006KT BKN026 BKN035 21/17 A3009 RMK AO2 PWINO,KRQO,2015-05-27T14:15:00Z,35.47,-98.0,21.0,17.0,160,6,,,30.088583,,,TRUE,TRUE,,,,,TRUE,,BKN,2600,BKN,3500,,,,,,,,,,,,,,,,,METAR,432.0
KMAO 271415Z AUTO 22005KT 10SM BKN017 BKN028 BKN065 26/20 A3027 RMK AO2,KMAO,2015-05-27T14:15:00Z,34.18,-79.33,26.0,20.0,220,5,,10.0,30.268702,,,TRUE,TRUE,,,,,,,BKN,1700,BKN,2800,BKN,6500,,,MVFR,,,,,,,,,,,,METAR,28.0
KLUX 271415Z AUTO 00000KT 10SM BKN006 OVC010 20/20 A3028 RMK AO2,KLUX,2015-05-27T14:15:00Z,34.5,-81.95,20.0,20.0,0,0,,10.0,30.280512,,,TRUE,TRUE,,,,,,,BKN,600,OVC,1000,,,,,IFR,,,,,,,,,,,,METAR,213.0
KLKR 271415Z AUTO 19003KT 10SM -RA FEW006 SCT026 SCT110 21/21 A3028 RMK AO2,KLKR,2015-05-27T14:15:00Z,34.72,-80.85,21.0,21.0,190,3,,10.0,30.280512,,,TRUE,TRUE,,,,,,-RA,FEW,600,SCT,2600,SCT,11000,,,VFR,,,,,,,,,,,,METAR,149.0
KTVY 271415Z AUTO 25003KT 10SM SCT085 BKN110 13/09 A3009 RMK AO2,KTVY,2015-05-27T14:15:00Z,,,13.0,9.0,250,3,,10.0,30.088583,,,TRUE,TRUE,,,,,,,SCT,8500,BKN,11000,,,,,VFR,,,,,,,,,,,,METAR,
KUTA 271415Z AUTO 19008KT 5SM RA SCT010 BKN018 OVC060 21/18 A3015 RMK AO2 P0001 LTG DSNT SW THRU N,KUTA,2015-05-27T14:15:00Z,34.68,-90.35,21.0,18.0,190,8,,5.0,30.15059,,,TRUE,TRUE,,,,,,RA,SCT,1000,BKN,1800,OVC,6000,,,MVFR,,,,,,0.01,,,,,,METAR,59.0
KLEW 271415Z 19003KT 10SM CLR 26/19 A3009 RMK AO1,KLEW,2015-05-27T14:15:00Z,44.03,-70.27,26.0,19.0,190,3,,10.0,30.088583,,,,TRUE,,,,,,,CLR,,,,,,,,VFR,,,,,,,,,,,,SPECI,88.0
KLCI 271415Z AUTO 24005KT 10SM CLR 25/17 A3007 RMK AO1,KLCI,2015-05-27T14:15:00Z,43.57,-71.42,25.0,17.0,240,5,,10.0,30.070866,,,TRUE,TRUE,,,,,,,CLR,,,,,,,,VFR,,,,,,,,,,,,SPECI,166.0
KLGD 271415Z AUTO 00000KT 10SM BKN085 10/04 A3004 RMK AO1,KLGD,2015-05-27T14:15:00Z,45.27,-118.0,10.0,4.0,0,0,,10.0,30.041338,,,TRUE,TRUE,,,,,,,BKN,8500,,,,,,,VFR,,,,,,,,,,,,SPECI,827.0
KLKV 271415Z 00000KT 10SM CLR 09/04 A3009 RMK AO1,KLKV,2015-05-27T14:15:00Z,42.17,-120.4,9.0,4.0,0,0,,10.0,30.088583,,,,TRUE,,,,,,,CLR,,,,,,,,VFR,,,,,,,,,,,,SPECI,1441.0
KLPC 271415Z AUTO 27004KT 10SM OVC016 13/08 A3004 RMK AO1,KLPC,2015-05-27T14:15:00Z,34.67,-120.47,13.0,8.0,270,4,,10.0,30.041338,,,TRUE,TRUE,,,,,,,OVC,1600,,,,,,,MVFR,,,,,,,,,,,,SPECI,27.0
KLMO 271415Z AUTO 00000KT 10SM SCT095 17/10 A3009 RMK AO2 T01710098,KLMO,2015-05-27T14:15:00Z,40.17,-105.17,17.1,9.8,0,0,,10.0,30.088583,,,TRUE,TRUE,,,,,,,SCT,9500,,,,,,,VFR,,,,,,,,,,,,SPECI,1541.0
KLRO 271415Z AUTO 15005KT 10SM BKN034 28/19 A3027 RMK AO2,KLRO,2015-05-27T14:15:00Z,32.9,-79.78,28.0,19.0,150,5,,10.0,30.268702,,,TRUE,TRUE,,,,,,,BKN,3400,,,,,,,VFR,,,,,,,,,,,,SPECI,4.0
KMBO 271415Z AUTO 15008KT 10SM BKN014 OVC019 22/19 A3015 RMK AO2 LTG DSNT NW,KMBO,2015-05-27T14:15:00Z,,,22.0,19.0,150,8,,10.0,30.15059,,,TRUE,TRUE,,,,,,,BKN,1400,OVC,1900,,,,,MVFR,,,,,,,,,,,,SPECI,
KMKS 271415Z AUTO 20007KT 10SM SCT024 SCT029 BKN047 28/20 A3027 RMK AO2,KMKS,2015-05-27T14:15:00Z,33.18,-80.03,28.0,20.0,200,7,,10.0,30.268702,,,TRUE,TRUE,,,,,,,SCT,2400,SCT,2900,BKN,4700,,,VFR,,,,,,,,,,,,SPECI,23.0
KMJX 271415Z AUTO 25011G14KT 10SM OVC019 A3018 RMK AO1,KMJX,2015-05-27T14:15:00Z,39.93,-74.3,,,250,11,14,10.0,30.180119,,,TRUE,TRUE,,,,,,,OVC,1900,,,,,,,MVFR,,,,,,,,,,,,SPECI,25.0
KMKT 271415Z AUTO 26008KT 10SM CLR 17/13 A2996 RMK AO1,KMKT,2015-05-27T14:15:00Z,44.22,-93.92,17.0,13.0,260,8,,10.0,29.958662,,,TRUE,TRUE,,,,,,,CLR,,,,,,,,VFR,,,,,,,,,,,,SPECI,311.0
KMML 271415Z AUTO 32010KT 10SM CLR 21/11 A2995 RMK AO1,KMML,2015-05-27T14:15:00Z,44.45,-95.82,21.0,11.0,320,10,,10.0,29.949802,,,TRUE,TRUE,,,,,,,CLR,,,,,,,,VFR,,,,,,,,,,,,SPECI,359.0
KMSV 271415Z AUTO 15006KT 10SM BKN019 OVC024 23/20 A3018 RMK AO1,KMSV,2015-05-27T14:15:00Z,41.7,-74.78,23.0,20.0,150,6,,10.0,30.180119,,,TRUE,TRUE,,,,,,,BKN,1900,OVC,2400,,,,,MVFR,,,,,,,,,,,,SPECI,428.0
KN03 271415Z AUTO 24007KT 10SM BKN031 BKN040 OVC120 24/18 A3010 RMK AO2,KN03,2015-05-27T14:15:00Z,42.6,-76.22,24.0,18.0,240,7,,10.0,30.100393,,,TRUE,TRUE,,,,,,,BKN,3100,BKN,4000,OVC,12000,,,VFR,,,,,,,,,,,,SPECI,366.0
KOAJ 271415Z AUTO 20009KT 10SM FEW021 FEW048 OVC070 27/20 A3028 RMK AO1,KOAJ,2015-05-27T14:15:00Z,34.82,-77.62,27.0,20.0,200,9,,10.0,30.280512,,,TRUE,TRUE,,,,,,,FEW,2100,FEW,4800,OVC,7000,,,VFR,,,,,,,,,,,,SPECI,29.0
KOTG 271415Z AUTO 28009KT 10SM CLR 19/12 A2998 RMK AO1,KOTG,2015-05-27T14:15:00Z,43.63,-95.57,19.0,12.0,280,9,,10.0,29.97933,,,TRUE,TRUE,,,,,,,CLR,,,,,,,,VFR,,,,,,,,,,,,SPECI,480.0
KOLU 271415Z AUTO 25005KT 10SM CLR 18/11 A3008 RMK AO1,KOLU,2015-05-27T14:15:00Z,41.45,-97.32,18.0,11.0,250,5,,10.0,30.079725,,,TRUE,TRUE,,,,,,,CLR,,,,,,,,VFR,,,,,,,,,,,,SPECI,440.0
KOTH 271415Z 35007KT 10SM OVC006 12/11 A3010 RMK AO1,KOTH,2015-05-27T14:15:00Z,43.42,-124.25,12.0,11.0,350,7,,10.0,30.100393,,,,TRUE,,,,,,,OVC,600,,,,,,,IFR,,,,,,,,,,,,SPECI,4.0
KOWA 271415Z AUTO 22005KT 10SM CLR 18/14 A2996 RMK AO2,KOWA,2015-05-27T14:15:00Z,44.12,-93.25,18.0,14.0,220,5,,10.0,29.958662,,,TRUE,TRUE,,,,,,,CLR,,,,,,,,VFR,,,,,,,,,,,,SPECI,350.0
KCQW 271415Z AUTO 24005KT 9SM CLR 25/20 A3026 RMK AO2,KCQW,2015-05-27T14:15:00Z,34.72,-79.95,25.0,20.0,240,5,,9.0,30.259842,,,TRUE,TRUE,,,,,,,CLR,,,,,,,,VFR,,,,,,,,,,,,METAR,73.0
KBNL 271415Z AUTO 00000KT 10SM OVC008 24/22 A3028 RMK AO2,KBNL,2015-05-27T14:15:00Z,33.25,-81.38,24.0,22.0,0,0,,10.0,30.280512,,,TRUE,TRUE,,,,,,,OVC,800,,,,,,,IFR,,,,,,,,,,,,METAR,75.0
KBDN 271415Z AUTO 00000KT 10SM CLR 10/05 A3006 RMK AO2,KBDN,2015-05-27T14:15:00Z,44.1,-121.2,10.0,5.0,0,0,,10.0,30.059055,,,TRUE,TRUE,,,,,,,CLR,,,,,,,,VFR,,,,,,,,,,,,METAR,1055.0
KBBP 271415Z AUTO 19006KT 10SM SCT021 SCT026 BKN070 28/15 A3026 RMK AO2 PWINO,KBBP,2015-05-27T14:15:00Z,34.62,-79.73,28.0,15.0,190,6,,10.0,30.259842,,,TRUE,TRUE,,,,,TRUE,,SCT,2100,SCT,2600,BKN,7000,,,VFR,,,,,,,,,,,,METAR,45.0
KGGE 271415Z AUTO 21003KT 10SM BKN022 BKN032 OVC047 26/22 A3029 RMK AO2,KGGE,2015-05-27T14:15:00Z,33.32,-79.32,26.0,22.0,210,3,,10.0,30.28937,,,TRUE,TRUE,,,,,,,BKN,2200,BKN,3200,OVC,4700,,,MVFR,,,,,,,,,,,,METAR,12.0
KFDW 271415Z AUTO 17005KT 10SM SCT007 22/21 A3028 RMK AO1 TSNO,KFDW,2015-05-27T14:15:00Z,34.32,-81.12,22.0,21.0,170,5,,10.0,30.280512,,,TRUE,TRUE,,,TRUE,,,,SCT,700,,,,,,,VFR,,,,,,,,,,,,METAR,176.0
K24J 271415Z AUTO 00000KT 10SM SCT012 SCT033 BKN085 27/24 A3025 RMK AO1,K24J,2015-05-27T14:15:00Z,30.3,-83.03,27.0,24.0,0,0,,10.0,30.250984,,,TRUE,TRUE,,,,,,,SCT,1200,SCT,3300,BKN,8500,,,VFR,,,,,,,,,,,,METAR,32.0
KVKS 271415Z AUTO 16004KT 10SM OVC007 23/22 A3014 RMK A01,KVKS,2015-05-27T14:15:00Z,,,23.0,22.0,160,4,,10.0,30.138779,,,TRUE,TRUE,,,,,,,OVC,700,,,,,,,IFR,,,,,,,,,,,,METAR,
KUSE 271415Z AUTO 24012G21KT 10SM FEW065 23/19 A3000 RMK AO2,KUSE,2015-05-27T14:15:00Z,41.62,-84.13,23.0,19.0,240,12,21,10.0,30.0,,,TRUE,TRUE,,,,,,,FEW,6500,,,,,,,VFR,,,,,,,,,,,,METAR,238.0
KS39 271415Z AUTO 00000KT 10SM CLR 11/06 A3005 RMK AO2,KS39,2015-05-27T14:15:00Z,44.28,-120.9,11.0,6.0,0,0,,10.0,30.050198,,,TRUE,TRUE,,,,,,,CLR,,,,,,,,VFR,,,,,,,,,,,,METAR,991.0
KRTS 271415Z AUTO 32003KT 10SM CLR 11/04 A3009 RMK AO2,KRTS,2015-05-27T14:15:00Z,39.67,-119.88,11.0,4.0,320,3,,10.0,30.088583,,,TRUE,TRUE,,,,,,,CLR,,,,,,,,VFR,,,,,,,,,,,,METAR,1540.0
KP08 271415Z AUTO 12006KT 10SM CLR 23/02 A2995 RMK AO2,KP08,2015-05-27T14:15:00Z,32.93,-111.43,23.0,2.0,120,6,,10.0,29.949802,,,TRUE,TRUE,,,,,,,CLR,,,,,,,,VFR,,,,,,,,,,,,METAR,481.0
KO86 271415Z AUTO 00000KT 10SM CLR 12/08 A3004 RMK AO1,KO86,2015-05-27T14:15:00Z,40.98,-122.7,12.0,8.0,0,0,,10.0,30.041338,,,TRUE,TRUE,,,,,,,CLR,,,,,,,,VFR,,,,,,,,,,,,METAR,729.0
KO69 271415Z AUTO 27004KT 7SM OVC007 10/09 A3003 RMK AO1,KO69,2015-05-27T14:15:00Z,38.25,-122.6,10.0,9.0,270,4,,7.0,30.029528,,,TRUE,TRUE,,,,,,,OVC,700,,,,,,,IFR,,,,,,,,,,,,METAR,28.0
KN38 271415Z AUTO 23009KT 10SM SCT024 BKN029 BKN038 21/16 A3016 RMK AO2,KN38,2015-05-27T14:15:00Z,41.73,-77.4,21.0,16.0,230,9,,10.0,30.159449,,,TRUE,TRUE,,,,,,,SCT,2400,BKN,2900,BKN,3800,,,MVFR,,,,,,,,,,,,METAR,577.0
KMVH 271415Z AUTO 32006KT 10SM BKN060 BKN085 14/09 A3003 RMK AO2,KMVH,2015-05-27T14:15:00Z,46.83,-108.93,14.0,9.0,320,6,,10.0,30.029528,,,TRUE,TRUE,,,,,,,BKN,6000,BKN,8500,,,,,VFR,,,,,,,,,,,,METAR,1355.0
KMHV 271415Z AUTO 00000KT 10SM CLR 17/07 A2997 RMK AO1,KMHV,2015-05-27T14:15:00Z,35.07,-118.15,17.0,7.0,0,0,,10.0,29.970472,,,TRUE,TRUE,,,,,,,CLR,,,,,,,,VFR,,,,,,,,,,,,METAR,849.0
KMEV 271415Z AUTO 00000KT 10SM CLR 10/04 A3010 RMK AO2,KMEV,2015-05-27T14:15:00Z,38.98,-119.75,10.0,4.0,0,0,,10.0,30.100393,,,TRUE,TRUE,,,,,,,CLR,,,,,,,,VFR,,,,,,,,,,,,METAR,1439.0
KJTC 271415Z AUTO 08003KT 10SM CLR 11/00 A3026 RMK AO2,KJTC,2015-05-27T14:15:00Z,34.13,-109.32,11.0,0.0,80,3,,10.0,30.259842,,,TRUE,TRUE,,,,,,,CLR,,,,,,,,VFR,,,,,,,,,,,,METAR,2150.0
KIFP 271415Z AUTO 00000KT 10SM CLR 24/02 A2989 RMK AO2,KIFP,2015-05-27T14:15:00Z,35.15,-114.57,24.0,2.0,0,0,,10.0,29.890747,,,TRUE,TRUE,,,,,,,CLR,,,,,,,,VFR,,,,,,,,,,,,METAR,212.0
KGOO 271415Z AUTO 00000KT 10SM CLR 18/07 A3001 RMK AO1,KGOO,2015-05-27T14:15:00Z,39.22,-121.0,18.0,7.0,0,0,,10.0,30.008858,,,TRUE,TRUE,,,,,,,CLR,,,,,,,,VFR,,,,,,,,,,,,METAR,962.0
KFTN 271415Z AUTO 14008G14KT 10SM 26/24 A2999 RMK A01,KFTN,2015-05-27T14:15:00Z,28.22,-100.02,26.0,24.0,140,8,14,10.0,29.991142,,,TRUE,TRUE,,,,,,,,,,,,,,,,,,,,,,,,,,,METAR,236.0
K4I7 271415Z AUTO 23004KT 10SM SCT110 22/16 A3007 RMK AO2,K4I7,2015-05-27T14:15:00Z,39.63,-86.82,22.0,16.0,230,4,,10.0,30.070866,,,TRUE,TRUE,,,,,,,SCT,11000,,,,,,,VFR,,,,,,,,,,,,METAR,257.0
KAEJ 271415Z AUTO 13004KT 10SM SCT065 10/03 A3026 RMK AO2 T01030026,KAEJ,2015-05-27T14:15:00Z,38.82,-106.12,10.3,2.6,130,4,,10.0,30.259842,,,TRUE,TRUE,,,,,,,SCT,6500,,,,,,,VFR,,,,,,,,,,,,METAR,2422.0
KALM 271415Z AUTO 33004KT 10SM CLR 20/00 A3010 RMK AO2,KALM,2015-05-27T14:15:00Z,32.82,-105.97,20.0,0.0,330,4,,10.0,30.100393,,,TRUE,TRUE,,,,,,,CLR,,,,,,,,VFR,,,,,,,,,,,,METAR,1279.0
KCLS 271415Z AUTO 00000KT 1 3/4SM BR OVC005 11/11 A3008 RMK AO2 VIS 1 1/4V3,KCLS,2015-05-27T14:15:00Z,46.68,-122.98,11.0,11.0,0,0,,1.75,30.079725,,,TRUE,TRUE,,,,,,BR,OVC,500,,,,,,,IFR,,,,,,,,,,,,METAR,54.0
KFMH 271415Z AUTO 22015G25KT 9SM OVC014 21/17 A3022 RMK AO2,KFMH,2015-05-27T14:15:00Z,41.63,-70.52,21.0,17.0,220,15,25,9.0,30.221457,,,TRUE,TRUE,,,,,,,OVC,1400,,,,,,,MVFR,,,,,,,,,,,,METAR,40.0
KHVS 271415Z AUTO 00000KT 4SM SCT016 BKN024 OVC075 23/21 A3026 RMK AO2 P0001,KHVS,2015-05-27T14:15:00Z,34.4,-80.12,23.0,21.0,0,0,,4.0,30.259842,,,TRUE,TRUE,,,,,,,SCT,1600,BKN,2400,OVC,7500,,,MVFR,,,,,,0.01,,,,,,METAR,111.0
KLQK 271415Z AUTO 00000KT 10SM OVC017 22/19 A3026 RMK AO2 T02230185,KLQK,2015-05-27T14:15:00Z,34.82,-82.7,22.3,18.5,0,0,,10.0,30.259842,,,TRUE,TRUE,,,,,,,OVC,1700,,,,,,,MVFR,,,,,,,,,,,,METAR,309.0
KM91 271415Z AUTO 22005KT 10SM CLR 24/23 A3017 RMK,KM91,2015-05-27T14:15:00Z,36.53,-86.92,24.0,23.0,220,5,,10.0,30.171259,,,TRUE,,,,,,,,CLR,,,,,,,,VFR,,,,,,,,,,,,METAR,215.0
KMEZ 271415Z AUTO 25005KT 10SM CLR 25/17 A3011 RMK AO2,KMEZ,2015-05-27T14:15:00Z,34.55,-94.2,25.0,17.0,250,5,,10.0,30.109253,,,TRUE,TRUE,,,,,,,CLR,,,,,,,,VFR,,,,,,,,,,,,METAR,329.0
KMNI 271415Z AUTO 18006KT 10SM BKN020 BKN030 OVC075 26/13 A3027 RMK AO2,KMNI,2015-05-27T14:15:00Z,33.58,-80.22,26.0,13.0,180,6,,10.0,30.268702,,,TRUE,TRUE,,,,,,,BKN,2000,BKN,3000,OVC,7500,,,MVFR,,,,,,,,,,,,METAR,32.0
KPHT 271415Z AUTO 22006KT 10SM FEW017 23/20 A3016 RMK,KPHT,2015-05-27T14:15:00Z,36.33,-88.38,23.0,20.0,220,6,,10.0,30.159449,,,TRUE,,,,,,,,FEW,1700,,,,,,,VFR,,,,,,,,,,,,METAR,177.0
KUYF 271415Z AUTO 22014KT 10SM BKN018 BKN023 BKN030 21/17 A3012 RMK AO2,KUYF,2015-05-27T14:15:00Z,39.93,-83.47,21.0,17.0,220,14,,10.0,30.121063,,,TRUE,TRUE,,,,,,,BKN,1800,BKN,2300,BKN,3000,,,MVFR,,,,,,,,,,,,METAR,330.0
KTEX 271415Z AUTO 11003KT 10SM SCT075 07/03 A3033 RMK AO2 T00680026,KTEX,2015-05-27T14:15:00Z,37.95,-107.9,6.8,2.6,110,3,,10.0,30.33071,,,TRUE,TRUE,,,,,,,SCT,7500,,,,,,,VFR,,,,,,,,,,,,METAR,2769.0
KSYI 271415Z AUTO 19005KT 10SM BKN015 OVC020 23/21 A3022 RMK,KSYI,2015-05-27T14:15:00Z,35.57,-86.45,23.0,21.0,190,5,,10.0,30.221457,,,TRUE,,,,,,,,BKN,1500,OVC,2000,,,,,MVFR,,,,,,,,,,,,METAR,245.0
KRZR 271415Z AUTO VRB04KT 10SM SCT017 OVC032 22/17 A3025 RMK,KRZR,2015-05-27T14:15:00Z,35.22,-84.8,22.0,17.0,0,4,,10.0,30.250984,,,TRUE,,,,,,,,SCT,1700,OVC,3200,,,,,VFR,,,,,,,,,,,,METAR,263.0
KVER 271415Z AUTO 32003KT 10SM CLR 22/15 A3008 RMK AO2 T02190152,KVER,2015-05-27T14:15:00Z,38.95,-92.68,21.9,15.2,320,3,,10.0,30.079725,,,TRUE,TRUE,,,,,,,CLR,,,,,,,,VFR,,,,,,,,,,,,METAR,218.0
K2V5 271415Z AUTO 13006KT 10SM BKN090 15/12 A3009 RMK AO2 T01520117,K2V5,2015-05-27T14:15:00Z,40.1,-102.25,15.2,11.7,130,6,,10.0,30.088583,,,TRUE,TRUE,,,,,,,BKN,9000,,,,,,,VFR,,,,,,,,,,,,METAR,1118.0
K1S5 271415Z AUTO 00000KT 10SM OVC095 15/11 A3001 RMK AO2 T01450109,K1S5,2015-05-27T14:15:00Z,46.33,-119.97,14.5,10.9,0,0,,10.0,30.008858,,,TRUE,TRUE,,,,,,,OVC,9500,,,,,,,VFR,,,,,,,,,,,,METAR,234.0
KPTN 271415Z AUTO 12003KT 9SM SCT012 SCT018 27/24 A3015 RMK AO1 LTG DSNT W,KPTN,2015-05-27T14:15:00Z,29.72,-91.32,27.0,24.0,120,3,,9.0,30.15059,,,TRUE,TRUE,,,,,,,SCT,1200,SCT,1800,,,,,VFR,,,,,,,,,,,,SPECI,3.0
KPRX 271415Z 00000KT 10SM CLR 23/14 A3008 RMK AO1,KPRX,2015-05-27T14:15:00Z,33.62,-95.45,23.0,14.0,0,0,,10.0,30.079725,,,,TRUE,,,,,,,CLR,,,,,,,,VFR,,,,,,,,,,,,SPECI,167.0
KDTL 271414Z AUTO 31008KT 10SM CLR 17/11 A2993 RMK AO2,KDTL,2015-05-27T14:14:00Z,46.82,-95.87,17.0,11.0,310,8,,10.0,29.929134,,,TRUE,TRUE,,,,,,,CLR,,,,,,,,VFR,,,,,,,,,,,,SPECI,426.0
KCVX 271414Z AUTO 24010KT 1 1/4SM DZ OVC005 14/13 A2980 RMK AO2 T01370133,KCVX,2015-05-27T14:14:00Z,45.3,-85.27,13.7,13.3,240,10,,1.25,29.799213,,,TRUE,TRUE,,,,,,DZ,OVC,500,,,,,,,IFR,,,,,,,,,,,,SPECI,204.0
KCNB 271414Z AUTO 31006KT 10SM CLR 21/12 A2996 RMK AO2 T02120122,KCNB,2015-05-27T14:14:00Z,44.73,-96.27,21.2,12.2,310,6,,10.0,29.958662,,,TRUE,TRUE,,,,,,,CLR,,,,,,,,VFR,,,,,,,,,,,,SPECI,364.0
KCKN 271414Z AUTO 35010KT 10SM CLR 15/08 A2994 RMK AO2,KCKN,2015-05-27T14:14:00Z,47.85,-96.62,15.0,8.0,350,10,,10.0,29.940945,,,TRUE,TRUE,,,,,,,CLR,,,,,,,,VFR,,,,,,,,,,,,SPECI,273.0
KCKC 271414Z AUTO 31006KT 10SM CLR 20/10 A2981 RMK AO2,KCKC,2015-05-27T14:14:00Z,47.83,-90.37,20.0,10.0,310,6,,10.0,29.811024,,,TRUE,TRUE,,,,,,,CLR,,,,,,,,VFR,,,,,,,,,,,,SPECI,548.0
KCFE 271414Z AUTO 22004KT 10SM CLR 18/13 A2993 RMK AO2 T01750132,KCFE,2015-05-27T14:14:00Z,45.17,-93.85,17.5,13.2,220,4,,10.0,29.929134,,,TRUE,TRUE,,,,,,,CLR,,,,,,,,VFR,,,,,,,,,,,,SPECI,295.0
KADC 271414Z AUTO 29005KT 10SM CLR 18/13 A2990 RMK AO2,KADC,2015-05-27T14:14:00Z,46.45,-95.22,18.0,13.0,290,5,,10.0,29.899607,,,TRUE,TRUE,,,,,,,CLR,,,,,,,,VFR,,,,,,,,,,,,SPECI,418.0
KVLL 271414Z AUTO 23010G18KT 10SM SCT029 24/17 A2997 RMK AO2 T02360171,KVLL,2015-05-27T14:14:00Z,42.55,-83.18,23.6,17.1,230,10,18,10.0,29.970472,,,TRUE,TRUE,,,,,,,SCT,2900,,,,,,,VFR,,,,,,,,,,,,SPECI,222.0
KRQB 271414Z AUTO 24010KT 10SM OVC007 17/15 A2987 RMK AO2 T01710152,KRQB,2015-05-27T14:14:00Z,43.72,-85.5,17.1,15.2,240,10,,10.0,29.870079,,,TRUE,TRUE,,,,,,,OVC,700,,,,,,,IFR,,,,,,,,,,,,SPECI,302.0
KOZW 271414Z AUTO 23014G20KT 10SM SCT029 SCT035 23/17 A2995 RMK AO2 T02290165,KOZW,2015-05-27T14:14:00Z,42.62,-83.97,22.9,16.5,230,14,20,10.0,29.949802,,,TRUE,TRUE,,,,,,,SCT,2900,SCT,3500,,,,,VFR,,,,,,,,,,,,SPECI,293.0
EHLW 271414Z AUTO 26010KT 9999 FEW024 SCT028 15/09 Q1020 BLU,EHLW,2015-05-27T14:14:00Z,53.22,5.75,15.0,9.0,260,10,,6.21,30.11811,,,TRUE,,,,,,,,FEW,2400,SCT,2800,,,,,VFR,,,,,,,,,,,,SPECI,2.0
PAKU 271414Z 11009KT 3/8SM R06/1000FT FG OVC002 01/01 A3029,PAKU,2015-05-27T14:14:00Z,70.32,-149.58,1.0,1.0,110,9,,0.38,30.28937,,,,,,,,,,FG,OVC,200,,,,,,,LIFR,,,,,,,,,,,,SPECI,2.0
KVTP 271414Z AUTO 10SM CLR A3036 RMK AO2,KVTP,2015-05-27T14:14:00Z,37.5,-105.17,,,,,,10.0,30.360237,,,TRUE,TRUE,,,,,,,CLR,,,,,,,,VFR,,,,,,,,,,,,SPECI,3114.0
KSBS 271414Z AUTO 08004KT 10SM BKN035 BKN041 OVC048 07/07 A3021 RMK AO1 T00730065,KSBS,2015-05-27T14:14:00Z,40.52,-106.87,7.3,6.5,80,4,,10.0,30.209646,,,TRUE,TRUE,,,,,,,BKN,3500,BKN,4100,OVC,4800,,,VFR,,,,,,,,,,,,SPECI,2096.0
KROX 271414Z AUTO 31004KT 10SM CLR 15/09 A2991 RMK AO2,KROX,2015-05-27T14:14:00Z,48.85,-95.7,15.0,9.0,310,4,,10.0,29.911417,,,TRUE,TRUE,,,,,,,CLR,,,,,,,,VFR,,,,,,,,,,,,SPECI,323.0
KAPC 271414Z AUTO 26008KT 10SM OVC009 11/09 A3000 RMK AO2 T01110089,KAPC,2015-05-27T14:14:00Z,38.2,-122.28,11.1,8.9,260,8,,10.0,30.0,,,TRUE,TRUE,,,,,,,OVC,900,,,,,,,IFR,,,,,,,,,,,,SPECI,13.0
KPLN 271414Z AUTO 24014G21KT 3SM -RA BR BKN011 OVC016 16/15 A2975 RMK AO2 P0001 T01610150,KPLN,2015-05-27T14:14:00Z,45.57,-84.8,16.1,15.0,240,14,21,3.0,29.749016,,,TRUE,TRUE,,,,,,-RA BR,BKN,1100,OVC,1600,,,,,MVFR,,,,,,0.01,,,,,,SPECI,217.0
KEIK 271414Z AUTO 00000KT 10SM 14/10 A3008 RMK AO2 T01410096,KEIK,2015-05-27T14:14:00Z,40.02,-105.05,14.1,9.6,0,0,,10.0,30.079725,,,TRUE,TRUE,,,,,,,,,,,,,,,,,,,,,,,,,,,SPECI,1564.0
KDVN 271414Z AUTO 29014KT 10SM SCT017 BKN023 18/14 A3000 RMK AO2 T01830144,KDVN,2015-05-27T14:14:00Z,41.62,-90.58,18.3,14.4,290,14,,10.0,30.0,,,TRUE,TRUE,,,,,,,SCT,1700,BKN,2300,,,,,MVFR,,,,,,,,,,,,SPECI,230.0
KRRT 271414Z AUTO 32005KT 10SM CLR 14/09 A2991 RMK AO2,KRRT,2015-05-27T14:14:00Z,48.93,-95.33,14.0,9.0,320,5,,10.0,29.911417,,,TRUE,TRUE,,,,,,,CLR,,,,,,,,VFR,,,,,,,,,,,,SPECI,327.0
K5SM 271414Z AUTO 00000KT 10SM CLR 03/02 A3038 RMK AO2,K5SM,2015-05-27T14:14:00Z,39.43,-107.38,3.0,2.0,0,0,,10.0,30.380905,,,TRUE,TRUE,,,,,,,CLR,,,,,,,,VFR,,,,,,,,,,,,SPECI,3232.0
K7BM 271414Z AUTO 00000KT 10SM SCT039 SCT047 08/00 A3033 RMK AO2,K7BM,2015-05-27T14:14:00Z,38.78,-106.22,8.0,0.0,0,0,,10.0,30.33071,,,TRUE,TRUE,,,,,,,SCT,3900,SCT,4700,,,,,VFR,,,,,,,,,,,,SPECI,2995.0
KSYN 271414Z AUTO 21005KT 10SM CLR 18/14 A2994 RMK AO2 T01800141,KSYN,2015-05-27T14:14:00Z,44.47,-93.02,18.0,14.1,210,5,,10.0,29.940945,,,TRUE,TRUE,,,,,,,CLR,,,,,,,,VFR,,,,,,,,,,,,SPECI,280.0
KVVV 271414Z AUTO 31009KT 10SM CLR 19/11 A2994 RMK AO2,KVVV,2015-05-27T14:14:00Z,45.3,-96.42,19.0,11.0,310,9,,10.0,29.940945,,,TRUE,TRUE,,,,,,,CLR,,,,,,,,VFR,,,,,,,,,,,,SPECI,335.0
KULM 271414Z AUTO 26007KT 10SM CLR 18/13 A2994 RMK AO2,KULM,2015-05-27T14:14:00Z,44.32,-94.5,18.0,13.0,260,7,,10.0,29.940945,,,TRUE,TRUE,,,,,,,CLR,,,,,,,,VFR,,,,,,,,,,,,SPECI,308.0
KTOB 271414Z AUTO 24009KT 10SM CLR 18/14 A2997 RMK AO2,KTOB,2015-05-27T14:14:00Z,44.02,-92.82,18.0,14.0,240,9,,10.0,29.970472,,,TRUE,TRUE,,,,,,,CLR,,,,,,,,VFR,,,,,,,,,,,,SPECI,398.0
KGYL 271414Z AUTO 21004KT 10SM CLR 17/14 A2992 RMK AO2 T01730144,KGYL,2015-05-27T14:14:00Z,44.77,-94.08,17.3,14.4,210,4,,10.0,29.920275,,,TRUE,TRUE,,,,,,,CLR,,,,,,,,VFR,,,,,,,,,,,,SPECI,302.0
KHCO 271414Z AUTO 36014KT 10SM CLR 14/07 A2994 RMK AO2,KHCO,2015-05-27T14:14:00Z,48.75,-96.93,14.0,7.0,360,14,,10.0,29.940945,,,TRUE,TRUE,,,,,,,CLR,,,,,,,,VFR,,,,,,,,,,,,SPECI,250.0
KIKW 271414Z AUTO 24012G18KT 10SM OVC026 22/16 A2987 RMK AO2 T02200158,KIKW,2015-05-27T14:14:00Z,43.67,-84.27,22.0,15.8,240,12,18,10.0,29.870079,,,TRUE,TRUE,,,,,,,OVC,2600,,,,,,,MVFR,,,,,,,,,,,,SPECI,194.0
KIMS 271414Z AUTO 22010G17KT 10SM OVC018 22/17 A3016 RMK AO1,KIMS,2015-05-27T14:14:00Z,38.75,-85.47,22.0,17.0,220,10,17,10.0,30.159449,,,TRUE,TRUE,,,,,,,OVC,1800,,,,,,,MVFR,,,,,,,,,,,,SPECI,250.0
KMJQ 271414Z AUTO 28008KT 10SM CLR 19/13 A2998 RMK AO2,KMJQ,2015-05-27T14:14:00Z,43.63,-94.97,19.0,13.0,280,8,,10.0,29.97933,,,TRUE,TRUE,,,,,,,CLR,,,,,,,,VFR,,,,,,,,,,,,SPECI,441.0
KLYV 271414Z AUTO 29005KT 10SM CLR 20/12 A3000 RMK AO2,KLYV,2015-05-27T14:14:00Z,43.62,-96.22,20.0,12.0,290,5,,10.0,30.0,,,TRUE,TRUE,,,,,,,CLR,,,,,,,,VFR,,,,,,,,,,,,SPECI,436.0
KMOX 271414Z AUTO 32009KT 10SM CLR 19/12 A2992 RMK AO2,KMOX,2015-05-27T14:14:00Z,45.57,-95.97,19.0,12.0,320,9,,10.0,29.920275,,,TRUE,TRUE,,,,,,,CLR,,,,,,,,VFR,,,,,,,,,,,,SPECI,344.0
KMRT 271414Z AUTO 23009KT 10SM BKN021 BKN030 22/18 A3011 RMK AO2 T02210183,KMRT,2015-05-27T14:14:00Z,40.22,-83.35,22.1,18.3,230,9,,10.0,30.109253,,,TRUE,TRUE,,,,,,,BKN,2100,BKN,3000,,,,,MVFR,,,,,,,,,,,,SPECI,312.0
KMVE 271414Z AUTO 35007KT 10SM CLR 20/13 A2995 RMK AO2,KMVE,2015-05-27T14:14:00Z,44.97,-95.72,20.0,13.0,350,7,,10.0,29.949802,,,TRUE,TRUE,,,,,,,CLR,,,,,,,,VFR,,,,,,,,,,,,SPECI,315.0
KMTH 271414Z AUTO 10011G18KT FEW026 29/23 A3010 RMK AO2 T02940228 $,KMTH,2015-05-27T14:14:00Z,24.73,-81.05,29.4,22.8,100,11,18,,30.100393,,,TRUE,TRUE,TRUE,,,,,,FEW,2600,,,,,,,,,,,,,,,,,,,SPECI,2.0
KMWM 271414Z AUTO 28008KT 10SM CLR 19/13 A2997 RMK AO2,KMWM,2015-05-27T14:14:00Z,43.9,-95.1,19.0,13.0,280,8,,10.0,29.970472,,,TRUE,TRUE,,,,,,,CLR,,,,,,,,VFR,,,,,,,,,,,,SPECI,430.0
KOSC 271414Z AUTO 22013G20KT 10SM BKN026 OVC034 21/16 A2982 RMK AO2 T02160166,KOSC,2015-05-27T14:14:00Z,44.45,-83.4,21.6,16.6,220,13,20,10.0,29.819881,,,TRUE,TRUE,,,,,,,BKN,2600,OVC,3400,,,,,MVFR,,,,,,,,,,,,SPECI,193.0
KPEX 271414Z AUTO 21006KT 10SM CLR 16/13 A2992 RMK AO2 T01600129,KPEX,2015-05-27T14:14:00Z,45.37,-94.73,16.0,12.9,210,6,,10.0,29.920275,,,TRUE,TRUE,,,,,,,CLR,,,,,,,,VFR,,,,,,,,,,,,SPECI,360.0
K9MN 271414Z AUTO 26005KT 10SM CLR 17/16 A2996 RMK AO1 T01700155,K9MN,2015-05-27T14:14:00Z,44.02,-92.48,17.0,15.5,260,5,,10.0,29.958662,,,TRUE,TRUE,,,,,,,CLR,,,,,,,,VFR,,,,,,,,,,,,SPECI,355.0
KBBB 271414Z AUTO 35008KT 10SM CLR 19/11 A2993 RMK AO2,KBBB,2015-05-27T14:14:00Z,45.32,-95.65,19.0,11.0,350,8,,10.0,29.929134,,,TRUE,TRUE,,,,,,,CLR,,,,,,,,VFR,,,,,,,,,,,,SPECI,317.0
KFBL 271414Z AUTO 18004KT 10SM SCT100 18/16 A2996 RMK AO2,KFBL,2015-05-27T14:14:00Z,44.33,-93.32,18.0,16.0,180,4,,10.0,29.958662,,,TRUE,TRUE,,,,,,,SCT,10000,,,,,,,VFR,,,,,,,,,,,,SPECI,322.0
KEVM 271414Z AUTO 28005KT 10SM CLR 17/12 A2986 RMK AO2,KEVM,2015-05-27T14:14:00Z,47.42,-92.5,17.0,12.0,280,5,,10.0,29.861221,,,TRUE,TRUE,,,,,,,CLR,,,,,,,,VFR,,,,,,,,,,,,SPECI,421.0
KFFM 271414Z AUTO 30009KT 10SM CLR 17/12 A2993 RMK AO2,KFFM,2015-05-27T14:14:00Z,46.28,-96.15,17.0,12.0,300,9,,10.0,29.929134,,,TRUE,TRUE,,,,,,,CLR,,,,,,,,VFR,,,,,,,,,,,,SPECI,361.0
KFGN 271414Z AUTO 33011KT 10SM CLR 13/09 A2989 RMK AO2,KFGN,2015-05-27T14:14:00Z,49.32,-94.9,13.0,9.0,330,11,,10.0,29.890747,,,TRUE,TRUE,,,,,,,CLR,,,,,,,,VFR,,,,,,,,,,,,SPECI,328.0
KFLY 271414Z AUTO 19006KT 10SM CLR 12/07 A3020 RMK AO2 T01230069,KFLY,2015-05-27T14:14:00Z,38.95,-104.57,12.3,6.9,190,6,,10.0,30.200787,,,TRUE,TRUE,,,,,,,CLR,,,,,,,,VFR,,,,,,,,,,,,SPECI,2096.0
PAMB 271414Z AUTO 14005KT 5SM -RA BR BKN021 OVC042 07/07 A3017 RMK AO2 TSNO P0000 $,PAMB,2015-05-27T14:14:00Z,58.98,-159.05,7.0,7.0,140,5,,5.0,30.171259,,,TRUE,TRUE,TRUE,,TRUE,,,-RA BR,BKN,2100,OVC,4200,,,,,MVFR,,,,,,0.0050,,,,,,SPECI,16.0
KVEL 271414Z AUTO 00000KT 10SM BKN018 11/08 A3016 RMK AO2 T01110078,KVEL,2015-05-27T14:14:00Z,40.45,-109.52,11.1,7.8,0,0,,10.0,30.159449,,,TRUE,TRUE,,,,,,,BKN,1800,,,,,,,MVFR,,,,,,,,,,,,SPECI,1604.0
DIAP 271414Z 22009KT 7000 -TSRA BKN009 FEW020CB OVC040 25/25 Q1011 TEMPO 4000 TSRA,DIAP,2015-05-27T14:14:00Z,5.25,-3.92,25.0,25.0,220,9,,4.35,29.852362,,,,,,,,,,-TSRA,BKN,900,FEW,2000,OVC,4000,,,IFR,,,,,,,,,,,,SPECI,8.0
KPNM 271414Z AUTO 22005KT 10SM CLR 19/14 A2990 RMK AO2,KPNM,2015-05-27T14:14:00Z,45.57,-93.6,19.0,14.0,220,5,,10.0,29.899607,,,TRUE,TRUE,,,,,,,CLR,,,,,,,,VFR,,,,,,,,,,,,SPECI,298.0
KFSE 271413Z AUTO 00000KT 10SM CLR 17/09 A2992 RMK AO2,KFSE,2015-05-27T14:13:00Z,47.58,-95.77,17.0,9.0,0,0,,10.0,29.920275,,,TRUE,TRUE,,,,,,,CLR,,,,,,,,VFR,,,,,,,,,,,,SPECI,389.0
KBAX 271413Z AUTO 23015G23KT 10SM SCT027 BKN037 22/15 A2989 RMK AO2 T02150154,KBAX,2015-05-27T14:13:00Z,43.78,-82.98,21.5,15.4,230,15,23,10.0,29.890747,,,TRUE,TRUE,,,,,,,SCT,2700,BKN,3700,,,,,VFR,,,,,,,,,,,,SPECI,234.0
KAMN 271413Z AUTO 21014G21KT 10SM BKN023 BKN030 OVC037 22/18 A2989 RMK AO2 T02210176,KAMN,2015-05-27T14:13:00Z,43.32,-84.68,22.1,17.6,210,14,21,10.0,29.890747,,,TRUE,TRUE,,,,,,,BKN,2300,BKN,3000,OVC,3700,,,MVFR,,,,,,,,,,,,SPECI,230.0
KHZX 271413Z AUTO 00000KT 10SM SCT120 18/13 A2988 RMK AO2,KHZX,2015-05-27T14:13:00Z,46.62,-93.32,18.0,13.0,0,0,,10.0,29.878937,,,TRUE,TRUE,,,,,,,SCT,12000,,,,,,,VFR,,,,,,,,,,,,SPECI,374.0
KLSF 271413Z AUTO VRB02KT 10SM OVC007 22/22 A3020 RMK AO2,KLSF,2015-05-27T14:13:00Z,32.32,-84.97,22.0,22.0,0,2,,10.0,30.200787,,,TRUE,TRUE,,,,,,,OVC,700,,,,,,,IFR,,,,,,,,,,,,SPECI,71.0
KGRK 271413Z AUTO 13009KT 10SM OVC019 20/19 A3009 RMK AO2 LTG DSNT S,KGRK,2015-05-27T14:13:00Z,31.07,-97.83,20.0,19.0,130,9,,10.0,30.088583,,,TRUE,TRUE,,,,,,,OVC,1900,,,,,,,MVFR,,,,,,,,,,,,SPECI,309.0
KFTK 271413Z AUTO 20006KT 10SM BKN012 BKN019 23/20 A3013 RMK AO2 CIG 012V019 BKN012 V SCT PNO $,KFTK,2015-05-27T14:13:00Z,37.88,-85.97,23.0,20.0,200,6,,10.0,30.129921,,,TRUE,TRUE,TRUE,,,,,,BKN,1200,BKN,1900,,,,,MVFR,,,,,,,,,,,,SPECI,230.0
KADW 271413Z AUTO 21008KT 10SM SCT015 26/21 A3017 RMK AO2,KADW,2015-05-27T14:13:00Z,38.82,-76.87,26.0,21.0,210,8,,10.0,30.171259,,,TRUE,TRUE,,,,,,,SCT,1500,,,,,,,VFR,,,,,,,,,,,,SPECI,86.0
KVWU 271413Z AUTO 26003KT 10SM SCT100 16/12 A2988 RMK AO2,KVWU,2015-05-27T14:13:00Z,48.15,-94.52,16.0,12.0,260,3,,10.0,29.878937,,,TRUE,TRUE,,,,,,,SCT,10000,,,,,,,VFR,,,,,,,,,,,,SPECI,360.0
KLTS 271413Z 14009KT 10SM BKN030 21/18 A3005 RMK AO2A $,KLTS,2015-05-27T14:13:00Z,34.67,-99.27,21.0,18.0,140,9,,10.0,30.050198,,,,TRUE,TRUE,,,,,,BKN,3000,,,,,,,MVFR,,,,,,,,,,,,SPECI,420.0
KCGE 271413Z AUTO 18011G15KT 10SM OVC015 26/20 A3019 RMK AO1,KCGE,2015-05-27T14:13:00Z,38.53,-76.03,26.0,20.0,180,11,15,10.0,30.188976,,,TRUE,TRUE,,,,,,,OVC,1500,,,,,,,MVFR,,,,,,,,,,,,METAR,6.0
KCBE 271413Z AUTO 3/4SM BKN008 OVC012 20/20 RMK AO1,KCBE,2015-05-27T14:13:00Z,39.62,-78.77,20.0,20.0,,,,0.75,,,,TRUE,TRUE,,,,,,,BKN,800,OVC,1200,,,,,LIFR,,,,,,,,,,,,METAR,236.0
KRMY 271413Z AUTO 24015G20KT 10SM SCT025 SCT050 SCT070 22/16 A2996 RMK AO2 T02230161,KRMY,2015-05-27T14:13:00Z,42.23,-84.95,22.3,16.1,240,15,20,10.0,29.958662,,,TRUE,TRUE,,,,,,,SCT,2500,SCT,5000,SCT,7000,,,VFR,,,,,,,,,,,,SPECI,287.0
KPWC 271413Z AUTO 29004KT 10SM CLR 16/13 A2992 RMK AO2,KPWC,2015-05-27T14:13:00Z,46.72,-94.37,16.0,13.0,290,4,,10.0,29.920275,,,TRUE,TRUE,,,,,,,CLR,,,,,,,,VFR,,,,,,,,,,,,SPECI,395.0
KSGS 271413Z AUTO 21004KT 10SM CLR 19/15 A2993 RMK AO2 T01850148,KSGS,2015-05-27T14:13:00Z,44.87,-93.03,18.5,14.8,210,4,,10.0,29.929134,,,TRUE,TRUE,,,,,,,CLR,,,,,,,,VFR,,,,,,,,,,,,SPECI,250.0
KSAZ 271413Z AUTO 31004KT 10SM CLR 18/13 A2990 RMK AO2,KSAZ,2015-05-27T14:13:00Z,46.37,-94.8,18.0,13.0,310,4,,10.0,29.899607,,,TRUE,TRUE,,,,,,,CLR,,,,,,,,VFR,,,,,,,,,,,,SPECI,392.0
YSNF 271413Z AUTO 16008KT 9999 // SCT008 SCT013 OVC061 15/14 Q1022,YSNF,2015-05-27T14:13:00Z,-29.02,167.92,15.0,14.0,160,8,,6.21,30.177166,,,TRUE,,,,,,,,SCT,800,SCT,1300,OVC,6100,,,VFR,,,,,,,,,,,,SPECI,109.0
YLIS 271413Z AUTO 01004KT 1000 // BKN001 12/12 Q1023,YLIS,2015-05-27T14:13:00Z,-28.83,153.27,12.0,12.0,10,4,,0.62,30.206694,,,TRUE,,,,,,,,BKN,100,,,,,,,LIFR,,,,,,,,,,,,SPECI,11.0
KRIV 271413Z AUTO 31003KT 8SM OVC010 14/12 A2998 RMK AO2,KRIV,2015-05-27T14:13:00Z,33.87,-117.27,14.0,12.0,310,3,,8.0,29.97933,,,TRUE,TRUE,,,,,,,OVC,1000,,,,,,,MVFR,,,,,,,,,,,,SPECI,469.0
KTEW 271413Z AUTO 23013G18KT 10SM SCT028 BKN033 21/15 A2995 RMK AO2 T02130154,KTEW,2015-05-27T14:13:00Z,42.57,-84.42,21.3,15.4,230,13,18,10.0,29.949802,,,TRUE,TRUE,,,,,,,SCT,2800,BKN,3300,,,,,VFR,,,,,,,,,,,,SPECI,280.0
KY70 271413Z AUTO 24022G27KT 10SM BKN027 BKN040 BKN060 23/16 A2991 RMK AO2 T02250156,KY70,2015-05-27T14:13:00Z,42.93,-85.07,22.5,15.6,240,22,27,10.0,29.911417,,,TRUE,TRUE,,,,,,,BKN,2700,BKN,4000,BKN,6000,,,MVFR,,,,,,,,,,,,SPECI,250.0
KTWM 271413Z AUTO 32004KT 10SM CLR 22/14 A2980 RMK AO2,KTWM,2015-05-27T14:13:00Z,47.03,-91.75,22.0,14.0,320,4,,10.0,29.799213,,,TRUE,TRUE,,,,,,,CLR,,,,,,,,VFR,,,,,,,,,,,,SPECI,328.0
KLJF 271413Z AUTO 26004KT 10SM CLR 18/14 A2993 RMK AO2,KLJF,2015-05-27T14:13:00Z,45.1,-94.52,18.0,14.0,260,4,,10.0,29.929134,,,TRUE,TRUE,,,,,,,CLR,,,,,,,,VFR,,,,,,,,,,,,SPECI,348.0
KONA 271413Z AUTO 00000KT 10SM CLR 17/13 A2995 RMK AO2,KONA,2015-05-27T14:13:00Z,44.07,-91.7,17.0,13.0,0,0,,10.0,29.949802,,,TRUE,TRUE,,,,,,,CLR,,,,,,,,VFR,,,,,,,,,,,,SPECI,200.0
KOVL 271413Z AUTO 28006KT 10SM CLR 18/12 A2993 RMK AO2,KOVL,2015-05-27T14:13:00Z,44.78,-95.03,18.0,12.0,280,6,,10.0,29.929134,,,TRUE,TRUE,,,,,,,CLR,,,,,,,,VFR,,,,,,,,,,,,SPECI,328.0
K04W 271413Z AUTO 22007KT 10SM CLR 18/14 A2988 RMK AO2,K04W,2015-05-27T14:13:00Z,46.02,-92.9,18.0,14.0,220,7,,10.0,29.878937,,,TRUE,TRUE,,,,,,,CLR,,,,,,,,VFR,,,,,,,,,,,,SPECI,311.0
KDVP 271413Z AUTO 29011KT 10SM CLR 19/12 A2999 RMK AO2 T01850121,KDVP,2015-05-27T14:13:00Z,43.98,-95.78,18.5,12.1,290,11,,10.0,29.991142,,,TRUE,TRUE,,,,,,,CLR,,,,,,,,VFR,,,,,,,,,,,,SPECI,495.0
KD95 271413Z AUTO 24014G22KT 10SM SCT029 BKN036 23/15 A2993 RMK AO2 T02290153,KD95,2015-05-27T14:13:00Z,43.07,-83.27,22.9,15.3,240,14,22,10.0,29.929134,,,TRUE,TRUE,,,,,,,SCT,2900,BKN,3600,,,,,VFR,,,,,,,,,,,,SPECI,255.0
KBJI 271413Z AUTO 34006KT 10SM CLR 19/10 A2989 RMK AO2 T01910104,KBJI,2015-05-27T14:13:00Z,47.5,-94.92,19.1,10.4,340,6,,10.0,29.890747,,,TRUE,TRUE,,,,,,,CLR,,,,,,,,VFR,,,,,,,,,,,,SPECI,420.0
KDXX 271413Z AUTO 33008KT 10SM CLR 21/12 A2994 RMK AO2,KDXX,2015-05-27T14:13:00Z,44.98,-96.18,21.0,12.0,330,8,,10.0,29.940945,,,TRUE,TRUE,,,,,,,CLR,,,,,,,,VFR,,,,,,,,,,,,SPECI,330.0
KGDB 271413Z AUTO 29008KT 10SM CLR 20/12 A2996 RMK AO2 T01950121,KGDB,2015-05-27T14:13:00Z,44.75,-95.55,19.5,12.1,290,8,,10.0,29.958662,,,TRUE,TRUE,,,,,,,CLR,,,,,,,,VFR,,,,,,,,,,,,SPECI,319.0
KGHW 271413Z AUTO 29008KT 10SM CLR 17/12 A2993 RMK AO2,KGHW,2015-05-27T14:13:00Z,45.63,-95.32,17.0,12.0,290,8,,10.0,29.929134,,,TRUE,TRUE,,,,,,,CLR,,,,,,,,VFR,,,,,,,,,,,,SPECI,425.0
CYQX 271413Z 23009G15KT 10SM -DZ FEW003 BKN007 OVC036 13/13 A3007 RMK SF1SF5SC2 SLP187,CYQX,2015-05-27T14:13:00Z,48.95,-54.58,13.0,13.0,230,9,15,10.0,30.070866,1018.7,,,,,,,,,-DZ,FEW,300,BKN,700,OVC,3600,,,IFR,,,,,,,,,,,,SPECI,151.0
PAVA 271413Z AUTO 16015KT 2 1/2SM -RA BR OVC005 07/06 A3005 RMK AO2 VIS 1 3/4V4 CIG 003V008 PNO $,PAVA,2015-05-27T14:13:00Z,61.53,-165.6,7.0,6.0,160,15,,2.5,30.050198,,,TRUE,TRUE,TRUE,,,,,-RA BR,OVC,500,,,,,,,IFR,,,,,,,,,,,,SPECI,23.0
KCLM 271413Z AUTO 29003KT 3SM BR OVC002 11/10 A3008 RMK AO2 T01060100,KCLM,2015-05-27T14:13:00Z,48.12,-123.5,10.6,10.0,290,3,,3.0,30.079725,,,TRUE,TRUE,,,,,,BR,OVC,200,,,,,,,LIFR,,,,,,,,,,,,METAR,85.0
KFOZ 271413Z AUTO 35003KT 10SM CLR 19/12 A2986 RMK AO2,KFOZ,2015-05-27T14:13:00Z,47.77,-93.65,19.0,12.0,350,3,,10.0,29.861221,,,TRUE,TRUE,,,,,,,CLR,,,,,,,,VFR,,,,,,,,,,,,METAR,411.0
KM19 271413Z AUTO 20009KT 10SM FEW024 BKN035 24/21 A3013 RMK AO2 LTG DSNT ALQDS,KM19,2015-05-27T14:13:00Z,35.65,-91.17,24.0,21.0,200,9,,10.0,30.129921,,,TRUE,TRUE,,,,,,,FEW,2400,BKN,3500,,,,,VFR,,,,,,,,,,,,METAR,73.0
KMSN 271413Z 29009KT 5SM -RA SCT012 BKN016 OVC046 17/14 A2992 RMK AO2 RAB05 P0000 T01670139,KMSN,2015-05-27T14:13:00Z,43.13,-89.35,16.7,13.9,290,9,,5.0,29.920275,,,,TRUE,,,,,,-RA,SCT,1200,BKN,1600,OVC,4600,,,MVFR,,,,,,0.0050,,,,,,METAR,261.0
KUTS 271413Z AUTO VRB03KT 10SM SCT007 19/18 A3012 RMK AO2 T01940178,KUTS,2015-05-27T14:13:00Z,30.75,-95.58,19.4,17.8,0,3,,10.0,30.121063,,,TRUE,TRUE,,,,,,,SCT,700,,,,,,,VFR,,,,,,,,,,,,METAR,104.0
KRAC 271413Z AUTO 27009KT 9SM -RA SCT024 BKN031 OVC047 19/15 A2992 RMK AO2 RAB06 P0000 T01890150,KRAC,2015-05-27T14:13:00Z,42.77,-87.82,18.9,15.0,270,9,,9.0,29.920275,,,TRUE,TRUE,,,,,,-RA,SCT,2400,BKN,3100,OVC,4700,,,VFR,,,,,,0.0050,,,,,,METAR,203.0
KFKS 271412Z AUTO 23009G18KT 200V260 10SM SCT006 OVC018 14/10 A2982 RMK AO2 T01400098,KFKS,2015-05-27T14:12:00Z,44.63,-86.2,14.0,9.8,230,9,18,10.0,29.819881,,,TRUE,TRUE,,,,,,,SCT,600,OVC,1800,,,,,MVFR,,,,,,,,,,,,SPECI,193.0
YTRE 271412Z AUTO 29056KT 9999 // NCD 12/11 Q1023,YTRE,2015-05-27T14:12:00Z,-31.88,152.52,12.0,11.0,290,56,,6.21,30.206694,,,TRUE,,,,,,,,,,,,,,,,,,,,,,,,,,,,SPECI,12.0
KMUI 271412Z AUTO 21007KT 10SM BKN018 26/20 A3014 RMK AO2 BKN V SCT $,KMUI,2015-05-27T14:12:00Z,40.42,-76.57,26.0,20.0,210,7,,10.0,30.138779,,,TRUE,TRUE,TRUE,,,,,,BKN,1800,,,,,,,MVFR,,,,,,,,,,,,METAR,149.0
KACY 271412Z 19010KT 10SM SCT019 27/19 A3020 RMK AO2 T02670194,KACY,2015-05-27T14:12:00Z,39.45,-74.57,26.7,19.4,190,10,,10.0,30.200787,,,,TRUE,,,,,,,SCT,1900,,,,,,,VFR,,,,,,,,,,,,SPECI,23.0
KHCD 271412Z AUTO 25007KT 10SM CLR 18/15 A2994 RMK AO2 T01810145,KHCD,2015-05-27T14:12:00Z,44.87,-94.38,18.1,14.5,250,7,,10.0,29.940945,,,TRUE,TRUE,,,,,,,CLR,,,,,,,,VFR,,,,,,,,,,,,SPECI,323.0
KPCW 271412Z AUTO 23015KT 10SM CLR 25/19 A3002 RMK AO2 $,KPCW,2015-05-27T14:12:00Z,41.52,-82.87,25.0,19.0,230,15,,10.0,30.02067,,,TRUE,TRUE,TRUE,,,,,,CLR,,,,,,,,VFR,,,,,,,,,,,,SPECI,178.0
KAEL 271412Z AUTO 21003KT 10SM CLR 18/14 A2997 RMK AO2,KAEL,2015-05-27T14:12:00Z,43.68,-93.37,18.0,14.0,210,3,,10.0,29.970472,,,TRUE,TRUE,,,,,,,CLR,,,,,,,,VFR,,,,,,,,,,,,SPECI,383.0
KAIT 271412Z AUTO 00000KT 10SM CLR 18/13 A2986 RMK AO2,KAIT,2015-05-27T14:12:00Z,46.53,-93.67,18.0,13.0,0,0,,10.0,29.861221,,,TRUE,TRUE,,,,,,,CLR,,,,,,,,VFR,,,,,,,,,,,,SPECI,367.0
KDYT 271412Z AUTO 21012KT 10SM CLR 17/13 A2983 RMK AO2,KDYT,2015-05-27T14:12:00Z,46.72,-92.03,17.0,13.0,210,12,,10.0,29.828741,,,TRUE,TRUE,,,,,,,CLR,,,,,,,,VFR,,,,,,,,,,,,SPECI,186.0
KLFT 271412Z 35018G33KT 1 1/4SM +TSRA BR SCT002 BKN026 OVC039 19/18 A3022 RMK AO2 PK WND 34034/1402 LTG DSNT ALQDS RAB03 TSB12 PRESRR P0012 T01940183,KLFT,2015-05-27T14:12:00Z,30.2,-92.0,19.4,18.3,350,18,33,1.25,30.221457,,,,TRUE,,,,,,+TSRA BR,SCT,200,BKN,2600,OVC,3900,,,IFR,,,,,,0.12,,,,,,METAR,11.0
KHBG 271412Z AUTO 18005KT 10SM SCT013 SCT018 BKN029 26/23 A3017 RMK AO2 T02610228,KHBG,2015-05-27T14:12:00Z,31.27,-89.25,26.1,22.8,180,5,,10.0,30.171259,,,TRUE,TRUE,,,,,,,SCT,1300,SCT,1800,BKN,2900,,,MVFR,,,,,,,,,,,,METAR,44.0
PAPB 271412Z AUTO 17010KT 7SM BKN010 OVC065 06/04 A2990 RMK AO2 CIG 007V012 T00560044 TSNO,PAPB,2015-05-27T14:12:00Z,56.58,-169.67,5.6,4.4,170,10,,7.0,29.899607,,,TRUE,TRUE,,,TRUE,,,,BKN,1000,OVC,6500,,,,,MVFR,,,,,,,,,,,,METAR,35.0
KFFX 271411Z AUTO 24010G16KT 10SM OVC007 17/16 A2989 RMK AO2 T01700159,KFFX,2015-05-27T14:11:00Z,43.43,-86.0,17.0,15.9,240,10,16,10.0,29.890747,,,TRUE,TRUE,,,,,,,OVC,700,,,,,,,IFR,,,,,,,,,,,,SPECI,236.0
CYPX 271411Z AUTO 24007KT 9SM SCT014 BKN022 OVC038 M03/M04 A2989 RMK SLP125,CYPX,2015-05-27T14:11:00Z,60.03,-77.27,-3.0,-4.0,240,7,,9.0,29.890747,1012.5,,TRUE,,,,,,,,SCT,1400,BKN,2200,OVC,3800,,,MVFR,,,,,,,,,,,,SPECI,23.0
YMTG 271411Z AUTO 31016KT 4100 // SCT018 BKN028 BKN039 13/12 Q1016,YMTG,2015-05-27T14:11:00Z,-37.75,140.78,13.0,12.0,310,16,,2.55,30.0,,,TRUE,,,,,,,,SCT,1800,BKN,2800,BKN,3900,,,IFR,,,,,,,,,,,,SPECI,65.0
LIRI 271411Z 33008KT 9999 TS FEW015CB BKN030 21/11 Q1011,LIRI,2015-05-27T14:11:00Z,40.62,14.92,21.0,11.0,330,8,,6.21,29.852362,,,,,,,,,,TS,FEW,1500,BKN,3000,,,,,MVFR,,,,,,,,,,,,SPECI,40.0
KESF 271411Z AUTO 00000KT 3SM TSRA BR BKN100 OVC120 21/19 A3015 RMK AO2 LTG DSNT ALQDS TSB10 P0005 T02060189,KESF,2015-05-27T14:11:00Z,31.4,-92.28,20.6,18.9,0,0,,3.0,30.15059,,,TRUE,TRUE,,,,,,TSRA BR,BKN,10000,OVC,12000,,,,,MVFR,,,,,,0.05,,,,,,SPECI,28.0
KBZN 271411Z 31003KT 10SM SCT008 OVC014 10/08 A3006 RMK AO2 T01000083,KBZN,2015-05-27T14:11:00Z,45.78,-111.17,10.0,8.3,310,3,,10.0,30.059055,,,,TRUE,,,,,,,SCT,800,OVC,1400,,,,,MVFR,,,,,,,,,,,,SPECI,1361.0
KHKS 271411Z AUTO 16011KT 10SM FEW010 BKN019 24/22 A3015 RMK AO2 T02440217,KHKS,2015-05-27T14:11:00Z,32.33,-90.22,24.4,21.7,160,11,,10.0,30.15059,,,TRUE,TRUE,,,,,,,FEW,1000,BKN,1900,,,,,MVFR,,,,,,,,,,,,SPECI,108.0
KTKC 271411Z AUTO 29006KT 10SM CLR 20/13 A2997 RMK AO2 T02030130,KTKC,2015-05-27T14:11:00Z,44.25,-95.62,20.3,13.0,290,6,,10.0,29.970472,,,TRUE,TRUE,,,,,,,CLR,,,,,,,,VFR,,,,,,,,,,,,SPECI,408.0
KJKJ 271411Z AUTO 36011KT 10SM CLR 17/12 A2993 RMK AO2,KJKJ,2015-05-27T14:11:00Z,46.83,-96.67,17.0,12.0,360,11,,10.0,29.929134,,,TRUE,TRUE,,,,,,,CLR,,,,,,,,VFR,,,,,,,,,,,,SPECI,280.0
KAXV 271411Z AUTO 21012G16KT 10SM CLR 22/19 A3008 RMK AO2,KAXV,2015-05-27T14:11:00Z,40.5,-84.3,22.0,19.0,210,12,16,10.0,30.079725,,,TRUE,TRUE,,,,,,,CLR,,,,,,,,VFR,,,,,,,,,,,,SPECI,279.0
KUKT 271410Z AUTO 22008KT 9SM SCT016 OVC028 25/21 A3018 RMK AO1,KUKT,2015-05-27T14:10:00Z,40.43,-75.38,25.0,21.0,220,8,,9.0,30.180119,,,TRUE,TRUE,,,,,,,SCT,1600,OVC,2800,,,,,MVFR,,,,,,,,,,,,SPECI,160.0
KRGK 271410Z AUTO 26003KT 10SM CLR 18/14 A2994 RMK AO2,KRGK,2015-05-27T14:10:00Z,44.58,-92.48,18.0,14.0,260,3,,10.0,29.940945,,,TRUE,TRUE,,,,,,,CLR,,,,,,,,VFR,,,,,,,,,,,,SPECI,239.0
KLWT 271410Z AUTO 25005KT 10SM FEW012 BKN030 OVC035 11/09 A3003 RMK AO2 T01110094,KLWT,2015-05-27T14:10:00Z,47.03,-109.47,11.1,9.4,250,5,,10.0,30.029528,,,TRUE,TRUE,,,,,,,FEW,1200,BKN,3000,OVC,3500,,,MVFR,,,,,,,,,,,,METAR,1270.0
SBSJ 271410Z 02007KT 9999 SCT015 27/18 Q1017,SBSJ,2015-05-27T14:10:00Z,-23.22,-45.87,27.0,18.0,20,7,,6.21,30.029528,,,,,,,,,,,SCT,1500,,,,,,,VFR,,,,,,,,,,,,METAR,646.0
CYNM 271410Z AUTO 14004KT 6SM -RA BR BKN003 OVC029 16/15 A2966 RMK SLP049 DENSITY ALT 1500FT,CYNM,2015-05-27T14:10:00Z,49.77,-77.82,16.0,15.0,140,4,,6.0,29.660433,1004.9,,TRUE,,,,,,,-RA BR,BKN,300,OVC,2900,,,,,LIFR,,,,,,,,,,,,SPECI,281.0
CYUS 271410Z AUTO 29012KT 3SM FEW000 OVC026 OVC077 M11/ A3013,CYUS,2015-05-27T14:10:00Z,68.82,-93.42,-11.0,,290,12,,3.0,30.129921,,,TRUE,,,,,,,,FEW,0,OVC,2600,OVC,7700,,,MVFR,,,,,,,,,,,,SPECI,42.0
CYRJ 271410Z 12004KT 25SM -SHRA FEW030 BKN050 17/14 A2981 RMK SC1SC7 SC TR SLP097 DENSITY ALT 1000FT,CYRJ,2015-05-27T14:10:00Z,48.52,-72.27,17.0,14.0,120,4,,25.0,29.811024,1009.7,,,,,,,,,-SHRA,FEW,3000,BKN,5000,,,,,VFR,,,,,,,,,,,,SPECI,179.0
KCGS 271410Z AUTO 22004KT 10SM SCT016 SCT022 25/21 A3017 RMK AO1,KCGS,2015-05-27T14:10:00Z,38.98,-76.92,25.0,21.0,220,4,,10.0,30.171259,,,TRUE,TRUE,,,,,,,SCT,1600,SCT,2200,,,,,VFR,,,,,,,,,,,,METAR,15.0
KQEI 271410Z AUTO 12001KT 9999 CLR 17/05 A2988 RMK A02 TSNO,KQEI,2015-05-27T14:10:00Z,100.65,-1000.65,17.0,5.0,120,1,,6.21,29.878937,,,TRUE,TRUE,,,TRUE,,,,CLR,,,,,,,,VFR,,,,,,,,,,,,METAR,999.0
KQEL 271410Z AUTO 05002KT 9999 CLR 16/07 A2987 RMK A02 TSNO,KQEL,2015-05-27T14:10:00Z,100.65,-1000.65,16.0,7.0,50,2,,6.21,29.870079,,,TRUE,TRUE,,,TRUE,,,,CLR,,,,,,,,VFR,,,,,,,,,,,,METAR,999.0
KQEN 271410Z AUTO 9999 CLR M03/M05 / RMK A02 TSNO,KQEN,2015-05-27T14:10:00Z,100.65,-1000.65,-3.0,-5.0,,,,6.21,,,,TRUE,TRUE,,,TRUE,,,,CLR,,,,,,,,VFR,,,,,,,,,,,,METAR,999.0
KQEP 271410Z AUTO 04001KT 9999 CLR 19/05 A2977 RMK A02 TSNO,KQEP,2015-05-27T14:10:00Z,100.65,-1000.65,19.0,5.0,40,1,,6.21,29.769686,,,TRUE,TRUE,,,TRUE,,,,CLR,,,,,,,,VFR,,,,,,,,,,,,METAR,999.0
KQEQ 271410Z AUTO 35001KT 9999 CLR 17/07 A2969 RMK A02 TSNO,KQEQ,2015-05-27T14:10:00Z,100.65,-1000.65,17.0,7.0,350,1,,6.21,29.68996,,,TRUE,TRUE,,,TRUE,,,,CLR,,,,,,,,VFR,,,,,,,,,,,,METAR,999.0
KQER 271410Z AUTO 09001KT 8000 /OVC016 16/08 A2983 RMK A02 TSNO,KQER,2015-05-27T14:10:00Z,100.65,-1000.65,16.0,8.0,90,1,,4.97,29.828741,,,TRUE,TRUE,,,TRUE,,,,OVC,1600,,,,,,,MVFR,,,,,,,,,,,,METAR,999.0
KQEW 271410Z AUTO 30001KT 9999 BKN210 20/10 A2981 RMK A02 TSNO,KQEW,2015-05-27T14:10:00Z,100.65,-1000.65,20.0,10.0,300,1,,6.21,29.811024,,,TRUE,TRUE,,,TRUE,,,,BKN,21000,,,,,,,VFR,,,,,,,,,,,,METAR,999.0
KQEV 271410Z AUTO 01002KT 9999 CLR 22/10 A2983 RMK A02 TSNO,KQEV,2015-05-27T14:10:00Z,100.65,-1000.65,22.0,10.0,10,2,,6.21,29.828741,,,TRUE,TRUE,,,TRUE,,,,CLR,,,,,,,,VFR,,,,,,,,,,,,METAR,999.0
KQEX 271410Z AUTO 19006KT 9999 CLR 25/06 A2984 RMK A02 TSNO,KQEX,2015-05-27T14:10:00Z,100.65,-1000.65,25.0,6.0,190,6,,6.21,29.840551,,,TRUE,TRUE,,,TRUE,,,,CLR,,,,,,,,VFR,,,,,,,,,,,,METAR,999.0
KQFB 271410Z AUTO 10003KT 9999 FEW220 20/08 A2987 RMK A02 TSNO,KQFB,2015-05-27T14:10:00Z,100.65,-1000.65,20.0,8.0,100,3,,6.21,29.870079,,,TRUE,TRUE,,,TRUE,,,,FEW,22000,,,,,,,VFR,,,,,,,,,,,,METAR,999.0
KQFT 271410Z AUTO 18001KT 9999 CLR 18/07 A2981 RMK A02 TSNO,KQFT,2015-05-27T14:10:00Z,100.65,-1000.65,18.0,7.0,180,1,,6.21,29.811024,,,TRUE,TRUE,,,TRUE,,,,CLR,,,,,,,,VFR,,,,,,,,,,,,METAR,999.0
PASN 271410Z 17009KT 6SM BR FEW009 BKN047 OVC065 05/04 A2988 RMK AO2 T00500039,PASN,2015-05-27T14:10:00Z,57.15,-170.22,5.0,3.9,170,9,,6.0,29.878937,,,,TRUE,,,,,,BR,FEW,900,BKN,4700,OVC,6500,,,VFR,,,,,,,,,,,,SPECI,29.0
KQFX 271410Z AUTO 12002KT 9999 FEW065 16/09 A2982 RMK A02 TSNO,KQFX,2015-05-27T14:10:00Z,100.65,-1000.65,16.0,9.0,120,2,,6.21,29.819881,,,TRUE,TRUE,,,TRUE,,,,FEW,6500,,,,,,,VFR,,,,,,,,,,,,METAR,999.0
KQFV 271410Z AUTO 33002KT 9999 CLR 15/07 A2985 RMK A02 TSNO,KQFV,2015-05-27T14:10:00Z,100.65,-1000.65,15.0,7.0,330,2,,6.21,29.84941,,,TRUE,TRUE,,,TRUE,,,,CLR,,,,,,,,VFR,,,,,,,,,,,,METAR,999.0
KQFU 271410Z AUTO 07001KT 9999 CLR 18/05 A2984 RMK A02 TSNO,KQFU,2015-05-27T14:10:00Z,100.65,-1000.65,18.0,5.0,70,1,,6.21,29.840551,,,TRUE,TRUE,,,TRUE,,,,CLR,,,,,,,,VFR,,,,,,,,,,,,METAR,999.0
KWYS 271410Z AUTO 19007KT 10SM FEW021 SCT028 OVC085 07/05 A3011 RMK AO2,KWYS,2015-05-27T14:10:00Z,44.67,-111.12,7.0,5.0,190,7,,10.0,30.109253,,,TRUE,TRUE,,,,,,,FEW,2100,SCT,2800,OVC,8500,,,VFR,,,,,,,,,,,,SPECI,2025.0
KSTK 271410Z AUTO 00000KT 10SM SCT120 13/11 A3006 RMK AO2,KSTK,2015-05-27T14:10:00Z,40.62,-103.27,13.0,11.0,0,0,,10.0,30.059055,,,TRUE,TRUE,,,,,,,SCT,12000,,,,,,,VFR,,,,,,,,,,,,SPECI,1231.0
KRCV 271410Z AUTO 01003KT 10SM CLR 08/01 A3030 RMK AO2 T00800010,KRCV,2015-05-27T14:10:00Z,37.72,-106.35,8.0,1.0,10,3,,10.0,30.301182,,,TRUE,TRUE,,,,,,,CLR,,,,,,,,VFR,,,,,,,,,,,,SPECI,2424.0
PPIZ 271410Z AUTO 15015KT 3SM BR OVC004 01/01 A3020 RMK AO2 TSNO $,PPIZ,2015-05-27T14:10:00Z,69.73,-163.0,1.0,1.0,150,15,,3.0,30.200787,,,TRUE,TRUE,TRUE,,TRUE,,,BR,OVC,400,,,,,,,LIFR,,,,,,,,,,,,SPECI,8.0
K04V 271410Z AUTO 09004KT 10SM BKN080 07/04 A3029 RMK AO2,K04V,2015-05-27T14:10:00Z,38.1,-106.17,7.0,4.0,90,4,,10.0,30.28937,,,TRUE,TRUE,,,,,,,BKN,8000,,,,,,,VFR,,,,,,,,,,,,SPECI,2385.0
KCLT 271410Z 20006KT 10SM BKN008 21/18 A3028 RMK AO2,KCLT,2015-05-27T14:10:00Z,35.22,-80.95,21.0,18.0,200,6,,10.0,30.280512,,,,TRUE,,,,,,,BKN,800,,,,,,,IFR,,,,,,,,,,,,SPECI,220.0
K6I2 271410Z AUTO 22007KT 10SM SCT014 SCT028 OVC040 23/20 A3019 RMK AO2,K6I2,2015-05-27T14:10:00Z,37.63,-85.25,23.0,20.0,220,7,,10.0,30.188976,,,TRUE,TRUE,,,,,,,SCT,1400,SCT,2800,OVC,4000,,,VFR,,,,,,,,,,,,METAR,264.0
KSYM 271410Z AUTO 25008G14KT 220V280 10SM SCT015 BKN022 OVC050 22/19 A3021 RMK AO2,KSYM,2015-05-27T14:10:00Z,38.22,-83.58,22.0,19.0,250,8,14,10.0,30.209646,,,TRUE,TRUE,,,,,,,SCT,1500,BKN,2200,OVC,5000,,,MVFR,,,,,,,,,,,,SPECI,313.0
KMPO 271410Z AUTO 24008KT 10SM BKN016 23/18 A3020 RMK AO2 T02330178,KMPO,2015-05-27T14:10:00Z,41.13,-75.38,23.3,17.8,240,8,,10.0,30.200787,,,TRUE,TRUE,,,,,,,BKN,1600,,,,,,,MVFR,,,,,,,,,,,,SPECI,577.0
KFFC 271410Z AUTO 00000KT 10SM SCT013 BKN023 23/19 A3026 RMK AO2 T02280189,KFFC,2015-05-27T14:10:00Z,33.35,-84.57,22.8,18.9,0,0,,10.0,30.259842,,,TRUE,TRUE,,,,,,,SCT,1300,BKN,2300,,,,,MVFR,,,,,,,,,,,,SPECI,262.0
KOGB 271410Z AUTO 19007KT 10SM BKN015 BKN021 BKN043 26/21 A3027 RMK AO2 T02610211,KOGB,2015-05-27T14:10:00Z,33.47,-80.85,26.1,21.1,190,7,,10.0,30.268702,,,TRUE,TRUE,,,,,,,BKN,1500,BKN,2100,BKN,4300,,,MVFR,,,,,,,,,,,,SPECI,59.0
KRAL 271410Z 00000KT 7SM OVC014 16/12 A2999 RMK AO2 T01560117,KRAL,2015-05-27T14:10:00Z,33.95,-117.45,15.6,11.7,0,0,,7.0,29.991142,,,,TRUE,,,,,,,OVC,1400,,,,,,,MVFR,,,,,,,,,,,,SPECI,252.0
KYNG 271410Z 24012KT 10SM BKN018 BKN220 22/17 A3011 RMK AO2 T02170167,KYNG,2015-05-27T14:10:00Z,41.25,-80.67,21.7,16.7,240,12,,10.0,30.109253,,,,TRUE,,,,,,,BKN,1800,BKN,22000,,,,,MVFR,,,,,,,,,,,,SPECI,360.0
HECA 271410Z 22021KT 4000 SA NSC 44/M02 Q1004 NOSIG,HECA,2015-05-27T14:10:00Z,30.12,31.38,44.0,-2.0,220,21,,2.49,29.64567,,,,,,TRUE,,,,SA,,,,,,,,,,,,,,,,,,,,,SPECI,74.0
ETAD 271410Z AUTO VRB02KT 9999 SCT060 15/03 A3021 RMK AO2 RAB07E10,ETAD,2015-05-27T14:10:00Z,49.98,6.7,15.0,3.0,0,2,,6.21,30.209646,,,TRUE,TRUE,,,,,,,SCT,6000,,,,,,,VFR,,,,,,,,,,,,SPECI,365.0
KCDD 271410Z AUTO 34005KT 10SM CLR 18/12 A2984 RMK AO2,KCDD,2015-05-27T14:10:00Z,48.27,-92.48,18.0,12.0,340,5,,10.0,29.840551,,,TRUE,TRUE,,,,,,,CLR,,,,,,,,VFR,,,,,,,,,,,,SPECI,341.0
KLVN 271410Z AUTO 24004KT 10SM CLR 18/15 A2994 RMK AO2,KLVN,2015-05-27T14:10:00Z,44.63,-93.23,18.0,15.0,240,4,,10.0,29.940945,,,TRUE,TRUE,,,,,,,CLR,,,,,,,,VFR,,,,,,,,,,,,SPECI,293.0
KONZ 271410Z AUTO 22009G16KT 10SM CLR 23/18 A2997 RMK AO2,KONZ,2015-05-27T14:10:00Z,42.1,-83.15,23.0,18.0,220,9,16,10.0,29.970472,,,TRUE,TRUE,,,,,,,CLR,,,,,,,,VFR,,,,,,,,,,,,SPECI,180.0
KCVH 271410Z AUTO 23004KT 8SM OVC012 12/11 A3004 RMK AO1,KCVH,2015-05-27T14:10:00Z,36.9,-121.42,12.0,11.0,230,4,,8.0,30.041338,,,TRUE,TRUE,,,,,,,OVC,1200,,,,,,,MVFR,,,,,,,,,,,,SPECI,70.0
KQYV 271410Z AUTO 30003KT 3600 BR CLR 08/06 A2988 RMK AO2 VIS 3600V4400 SHRAE08,KQYV,2015-05-27T14:10:00Z,,,8.0,6.0,300,3,,2.24,29.878937,,,TRUE,TRUE,,,,,,BR,CLR,,,,,,,,IFR,,,,,,,,,,,,SPECI,
KMYP 271410Z AUTO M1/4SM FZFG OVC002 00/M01 A3052 RMK AO2,KMYP,2015-05-27T14:10:00Z,38.48,-106.32,0.0,-1.0,,,,0.25,30.519686,,,TRUE,TRUE,,,,,,FZFG,OVC,200,,,,,,,LIFR,,,,,,,,,,,,SPECI,3667.0
KQEY 271410Z AUTO 27002KT 9999 BKN200 23/02 A2986 RMK A02 TSNO,KQEY,2015-05-27T14:10:00Z,100.65,-1000.65,23.0,2.0,270,2,,6.21,29.861221,,,TRUE,TRUE,,,TRUE,,,,BKN,20000,,,,,,,VFR,,,,,,,,,,,,METAR,999.0
KMCC 271410Z AUTO 16009KT 9SM CLR 13/10 A2999 RMK AO2,KMCC,2015-05-27T14:10:00Z,38.67,-121.4,13.0,10.0,160,9,,9.0,29.991142,,,TRUE,TRUE,,,,,,,CLR,,,,,,,,VFR,,,,,,,,,,,,METAR,23.0
KAQV 271409Z AUTO 35006KT 10SM FEW008 SCT036 SCT110 19/18 A3010 RMK AO2 RAE00 TSE09 P0000 T01940183,KAQV,2015-05-27T14:09:00Z,31.4,-93.3,19.4,18.3,350,6,,10.0,30.100393,,,TRUE,TRUE,,,,,,,FEW,800,SCT,3600,SCT,11000,,,VFR,,,,,,0.0050,,,,,,METAR,111.0
PAEH 271409Z AUTO 14017G27KT 130V200 4SM -SHRA OVC004 06/05 A3009 RMK AO2 PK WND 21027/1404 SLP196,PAEH,2015-05-27T14:09:00Z,58.65,-162.07,6.0,5.0,140,17,27,4.0,30.088583,1019.6,,TRUE,TRUE,,,,,,-SHRA,OVC,400,,,,,,,LIFR,,,,,,,,,,,,METAR,161.0
CYAH 271409Z AUTO 19013G19KT 9SM -RA BKN026 BKN039 OVC049 14/10 A2968 RMK SLP060 DENSITY ALT 1300FT,CYAH,2015-05-27T14:09:00Z,53.75,-73.67,14.0,10.0,190,13,19,9.0,29.681103,1006.0,,TRUE,,,,,,,-RA,BKN,2600,BKN,3900,OVC,4900,,,MVFR,,,,,,,,,,,,SPECI,306.0
KMFE 271409Z 14013KT 9SM SCT009 OVC016 29/24 A3000 RMK AO2 T02890244,KMFE,2015-05-27T14:09:00Z,26.18,-98.25,28.9,24.4,140,13,,9.0,30.0,,,,TRUE,,,,,,,SCT,900,OVC,1600,,,,,MVFR,,,,,,,,,,,,METAR,38.0
KNQI 271408Z 15011KT 6SM HZ SCT013 BKN025 28/26 A3001 RMK AO2 T02830256 $,KNQI,2015-05-27T14:08:00Z,27.5,-97.82,28.3,25.6,150,11,,6.0,30.008858,,,,TRUE,TRUE,,,,,HZ,SCT,1300,BKN,2500,,,,,MVFR,,,,,,,,,,,,METAR,15.0
KEHA 271408Z AUTO 17012KT 20/14 RMK AO1 PK WND 15 000 T02000139,KEHA,2015-05-27T14:08:00Z,37.0,-101.9,20.0,13.9,170,12,,,,,,TRUE,TRUE,,,,,,,,,,,,,,,,,,,,,,,,,,,METAR,1099.0
KSLK 271408Z AUTO 22014G22KT 10SM SCT027 BKN035 25/18 A3004 RMK AO2 T02500178,KSLK,2015-05-27T14:08:00Z,44.4,-74.2,25.0,17.8,220,14,22,10.0,30.041338,,,TRUE,TRUE,,,,,,,SCT,2700,BKN,3500,,,,,VFR,,,,,,,,,,,,METAR,498.0
KCDS 271408Z AUTO 02004KT 10SM SCT027 21/17 A3007 RMK AO2 T02060167,KCDS,2015-05-27T14:08:00Z,34.43,-100.28,20.6,16.7,20,4,,10.0,30.070866,,,TRUE,TRUE,,,,,,,SCT,2700,,,,,,,VFR,,,,,,,,,,,,METAR,594.0
CBBC 271408Z AUTO VRB02KT 3SM BR OVC002 10/10 A3011 RMK SLP198,CBBC,2015-05-27T14:08:00Z,52.18,-128.15,10.0,10.0,0,2,,3.0,30.109253,1019.8,,TRUE,,,,,,,BR,OVC,200,,,,,,,LIFR,,,,,,,,,,,,SPECI,43.0
KVTA 271407Z AUTO 21010KT 10SM FEW019 SCT026 BKN032 23/18 A3012 RMK AO2 T02280183,KVTA,2015-05-27T14:07:00Z,40.02,-82.47,22.8,18.3,210,10,,10.0,30.121063,,,TRUE,TRUE,,,,,,,FEW,1900,SCT,2600,BKN,3200,,,VFR,,,,,,,,,,,,METAR,268.0
KVPC 271407Z AUTO 15004KT 10SM SCT007 OVC024 21/18 A3025 RMK AO2 T02060183 PNO,KVPC,2015-05-27T14:07:00Z,34.13,-84.85,20.6,18.3,150,4,,10.0,30.250984,,,TRUE,TRUE,,,,,,,SCT,700,OVC,2400,,,,,MVFR,,,,,,,,,,,,METAR,222.0
KJKL 271407Z AUTO 00000KT 10SM BKN014 OVC020 21/18 A3024 RMK AO2 T02110183,KJKL,2015-05-27T14:07:00Z,37.6,-83.32,21.1,18.3,0,0,,10.0,30.239174,,,TRUE,TRUE,,,,,,,BKN,1400,OVC,2000,,,,,MVFR,,,,,,,,,,,,METAR,416.0
KGMU 271407Z 20004KT 10SM OVC014 21/17 A3028 RMK AO2 T02060172,KGMU,2015-05-27T14:07:00Z,34.85,-82.35,20.6,17.2,200,4,,10.0,30.280512,,,,TRUE,,,,,,,OVC,1400,,,,,,,MVFR,,,,,,,,,,,,METAR,315.0
KEAU 271407Z 23006KT 10SM FEW008 16/13 A2992 RMK AO2 T01610133,KEAU,2015-05-27T14:07:00Z,44.87,-91.47,16.1,13.3,230,6,,10.0,29.920275,,,,TRUE,,,,,,,FEW,800,,,,,,,VFR,,,,,,,,,,,,METAR,276.0
KBKW 271407Z AUTO 25007KT 10SM SCT019 SCT025 BKN040 21/16 A3027 RMK AO2 T02110156,KBKW,2015-05-27T14:07:00Z,37.8,-81.12,21.1,15.6,250,7,,10.0,30.268702,,,TRUE,TRUE,,,,,,,SCT,1900,SCT,2500,BKN,4000,,,VFR,,,,,,,,,,,,METAR,764.0
KBFD 271407Z AUTO 22006KT 10SM SCT012 OVC019 19/16 A3014 RMK AO2 T01890161,KBFD,2015-05-27T14:07:00Z,41.8,-78.63,18.9,16.1,220,6,,10.0,30.138779,,,TRUE,TRUE,,,,,,,SCT,1200,OVC,1900,,,,,MVFR,,,,,,,,,,,,METAR,647.0
PAMO 271407Z AUTO 00000KT 6SM BR OVC028 07/06 A3010 RMK AO2 TSNO $,PAMO,2015-05-27T14:07:00Z,62.1,-163.68,7.0,6.0,0,0,,6.0,30.100393,,,TRUE,TRUE,TRUE,,TRUE,,,BR,OVC,2800,,,,,,,MVFR,,,,,,,,,,,,METAR,103.0
CYXN 271407Z 01011KT 15SM OVC030 M04/M07 A3012 RMK SC8 SLP200,CYXN,2015-05-27T14:07:00Z,62.22,-92.58,-4.0,-7.0,10,11,,15.0,30.121063,1020.0,,,,,,,,,,OVC,3000,,,,,,,MVFR,,,,,,,,,,,,SPECI,20.0
CYGV 271407Z AUTO 24006KT 200V270 9SM SCT004 12/10 A3006 RMK SLP181,CYGV,2015-05-27T14:07:00Z,50.27,-63.62,12.0,10.0,240,6,,9.0,30.059055,1018.1,,TRUE,,,,,,,,SCT,400,,,,,,,VFR,,,,,,,,,,,,SPECI,33.0
KPOE 271406Z 15011KT 5SM -TSRA BR BKN080 19/18 A3008 RMK AO2A LTG DSNT NE-SW TSE06,KPOE,2015-05-27T14:06:00Z,31.05,-93.2,19.0,18.0,150,11,,5.0,30.079725,,,,TRUE,,,,,,-TSRA BR,BKN,8000,,,,,,,MVFR,,,,,,,,,,,,SPECI,101.0
K4MR 271406Z AUTO M 10SM SCT010 19/15 A3013 RMK AO2 $,K4MR,2015-05-27T14:06:00Z,34.3,-103.8,19.0,15.0,,,,10.0,30.129921,,,TRUE,TRUE,TRUE,,,,,,SCT,1000,,,,,,,VFR,,,,,,,,,,,,SPECI,1326.0
LPPD 271406Z 05014G24KT 020V080 9999 SCT012 SCT025 19/15 Q1027,LPPD,2015-05-27T14:06:00Z,37.72,-25.68,19.0,15.0,50,14,24,6.21,30.324802,,,,,,,,,,,SCT,1200,SCT,2500,,,,,VFR,,,,,,,,,,,,SPECI,72.0
CWUW 271406Z AUTO 09023KT 2SM FEW005 BKN015 BKN044 OVC091 M05/ A2982 RMK VSBY VRBL 1.5V3.5,CWUW,2015-05-27T14:06:00Z,68.65,-71.17,-5.0,,90,23,,2.0,29.819881,,,TRUE,,,,,,,,FEW,500,BKN,1500,BKN,4400,OVC,9100,IFR,,,,,,,,,,,,SPECI,527.0
EHVL 271406Z AUTO 26013KT 9999 FEW010 15/09 Q1020 BLU,EHVL,2015-05-27T14:06:00Z,53.23,4.92,15.0,9.0,260,13,,6.21,30.11811,,,TRUE,,,,,,,,FEW,1000,,,,,,,VFR,,,,,,,,,,,,SPECI,5.0
KOLM 271406Z AUTO 18004KT 1/4SM FG VV002 10/09 A3008 RMK AO2 T01000094,KOLM,2015-05-27T14:06:00Z,46.97,-122.9,10.0,9.4,180,4,,0.25,30.079725,,,TRUE,TRUE,,,,,,FG,OVX,0,,,,,,,LIFR,,,,,,,,,,,200,METAR,58.0
KHWO 271406Z 10014G22KT 10SM SCT028 BKN038 28/20 A3014 RMK AO2 T02780200,KHWO,2015-05-27T14:06:00Z,26.0,-80.23,27.8,20.0,100,14,22,10.0,30.138779,,,,TRUE,,,,,,,SCT,2800,BKN,3800,,,,,VFR,,,,,,,,,,,,METAR,2.0
KHEY 271406Z AUTO 06003KT 10SM BKN006 23/23 RMK AO2 T02330228 $,KHEY,2015-05-27T14:06:00Z,31.35,-85.65,23.3,22.8,60,3,,10.0,,,,TRUE,TRUE,TRUE,,,,,,BKN,600,,,,,,,IFR,,,,,,,,,,,,METAR,97.0
PACZ 271405Z AUTO 19012KT 1SM DZ BR BKN004 06/05 A2997 RMK AO2 SLP151 $,PACZ,2015-05-27T14:05:00Z,61.78,-166.03,6.0,5.0,190,12,,1.0,29.970472,1015.1,,TRUE,TRUE,TRUE,,,,,DZ BR,BKN,400,,,,,,,LIFR,,,,,,,,,,,,METAR,146.0
KEDJ 271405Z AUTO 19011KT 10SM FEW015 21/18 A3010 RMK AO1,KEDJ,2015-05-27T14:05:00Z,40.37,-83.82,21.0,18.0,190,11,,10.0,30.100393,,,TRUE,TRUE,,,,,,,FEW,1500,,,,,,,VFR,,,,,,,,,,,,SPECI,342.0
LIQO 271405Z 00000KT 9999 TS FEW002CB 17/11 Q1013 RMK BKN SCT060 VAL S CLD SCT VIS MIN 9999,LIQO,2015-05-27T14:05:00Z,42.37,11.17,17.0,11.0,0,0,,6.21,29.911417,,,,,,,,,,TS,FEW,200,,,,,,,VFR,,,,,,,,,,,,SPECI,632.0
KWDG 271405Z 19005KT 7 SM FEW002 SCT150 21/20 A3006,KWDG,2015-05-27T14:05:00Z,36.37,-97.77,21.0,20.0,190,5,,,30.059055,,,,,,,,,,,FEW,200,SCT,15000,,,,,,,,,,,,,,,,,METAR,356.0
YCDU 271405Z AUTO 01003KT 0350 // BKN001 10/09 Q1020,YCDU,2015-05-27T14:05:00Z,-32.12,133.7,10.0,9.0,10,3,,0.22,30.11811,,,TRUE,,,,,,,,BKN,100,,,,,,,LIFR,,,,,,,,,,,,METAR,15.0
KEUF 271405Z AUTO 00000KT 10SM BKN006 23/21 A3020 RMK AO2 CIG 003V008 $,KEUF,2015-05-27T14:05:00Z,31.95,-85.13,23.0,21.0,0,0,,10.0,30.200787,,,TRUE,TRUE,TRUE,,,,,,BKN,600,,,,,,,IFR,,,,,,,,,,,,METAR,87.0
CYWA 271405Z AUTO ///// 9SM FEW062 SCT067 22/18 A2988,CYWA,2015-05-27T14:05:00Z,45.95,-77.32,22.0,18.0,,,,9.0,29.878937,,,TRUE,,,,,,,,FEW,6200,SCT,6700,,,,,VFR,,,,,,,,,,,,SPECI,130.0
KVAY 271405Z AUTO VRB05KT 10SM OVC015 24/20 A3019 RMK AO2 T02440200,KVAY,2015-05-27T14:05:00Z,39.93,-74.83,24.4,20.0,0,5,,10.0,30.188976,,,TRUE,TRUE,,,,,,,OVC,1500,,,,,,,MVFR,,,,,,,,,,,,METAR,15.0
KLLQ 271405Z AUTO 05005KT 10SM VCTS BKN028 OVC035 20/19 A3013 RMK AO2 LTG DSNT NE-S RAE1358 P0000 T02000194,KLLQ,2015-05-27T14:05:00Z,33.63,-91.75,20.0,19.4,50,5,,10.0,30.129921,,,TRUE,TRUE,,,,,,VCTS,BKN,2800,OVC,3500,,,,,MVFR,,,,,,0.0050,,,,,,METAR,83.0
KLCH 271405Z 36007KT 5SM RA BR OVC100 20/18 A3014 RMK AO2 LTG DSNT N-SE P0004 T02000183,KLCH,2015-05-27T14:05:00Z,30.13,-93.22,20.0,18.3,360,7,,5.0,30.138779,,,,TRUE,,,,,,RA BR,OVC,10000,,,,,,,MVFR,,,,,,0.04,,,,,,METAR,4.0
KCRQ 271405Z AUTO 26003KT 10SM BKN012 OVC020 16/14 A2997 RMK AO2 T01560139,KCRQ,2015-05-27T14:05:00Z,33.13,-117.28,15.6,13.9,260,3,,10.0,29.970472,,,TRUE,TRUE,,,,,,,BKN,1200,OVC,2000,,,,,MVFR,,,,,,,,,,,,METAR,99.0
KAKR 271405Z AUTO 22011KT 10SM SCT020 BKN027 BKN033 23/17 A3009 RMK AO2 T02280167,KAKR,2015-05-27T14:05:00Z,41.03,-81.47,22.8,16.7,220,11,,10.0,30.088583,,,TRUE,TRUE,,,,,,,SCT,2000,BKN,2700,BKN,3300,,,MVFR,,,,,,,,,,,,METAR,363.0
YSRI 271404Z AUTO 00000KT 9999 // SCT001 SCT125 09/08 Q1023,YSRI,2015-05-27T14:04:00Z,-33.6,150.77,9.0,8.0,0,0,,6.21,30.206694,,,TRUE,,,,,,,,SCT,100,SCT,12500,,,,,VFR,,,,,,,,,,,,METAR,21.0
EKVG 271404Z 24011KT 9999 FEW008 BKN013 BKN020 08/05 Q1002 RMK WIND 850FT 27007KT 230V300,EKVG,2015-05-27T14:04:00Z,62.07,-7.3,8.0,5.0,240,11,,6.21,29.586615,,,,,,,,,,,FEW,800,BKN,1300,BKN,2000,,,MVFR,,,,,,,,,,,,METAR,85.0
KUIL 271404Z AUTO 00000KT 2SM BR OVC003 11/11 A3008 RMK AO2 T01060106,KUIL,2015-05-27T14:04:00Z,47.93,-124.55,10.6,10.6,0,0,,2.0,30.079725,,,TRUE,TRUE,,,,,,BR,OVC,300,,,,,,,LIFR,,,,,,,,,,,,METAR,54.0
KPAH 271404Z 23007KT 10SM SCT015 BKN026 24/20 A3011 RMK AO2 T02390200,KPAH,2015-05-27T14:04:00Z,37.07,-88.77,23.9,20.0,230,7,,10.0,30.109253,,,,TRUE,,,,,,,SCT,1500,BKN,2600,,,,,MVFR,,,,,,,,,,,,METAR,119.0
KMMK 271404Z AUTO 18008G15KT 10SM SCT015 23/17 A3017 RMK AO2 T02330172 TSNO,KMMK,2015-05-27T14:04:00Z,41.52,-72.83,23.3,17.2,180,8,15,10.0,30.171259,,,TRUE,TRUE,,,TRUE,,,,SCT,1500,,,,,,,VFR,,,,,,,,,,,,METAR,31.0
KEWB 271404Z 19014KT 10SM SCT014 21/16 A3020 RMK AO2 T02110161 $,KEWB,2015-05-27T14:04:00Z,41.68,-70.95,21.1,16.1,190,14,,10.0,30.200787,,,,TRUE,TRUE,,,,,,SCT,1400,,,,,,,VFR,,,,,,,,,,,,METAR,23.0
KBHM 271404Z 18005KT 10SM BKN010 23/21 A3022 RMK AO2 T02330206,KBHM,2015-05-27T14:04:00Z,33.57,-86.75,23.3,20.6,180,5,,10.0,30.221457,,,,TRUE,,,,,,,BKN,1000,,,,,,,MVFR,,,,,,,,,,,,METAR,197.0
LTBI 271403Z 00000KT 9999 -SHRA SCT030 BKN090 16/13 Q1006 TEMPO 24015KT 3500 -TSRA FEW025CB BKN030 RMK RWY09 14003KT 080V160,LTBI,2015-05-27T14:03:00Z,39.77,30.57,16.0,13.0,0,0,,6.21,29.704725,,,,,,,,,,-SHRA,SCT,3000,BKN,9000,,,,,VFR,,,,,,,,,,,,METAR,785.0
KCBM 271403Z 16005KT 10SM SCT003 OVC006 23/22 A3017 RMK AO2A $,KCBM,2015-05-27T14:03:00Z,33.63,-88.45,23.0,22.0,160,5,,10.0,30.171259,,,,TRUE,TRUE,,,,,,SCT,300,OVC,600,,,,,IFR,,,,,,,,,,,,SPECI,67.0
KTTF 271403Z AUTO 22011G20KT 10SM CLR 23/18 A2997 RMK AO2,KTTF,2015-05-27T14:03:00Z,41.93,-83.42,23.0,18.0,220,11,20,10.0,29.970472,,,TRUE,TRUE,,,,,,,CLR,,,,,,,,VFR,,,,,,,,,,,,SPECI,188.0
CWFD 271403Z AUTO ///// 1 1/2SM CLR M06/ A2959 RMK ICG,CWFD,2015-05-27T14:03:00Z,66.57,-61.58,-6.0,,,,,1.5,29.589567,,,TRUE,,,,,,,,CLR,,,,,,,,IFR,,,,,,,,,,,,SPECI,393.0
CYZF 271403Z 02014KT 15SM BKN035 02/M05 A3023 RMK SC7 SLP249,CYZF,2015-05-27T14:03:00Z,62.47,-114.45,2.0,-5.0,20,14,,15.0,30.230314,1024.9,,,,,,,,,,BKN,3500,,,,,,,VFR,,,,,,,,,,,,SPECI,206.0
KPOB 271403Z AUTO 24009KT 10SM SCT019 SCT026 27/20 A3026 RMK AO2,KPOB,2015-05-27T14:03:00Z,35.17,-79.02,27.0,20.0,240,9,,10.0,30.259842,,,TRUE,TRUE,,,,,,,SCT,1900,SCT,2600,,,,,VFR,,,,,,,,,,,,SPECI,66.0
KPSX 271403Z AUTO 11010KT 8SM FEW017 SCT030 OVC090 27/25 A3008 RMK AO2 T02720250,KPSX,2015-05-27T14:03:00Z,28.72,-96.25,27.2,25.0,110,10,,8.0,30.079725,,,TRUE,TRUE,,,,,,,FEW,1700,SCT,3000,OVC,9000,,,VFR,,,,,,,,,,,,METAR,5.0
KPKB 271403Z 24003KT 10SM SCT008 BKN014 OVC022 21/19 A3020 RMK AO2 T02110189,KPKB,2015-05-27T14:03:00Z,39.35,-81.42,21.1,18.9,240,3,,10.0,30.200787,,,,TRUE,,,,,,,SCT,800,BKN,1400,OVC,2200,,,MVFR,,,,,,,,,,,,METAR,262.0
KGRD 271403Z AUTO 12004KT 5SM -RA BR OVC005 21/19 A3029 RMK AO2 CIG 003V008 P0000 T02060194,KGRD,2015-05-27T14:03:00Z,34.25,-82.15,20.6,19.4,120,4,,5.0,30.28937,,,TRUE,TRUE,,,,,,-RA BR,OVC,500,,,,,,,IFR,,,,,,0.0050,,,,,,METAR,185.0
KDXR 271403Z 23009KT 10SM SCT017 24/18 A3018 RMK AO2 T02390183,KDXR,2015-05-27T14:03:00Z,41.37,-73.48,23.9,18.3,230,9,,10.0,30.180119,,,,TRUE,,,,,,,SCT,1700,,,,,,,VFR,,,,,,,,,,,,METAR,139.0
KDPA 271403Z AUTO 23013KT 10SM FEW017 SCT034 20/16 A2994 RMK AO2 T02000156,KDPA,2015-05-27T14:03:00Z,41.92,-88.25,20.0,15.6,230,13,,10.0,29.940945,,,TRUE,TRUE,,,,,,,FEW,1700,SCT,3400,,,,,VFR,,,,,,,,,,,,METAR,231.0
KAUS 271403Z 09007KT 10SM TS FEW007 BKN016CB OVC021 21/19 A3008 RMK AO2 TSB03 OCNL LTGIC S TS S MOV NE T02060194,KAUS,2015-05-27T14:03:00Z,30.18,-97.68,20.6,19.4,90,7,,10.0,30.079725,,,,TRUE,,,,,,TS,FEW,700,BKN,1600,OVC,2100,,,MVFR,,,,,,,,,,,,METAR,166.0
CYZV 271403Z 16005KT 20SM SCT002 BKN025 OVC200 11/09 A3006 RMK SF4SC2CI2 SLP180,CYZV,2015-05-27T14:03:00Z,50.22,-66.27,11.0,9.0,160,5,,20.0,30.059055,1018.0,,,,,,,,,,SCT,200,BKN,2500,OVC,20000,,,MVFR,,,,,,,,,,,,SPECI,55.0
CYBQ 271402Z AUTO 02006KT 9SM OVC039 M01/M05 A3014 RMK SLP223,CYBQ,2015-05-27T14:02:00Z,58.7,-98.5,-1.0,-5.0,20,6,,9.0,30.138779,1022.3,,TRUE,,,,,,,,OVC,3900,,,,,,,VFR,,,,,,,,,,,,SPECI,262.0
MMCT 271402Z RTD 14007KT 8SM SCT020 29/23 A3004 RMK 8/100 HZY MSGTX MMMD,MMCT,2015-05-27T14:02:00Z,20.63,-88.45,29.0,23.0,140,7,,8.0,30.041338,,,,,,,,,,,SCT,2000,,,,,,,VFR,,,,,,,,,,,,METAR,28.0
PAKT 271402Z 31011KT 10SM SCT019 OVC060 12/08 A3015 RMK AO2 T01170078,PAKT,2015-05-27T14:02:00Z,55.35,-131.7,11.7,7.8,310,11,,10.0,30.15059,,,,TRUE,,,,,,,SCT,1900,OVC,6000,,,,,VFR,,,,,,,,,,,,METAR,28.0
KSHN 271402Z AUTO 26007KT 1 1/4SM BR OVC002 10/09 A3006 RMK AO2 T01000094,KSHN,2015-05-27T14:02:00Z,47.23,-123.13,10.0,9.4,260,7,,1.25,30.059055,,,TRUE,TRUE,,,,,,BR,OVC,200,,,,,,,LIFR,,,,,,,,,,,,METAR,82.0
KRMG 271402Z AUTO 13005KT 10SM OVC010 21/19 A3023 RMK AO2 CIG 007V012 T02110194,KRMG,2015-05-27T14:02:00Z,34.35,-85.17,21.1,19.4,130,5,,10.0,30.230314,,,TRUE,TRUE,,,,,,,OVC,1000,,,,,,,MVFR,,,,,,,,,,,,METAR,193.0
KMGY 271402Z AUTO 24010KT 10SM SCT019 22/17 A3011 RMK AO2 T02170172,KMGY,2015-05-27T14:02:00Z,39.6,-84.23,21.7,17.2,240,10,,10.0,30.109253,,,TRUE,TRUE,,,,,,,SCT,1900,,,,,,,VFR,,,,,,,,,,,,METAR,289.0
KJBR 271402Z AUTO 23012KT 10SM VCTS SCT027 SCT032 BKN044 24/21 A3012 RMK AO2 LTG DSNT S-NW T02390211,KJBR,2015-05-27T14:02:00Z,35.83,-90.65,23.9,21.1,230,12,,10.0,30.121063,,,TRUE,TRUE,,,,,,VCTS,SCT,2700,SCT,3200,BKN,4400,,,VFR,,,,,,,,,,,,METAR,79.0
KCKB 271402Z 22007KT 5SM BR BKN008 21/19 A3020 RMK AO2 T02060189,KCKB,2015-05-27T14:02:00Z,39.3,-80.22,20.6,18.9,220,7,,5.0,30.200787,,,,TRUE,,,,,,BR,BKN,800,,,,,,,IFR,,,,,,,,,,,,METAR,360.0
KILM 271401Z 23006KT 10SM BKN029 26/19 A3028 RMK AO2 T02610194,KILM,2015-05-27T14:01:00Z,34.27,-77.9,26.1,19.4,230,6,,10.0,30.280512,,,,TRUE,,,,,,,BKN,2900,,,,,,,MVFR,,,,,,,,,,,,METAR,9.0
KPWK 271401Z 25008G16KT 10SM SCT021 SCT027 BKN035 20/15 A2995 RMK AO2 T02000150,KPWK,2015-05-27T14:01:00Z,42.12,-87.9,20.0,15.0,250,8,16,10.0,29.949802,,,,TRUE,,,,,,,SCT,2100,SCT,2700,BKN,3500,,,VFR,,,,,,,,,,,,METAR,203.0
PAIK 271401Z AUTO 00000KT 10SM CLR 10/06 A3016 RMK AO2 SLP252 T01000061 PNO $,PAIK,2015-05-27T14:01:00Z,66.98,-160.43,10.0,6.1,0,0,,10.0,30.159449,1025.2,,TRUE,TRUE,TRUE,,,,,,CLR,,,,,,,,VFR,,,,,,,,,,,,METAR,51.0
PAKF 271401Z AUTO 18007KT 10SM BKN037 06/01 A3004 RMK AO2 SLP269 T00610011 $,PAKF,2015-05-27T14:01:00Z,54.85,-163.42,6.1,1.1,180,7,,10.0,30.041338,1026.9,,TRUE,TRUE,TRUE,,,,,,BKN,3700,,,,,,,VFR,,,,,,,,,,,,METAR,6.0
KBLV 271401Z AUTO 21009KT 10SM CLR 18/18 A3008 RMK AO2,KBLV,2015-05-27T14:01:00Z,38.53,-89.83,18.0,18.0,210,9,,10.0,30.079725,,,TRUE,TRUE,,,,,,,CLR,,,,,,,,VFR,,,,,,,,,,,,SPECI,138.0
LTBF 271401Z 11004KT 080V140 9999 -TSRA SCT025CB SCT035 20/15 Q1005 BECMG TL 1320 NSW RMK RWY18 09006KT,LTBF,2015-05-27T14:01:00Z,39.62,27.92,20.0,15.0,110,4,,6.21,29.675198,,,,,,,,,,-TSRA,SCT,2500,SCT,3500,,,,,VFR,,,,,,,,,,,,SPECI,102.0
KORB 271401Z AUTO 29004KT 10SM CLR 18/11 A2982 RMK AO2,KORB,2015-05-27T14:01:00Z,48.02,-92.87,18.0,11.0,290,4,,10.0,29.819881,,,TRUE,TRUE,,,,,,,CLR,,,,,,,,VFR,,,,,,,,,,,,METAR,397.0
USHH 271400Z 30002MPS 210V010 9999 FEW033 17/01 Q1010 R24/110060 NOSIG RMK QFE753,USHH,2015-05-27T14:00:00Z,61.03,69.08,17.0,1.0,300,4,,6.21,29.822834,,,,,,TRUE,,,,,FEW,3300,,,,,,,VFR,,,,,,,,,,,,METAR,23.0
UEEE 271400Z 13003MPS 9999 -SHRA SCT033CB 10/03 Q0999 R23L/09//60 NOSIG RMK QFE741,UEEE,2015-05-27T14:00:00Z,62.08,129.77,10.0,3.0,130,6,,6.21,29.498032,,,,,,TRUE,,,,-SHRA,SCT,3300,,,,,,,VFR,,,,,,,,,,,,SPECI,103.0
UERP 271400Z 00000MPS 9999 BKN021 OVC100 03/01 Q1005 R35/090060 NOSIG RMK QFE710,UERP,2015-05-27T14:00:00Z,66.4,112.03,3.0,1.0,0,0,,6.21,29.675198,,,,,,TRUE,,,,,BKN,2100,OVC,10000,,,,,MVFR,,,,,,,,,,,,SPECI,509.0
UERR 271400Z 00000MPS CAVOK 05/M01 Q1006 R25/010060 NOSIG RMK QFE723,UERR,2015-05-27T14:00:00Z,62.53,114.05,5.0,-1.0,0,0,,6.21,29.704725,,,,,,TRUE,,,,,CAVOK,,,,,,,,VFR,,,,,,,,,,,,SPECI,347.0
UOOO 271400Z VRB02MPS 9999 SCT016 04/01 Q1006 R19/0///60 NOSIG RMK QFE739,UOOO,2015-05-27T14:00:00Z,69.32,87.33,4.0,1.0,0,4,,6.21,29.704725,,,,,,TRUE,,,,,SCT,1600,,,,,,,VFR,,,,,,,,,,,,SPECI,175.0
USDD 271400Z 29007MPS 9999 SCT050CB BKN100 04/M02 Q1005 R22/110060 NOSIG RMK QFE749/0999,USDD,2015-05-27T14:00:00Z,66.58,66.62,4.0,-2.0,290,14,,6.21,29.675198,,,,,,TRUE,,,,,SCT,5000,BKN,10000,,,,,VFR,,,,,,,,,,,,SPECI,67.0
UTAV 271400Z 02003MPS CAVOK 33/06 Q1008 NOSIG,UTAV,2015-05-27T14:00:00Z,39.08,63.62,33.0,6.0,20,6,,6.21,29.763779,,,,,,TRUE,,,,,CAVOK,,,,,,,,VFR,,,,,,,,,,,,METAR,192.0
UTAK 271400Z 32007MPS CAVOK 26/11 Q1008 NOSIG,UTAK,2015-05-27T14:00:00Z,40.05,53.0,26.0,11.0,320,14,,6.21,29.763779,,,,,,TRUE,,,,,CAVOK,,,,,,,,VFR,,,,,,,,,,,,METAR,85.0
UTAM 271400Z 02003MPS CAVOK 34/04 Q1007 NOSIG,UTAM,2015-05-27T14:00:00Z,37.62,61.9,34.0,4.0,20,6,,6.21,29.734253,,,,,,TRUE,,,,,CAVOK,,,,,,,,VFR,,,,,,,,,,,,METAR,222.0
URFF 271400Z 24008MPS 5000 -TSRA FEW005 BKN030CB OVC100 19/14 Q1006 19010095 TEMPO VRB15MPS,URFF,2015-05-27T14:00:00Z,45.03,33.98,19.0,14.0,240,16,,3.11,29.704725,,,,,,,,,,-TSRA,FEW,500,BKN,3000,OVC,10000,,,MVFR,,,,,,,,,,,,METAR,188.0
URWW 271400Z 15004MPS 130V190 CAVOK 31/05 Q1008 R11/010070 NOSIG,URWW,2015-05-27T14:00:00Z,48.78,44.33,31.0,5.0,150,8,,6.21,29.763779,,,,,,TRUE,,,,,CAVOK,,,,,,,,VFR,,,,,,,,,,,,SPECI,147.0
URWI 271400Z 13001MPS CAVOK 30/04 Q1006 NOSIG,URWI,2015-05-27T14:00:00Z,46.37,44.33,30.0,4.0,130,2,,6.21,29.704725,,,,,,TRUE,,,,,CAVOK,,,,,,,,VFR,,,,,,,,,,,,METAR,150.0
URWA 271400Z 12006MPS CAVOK 29/08 Q1008 R09/010070 NOSIG,URWA,2015-05-27T14:00:00Z,46.28,48.02,29.0,8.0,120,12,,6.21,29.763779,,,,,,TRUE,,,,,CAVOK,,,,,,,,VFR,,,,,,,,,,,,SPECI,-20.0
URSS 271400Z 27003MPS 9999 NSC 24/16 Q1006 R06/090070 R02/090070 NOSIG RMK R02/26002MPS QFE753,URSS,2015-05-27T14:00:00Z,43.45,39.95,24.0,16.0,270,6,,6.21,29.704725,,,,,,TRUE,,,,,,,,,,,,,,,,,,,,,,,,,METAR,16.0
URRR 271400Z VRB01MPS 9999 SCT040 BKN100 27/14 Q1007 R22/150065 TEMPO -TSRA SCT020CB RMK QFE747/0997,URRR,2015-05-27T14:00:00Z,47.25,39.82,27.0,14.0,0,2,,6.21,29.734253,,,,,,,,,,,SCT,4000,BKN,10000,,,,,VFR,,,,,,,,,,,,SPECI,77.0
URMT 271400Z 04003MPS 360V070 9999 FEW030 27/10 Q1008 R07/010070 NOSIG RMK QFE716,URMT,2015-05-27T14:00:00Z,45.12,42.12,27.0,10.0,40,6,,6.21,29.763779,,,,,,TRUE,,,,,FEW,3000,,,,,,,VFR,,,,,,,,,,,,SPECI,453.0
URMO 271400Z 09004MPS 9999 -TSRA SCT040CB BKN100 23/16 Q1009 R10/220150 TEMPO -TSRA RMK QFE713/0951,URMO,2015-05-27T14:00:00Z,43.2,44.6,23.0,16.0,90,8,,6.21,29.793306,,,,,,,,,,-TSRA,SCT,4000,BKN,10000,,,,,VFR,,,,,,,,,,,,METAR,510.0
VTSB 271400Z 17003KT 7000 -RA SCT020 BKN120 OVC300 26/26 Q1010 A2984 RETS,VTSB,2015-05-27T14:00:00Z,9.12,99.13,26.0,26.0,170,3,,4.35,29.822834,,,,,,,,,,-RA,SCT,2000,BKN,12000,OVC,30000,,,MVFR,,,,,,,,,,,,METAR,11.0
VTSF 271400Z VRB02KT 9999 FEW017CB SCT022 BKN300 27/22 Q1010 A2983 INFO P / RWY 19,VTSF,2015-05-27T14:00:00Z,8.53,99.95,27.0,22.0,0,2,,6.21,29.822834,,,,,,,,,,,FEW,1700,SCT,2200,BKN,30000,,,VFR,,,,,,,,,,,,SPECI,4.0
LFQG 271400Z AUTO 02004KT 330V080 CAVOK 20/08 Q1023,LFQG,2015-05-27T14:00:00Z,47.0,3.1,20.0,8.0,20,4,,6.21,30.206694,,,TRUE,,,,,,,,CAVOK,,,,,,,,VFR,,,,,,,,,,,,METAR,181.0
VTSG 271400Z VRB02KT 9999 FEW020 SCT300 25/24 Q1011 A2986,VTSG,2015-05-27T14:00:00Z,8.1,98.98,25.0,24.0,0,2,,6.21,29.852362,,,,,,,,,,,FEW,2000,SCT,30000,,,,,VFR,,,,,,,,,,,,METAR,25.0
OETF 271400Z 07006KT 9999 SCT030 33/05 Q1018 NOSIG,OETF,2015-05-27T14:00:00Z,21.47,40.53,33.0,5.0,70,6,,6.21,30.059055,,,,,,TRUE,,,,,SCT,3000,,,,,,,VFR,,,,,,,,,,,,METAR,1449.0
LFLW 271400Z AUTO 34010KT 290V020 CAVOK 19/01 Q1022,LFLW,2015-05-27T14:00:00Z,44.88,2.42,19.0,1.0,340,10,,6.21,30.177166,,,TRUE,,,,,,,,CAVOK,,,,,,,,VFR,,,,,,,,,,,,METAR,639.0
USTR 271400Z 31004MPS 9999 FEW040 21/04 Q1014 R30/CLRD65 NOSIG RMK QFE751/1002,USTR,2015-05-27T14:00:00Z,57.17,65.32,21.0,4.0,310,8,,6.21,29.940945,,,,,,TRUE,,,,,FEW,4000,,,,,,,VFR,,,,,,,,,,,,SPECI,115.0
UNTT 271400Z 19003MPS 9999 SCT020CB 11/10 Q1013 R21/////// NOSIG RMK QFE745,UNTT,2015-05-27T14:00:00Z,56.38,85.22,11.0,10.0,190,6,,6.21,29.911417,,,,,,TRUE,,,,,SCT,2000,,,,,,,VFR,,,,,,,,,,,,METAR,182.0
UNOO 271400Z 33002MPS CAVOK 20/05 Q1016 R25/CLRD60 NOSIG RMK QFE753,UNOO,2015-05-27T14:00:00Z,54.97,73.32,20.0,5.0,330,4,,6.21,30.0,,,,,,TRUE,,,,,CAVOK,,,,,,,,VFR,,,,,,,,,,,,SPECI,95.0
TRPG 271400Z 11008KT 9999 FEW024 27/20 Q1016,TRPG,2015-05-27T14:00:00Z,16.78,-62.2,27.0,20.0,110,8,,6.21,30.0,,,,,,,,,,,FEW,2400,,,,,,,VFR,,,,,,,,,,,,METAR,168.0
SBSV 271400Z 14009KT 9999 FEW017 29/20 Q1016,SBSV,2015-05-27T14:00:00Z,-12.9,-38.32,29.0,20.0,140,9,,6.21,30.0,,,,,,,,,,,FEW,1700,,,,,,,VFR,,,,,,,,,,,,METAR,6.0
SBCY 271400Z 36005KT CAVOK 29/21 Q1015,SBCY,2015-05-27T14:00:00Z,-15.65,-56.12,29.0,21.0,360,5,,6.21,29.970472,,,,,,,,,,,CAVOK,,,,,,,,VFR,,,,,,,,,,,,METAR,182.0
MYGF 271400Z 11009KT 9999 SCT020 28/21 A3011,MYGF,2015-05-27T14:00:00Z,26.55,-78.7,28.0,21.0,110,9,,6.21,30.109253,,,,,,,,,,,SCT,2000,,,,,,,VFR,,,,,,,,,,,,METAR,2.0
RPLC 271400Z 13002KT 9999 FEW020 BKN300 27/25 Q1012 RMK NOSIG A2988,RPLC,2015-05-27T14:00:00Z,15.17,120.58,27.0,25.0,130,2,,6.21,29.88189,,,,,,,,,,,FEW,2000,BKN,30000,,,,,VFR,,,,,,,,,,,,METAR,196.0
SBCF 271400Z 05006KT 9999 SCT025 24/14 Q1021,SBCF,2015-05-27T14:00:00Z,-19.63,-43.97,24.0,14.0,50,6,,6.21,30.147638,,,,,,,,,,,SCT,2500,,,,,,,VFR,,,,,,,,,,,,METAR,828.0
NVVV 271400Z 00000KT 9999 FEW025 20/19 Q1017 RMK NIL,NVVV,2015-05-27T14:00:00Z,-17.68,168.3,20.0,19.0,0,0,,6.21,30.029528,,,,,,,,,,,FEW,2500,,,,,,,VFR,,,,,,,,,,,,METAR,21.0
MRLB 271400Z 04003KT CAVOK 30/18 A2989,MRLB,2015-05-27T14:00:00Z,10.6,-85.55,30.0,18.0,40,3,,6.21,29.890747,,,,,,,,,,,CAVOK,,,,,,,,VFR,,,,,,,,,,,,METAR,82.0
SBBR 271400Z 03007KT CAVOK 25/13 Q1021,SBBR,2015-05-27T14:00:00Z,-15.87,-47.92,25.0,13.0,30,7,,6.21,30.147638,,,,,,,,,,,CAVOK,,,,,,,,VFR,,,,,,,,,,,,METAR,1061.0
SBPS 271400Z 06005KT 020V100 6000 -RA SCT013 SCT020 BKN040 25/2 3 Q1018,SBPS,2015-05-27T14:00:00Z,-16.43,-39.07,25.0,,60,5,,3.73,30.059055,,,,,,,,,,-RA,SCT,1300,SCT,2000,BKN,4000,,,MVFR,,,,,,,,,,,,METAR,51.0
PLCH 271400Z VRB02KT 9999 DEW SCT018 SCT040 26/25 Q1009,PLCH,2015-05-27T14:00:00Z,1.98,-157.35,26.0,25.0,0,2,,6.21,29.793306,,,,,,,,,,,SCT,1800,SCT,4000,,,,,VFR,,,,,,,,,,,,METAR,3.0
MHLC 271400Z VRB02KT 9999 FEW026 SCT200 28/24 Q1015 A2997 NOSIG,MHLC,2015-05-27T14:00:00Z,15.75,-86.85,28.0,24.0,0,2,,6.21,29.970472,,,,,,TRUE,,,,,FEW,2600,SCT,20000,,,,,VFR,,,,,,,,,,,,METAR,15.0
FDND 271400Z AUTO /////KT //// // ////// 29/11 Q1016,FDND,2015-05-27T14:00:00Z,-26.97,31.97,29.0,11.0,,,,,30.0,,,TRUE,,,,,,,,,,,,,,,,,,,,,,,,,,,,METAR,207.0
FDLB 271400Z AUTO 01006KT //// // ////// 30/06 Q1019,FDLB,2015-05-27T14:00:00Z,,,30.0,6.0,10,6,,,30.088583,,,TRUE,,,,,,,,,,,,,,,,,,,,,,,,,,,,METAR,
FDNY 271400Z AUTO 13005KT //// // ////// ///// Q1027,FDNY,2015-05-27T14:00:00Z,-26.12,31.45,,,130,5,,,30.324802,,,TRUE,,,,,,,,,,,,,,,,,,,,,,,,,,,,METAR,320.0
FDJR 271400Z AUTO 11003KT //// // ////// 24/08 Q1021,FDJR,2015-05-27T14:00:00Z,-27.17,31.43,24.0,8.0,110,3,,,30.147638,,,TRUE,,,,,,,,,,,,,,,,,,,,,,,,,,,,METAR,701.0
SBPA 271400Z 11020KT 4000 RA BKN009 BKN027 OVC070 17/16 Q1013,SBPA,2015-05-27T14:00:00Z,-30.0,-51.17,17.0,16.0,110,20,,2.49,29.911417,,,,,,,,,,RA,BKN,900,BKN,2700,OVC,7000,,,IFR,,,,,,,,,,,,METAR,3.0
SBFI 271400Z 34003KT 9999 -RA SCT007 BKN011 OVC090 19/18 Q1015,SBFI,2015-05-27T14:00:00Z,-25.6,-54.48,19.0,18.0,340,3,,6.21,29.970472,,,,,,,,,,-RA,SCT,700,BKN,1100,OVC,9000,,,MVFR,,,,,,,,,,,,METAR,243.0
OPSK 271400Z 18030KT 2000 TSRA FEW030CB BKN040 SCT100 40/23 Q0998 RH38 PC,OPSK,2015-05-27T14:00:00Z,27.72,68.8,40.0,23.0,180,30,,1.24,29.468504,,,,,,,,,,TSRA,FEW,3000,BKN,4000,SCT,10000,,,IFR,,,,,,,,,,,,METAR,58.0
SUMU 271400Z 11009KT 9999 FEW017 OVC080 17/13 Q1023 NOSIG,SUMU,2015-05-27T14:00:00Z,-34.82,-56.0,17.0,13.0,110,9,,6.21,30.206694,,,,,,TRUE,,,,,FEW,1700,OVC,8000,,,,,VFR,,,,,,,,,,,,METAR,32.0
GVAC 271400Z 04019KT 9999 SCT015 BKN200 25/17 Q1016 NOSIG,GVAC,2015-05-27T14:00:00Z,16.72,-22.93,25.0,17.0,40,19,,6.21,30.0,,,,,,TRUE,,,,,SCT,1500,BKN,20000,,,,,VFR,,,,,,,,,,,,METAR,55.0
NFNA 271400Z 00000KT 40KM BKN020 BKN045 22/20 Q1017 RMK RR NIL ,NFNA,2015-05-27T14:00:00Z,-18.05,178.57,22.0,20.0,0,0,,24.86,30.029528,,,,,,,,,,,BKN,2000,BKN,4500,,,,,MVFR,,,,,,,,,,,,METAR,5.0
GVBA 271400Z 04019KT 9999 FEW015 SCT200 25/18 Q1016 NOSIG,GVBA,2015-05-27T14:00:00Z,16.13,-22.88,25.0,18.0,40,19,,6.21,30.0,,,,,,TRUE,,,,,FEW,1500,SCT,20000,,,,,VFR,,,,,,,,,,,,METAR,22.0
SKSA 271400Z 00000KT 8000 OVC030 30/23 A2994 RMK HZ,SKSA,2015-05-27T14:00:00Z,,,30.0,23.0,0,0,,4.97,29.940945,,,,,,,,,,,OVC,3000,,,,,,,MVFR,,,,,,,,,,,,METAR,
SBFN 271400Z 12010KT 9999 SCT017 29/// Q1014,SBFN,2015-05-27T14:00:00Z,-3.85,-32.42,,,120,10,,6.21,29.940945,,,,,,,,,,,SCT,1700,,,,,,,VFR,,,,,,,,,,,,METAR,56.0
SBEG 271400Z 10003KT 9999 FEW015 BKN100 29/23 Q1014,SBEG,2015-05-27T14:00:00Z,-3.02,-60.03,29.0,23.0,100,3,,6.21,29.940945,,,,,,,,,,,FEW,1500,BKN,10000,,,,,VFR,,,,,,,,,,,,METAR,2.0
ZMUB 271400Z VRB01MPS 9999-SHRA SCT030CB SCT033 14/08 Q1005 NOSIG RMK QFE647.4 70 NT,ZMUB,2015-05-27T14:00:00Z,47.83,106.78,14.0,8.0,0,2,,,29.675198,,,,,,TRUE,,,,-SHRA,SCT,3000,SCT,3300,,,,,,,,,,,,,,,,,METAR,1330.0
SBSP 271400Z 36009KT CAVOK 25/16 Q1018,SBSP,2015-05-27T14:00:00Z,-23.62,-46.63,25.0,16.0,360,9,,6.21,30.059055,,,,,,,,,,,CAVOK,,,,,,,,VFR,,,,,,,,,,,,METAR,803.0
UBEE 271400Z 18006KT CAVOK 32/16 Q1006 R30/CLRD70 NOSIG,UBEE,2015-05-27T14:00:00Z,40.63,47.15,32.0,16.0,180,6,,6.21,29.704725,,,,,,TRUE,,,,,CAVOK,,,,,,,,VFR,,,,,,,,,,,,METAR,15.0
MROC 271400Z 09012G22KT 9999 FEW035 BKN250 24/17 A3003 NOSIG,MROC,2015-05-27T14:00:00Z,10.0,-84.22,24.0,17.0,90,12,22,6.21,30.029528,,,,,,TRUE,,,,,FEW,3500,BKN,25000,,,,,VFR,,,,,,,,,,,,METAR,920.0
OSLK 271400Z 26003KT CAVOK 33/03 Q1006,OSLK,2015-05-27T14:00:00Z,35.4,35.95,33.0,3.0,260,3,,6.21,29.704725,,,,,,,,,,,CAVOK,,,,,,,,VFR,,,,,,,,,,,,METAR,7.0
OSDI 271400Z 20015KT 9999 SCT030 BKN200 37/04 Q1010,OSDI,2015-05-27T14:00:00Z,33.42,36.52,37.0,4.0,200,15,,6.21,29.822834,,,,,,,,,,,SCT,3000,BKN,20000,,,,,VFR,,,,,,,,,,,,METAR,605.0
SCVM 271400Z 00000KT CAVOK 11/05 Q1019,SCVM,2015-05-27T14:00:00Z,-32.95,-71.48,11.0,5.0,0,0,,6.21,30.088583,,,,,,,,,,,CAVOK,,,,,,,,VFR,,,,,,,,,,,,METAR,141.0
SBPV 271400Z 00000KT CAVOK 28/23 Q1014,SBPV,2015-05-27T14:00:00Z,-8.72,-63.9,28.0,23.0,0,0,,6.21,29.940945,,,,,,,,,,,CAVOK,,,,,,,,VFR,,,,,,,,,,,,METAR,88.0
UBBL 271400Z 17003KT 9999 SCT035CB SCT100 25/19 Q1008 R33/CLRD70 RMK MT OP,UBBL,2015-05-27T14:00:00Z,38.75,48.82,25.0,19.0,170,3,,6.21,29.763779,,,,,,,,,,,SCT,3500,SCT,10000,,,,,VFR,,,,,,,,,,,,METAR,10.0
SVBM 271400Z 09008KT 9999 SCT016 26/19 Q1016,SVBM,2015-05-27T14:00:00Z,10.05,-69.37,26.0,19.0,90,8,,6.21,30.0,,,,,,,,,,,SCT,1600,,,,,,,VFR,,,,,,,,,,,,METAR,614.0
LQMO 271400Z 36015G25KT 330V030 9999 FEW060 22/05 Q1010,LQMO,2015-05-27T14:00:00Z,43.28,17.83,22.0,5.0,360,15,25,6.21,29.822834,,,,,,,,,,,FEW,6000,,,,,,,VFR,,,,,,,,,,,,METAR,48.0
SVMG 271400Z /////KT 9999 FEW010 28/23 Q1015,SVMG,2015-05-27T14:00:00Z,10.92,-63.97,28.0,23.0,,,,6.21,29.970472,,,,,,,,,,,FEW,1000,,,,,,,VFR,,,,,,,,,,,,METAR,23.0
BKPR 271400Z 34017KT 9999 FEW035TCU BKN045 14/07 Q1012 NOSIG,BKPR,2015-05-27T14:00:00Z,42.58,21.03,14.0,7.0,340,17,,6.21,29.88189,,,,,,TRUE,,,,,FEW,3500,BKN,4500,,,,,VFR,,,,,,,,,,,,METAR,576.0
MGGT 271400Z 03006KT 8000 FEW016 OVC200 20/16 Q1026 A3030 HZ,MGGT,2015-05-27T14:00:00Z,14.57,-90.53,20.0,16.0,30,6,,4.97,30.295275,,,,,,,,,,HZ,FEW,1600,OVC,20000,,,,,MVFR,,,,,,,,,,,,METAR,1509.0
BIIS 271400Z 02024G34KT 9500 RA FEW008 OVC014 03/01 Q1005,BIIS,2015-05-27T14:00:00Z,66.05,-23.13,3.0,1.0,20,24,34,5.9,29.675198,,,,,,,,,,RA,FEW,800,OVC,1400,,,,,MVFR,,,,,,,,,,,,METAR,3.0
MYNN 271400Z 09010KT 9999 FEW020 27/19 A3013,MYNN,2015-05-27T14:00:00Z,25.03,-77.47,27.0,19.0,90,10,,6.21,30.129921,,,,,,,,,,,FEW,2000,,,,,,,VFR,,,,,,,,,,,,METAR,3.0
SVMI 271400Z 02004KT 9999 FEW016 30/24 Q1013 NOSIG,SVMI,2015-05-27T14:00:00Z,10.58,-67.0,30.0,24.0,20,4,,6.21,29.911417,,,,,,TRUE,,,,,FEW,1600,,,,,,,VFR,,,,,,,,,,,,METAR,48.0
MPTO 271400Z 00000KT 9000 FEW018 SCT080 30/24 Q1011 NOSIG,MPTO,2015-05-27T14:00:00Z,9.05,-79.37,30.0,24.0,0,0,,5.59,29.852362,,,,,,TRUE,,,,,FEW,1800,SCT,8000,,,,,VFR,,,,,,,,,,,,METAR,45.0
BIHN 271400Z 31005KT 9999 SHRA FEW008 SCT015 BKN025 06/// Q0999,BIHN,2015-05-27T14:00:00Z,64.3,-15.23,,,310,5,,6.21,29.498032,,,,,,,,,,SHRA,FEW,800,SCT,1500,BKN,2500,,,MVFR,,,,,,,,,,,,METAR,7.0
FQBR 271400Z 09008KT 9999 FEW025 26/18 Q1016,FQBR,2015-05-27T14:00:00Z,-19.8,34.88,26.0,18.0,90,8,,6.21,30.0,,,,,,,,,,,FEW,2500,,,,,,,VFR,,,,,,,,,,,,METAR,16.0
TUPJ 271400Z VRB03 9999 SCT019 30/22 Q1016 RMK A3001,TUPJ,2015-05-27T14:00:00Z,18.43,-64.52,30.0,22.0,0,3,,6.21,30.0,,,,,,,,,,,SCT,1900,,,,,,,VFR,,,,,,,,,,,,METAR,4.0
SKRH 271400Z 11015KT 9999 BKN020 31/21 A2989,SKRH,2015-05-27T14:00:00Z,11.52,-72.92,31.0,21.0,110,15,,6.21,29.890747,,,,,,,,,,,BKN,2000,,,,,,,MVFR,,,,,,,,,,,,METAR,4.0
WADL 271400Z 27003KT 8000 SCT016 25/24 Q1013 NOSIG,WADL,2015-05-27T14:00:00Z,-8.75,116.28,25.0,24.0,270,3,,4.97,29.911417,,,,,,TRUE,,,,,SCT,1600,,,,,,,MVFR,,,,,,,,,,,,METAR,97.0
SVBC 271400Z /////KT 9999 SCT010 30/26 Q1014,SVBC,2015-05-27T14:00:00Z,10.12,-64.67,30.0,26.0,,,,6.21,29.940945,,,,,,,,,,,SCT,1000,,,,,,,VFR,,,,,,,,,,,,METAR,7.0
URMN 271400Z 00000MPS 9999 SCT040CB BKN110 26/12 Q1009 R24/010070 NOSIG RMK QFE720,URMN,2015-05-27T14:00:00Z,43.52,43.63,26.0,12.0,0,0,,6.21,29.793306,,,,,,TRUE,,,,,SCT,4000,BKN,11000,,,,,VFR,,,,,,,,,,,,SPECI,445.0
URMM 271400Z 11004MPS 9999 NSC 28/12 Q1007 R30/000070 NOSIG RMK QFE727/0970,URMM,2015-05-27T14:00:00Z,44.22,43.1,28.0,12.0,110,8,,6.21,29.734253,,,,,,TRUE,,,,,,,,,,,,,,,,,,,,,,,,,METAR,314.0
URML 271400Z 17005MPS 9999 SCT033CB BKN100 26/16 Q1007 TEMPO VRB07G12MPS -TSRA SCT030CB BKN100 RMK QFE755/1007 R14/01//70,URML,2015-05-27T14:00:00Z,42.82,47.65,26.0,16.0,170,10,,6.21,29.734253,,,,,,,,,,,SCT,3300,BKN,10000,,,,,VFR,,,,,,,,,,,,SPECI,4.0
URKK 271400Z 17003MPS CAVOK 28/16 Q1007 R23C/CLRD70 NOSIG RMK QFE751,URKK,2015-05-27T14:00:00Z,45.03,39.15,28.0,16.0,170,6,,6.21,29.734253,,,,,,TRUE,,,,,CAVOK,,,,,,,,VFR,,,,,,,,,,,,SPECI,34.0
URKA 271400Z 32002MPS 270V350 CAVOK 23/18 Q1007 R22/010070 NOSIG RMK QFE750/1000,URKA,2015-05-27T14:00:00Z,45.0,37.35,23.0,18.0,320,4,,6.21,29.734253,,,,,,TRUE,,,,,CAVOK,,,,,,,,VFR,,,,,,,,,,,,METAR,53.0
OLBA 271400Z 30005KT 8000 FEW080 FEW200 34/14 Q1006,OLBA,2015-05-27T14:00:00Z,33.82,35.47,34.0,14.0,300,5,,4.97,29.704725,,,,,,,,,,,FEW,8000,FEW,20000,,,,,MVFR,,,,,,,,,,,,METAR,19.0
UTAT 271400Z 07006MPS CAVOK 33/07 Q1011 NOSIG,UTAT,2015-05-27T14:00:00Z,41.77,59.83,33.0,7.0,70,12,,6.21,29.852362,,,,,,TRUE,,,,,CAVOK,,,,,,,,VFR,,,,,,,,,,,,METAR,83.0
ORMM 271400Z 31012KT 6000 NSC 42/05 Q1005 NOSIG,ORMM,2015-05-27T14:00:00Z,30.57,47.67,42.0,5.0,310,12,,3.73,29.675198,,,,,,TRUE,,,,,,,,,,,,,,,,,,,,,,,,,METAR,2.0
SBFL 271400Z 11005KT 3000 RA BKN008 OVC025 21/20 Q1015,SBFL,2015-05-27T14:00:00Z,-27.67,-48.53,21.0,20.0,110,5,,1.86,29.970472,,,,,,,,,,RA,BKN,800,OVC,2500,,,,,IFR,,,,,,,,,,,,METAR,5.0
GOOY 271400Z 36015KT CAVOK 27/20 Q1013 NOSIG,GOOY,2015-05-27T14:00:00Z,14.72,-17.5,27.0,20.0,360,15,,6.21,29.911417,,,,,,TRUE,,,,,CAVOK,,,,,,,,VFR,,,,,,,,,,,,METAR,24.0
SKPE 271400Z VRB02KT 9999 SCT017 BKN080 21/18 A3009,SKPE,2015-05-27T14:00:00Z,4.82,-75.73,21.0,18.0,0,2,,6.21,30.088583,,,,,,,,,,,SCT,1700,BKN,8000,,,,,VFR,,,,,,,,,,,,METAR,1346.0
SKBG 271400Z 22005KT 9999 FEW015 24/19 A3001,SKBG,2015-05-27T14:00:00Z,7.13,-73.18,24.0,19.0,220,5,,6.21,30.008858,,,,,,,,,,,FEW,1500,,,,,,,VFR,,,,,,,,,,,,METAR,1189.0
SKSP 271400Z 08006KT 9271358 ,SKSP,2015-05-27T14:00:00Z,12.57,-81.72,,,80,6,,0.84,,,,,,,,,,,,,,,,,,,,,,,,,,,,,,,,METAR,-2.0
SKLT 271400Z 00000KT 9999 FEW007 SCT030 28/25 A2993,SKLT,2015-05-27T14:00:00Z,-4.2,-69.93,28.0,25.0,0,0,,6.21,29.929134,,,,,,,,,,,FEW,700,SCT,3000,,,,,VFR,,,,,,,,,,,,METAR,84.0
SKCC 271400Z 05005KT 9999 SCT015 28/23 A2995,SKCC,2015-05-27T14:00:00Z,7.92,-72.52,28.0,23.0,50,5,,6.21,29.949802,,,,,,,,,,,SCT,1500,,,,,,,VFR,,,,,,,,,,,,METAR,317.0
SKBO 271400Z 03005KT 9999 BKN020 17/10 A3035,SKBO,2015-05-27T14:00:00Z,4.7,-74.12,17.0,10.0,30,5,,6.21,30.351377,,,,,,,,,,,BKN,2000,,,,,,,MVFR,,,,,,,,,,,,METAR,2548.0
SBGL 271400Z 03008KT 8000 NSC 25/20 Q1015,SBGL,2015-05-27T14:00:00Z,-22.82,-43.25,25.0,20.0,30,8,,4.97,29.970472,,,,,,,,,,,,,,,,,,,,,,,,,,,,,,,METAR,6.0
TKPK 271400Z 08008KT 9999 FEW023 29/21 Q1015,TKPK,2015-05-27T14:00:00Z,17.3,-62.72,29.0,21.0,80,8,,6.21,29.970472,,,,,,,,,,,FEW,2300,,,,,,,VFR,,,,,,,,,,,,METAR,48.0
SBCJ 271400Z 04005KT 9999 SCT015 25/22 Q1018,SBCJ,2015-05-27T14:00:00Z,-6.12,-50.0,25.0,22.0,40,5,,6.21,30.059055,,,,,,,,,,,SCT,1500,,,,,,,VFR,,,,,,,,,,,,METAR,621.0
SKBQ 271400Z 04008KT CAVOK 30/25 A2985,SKBQ,2015-05-27T14:00:00Z,10.9,-74.77,30.0,25.0,40,8,,6.21,29.84941,,,,,,,,,,,CAVOK,,,,,,,,VFR,,,,,,,,,,,,METAR,10.0
SBMQ 271400Z 06009KT 9999 FEW012 OVC080 27/25 Q1014,SBMQ,2015-05-27T14:00:00Z,0.05,-51.07,27.0,25.0,60,9,,6.21,29.940945,,,,,,,,,,,FEW,1200,OVC,8000,,,,,VFR,,,,,,,,,,,,METAR,15.0
MWCB 271400Z 08009KT 9999 SCT016 SCT030 28/24 Q1016,MWCB,2015-05-27T14:00:00Z,19.68,-79.88,28.0,24.0,80,9,,6.21,30.0,,,,,,,,,,,SCT,1600,SCT,3000,,,,,VFR,,,,,,,,,,,,METAR,2.0
MWCR 271400Z 07014KT 9999 VCSH SCT012CB 26/24 Q1016 NOSIG,MWCR,2015-05-27T14:00:00Z,19.3,-81.37,26.0,24.0,70,14,,6.21,30.0,,,,,,TRUE,,,,VCSH,SCT,1200,,,,,,,VFR,,,,,,,,,,,,METAR,3.0
FWCL 271400Z 11003KT 9999 SCT045 28/13 Q1019 NOSIG,FWCL,2015-05-27T14:00:00Z,-15.67,34.97,28.0,13.0,110,3,,6.21,30.088583,,,,,,TRUE,,,,,SCT,4500,,,,,,,VFR,,,,,,,,,,,,METAR,767.0
GVSV 271400Z 06022KT 9999 FEW020 BKN200 27/17 Q1017 NOSIG,GVSV,2015-05-27T14:00:00Z,16.83,-25.07,27.0,17.0,60,22,,6.21,30.029528,,,,,,TRUE,,,,,FEW,2000,BKN,20000,,,,,VFR,,,,,,,,,,,,METAR,20.0
SBCZ 271400Z 25003KT 9999 SCT025 27/23 Q1015,SBCZ,2015-05-27T14:00:00Z,-7.62,-72.77,27.0,23.0,250,3,,6.21,29.970472,,,,,,,,,,,SCT,2500,,,,,,,VFR,,,,,,,,,,,,METAR,170.0
OPRN 271400Z 23004KT 6000 FEW040 SCT200 34/14 1006.1/29.70,OPRN,2015-05-27T14:00:00Z,33.62,73.08,34.0,14.0,230,4,,3.73,,,,,,,,,,,,FEW,4000,SCT,20000,,,,,MVFR,,,,,,,,,,,,METAR,508.0
OPNH 271400Z 18008KT 5000M HZ NSC 42/20 Q0999,OPNH,2015-05-27T14:00:00Z,26.22,68.37,42.0,20.0,180,8,,3.11,29.498032,,,,,,,,,,HZ,,,,,,,,,,,,,,,,,,,,,METAR,38.0
OPST 271400Z 27002KT 5000 HZ FEW040 SCT100 36/10 Q1003 NOSIG RH21,OPST,2015-05-27T14:00:00Z,32.53,74.37,36.0,10.0,270,2,,3.11,29.616142,,,,,,TRUE,,,,HZ,FEW,4000,SCT,10000,,,,,MVFR,,,,,,,,,,,,METAR,247.0
SBCT 271400Z 36008KT 9999 BKN013 BKN080 22/18 Q1018,SBCT,2015-05-27T14:00:00Z,-25.52,-49.17,22.0,18.0,360,8,,6.21,30.059055,,,,,,,,,,,BKN,1300,BKN,8000,,,,,MVFR,,,,,,,,,,,,METAR,908.0
MGTU 271400Z 00000KT CAVOK 25/23 OVC200,MGTU,2015-05-27T14:00:00Z,,,25.0,23.0,0,0,,6.21,,,,,,,,,,,,OVC,20000,,,,,,,VFR,,,,,,,,,,,,METAR,
MGMT 271400Z 00000KT CAVOK 28/24 QFE1011.5 FEW080 SCT200,MGMT,2015-05-27T14:00:00Z,,,28.0,24.0,0,0,,6.21,,,,,,,,,,,,FEW,8000,SCT,20000,,,,,VFR,,,,,,,,,,,,METAR,
MGES 271400Z 00000KT 9999 SCT016 SCT090 23/20 QFE912.4 SCT200,MGES,2015-05-27T14:00:00Z,14.57,-89.32,23.0,20.0,0,0,,6.21,,,,,,,,,,,,SCT,1600,SCT,9000,SCT,20000,,,VFR,,,,,,,,,,,,METAR,965.0
MGZA 271400Z 00000KT 9999 SCT020 BKN200 29/21 QFE989/9,MGZA,2015-05-27T14:00:00Z,14.97,-89.52,29.0,21.0,0,0,,6.21,,,,,,,,,,,,SCT,2000,BKN,20000,,,,,VFR,,,,,,,,,,,,METAR,490.0
MGCB 271400Z 00000KT CAVOK 18/15 QFE872.6 SCT200,MGCB,2015-05-27T14:00:00Z,15.48,-90.42,18.0,15.0,0,0,,6.21,,,,,,,,,,,,SCT,20000,,,,,,,VFR,,,,,,,,,,,,METAR,1316.0
MGQZ 271400Z 00000KT CAVOK 15/09 QFE772/9 SCT070 BKN200,MGQZ,2015-05-27T14:00:00Z,14.87,-91.5,15.0,9.0,0,0,,6.21,,,,,,,,,,,,SCT,7000,BKN,20000,,,,,VFR,,,,,,,,,,,,METAR,2371.0
MGRT 271400Z 00000KT CAVOK 25/22 Q1015 A2997 FEW080 BKN200 VOL. STA. MARIA Y SANTIAGUITO EN ACTIVIDAD,MGRT,2015-05-27T14:00:00Z,14.53,-91.7,25.0,22.0,0,0,,6.21,29.970472,,,,,,,,,,SA,FEW,8000,BKN,20000,,,,,VFR,,,,,,,,,,,,METAR,200.0
MGSJ 271400Z 00000KT 9000 FEW090 28/25 Q1014 A2994 HZ,MGSJ,2015-05-27T14:00:00Z,13.92,-90.83,28.0,25.0,0,0,,5.59,29.940945,,,,,,,,,,HZ,FEW,9000,,,,,,,VFR,,,,,,,,,,,,METAR,9.0
MGPB 271400Z 00000KT 8000 SCT018TCU BKN200 30/25 Q1014 A2994 HZ TCU NW,MGPB,2015-05-27T14:00:00Z,15.72,-88.58,30.0,25.0,0,0,,4.97,29.940945,,,,,,,,,,HZ,SCT,1800,BKN,20000,,,,,MVFR,,,,,,,,,,,,METAR,10.0
MGHT 271400Z 00000KT CAVOK 18/14 QFE819.5 OVC200,MGHT,2015-05-27T14:00:00Z,15.32,-91.5,18.0,14.0,0,0,,6.21,,,,,,,,,,,,OVC,20000,,,,,,,VFR,,,,,,,,,,,,METAR,1901.0
MGMM 271400Z 00000KT CAVOK 27/23 Q1016 A3000,MGMM,2015-05-27T14:00:00Z,17.07,-89.15,27.0,23.0,0,0,,6.21,30.0,,,,,,,,,,,CAVOK,,,,,,,,VFR,,,,,,,,,,,,METAR,105.0
FDMS 271400Z 16008KT CAVOK 27/05 Q1018 NOSIG,FDMS,2015-05-27T14:00:00Z,-26.52,31.3,27.0,5.0,160,8,,6.21,30.059055,,,,,,TRUE,,,,,CAVOK,,,,,,,,VFR,,,,,,,,,,,,METAR,641.0
LWOH 271400Z 29006KT 9999 -RA BKN040 13/09 Q1009,LWOH,2015-05-27T14:00:00Z,41.18,20.75,13.0,9.0,290,6,,6.21,29.793306,,,,,,,,,,-RA,BKN,4000,,,,,,,VFR,,,,,,,,,,,,METAR,761.0
OJAM 271400Z 27010KT 4000 HZ NSC 36/03 Q1013 NOSIG,OJAM,2015-05-27T14:00:00Z,31.97,35.97,36.0,3.0,270,10,,2.49,29.911417,,,,,,TRUE,,,,HZ,,,,,,,,,,,,,,,,,,,,,METAR,773.0
LEMO 271400Z VRB04KT 9999 FEW040 34/10 Q1014 NOSIG,LEMO,2015-05-27T14:00:00Z,37.17,-5.62,34.0,10.0,0,4,,6.21,29.940945,,,,,,TRUE,,,,,FEW,4000,,,,,,,VFR,,,,,,,,,,,,METAR,88.0
SBFZ 271400Z 11014KT 9999 BKN018 FEW020TCU 29/23 Q1013,SBFZ,2015-05-27T14:00:00Z,-3.77,-38.52,29.0,23.0,110,14,,6.21,29.911417,,,,,,,,,,,BKN,1800,FEW,2000,,,,,MVFR,,,,,,,,,,,,METAR,25.0
SPIM 271400Z 21003KT 9999 SCT010 OVC025 21/18 Q1015 NOSIG RMKBIRD HAZARD RWY 15 PP000,SPIM,2015-05-27T14:00:00Z,-12.02,-77.12,21.0,18.0,210,3,,6.21,29.970472,,,,,,TRUE,,,,,SCT,1000,OVC,2500,,,,,MVFR,,,,,,,,,,,,SPECI,13.0
GBYD 271400Z 03010KT CAVOK 34/12 Q1010,GBYD,2015-05-27T14:00:00Z,13.33,-16.65,34.0,12.0,30,10,,6.21,29.822834,,,,,,,,,,,CAVOK,,,,,,,,VFR,,,,,,,,,,,,METAR,36.0
SBSL 271400Z 08015KT 9000 -RA VCSH FEW015 BKN017 FEW020TCU BKN1 00 29/22 Q1013,SBSL,2015-05-27T14:00:00Z,-2.6,-44.22,29.0,22.0,80,15,,5.59,29.911417,,,,,,,,,,-RA VCSH,FEW,1500,BKN,1700,FEW,2000,,,MVFR,,,,,,,,,,,,METAR,53.0
SMZO 271400Z 07006KT 9999 SCT020 30/23 Q1014 NOSIG,SMZO,2015-05-27T14:00:00Z,5.82,-55.18,30.0,23.0,70,6,,6.21,29.940945,,,,,,TRUE,,,,,SCT,2000,,,,,,,VFR,,,,,,,,,,,,METAR,10.0
SMJP 271400Z 17005KT 150V210 9999 SCT018 28/23 Q1014 NOSIG,SMJP,2015-05-27T14:00:00Z,5.45,-55.17,28.0,23.0,170,5,,6.21,29.940945,,,,,,TRUE,,,,,SCT,1800,,,,,,,VFR,,,,,,,,,,,,METAR,16.0
VOCI 271400Z 25003KT 5000 HZ FEW020 30/24 Q1007 NOSIG,VOCI,2015-05-27T14:00:00Z,10.15,76.4,30.0,24.0,250,3,,3.11,29.734253,,,,,,TRUE,,,,HZ,FEW,2000,,,,,,,MVFR,,,,,,,,,,,,METAR,8.0
VIAR 271400Z 00000KT 5000 DU FEW040 37/05 Q1002,VIAR,2015-05-27T14:00:00Z,31.7,74.8,37.0,5.0,0,0,,3.11,29.586615,,,,,,,,,,DU,FEW,4000,,,,,,,MVFR,,,,,,,,,,,,METAR,234.0
VIDP 271400Z 29007KT 3200 HZ NSC 39/01 Q1002 NOSIG,VIDP,2015-05-27T14:00:00Z,28.57,77.12,39.0,1.0,290,7,,1.99,29.586615,,,,,,TRUE,,,,HZ,,,,,,,,,,,,,,,,,,,,,METAR,233.0
DXNG 271400Z 21007KT 150V260 9999 BKN008 31/20 Q1013 NOSIG,DXNG,2015-05-27T14:00:00Z,9.77,1.1,31.0,20.0,210,7,,6.21,29.911417,,,,,,TRUE,,,,,BKN,800,,,,,,,IFR,,,,,,,,,,,,METAR,343.0
DFFD 271400Z AUTO 28005KT 220V340 38/20 Q1009,DFFD,2015-05-27T14:00:00Z,12.33,-1.52,38.0,20.0,280,5,,,29.793306,,,TRUE,,,,,,,,,,,,,,,,,,,,,,,,,,,,METAR,306.0
FTTA 271400Z 00000KT 9999 FEW040 37/18 Q1010,FTTA,2015-05-27T14:00:00Z,9.15,18.37,37.0,18.0,0,0,,6.21,29.822834,,,,,,,,,,,FEW,4000,,,,,,,VFR,,,,,,,,,,,,METAR,365.0
FTTD 271400Z 12008KT 9999 FEW040 37/19 Q1009,FTTD,2015-05-27T14:00:00Z,8.62,16.07,37.0,19.0,120,8,,6.21,29.793306,,,,,,,,,,,FEW,4000,,,,,,,VFR,,,,,,,,,,,,METAR,422.0
FTTY 271400Z 04008KT CAVOK 46/M03 Q1008,FTTY,2015-05-27T14:00:00Z,18.0,19.17,46.0,-3.0,40,8,,6.21,29.763779,,,,,,,,,,,CAVOK,,,,,,,,VFR,,,,,,,,,,,,METAR,234.0
FTTC 271400Z 00000KT 9999 FEW040 42/08 Q1008,FTTC,2015-05-27T14:00:00Z,13.83,20.85,42.0,8.0,0,0,,6.21,29.763779,,,,,,,,,,,FEW,4000,,,,,,,VFR,,,,,,,,,,,,METAR,549.0
FTTJ 271400Z 00000KT 9999 FEW040 42/21 Q1006 NOSIG,FTTJ,2015-05-27T14:00:00Z,12.12,15.02,42.0,21.0,0,0,,6.21,29.704725,,,,,,TRUE,,,,,FEW,4000,,,,,,,VFR,,,,,,,,,,,,METAR,295.0
DBBB 271400Z 18010KT 9999 SCT012 BKN100 32/26 Q1009 NOSIG,DBBB,2015-05-27T14:00:00Z,6.33,2.37,32.0,26.0,180,10,,6.21,29.793306,,,,,,TRUE,,,,,SCT,1200,BKN,10000,,,,,VFR,,,,,,,,,,,,METAR,9.0
OBBI 271400Z 36011KT CAVOK 37/13 Q1006 NOSIG,OBBI,2015-05-27T14:00:00Z,26.27,50.63,37.0,13.0,360,11,,6.21,29.704725,,,,,,TRUE,,,,,CAVOK,,,,,,,,VFR,,,,,,,,,,,,METAR,2.0
ETSH 271400Z 31008KT 9999 SCT035 BKN050 13/04 Q1020 BLU FCST CANCEL,ETSH,2015-05-27T14:00:00Z,51.77,13.17,13.0,4.0,310,8,,6.21,30.11811,,,,,,,,,,,SCT,3500,BKN,5000,,,,,VFR,,,,,,,,,,,,SPECI,79.0
SVSZ 271400Z 00000KT 9999 BKN020 XX/XX Q1010,SVSZ,2015-05-27T14:00:00Z,8.97,-71.95,,,0,0,,6.21,29.822834,,,,,,,,,,,BKN,2000,,,,,,,MVFR,,,,,,,,,,,,METAR,10.0
SVPM 271400Z 18010KT 9999 BKN030 XX/XX Q1016,SVPM,2015-05-27T14:00:00Z,7.78,-72.2,,,180,10,,6.21,30.0,,,,,,,,,,,BKN,3000,,,,,,,MVFR,,,,,,,,,,,,METAR,1000.0
SVMD 271400Z 16003KT 9999 FEW020 23/16 Q1021,SVMD,2015-05-27T14:00:00Z,8.58,-71.17,23.0,16.0,160,3,,6.21,30.147638,,,,,,,,,,,FEW,2000,,,,,,,VFR,,,,,,,,,,,,METAR,1498.0
SVSA 271400Z /////KT 6000 VCFG FEW020 29/23 Q1014,SVSA,2015-05-27T14:00:00Z,7.83,-72.45,29.0,23.0,,,,3.73,29.940945,,,,,,,,,,VCFG,FEW,2000,,,,,,,MVFR,,,,,,,,,,,,METAR,378.0
DGAA 271400Z 21011KT 170V230 9999 FEW027 FEW030CB 31/25 Q1010 NOSIG,DGAA,2015-05-27T14:00:00Z,5.58,-0.17,31.0,25.0,210,11,,6.21,29.822834,,,,,,TRUE,,,,,FEW,2700,FEW,3000,,,,,VFR,,,,,,,,,,,,METAR,69.0
DRZR 271400Z 10008KT 9999 FEW040 BKN300 42/02 Q1010,DRZR,2015-05-27T14:00:00Z,13.77,8.97,42.0,2.0,100,8,,6.21,29.822834,,,,,,,,,,,FEW,4000,BKN,30000,,,,,VFR,,,,,,,,,,,,METAR,453.0
DRZA 271400Z 08016KT CAVOK 44/M06 Q1011,DRZA,2015-05-27T14:00:00Z,16.97,8.0,44.0,-6.0,80,16,,6.21,29.852362,,,,,,,,,,,CAVOK,,,,,,,,VFR,,,,,,,,,,,,METAR,502.0
DRRN 271400Z 15006KT 090V210 CAVOK 42/10 Q1007 NOSIG,DRRN,2015-05-27T14:00:00Z,13.47,2.17,42.0,10.0,150,6,,6.21,29.734253,,,,,,TRUE,,,,,CAVOK,,,,,,,,VFR,,,,,,,,,,,,METAR,227.0
DRRM 271400Z 14002KT 9999 FEW040 BKN300 40/13 Q1009,DRRM,2015-05-27T14:00:00Z,13.5,7.12,40.0,13.0,140,2,,6.21,29.793306,,,,,,,,,,,FEW,4000,BKN,30000,,,,,VFR,,,,,,,,,,,,METAR,373.0
LKKU 271400Z 32009KT 260V020 9999 FEW046 14/05 Q1017,LKKU,2015-05-27T14:00:00Z,49.05,17.45,14.0,5.0,320,9,,6.21,30.029528,,,,,,,,,,,FEW,4600,,,,,,,VFR,,,,,,,,,,,,METAR,177.0
VMMC 271400Z 18006KT 150V210 9999 FEW012 SCT030 28/26 Q1006 NOSIG,VMMC,2015-05-27T14:00:00Z,22.15,113.58,28.0,26.0,180,6,,6.21,29.704725,,,,,,TRUE,,,,,FEW,1200,SCT,3000,,,,,VFR,,,,,,,,,,,,METAR,6.0
RCNN 271400Z 21002KT 9999 SCT016 SCT060 27/24 Q1008 RMK A2978,RCNN,2015-05-27T14:00:00Z,22.93,120.2,27.0,24.0,210,2,,6.21,29.763779,,,,,,,,,,,SCT,1600,SCT,6000,,,,,VFR,,,,,,,,,,,,METAR,19.0
RCMQ 271400Z 20007KT 9999 FEW010 BKN060 24/23 Q1008 NOSIG RMK A2979,RCMQ,2015-05-27T14:00:00Z,24.27,120.62,24.0,23.0,200,7,,6.21,29.763779,,,,,,TRUE,,,,,FEW,1000,BKN,6000,,,,,VFR,,,,,,,,,,,,METAR,5.0
RCSS 271400Z 24004KT 200V260 9999 FEW025 BKN080 BKN180 28/23 Q1006 NOSIG RMK A2972,RCSS,2015-05-27T14:00:00Z,25.07,121.53,28.0,23.0,240,4,,6.21,29.704725,,,,,,TRUE,,,,,FEW,2500,BKN,8000,BKN,18000,,,VFR,,,,,,,,,,,,METAR,6.0
RCKH 271400Z 29006KT 270V330 9999 FEW015 SCT040 BKN120 28/26 Q1009 NOSIG RMK A2980,RCKH,2015-05-27T14:00:00Z,22.57,120.33,28.0,26.0,290,6,,6.21,29.793306,,,,,,TRUE,,,,,FEW,1500,SCT,4000,BKN,12000,,,VFR,,,,,,,,,,,,METAR,9.0
RCTP 271400Z 24014KT 9999 FEW020 BKN100 28/24 Q1006 NOSIG RMK A2971,RCTP,2015-05-27T14:00:00Z,25.07,121.22,28.0,24.0,240,14,,6.21,29.704725,,,,,,TRUE,,,,,FEW,2000,BKN,10000,,,,,VFR,,,,,,,,,,,,METAR,33.0
LOWZ 271400Z 36005KT 20KM BKN040SC 10/03 Q1022 RMK OVC,LOWZ,2015-05-27T14:00:00Z,47.3,12.78,10.0,3.0,360,5,,12.43,30.177166,,,,,,,,,,,,,,,,,,,,,,,,,,,,,,,METAR,754.0
LOAV 271400Z 30015G26KT 20KM FEW025CU SCT040SC 12/03 Q1019 RMK BKN,LOAV,2015-05-27T14:00:00Z,47.97,16.27,12.0,3.0,300,15,26,12.43,30.088583,,,,,,,,,,,FEW,2500,,,,,,,VFR,,,,,,,,,,,,METAR,233.0
LOAN 271400Z 30006KT 20KM FEW020CU SCT030SC BKN070SC RMK BKN,LOAN,2015-05-27T14:00:00Z,47.85,16.25,,,300,6,,12.43,,,,,,,,,,,,FEW,2000,,,,,,,VFR,,,,,,,,,,,,METAR,272.0
MPPA 271400Z 34010KT 9000 FEW020 SCT100 27/21 Q1012 RMK HZ ALQD S,MPPA,2015-05-27T14:00:00Z,8.92,-79.6,27.0,21.0,340,10,,5.59,29.88189,,,,,,,,,,,FEW,2000,SCT,10000,,,,,VFR,,,,,,,,,,,,METAR,13.0
MPMG 271400Z 33005KT 310V020 9000 FEW020 SCT090 29/-- Q1011 NOSIG RMK HZ ALQDS,MPMG,2015-05-27T14:00:00Z,8.98,-79.57,,,330,5,,5.59,29.852362,,,,,,TRUE,,,,,FEW,2000,SCT,9000,,,,,VFR,,,,,,,,,,,,METAR,13.0
MPDA 271400Z 00000KT 9999 SCT018 28/24 Q1011,MPDA,2015-05-27T14:00:00Z,8.4,-82.43,28.0,24.0,0,0,,6.21,29.852362,,,,,,,,,,,SCT,1800,,,,,,,VFR,,,,,,,,,,,,METAR,27.0
UMKK 271400Z 30006MPS 260V330 9999 SCT021 12/06 Q1014 R24/70D NOSIG RMK QFE759/1013,UMKK,2015-05-27T14:00:00Z,54.88,20.6,12.0,6.0,300,12,,6.21,29.940945,,,,,,TRUE,,,,,SCT,2100,,,,,,,VFR,,,,,,,,,,,,METAR,21.0
ULOO 271400Z 34006MPS 2500 -DZ BR OVC005 13/12 Q1006 R01/190060 RMK OBST OBSC QFE750,ULOO,2015-05-27T14:00:00Z,57.78,28.4,13.0,12.0,340,12,,1.55,29.704725,,,,,,,,,,-DZ BR,OVC,500,,,,,,,IFR,,,,,,,,,,,,SPECI,47.0
UUYY 271400Z 08002MPS 9999 FEW046 22/06 Q1013 R01/61D NOSIG RMK QFE751/1001,UUYY,2015-05-27T14:00:00Z,61.65,50.82,22.0,6.0,80,4,,6.21,29.911417,,,,,,TRUE,,,,,FEW,4600,,,,,,,VFR,,,,,,,,,,,,METAR,119.0
UUOO 271400Z 31004MPS 9999 BKN050CB 20/14 Q1008 RETS R30/290155 TEMPO TSRA RMK QFE742,UUOO,2015-05-27T14:00:00Z,51.82,39.23,20.0,14.0,310,8,,6.21,29.763779,,,,,,,,,,,BKN,5000,,,,,,,VFR,,,,,,,,,,,,SPECI,157.0
ULMM 271400Z 11007MPS CAVOK 17/M01 Q1009 R13/090070 NOSIG RMK QFE750,ULMM,2015-05-27T14:00:00Z,68.78,32.75,17.0,-1.0,110,14,,6.21,29.793306,,,,,,TRUE,,,,,CAVOK,,,,,,,,VFR,,,,,,,,,,,,SPECI,51.0
ULAA 271400Z 13005MPS 090V180 9999 SCT030CB OVC/// 18/07 Q1010 R08/CLRD70 NOSIG RMK QFE757/1009,ULAA,2015-05-27T14:00:00Z,64.6,40.72,18.0,7.0,130,10,,6.21,29.822834,,,,,,TRUE,,,,,SCT,3000,,,,,,,VFR,,,,,,,,,,,,SPECI,19.0
FYWW 271400Z 01007KT 9999 FEW060 25/M01 Q1024,FYWW,2015-05-27T14:00:00Z,-22.57,17.1,25.0,-1.0,10,7,,6.21,30.236221,,,,,,,,,,,FEW,6000,,,,,,,VFR,,,,,,,,,,,,METAR,1725.0
FYWH 271400Z 07003KT CAVOK 23/M01 Q1024 NOSIG,FYWH,2015-05-27T14:00:00Z,-22.47,17.47,23.0,-1.0,70,3,,6.21,30.236221,,,,,,TRUE,,,,,CAVOK,,,,,,,,VFR,,,,,,,,,,,,METAR,1700.0
FYOW 271400Z AUTO 09032G60KT //// // ////// 27/M01 Q1019,FYOW,2015-05-27T14:00:00Z,-20.43,16.67,27.0,-1.0,90,32,60,,30.088583,,,TRUE,,,,,,,,,,,,,,,,,,,,,,,,,,,,METAR,1481.0
FYOO 271400Z AUTO 15004KT //// // ////// 49/15 Q1018,FYOO,2015-05-27T14:00:00Z,-19.15,15.92,49.0,15.0,150,4,,,30.059055,,,TRUE,,,,,,,,,,,,,,,,,,,,,,,,,,,,METAR,1192.0
FYOA 271400Z AUTO 14007KT //// // ////// 30/M00 Q1017,FYOA,2015-05-27T14:00:00Z,-17.88,15.97,30.0,0.0,140,7,,,30.029528,,,TRUE,,,,,,,,,,,,,,,,,,,,,,,,,,,,METAR,1095.0
FYLZ 271400Z AUTO 20015KT //// // ////// 16/11 Q1017,FYLZ,2015-05-27T14:00:00Z,-26.67,15.25,16.0,11.0,200,15,,,30.029528,,,TRUE,,,,,,,,,,,,,,,,,,,,,,,,,,,,METAR,130.0
FYKT 271400Z 01005KT CAVOK 29/M01 Q1018,FYKT,2015-05-27T14:00:00Z,-26.52,18.12,29.0,-1.0,10,5,,6.21,30.059055,,,,,,,,,,,CAVOK,,,,,,,,VFR,,,,,,,,,,,,METAR,1061.0
FYGF 271400Z AUTO 08005KT //// // ////// 27/M01 Q1022,FYGF,2015-05-27T14:00:00Z,-19.6,18.12,27.0,-1.0,80,5,,,30.177166,,,TRUE,,,,,,,,,,,,,,,,,,,,,,,,,,,,METAR,1400.0
HKNY 271400Z 02008KT 9999 FEW020CB SCT022 BKN080 20/14 Q1022,HKNY,2015-05-27T14:00:00Z,-0.07,37.02,20.0,14.0,20,8,,6.21,30.177166,,,,,,,,,,,FEW,2000,SCT,2200,BKN,8000,,,VFR,,,,,,,,,,,,METAR,1905.0
HKNW 271400Z 130012KT BKN026 24/15 Q1021,HKNW,2015-05-27T14:00:00Z,-1.32,36.82,24.0,15.0,130,12,,,30.147638,,,,,,,,,,,BKN,2600,,,,,,,,,,,,,,,,,,,METAR,1679.0
HKNK 271400Z 36006KT 9999 TS FEW024CB BKN025 21/13,HKNK,2015-05-27T14:00:00Z,-0.3,36.17,21.0,13.0,360,6,,6.21,,,,,,,,,,,TS,FEW,2400,BKN,2500,,,,,MVFR,,,,,,,,,,,,METAR,1901.0
HKNC 271400Z 05007KT 9999 FEW021CB SCT022 23/13 Q1022,HKNC,2015-05-27T14:00:00Z,-1.3,36.75,23.0,13.0,50,7,,6.21,30.177166,,,,,,,,,,,FEW,2100,SCT,2200,,,,,VFR,,,,,,,,,,,,METAR,1798.0
HKMO 271400Z 19006KT 9999 FEW025 BKN080 29/21 Q1012 NOSIG,HKMO,2015-05-27T14:00:00Z,-4.02,39.62,29.0,21.0,190,6,,6.21,29.88189,,,,,,TRUE,,,,,FEW,2500,BKN,8000,,,,,VFR,,,,,,,,,,,,METAR,55.0
HKKI 271400Z 33017KT 8000 TSRA FEW018CB SCT019 BKN080 17/16 Q1017,HKKI,2015-05-27T14:00:00Z,-0.1,34.75,17.0,16.0,330,17,,4.97,30.029528,,,,,,,,,,TSRA,FEW,1800,SCT,1900,BKN,8000,,,MVFR,,,,,,,,,,,,METAR,1146.0
HKJK 271400Z 13008KT 9999 FEW025CB BKN026 24/14 Q1020 NOSIG,HKJK,2015-05-27T14:00:00Z,-1.32,36.92,24.0,14.0,130,8,,6.21,30.11811,,,,,,TRUE,,,,,FEW,2500,BKN,2600,,,,,MVFR,,,,,,,,,,,,METAR,1624.0
HKEL 271400Z 25010KT 9999 FEW017 FEW020CB 21/15 Q1023,HKEL,2015-05-27T14:00:00Z,0.4,35.23,21.0,15.0,250,10,,6.21,30.206694,,,,,,,,,,,FEW,1700,FEW,2000,,,,,VFR,,,,,,,,,,,,METAR,2133.0
GGOV 271400Z 26003KT 220V320 CAVOK 33/19 Q1010 NOSIG,GGOV,2015-05-27T14:00:00Z,11.87,-15.65,33.0,19.0,260,3,,6.21,29.822834,,,,,,TRUE,,,,,CAVOK,,,,,,,,VFR,,,,,,,,,,,,METAR,36.0
SAWE 271400Z 25009KT 9999 FEW002 02/01 Q1007,SAWE,2015-05-27T14:00:00Z,-53.78,-67.75,2.0,1.0,250,9,,6.21,29.734253,,,,,,,,,,,FEW,200,,,,,,,VFR,,,,,,,,,,,,METAR,22.0
WMAU 271400Z 25004KT 9999 FEW005 SCT140 BKN270 26/25 Q//// QFF1011,WMAU,2015-05-27T14:00:00Z,2.38,103.88,26.0,25.0,250,4,,6.21,,,,,,,,,,,,FEW,500,SCT,14000,BKN,27000,,,VFR,,,,,,,,,,,,SPECI,45.0
YGEL 271400Z AUTO 14009KT 9999 // NCD 13/10 Q1020,YGEL,2015-05-27T14:00:00Z,-28.8,114.7,13.0,10.0,140,9,,6.21,30.11811,,,TRUE,,,,,,,,,,,,,,,,,,,,,,,,,,,,METAR,37.0
YPJT 271400Z AUTO 07003KT 9999 // NCD 05/03 Q1023,YPJT,2015-05-27T14:00:00Z,-32.1,115.88,5.0,3.0,70,3,,6.21,30.206694,,,TRUE,,,,,,,,,,,,,,,,,,,,,,,,,,,,METAR,30.0
CYKY 271400Z 10007KT 15SM SCT045 BKN090 12/07 A3001 RMK SC4AC2 SLP161 DENSITY ALT 2300FT,CYKY,2015-05-27T14:00:00Z,51.52,-109.17,12.0,7.0,100,7,,15.0,30.008858,1016.1,,,,,,,,,,SCT,4500,BKN,9000,,,,,VFR,,,,,,,,,,,,SPECI,694.0
CYXP 271400Z 26005KT 15SM OVC050 00/M02 A2979 RMK SC8 SLP089,CYXP,2015-05-27T14:00:00Z,66.15,-65.72,0.0,-2.0,260,5,,15.0,29.790354,1008.9,,,,,,,,,,OVC,5000,,,,,,,VFR,,,,,,,,,,,,SPECI,23.0
RPLB 271400Z VRB01KT 9999 FEW020 BKN300 29/24 Q1010 NOSIG RMK A2983,RPLB,2015-05-27T14:00:00Z,14.8,120.27,29.0,24.0,0,1,,6.21,29.822834,,,,,,TRUE,,,,,FEW,2000,BKN,30000,,,,,VFR,,,,,,,,,,,,METAR,17.0
NSFA 271400Z 00000KT 9999 FEW030 21/21 Q1013,NSFA,2015-05-27T14:00:00Z,-13.83,-172.0,21.0,21.0,0,0,,6.21,29.911417,,,,,,,,,,,FEW,3000,,,,,,,VFR,,,,,,,,,,,,METAR,5.0
SVCN 271400Z 00000KT 9999 BKN016 ///// Q1016,SVCN,2015-05-27T14:00:00Z,6.23,-62.85,,,0,0,,6.21,30.0,,,,,,,,,,,BKN,1600,,,,,,,MVFR,,,,,,,,,,,,METAR,442.0
SAZS 271400Z 00000KT 9999 FEW040 BKN100 00/M02 Q1021,SAZS,2015-05-27T14:00:00Z,-41.13,-71.17,0.0,-2.0,0,0,,6.21,30.147638,,,,,,,,,,,FEW,4000,BKN,10000,,,,,VFR,,,,,,,,,,,,METAR,840.0
SASA 271400Z 05004KT 9999 FEW005 BKN017 OVC100 14/11 Q1024,SASA,2015-05-27T14:00:00Z,-24.85,-65.47,14.0,11.0,50,4,,6.21,30.236221,,,,,,,,,,,FEW,500,BKN,1700,OVC,10000,,,MVFR,,,,,,,,,,,,METAR,1216.0
SANT 271400Z 18002KT 2000 DZ BKN004 OVC007 15/14 Q1024,SANT,2015-05-27T14:00:00Z,-26.85,-65.08,15.0,14.0,180,2,,1.24,30.236221,,,,,,,,,,DZ,BKN,400,OVC,700,,,,,LIFR,,,,,,,,,,,,METAR,450.0
SADF 271400Z 09009KT 9999 SCT020 BKN100 17/12 Q1024,SADF,2015-05-27T14:00:00Z,-34.45,-58.58,17.0,12.0,90,9,,6.21,30.236221,,,,,,,,,,,SCT,2000,BKN,10000,,,,,VFR,,,,,,,,,,,,METAR,4.0
FCPP 271400Z 17010KT 9999 FEW020 28/22 Q1010 NOSIG,FCPP,2015-05-27T14:00:00Z,-4.82,11.9,28.0,22.0,170,10,,6.21,29.822834,,,,,,TRUE,,,,,FEW,2000,,,,,,,VFR,,,,,,,,,,,,METAR,17.0
FCBB 271400Z VRB03KT 7000 FEW020 32/23 Q1010 NOSIG,FCBB,2015-05-27T14:00:00Z,-4.25,15.25,32.0,23.0,0,3,,4.35,29.822834,,,,,,TRUE,,,,,FEW,2000,,,,,,,MVFR,,,,,,,,,,,,METAR,316.0
VILK 271400Z VRB02KT 5000 HZ NSC 39/25 Q0999 NOSIG,VILK,2015-05-27T14:00:00Z,26.75,80.87,39.0,25.0,0,2,,3.11,29.498032,,,,,,TRUE,,,,HZ,,,,,,,,,,,,,,,,,,,,,METAR,128.0
HETR 271400Z 17016KT CAVOK 40/11 Q1006,HETR,2015-05-27T14:00:00Z,28.22,33.65,40.0,11.0,170,16,,6.21,29.704725,,,,,,,,,,,CAVOK,,,,,,,,VFR,,,,,,,,,,,,METAR,35.0
UTTT 271400Z 02010KT CAVOK 29/05 Q1012 R88/70D NOSIG,UTTT,2015-05-27T14:00:00Z,41.27,69.27,29.0,5.0,20,10,,6.21,29.88189,,,,,,TRUE,,,,,CAVOK,,,,,,,,VFR,,,,,,,,,,,,METAR,489.0
UTFF 271400Z 36005KT 9999 NSC 27/05 Q1013 R18/CLRD70,UTFF,2015-05-27T14:00:00Z,40.37,71.77,27.0,5.0,360,5,,6.21,29.911417,,,,,,,,,,,,,,,,,,,,,,,,,,,,,,,METAR,577.0
UTFA 271400Z 29002KT 9999 FEW046 SCT100 26/09 Q1013 R88/09//70,UTFA,2015-05-27T14:00:00Z,40.73,72.3,26.0,9.0,290,2,,6.21,29.911417,,,,,,,,,,,FEW,4600,SCT,10000,,,,,VFR,,,,,,,,,,,,METAR,477.0
UTST 271400Z 17003KT CAVOK 31/01 Q1008 R88/CLRD70 NOSIG,UTST,2015-05-27T14:00:00Z,37.28,67.32,31.0,1.0,170,3,,6.21,29.763779,,,,,,TRUE,,,,,CAVOK,,,,,,,,VFR,,,,,,,,,,,,METAR,302.0
UTSS 271400Z 08008KT 050V110 9999 NSC 26/06 Q1013 R88/70D NOSIG,UTSS,2015-05-27T14:00:00Z,39.7,66.98,26.0,6.0,80,8,,6.21,29.911417,,,,,,TRUE,,,,,,,,,,,,,,,,,,,,,,,,,METAR,724.0
UTSK 271400Z 30003KT CAVOK 32/M01 Q1009 R16/CLRD70,UTSK,2015-05-27T14:00:00Z,38.83,65.77,32.0,-1.0,300,3,,6.21,29.793306,,,,,,,,,,,CAVOK,,,,,,,,VFR,,,,,,,,,,,,METAR,1365.0
UTSA 271400Z 02012KT 9999 NSC 31/03 Q1010 R07/CLRD70 NOSIG,UTSA,2015-05-27T14:00:00Z,40.12,65.17,31.0,3.0,20,12,,6.21,29.822834,,,,,,TRUE,,,,,,,,,,,,,,,,,,,,,,,,,METAR,346.0
UTNU 271400Z 02007KT CAVOK 31/08 Q1011 R31/CLRD70 NOSIG,UTNU,2015-05-27T14:00:00Z,41.58,60.63,31.0,8.0,20,7,,6.21,29.852362,,,,,,TRUE,,,,,CAVOK,,,,,,,,VFR,,,,,,,,,,,,METAR,98.0
UTNN 271400Z 01013KT CAVOK 31/03 Q1012 R33/CLRD60 NOSIG,UTNN,2015-05-27T14:00:00Z,42.48,59.63,31.0,3.0,10,13,,6.21,29.88189,,,,,,TRUE,,,,,CAVOK,,,,,,,,VFR,,,,,,,,,,,,METAR,67.0
UTFN 271400Z 09002KT 9999 SCT050CB BKN100 28/05 Q1012 R28/CLRD70 NOSIG,UTFN,2015-05-27T14:00:00Z,40.98,71.57,28.0,5.0,90,2,,6.21,29.88189,,,,,,TRUE,,,,,SCT,5000,BKN,10000,,,,,VFR,,,,,,,,,,,,METAR,490.0
OETB 271400Z 33006KT CAVOK 40/M01 Q1012 NOSIG,OETB,2015-05-27T14:00:00Z,28.37,36.62,40.0,-1.0,330,6,,6.21,29.88189,,,,,,TRUE,,,,,CAVOK,,,,,,,,VFR,,,,,,,,,,,,METAR,770.0
OERF 271400Z 31012KT CAVOK 40/M01 Q1010,OERF,2015-05-27T14:00:00Z,29.62,43.47,40.0,-1.0,310,12,,6.21,29.822834,,,,,,,,,,,CAVOK,,,,,,,,VFR,,,,,,,,,,,,METAR,447.0
OEPA 271400Z 29004KT CAVOK 40/06 Q1009 NOSIG,OEPA,2015-05-27T14:00:00Z,28.32,46.12,40.0,6.0,290,4,,6.21,29.793306,,,,,,TRUE,,,,,CAVOK,,,,,,,,VFR,,,,,,,,,,,,METAR,355.0
FQQL 271400Z 13007KT 080V180 9999 FEW020 28/20 Q1016,FQQL,2015-05-27T14:00:00Z,-17.87,36.87,28.0,20.0,130,7,,6.21,30.0,,,,,,,,,,,FEW,2000,,,,,,,VFR,,,,,,,,,,,,METAR,16.0
WATT 271400Z 10005KT 8000 SCT017 26/23 Q1013 NOSIG,WATT,2015-05-27T14:00:00Z,-10.17,123.67,26.0,23.0,100,5,,4.97,29.911417,,,,,,TRUE,,,,,SCT,1700,,,,,,,MVFR,,,,,,,,,,,,METAR,102.0
WAMM 271400Z VRB01KT 9999 FEW022 25/24 Q1012 NOSIG,WAMM,2015-05-27T14:00:00Z,1.55,124.92,25.0,24.0,0,1,,6.21,29.88189,,,,,,TRUE,,,,,FEW,2200,,,,,,,VFR,,,,,,,,,,,,METAR,80.0
WIOO 271400Z 00000KT 6000 SCT012 26/25 Q1010 NOSIG,WIOO,2015-05-27T14:00:00Z,-0.15,109.4,26.0,25.0,0,0,,3.73,29.822834,,,,,,TRUE,,,,,SCT,1200,,,,,,,MVFR,,,,,,,,,,,,METAR,3.0
WIPP 271400Z 12003KT 9999 FEW013 26/24 Q1010 NOSIG,WIPP,2015-05-27T14:00:00Z,-2.88,104.7,26.0,24.0,120,3,,6.21,29.822834,,,,,,TRUE,,,,,FEW,1300,,,,,,,VFR,,,,,,,,,,,,METAR,10.0
WIEE 271400Z 35004KT 6000 R33/M0050N SCT020 27/25 Q1010,WIEE,2015-05-27T14:00:00Z,,,27.0,25.0,350,4,,3.73,29.822834,,,,,,,,,,,SCT,2000,,,,,,,MVFR,,,,,,,,,,,,METAR,
WIBB 271400Z 00000KT 8000 FEW020 28/25 Q1009 NOSIG,WIBB,2015-05-27T14:00:00Z,0.47,101.45,28.0,25.0,0,0,,4.97,29.793306,,,,,,TRUE,,,,,FEW,2000,,,,,,,MVFR,,,,,,,,,,,,METAR,31.0
WADD 271400Z 14005KT 9999 FEW018 27/25 Q1012 NOSIG,WADD,2015-05-27T14:00:00Z,-8.73,115.17,27.0,25.0,140,5,,6.21,29.88189,,,,,,TRUE,,,,,FEW,1800,,,,,,,VFR,,,,,,,,,,,,METAR,216.0
WAAA 271400Z 18003KT 8000 FEW020 27/27 Q1012 NOSIG,WAAA,2015-05-27T14:00:00Z,-5.07,119.53,27.0,27.0,180,3,,4.97,29.88189,,,,,,TRUE,,,,,FEW,2000,,,,,,,MVFR,,,,,,,,,,,,METAR,14.0
WIDD 271400Z 21003KT 9999 FEW017 FEW027 SCT260 27/25 Q1010,WIDD,2015-05-27T14:00:00Z,1.12,104.12,27.0,25.0,210,3,,6.21,29.822834,,,,,,,,,,,FEW,1700,FEW,2700,SCT,26000,,,VFR,,,,,,,,,,,,METAR,38.0
WARR 271400Z 05005KT 7000 SCT020 28/24 Q1012 NOSIG,WARR,2015-05-27T14:00:00Z,-7.37,112.78,28.0,24.0,50,5,,4.35,29.88189,,,,,,TRUE,,,,,SCT,2000,,,,,,,MVFR,,,,,,,,,,,,METAR,2.0
WIMM 271400Z 22003KT 6000 FEW018CB SCT020 26/24 Q1010 NOSIG,WIMM,2015-05-27T14:00:00Z,3.57,98.67,26.0,24.0,220,3,,3.73,29.822834,,,,,,TRUE,,,,,FEW,1800,SCT,2000,,,,,MVFR,,,,,,,,,,,,METAR,25.0
CZSM 271400Z AUTO 22002KT 09/01 RMK AO1 SLP163 T00900005 56003,CZSM,2015-05-27T14:00:00Z,60.03,-111.93,9.0,0.5,220,2,,,,1016.3,,TRUE,TRUE,,,,,,,,,,,,,,,,-0.3,,,,,,,,,,,METAR,203.0
CWMT 271400Z AUTO 04011G18KT 03/M05 RMK AO1 PK WND 04018/1358 SLP268 T00251051 51019,CWMT,2015-05-27T14:00:00Z,63.13,-117.25,2.5,-5.1,40,11,18,,,1026.8,,TRUE,TRUE,,,,,,,,,,,,,,,,1.9,,,,,,,,,,,METAR,271.0
CWXC 271400Z AUTO 02002KT 15/12 RMK AO1 SLP110 T01530115 58028,CWXC,2015-05-27T14:00:00Z,48.88,-71.03,15.3,11.5,20,2,,,,1011.0,,TRUE,TRUE,,,,,,,,,,,,,,,,-2.8,,,,,,,,,,,METAR,300.0
CWWK 271400Z AUTO 24001KT 14/12 RMK AO1 SLP184 T01380116 53010,CWWK,2015-05-27T14:00:00Z,49.02,-122.78,13.8,11.6,240,1,,,,1018.4,,TRUE,TRUE,,,,,,,,,,,,,,,,1.0,,,,,,,,,,,METAR,15.0
CXTO 271400Z AUTO 22/16 RMK AO1 SLP149 T02160158 51010,CXTO,2015-05-27T14:00:00Z,43.67,-79.4,21.6,15.8,,,,,,1014.9,,TRUE,TRUE,,,,,,,,,,,,,,,,1.0,,,,,,,,,,,METAR,113.0
CXRB 271400Z AUTO 34012G17KT M09/M12 RMK AO1 PK WND 35017/1320 SLP208 T10901118 58003,CXRB,2015-05-27T14:00:00Z,74.72,-94.98,-9.0,-11.8,340,12,17,,,1020.8,,TRUE,TRUE,,,,,,,,,,,,,,,,-0.3,,,,,,,,,,,METAR,68.0
CWQS 271400Z AUTO 34019KT 10/10 RMK AO1 PK WND 33023/1359 SLP231 T01010095 51002,CWQS,2015-05-27T14:00:00Z,53.32,-132.77,10.1,9.5,340,19,,,,1023.1,,TRUE,TRUE,,,,,,,,,,,,,,,,0.2,,,,,,,,,,,METAR,14.0
CWWL 271400Z AUTO 34019G24KT 10/08 RMK AO1 PK WND 33024/1354 SLP209 T00970082 53005,CWWL,2015-05-27T14:00:00Z,53.5,-130.63,9.7,8.2,340,19,24,,,1020.9,,TRUE,TRUE,,,,,,,,,,,,,,,,0.5,,,,,,,,,,,METAR,17.0
CTNK 271400Z AUTO 28003KT 18/16 RMK AO1 5PAST HR 3002 SLP124 P0014 T01810155 50035,CTNK,2015-05-27T14:00:00Z,45.53,-78.27,18.1,15.5,280,3,,,,1012.4,,TRUE,TRUE,,,,,,,,,,,,,,,,3.5,,,,,0.14,,,,,,METAR,410.0
CWIY 271400Z AUTO 16007KT 23/17 RMK AO1 SLP168 T02340172 58011,CWIY,2015-05-27T14:00:00Z,47.13,-67.82,23.4,17.2,160,7,,,,1016.8,,TRUE,TRUE,,,,,,,,,,,,,,,,-1.1,,,,,,,,,,,METAR,241.0
CWIJ 271400Z AUTO 01011KT M06/M09 RMK AO1 SLP307 T10641091 51014,CWIJ,2015-05-27T14:00:00Z,65.77,-111.23,-6.4,-9.1,10,11,,,,1030.7,,TRUE,TRUE,,,,,,,,,,,,,,,,1.4,,,,,,,,,,,METAR,500.0
CXSR 271400Z AUTO 19008KT 14/07 RMK AO1 SLP140 T01410066 58003,CXSR,2015-05-27T14:00:00Z,55.7,-119.23,14.1,6.6,190,8,,,,1014.0,,TRUE,TRUE,,,,,,,,,,,,,,,,-0.3,,,,,,,,,,,METAR,1015.0
CXLL 271400Z AUTO 03003KT 10/06 RMK AO1 SLP223 T01010063 51020,CXLL,2015-05-27T14:00:00Z,61.12,-122.85,10.1,6.3,30,3,,,,1022.3,,TRUE,TRUE,,,,,,,,,,,,,,,,2.0,,,,,,,,,,,METAR,183.0
CXHA 271400Z AUTO 22010G15KT 21/17 RMK AO1 PK WND 21018/1314 SLP148 T02100170 50005,CXHA,2015-05-27T14:00:00Z,42.03,-82.9,21.0,17.0,220,10,15,,,1014.8,,TRUE,TRUE,,,,,,,,,,,,,,,,0.5,,,,,,,,,,,METAR,191.0
CWSS 271400Z AUTO 12005KT 18/13 RMK AO1 SLP195 T01760126 58001,CWSS,2015-05-27T14:00:00Z,45.2,-67.25,17.6,12.6,120,5,,,,1019.5,,TRUE,TRUE,,,,,,,,,,,,,,,,-0.1,,,,,,,,,,,METAR,26.0
CWRN 271400Z AUTO 22017G24KT 13/ RMK AO1 PK WND 20026/1306 T0134,CWRN,2015-05-27T14:00:00Z,45.35,-60.98,13.4,,220,17,24,,,,,TRUE,TRUE,,,,,,,,,,,,,,,,,,,,,,,,,,,METAR,8.0
CWBV 271400Z AUTO 23015KT 05/05 RMK AO1 PK WND 23018/1335 SLP225 T00540051 50004,CWBV,2015-05-27T14:00:00Z,44.82,-62.32,5.4,5.1,230,15,,,,1022.5,,TRUE,TRUE,,,,,,,,,,,,,,,,0.4,,,,,,,,,,,METAR,10.0
CWBY 271400Z AUTO 26006KT 11/11 RMK AO1 SLP183 T01120112 53015,CWBY,2015-05-27T14:00:00Z,49.82,-64.28,11.2,11.2,260,6,,,,1018.3,,TRUE,TRUE,,,,,,,,,,,,,,,,1.5,,,,,,,,,,,METAR,53.0
CWWE 271400Z AUTO 21009KT 10/08 RMK AO1 SLP230 T01000080 50003,CWWE,2015-05-27T14:00:00Z,43.97,-64.67,10.0,8.0,210,9,,,,1023.0,,TRUE,TRUE,,,,,,,,,,,,,,,,0.3,,,,,,,,,,,METAR,9.0
CWPK 271400Z AUTO 22007KT 19/18 RMK AO1 SLP106 T01870175 56009,CWPK,2015-05-27T14:00:00Z,47.92,-74.62,18.7,17.5,220,7,,,,1010.6,,TRUE,TRUE,,,,,,,,,,,,,,,,-0.9,,,,,,,,,,,METAR,442.0
CWDM 271400Z AUTO 14006KT 08/07 RMK AO1 SLP180 T00810073 53010,CWDM,2015-05-27T14:00:00Z,50.47,-59.62,8.1,7.3,140,6,,,,1018.0,,TRUE,TRUE,,,,,,,,,,,,,,,,1.0,,,,,,,,,,,METAR,6.0
CWXA 271400Z AUTO 23006G15KT 10/06 RMK AO1 SLP172 T00950056 58008,CWXA,2015-05-27T14:00:00Z,51.07,-115.07,9.5,5.6,230,6,15,,,1017.2,,TRUE,TRUE,,,,,,,,,,,,,,,,-0.8,,,,,,,,,,,METAR,1298.0
CWWF 271400Z AUTO 11012KT 14/10 RMK AO1 SLP145 T01420098 51012,CWWF,2015-05-27T14:00:00Z,49.7,-103.8,14.2,9.8,110,12,,,,1014.5,,TRUE,TRUE,,,,,,,,,,,,,,,,1.2,,,,,,,,,,,METAR,589.0
CWWA 271400Z AUTO 00000KT 15/12 RMK AO1 SLP180 T01480118 52009,CWWA,2015-05-27T14:00:00Z,49.35,-123.17,14.8,11.8,0,0,,,,1018.0,,TRUE,TRUE,,,,,,,,,,,,,,,,0.9,,,,,,,,,,,METAR,178.0
CYLK 271400Z 03011G18KT 25SM FEW012 OVC020 M01/M04 A3022 RMK SF1SC7 -2.0/6.0/0/NIL SLP247,CYLK,2015-05-27T14:00:00Z,62.42,-110.67,-1.0,-4.0,30,11,18,25.0,30.221457,,,,,,,,,,,FEW,1200,OVC,2000,,,,,MVFR,,,,,,,,,,,,METAR,179.0
CYHA 271400Z 27004KT 15SM FEW014 FEW020 M04/M06 A2996 RMK CF1SC1 TR SC SLP148,CYHA,2015-05-27T14:00:00Z,61.03,-69.62,-4.0,-6.0,270,4,,15.0,29.958662,1014.8,,,,,,,,,,FEW,1400,FEW,2000,,,,,VFR,,,,,,,,,,,,METAR,30.0
CYAM 271400Z 19005KT 8SM -DZ OVC007 13/13 A2969 RMK ST8 SLP056 DENSITY ALT 800FT,CYAM,2015-05-27T14:00:00Z,46.47,-84.52,13.0,13.0,190,5,,8.0,29.68996,1005.6,,,,,,,,,-DZ,OVC,700,,,,,,,IFR,,,,,,,,,,,,METAR,192.0
CYLU 271400Z 00000KT 15SM FEW025 BKN030 BKN240 01/M05 A2998 RMK SC2SC3CI2 SLP157,CYLU,2015-05-27T14:00:00Z,58.72,-65.97,1.0,-5.0,0,0,,15.0,29.97933,1015.7,,,,,,,,,,FEW,2500,BKN,3000,BKN,24000,,,MVFR,,,,,,,,,,,,METAR,60.0
CYPG 271400Z 33013KT 15SM BKN013 09/06 A3003 RMK SC4 SLP171,CYPG,2015-05-27T14:00:00Z,49.88,-98.27,9.0,6.0,330,13,,15.0,30.029528,1017.1,,,,,,,,,,BKN,1300,,,,,,,MVFR,,,,,,,,,,,,METAR,269.0
OIMB 271400Z 12004KT 8000 FEW035 SCT100 28/M00 Q1015,OIMB,2015-05-27T14:00:00Z,32.9,59.28,28.0,0.0,120,4,,4.97,29.970472,,,,,,,,,,,FEW,3500,SCT,10000,,,,,MVFR,,,,,,,,,,,,METAR,1491.0
YPWR 271400Z AUTO 35006KT 9999 // SCT050 16/09 Q1019,YPWR,2015-05-27T14:00:00Z,-31.12,136.82,16.0,9.0,350,6,,6.21,30.088583,,,TRUE,,,,,,,,SCT,5000,,,,,,,VFR,,,,,,,,,,,,METAR,167.0
YLHI 271400Z AUTO 00000KT 9999 // NCD 13/12 Q1024,YLHI,2015-05-27T14:00:00Z,,,13.0,12.0,0,0,,6.21,30.236221,,,TRUE,,,,,,,,,,,,,,,,,,,,,,,,,,,,METAR,
YCFS 271400Z AUTO 30007KT 9999 // BKN036 OVC069 15/13 Q1023,YCFS,2015-05-27T14:00:00Z,-30.32,153.12,15.0,13.0,300,7,,6.21,30.206694,,,TRUE,,,,,,,,BKN,3600,OVC,6900,,,,,VFR,,,,,,,,,,,,METAR,5.0
CWDJ 271400Z AUTO 09010KT 13/07 RMK AO1 SLP155 T01290068 51011,CWDJ,2015-05-27T14:00:00Z,50.4,-104.58,12.9,6.8,90,10,,,,1015.5,,TRUE,TRUE,,,,,,,,,,,,,,,,1.1,,,,,,,,,,,METAR,573.0
VTSP 271400Z 08002KT 9999 FEW018 SCT120 BKN300 26/24 Q1011 2986 NOSIG,VTSP,2015-05-27T14:00:00Z,8.12,98.32,26.0,24.0,80,2,,6.21,29.852362,,,,,,TRUE,,,,,FEW,1800,SCT,12000,BKN,30000,,,VFR,,,,,,,,,,,,SPECI,10.0
MHTG 271400Z 00000KT 9999 FEW028 BKN220 23/16 Q1021 A3015 NOSIG,MHTG,2015-05-27T14:00:00Z,14.07,-87.22,23.0,16.0,0,0,,6.21,30.147638,,,,,,TRUE,,,,,FEW,2800,BKN,22000,,,,,VFR,,,,,,,,,,,,METAR,1004.0
MHRO 271400Z 09016KT CAVOK 29/22 Q1015 A2997 NOSIG,MHRO,2015-05-27T14:00:00Z,16.32,-86.53,29.0,22.0,90,16,,6.21,29.970472,,,,,,TRUE,,,,,CAVOK,,,,,,,,VFR,,,,,,,,,,,,METAR,5.0
MHLM 271400Z 21004KT 9999 FEW026 BKN250 28/25 Q1014 A2995 NOSIG,MHLM,2015-05-27T14:00:00Z,15.45,-87.93,28.0,25.0,210,4,,6.21,29.940945,,,,,,TRUE,,,,,FEW,2600,BKN,25000,,,,,VFR,,,,,,,,,,,,METAR,26.0
SBMO 271400Z 11008KT 9999 BKN020 28/20 Q1015,SBMO,2015-05-27T14:00:00Z,-9.52,-35.77,28.0,20.0,110,8,,6.21,29.970472,,,,,,,,,,,BKN,2000,,,,,,,MVFR,,,,,,,,,,,,METAR,115.0
SBAR 271400Z 14012KT 9999 SCT015 BKN100 28/22 Q1016,SBAR,2015-05-27T14:00:00Z,-10.97,-37.07,28.0,22.0,140,12,,6.21,30.0,,,,,,,,,,,SCT,1500,BKN,10000,,,,,VFR,,,,,,,,,,,,METAR,9.0
MHCH 271400Z 04012KT 9999 FEW030 BKN250 31/21 HZ,MHCH,2015-05-27T14:00:00Z,13.32,-87.15,31.0,21.0,40,12,,6.21,,,,,,,,,,,HZ,FEW,3000,BKN,25000,,,,,VFR,,,,,,,,,,,,METAR,48.0
MHLE 271400Z 00000KT 9999 FEW020 BKN200 20/14 FU,MHLE,2015-05-27T14:00:00Z,14.32,-88.15,20.0,14.0,0,0,,6.21,,,,,,,,,,,FU,FEW,2000,BKN,20000,,,,,VFR,,,,,,,,,,,,METAR,1100.0
MHNO 271400Z 01009KT 9999 FEW040 SCT250 24/19 Q1018 FU,MHNO,2015-05-27T14:00:00Z,14.43,-89.18,24.0,19.0,10,9,,6.21,30.059055,,,,,,,,,,FU,FEW,4000,SCT,25000,,,,,VFR,,,,,,,,,,,,METAR,2.0
MHSR 271400Z 06002KT 9999 BKN020 BKN250 21/19 HZ,MHSR,2015-05-27T14:00:00Z,14.78,-88.78,21.0,19.0,60,2,,6.21,,,,,,,,,,,HZ,BKN,2000,BKN,25000,,,,,MVFR,,,,,,,,,,,,METAR,1079.0
MHCA 271400Z 00000KT 9999 FEW030 SCT200 26/19 Q1018,MHCA,2015-05-27T14:00:00Z,14.9,-85.78,26.0,19.0,0,0,,6.21,30.059055,,,,,,,,,,,FEW,3000,SCT,20000,,,,,VFR,,,,,,,,,,,,METAR,442.0
MHPL 271400Z 10005KT 9999 SCT028TCU 30/24 Q1014 TCU ALL HZ,MHPL,2015-05-27T14:00:00Z,15.27,-83.78,30.0,24.0,100,5,,6.21,29.940945,,,,,,,,,,HZ,SCT,2800,,,,,,,VFR,,,,,,,,,,,,METAR,13.0
MHYR 271400Z 25002KT 9999 SCT023 24/19 HZ,MHYR,2015-05-27T14:00:00Z,15.13,-87.12,24.0,19.0,250,2,,6.21,,,,,,,,,,,HZ,SCT,2300,,,,,,,VFR,,,,,,,,,,,,METAR,670.0
MHTE 271400Z 01004KT 9999 FEW026TCU 29/26 Q1012 TCU SW FU,MHTE,2015-05-27T14:00:00Z,15.78,-87.48,29.0,26.0,10,4,,6.21,29.88189,,,,,,,,,,FU,FEW,2600,,,,,,,VFR,,,,,,,,,,,,METAR,3.0
MHTR 271400Z 09002KT 9999 FEW028 SCT250 30/20 HZ,MHTR,2015-05-27T14:00:00Z,15.93,-85.93,30.0,20.0,90,2,,6.21,,,,,,,,,,,HZ,FEW,2800,SCT,25000,,,,,VFR,,,,,,,,,,,,METAR,3.0
MHAM 271400Z 04003KT CAVOK 30/22,MHAM,2015-05-27T14:00:00Z,13.27,-87.65,30.0,22.0,40,3,,6.21,,,,,,,,,,,,CAVOK,,,,,,,,VFR,,,,,,,,,,,,METAR,5.0
HEMA 271400Z 36007KT CAVOK 38/08 Q1009 NOSIG,HEMA,2015-05-27T14:00:00Z,25.55,34.58,38.0,8.0,360,7,,6.21,29.793306,,,,,,TRUE,,,,,CAVOK,,,,,,,,VFR,,,,,,,,,,,,METAR,77.0
HESG 271400Z 08009KT CAVOK 45/03 Q1006 NOSIG,HESG,2015-05-27T14:00:00Z,26.33,31.75,45.0,3.0,80,9,,6.21,29.704725,,,,,,TRUE,,,,,CAVOK,,,,,,,,VFR,,,,,,,,,,,,METAR,70.0
HESC 271400Z 28014KT CAVOK 33/02 Q1022 NOSIG,HESC,2015-05-27T14:00:00Z,28.68,34.07,33.0,2.0,280,14,,6.21,30.177166,,,,,,TRUE,,,,,CAVOK,,,,,,,,VFR,,,,,,,,,,,,METAR,1332.0
HEBL 271400Z 05008KT CAVOK 42/06 Q1008 NOSIG,HEBL,2015-05-27T14:00:00Z,22.38,31.62,42.0,6.0,50,8,,6.21,29.763779,,,,,,TRUE,,,,,CAVOK,,,,,,,,VFR,,,,,,,,,,,,METAR,188.0
HEBA 271400Z 36015KT 3000 SA NSC 33/11 Q1005 NOSIG,HEBA,2015-05-27T14:00:00Z,30.92,29.7,33.0,11.0,360,15,,1.86,29.675198,,,,,,TRUE,,,,SA,,,,,,,,,,,,,,,,,,,,,SPECI,54.0
HEAT 271400Z 25007KT CAVOK 46/14 Q1008 NOSIG,HEAT,2015-05-27T14:00:00Z,27.05,31.02,46.0,14.0,250,7,,6.21,29.763779,,,,,,TRUE,,,,,CAVOK,,,,,,,,VFR,,,,,,,,,,,,METAR,70.0
HESH 271400Z 17011KT CAVOK 38/08 Q1007 NOSIG,HESH,2015-05-27T14:00:00Z,27.97,34.38,38.0,8.0,170,11,,6.21,29.734253,,,,,,TRUE,,,,,CAVOK,,,,,,,,VFR,,,,,,,,,,,,METAR,50.0
HEPS 271400Z 35005KT CAVOK 29/22 Q1004 NOSIG,HEPS,2015-05-27T14:00:00Z,31.28,32.25,29.0,22.0,350,5,,6.21,29.64567,,,,,,TRUE,,,,,CAVOK,,,,,,,,VFR,,,,,,,,,,,,METAR,6.0
HEGN 271400Z 12009KT CAVOK 38/18 Q1007 NOSIG,HEGN,2015-05-27T14:00:00Z,27.18,33.8,38.0,18.0,120,9,,6.21,29.734253,,,,,,TRUE,,,,,CAVOK,,,,,,,,VFR,,,,,,,,,,,,METAR,14.0
HEAR 271400Z 23010KT CAVOK 46/M03 Q1003 NOSIG,HEAR,2015-05-27T14:00:00Z,31.07,33.82,46.0,-3.0,230,10,,6.21,29.616142,,,,,,TRUE,,,,,CAVOK,,,,,,,,VFR,,,,,,,,,,,,METAR,32.0
HESN 271400Z 17004KT CAVOK 45/M02 Q1007 NOSIG,HESN,2015-05-27T14:00:00Z,23.97,32.82,45.0,-2.0,170,4,,6.21,29.734253,,,,,,TRUE,,,,,CAVOK,,,,,,,,VFR,,,,,,,,,,,,METAR,194.0
HELX 271400Z 28006KT CAVOK 44/14 Q1007 NOSIG,HELX,2015-05-27T14:00:00Z,25.67,32.7,44.0,14.0,280,6,,6.21,29.734253,,,,,,TRUE,,,,,CAVOK,,,,,,,,VFR,,,,,,,,,,,,METAR,88.0
HEAX 271400Z 35013KT 6000 NSC 31/10 Q1005 NOSIG,HEAX,2015-05-27T14:00:00Z,31.18,29.93,31.0,10.0,350,13,,3.73,29.675198,,,,,,TRUE,,,,,,,,,,,,,,,,,,,,,,,,,SPECI,7.0
HEMM 271400Z 33018KT 5000 SA NSC 35/10 Q1008 NOSIG,HEMM,2015-05-27T14:00:00Z,31.32,27.22,35.0,10.0,330,18,,3.11,29.763779,,,,,,TRUE,,,,SA,,,,,,,,,,,,,,,,,,,,,SPECI,30.0
CWSF 271400Z AUTO 30003KT 10/10 RMK AO1 SLP177 T01010095 58001,CWSF,2015-05-27T14:00:00Z,49.25,-65.32,10.1,9.5,300,3,,,,1017.7,,TRUE,TRUE,,,,,,,,,,,,,,,,-0.1,,,,,,,,,,,METAR,29.0
CWNH 271400Z AUTO 35002KT 12/12 RMK AO1 SLP156 T01220117 57012,CWNH,2015-05-27T14:00:00Z,47.78,-69.53,12.2,11.7,350,2,,,,1015.6,,TRUE,TRUE,,,,,,,,,,,,,,,,-1.2,,,,,,,,,,,METAR,148.0
NFFN 271400Z 09006KT 9999 FEW030 21/16 Q1016 NOSIG,NFFN,2015-05-27T14:00:00Z,-17.75,177.45,21.0,16.0,90,6,,6.21,30.0,,,,,,TRUE,,,,,FEW,3000,,,,,,,VFR,,,,,,,,,,,,METAR,18.0
GVNP 271400Z 04020KT 9999 FEW017 27/18 Q1015 NOSIG,GVNP,2015-05-27T14:00:00Z,14.95,-23.48,27.0,18.0,40,20,,6.21,29.970472,,,,,,TRUE,,,,,FEW,1700,,,,,,,VFR,,,,,,,,,,,,METAR,70.0
HRYR 271400Z 30005KT 9999 FEW023CB SCT025 25/18 Q1019 NOSIG,HRYR,2015-05-27T14:00:00Z,-1.97,30.12,25.0,18.0,300,5,,6.21,30.088583,,,,,,TRUE,,,,,FEW,2300,SCT,2500,,,,,VFR,,,,,,,,,,,,METAR,1497.0
ORNI 271400Z 31011KT CAVOK 39/M05 Q1008 NOSIG,ORNI,2015-05-27T14:00:00Z,31.98,44.4,39.0,-5.0,310,11,,6.21,29.763779,,,,,,TRUE,,,,,CAVOK,,,,,,,,VFR,,,,,,,,,,,,METAR,53.0
FMMI 271400Z VRB03KT 9999 SCT020 SCT023 19/14 Q1024 NOSIG,FMMI,2015-05-27T14:00:00Z,-18.8,47.47,19.0,14.0,0,3,,6.21,30.236221,,,,,,TRUE,,,,,SCT,2000,SCT,2300,,,,,VFR,,,,,,,,,,,,METAR,1276.0
SBCG 271400Z 26009KT 230V320 9999 FEW015 BKN023 FEW030TCU 26/20 Q1017,SBCG,2015-05-27T14:00:00Z,-20.47,-54.67,26.0,20.0,260,9,,6.21,30.029528,,,,,,,,,,,FEW,1500,BKN,2300,FEW,3000,,,MVFR,,,,,,,,,,,,METAR,567.0
SBRF 271400Z 12007KT 9999 FEW025 30/23 Q1014,SBRF,2015-05-27T14:00:00Z,-8.13,-34.92,30.0,23.0,120,7,,6.21,29.940945,,,,,,,,,,,FEW,2500,,,,,,,VFR,,,,,,,,,,,,METAR,19.0
TAPA 271400Z 11006KT 9999 SCT020 28/22 Q1015 NOSIG,TAPA,2015-05-27T14:00:00Z,17.12,-61.78,28.0,22.0,110,6,,6.21,29.970472,,,,,,TRUE,,,,,SCT,2000,,,,,,,VFR,,,,,,,,,,,,METAR,14.0
SBNT 271400Z /////KT 9999 FEW025 SCT049 30/21 Q1013,SBNT,2015-05-27T14:00:00Z,-5.92,-35.25,30.0,21.0,,,,6.21,29.911417,,,,,,,,,,,FEW,2500,SCT,4900,,,,,VFR,,,,,,,,,,,,METAR,49.0
YSCB 271400Z AUTO 17004KT 0500 // ////// 04/04 Q1023,YSCB,2015-05-27T14:00:00Z,-35.28,149.17,4.0,4.0,170,4,,0.31,30.206694,,,TRUE,,,,,,,,,,,,,,,,,,,,,,,,,,,,METAR,577.0
GLRB 271400Z 24012KT 9999 BKN024 32/25 Q1011 NOSIG,GLRB,2015-05-27T14:00:00Z,6.25,-10.33,32.0,25.0,240,12,,6.21,29.852362,,,,,,TRUE,,,,,BKN,2400,,,,,,,MVFR,,,,,,,,,,,,METAR,18.0
SBGO 271400Z 02005KT CAVOK 27/12 Q1019,SBGO,2015-05-27T14:00:00Z,-16.62,-49.22,27.0,12.0,20,5,,6.21,30.088583,,,,,,,,,,,CAVOK,,,,,,,,VFR,,,,,,,,,,,,METAR,747.0
FBSK 271400Z 35004KT 310V030 CAVOK 29/M06 Q1021 NOSIG,FBSK,2015-05-27T14:00:00Z,-24.55,25.92,29.0,-6.0,350,4,,6.21,30.147638,,,,,,TRUE,,,,,CAVOK,,,,,,,,VFR,,,,,,,,,,,,METAR,1005.0
GQNN 271400Z 33011KT 8000 NSC 29/14 Q1012 NOSIG,GQNN,2015-05-27T14:00:00Z,18.1,-15.93,29.0,14.0,330,11,,4.97,29.88189,,,,,,TRUE,,,,,,,,,,,,,,,,,,,,,,,,,METAR,3.0
FIMP 271400Z 12005KT 9999 BKN016 BKN050 24/19 Q1019,FIMP,2015-05-27T14:00:00Z,-20.42,57.67,24.0,19.0,120,5,,6.21,30.088583,,,,,,,,,,,BKN,1600,BKN,5000,,,,,MVFR,,,,,,,,,,,,METAR,57.0
YHID 271400Z AUTO 13015KT 9999 // OVC014 26/24 Q1011,YHID,2015-05-27T14:00:00Z,-10.58,142.3,26.0,24.0,130,15,,6.21,29.852362,,,TRUE,,,,,,,,OVC,1400,,,,,,,MVFR,,,,,,,,,,,,METAR,13.0
FQNP 271400Z 12005KT 9999 FEW020 BKN100 29/16 Q1017,FQNP,2015-05-27T14:00:00Z,-15.08,39.27,29.0,16.0,120,5,,6.21,30.029528,,,,,,,,,,,FEW,2000,BKN,10000,,,,,VFR,,,,,,,,,,,,METAR,441.0
NGFU 271400Z 09007KT 9999 VCSH SCT018CB BKN110 29/26 Q1010 REL,NGFU,2015-05-27T14:00:00Z,-8.52,179.22,29.0,26.0,90,7,,6.21,29.822834,,,,,,,,,,VCSH,SCT,1800,BKN,11000,,,,,VFR,,,,,,,,,,,,METAR,1.0
MMCB 271400Z 00000KT 10SM SCT080 22/15 A3019 RMK 8/070,MMCB,2015-05-27T14:00:00Z,18.83,-99.27,22.0,15.0,0,0,,10.0,30.188976,,,,,,,,,,,SCT,8000,,,,,,,VFR,,,,,,,,,,,,METAR,1560.0
UBBN 271400Z VRB02KT 9999 FEW050CB BKN100 28/04 Q1011 R14R/CLRD60 NOSIG RMK MT OP QFE683,UBBN,2015-05-27T14:00:00Z,39.18,45.45,28.0,4.0,0,2,,6.21,29.852362,,,,,,TRUE,,,,,FEW,5000,BKN,10000,,,,,VFR,,,,,,,,,,,,METAR,873.0
LFVP 271400Z 24016KT 0450 R26/1000U FG VV/// 08/08 Q1021 NOSIG,LFVP,2015-05-27T14:00:00Z,46.77,-56.18,8.0,8.0,240,16,,0.28,30.147638,,,,,,TRUE,,,,FG,OVX,0,,,,,,,LIFR,,,,,,,,,,,,METAR,8.0
SBNF 271400Z 11010KT 5000 BR FEW004 BKN006 BKN020 23/22 Q1013,SBNF,2015-05-27T14:00:00Z,-26.88,-48.65,23.0,22.0,110,10,,3.11,29.911417,,,,,,,,,,BR,FEW,400,BKN,600,BKN,2000,,,IFR,,,,,,,,,,,,METAR,5.0
YNWN 271400Z AUTO 01009KT 9999 // BKN005 OVC083 16/12 Q1018,YNWN,2015-05-27T14:00:00Z,-23.42,119.8,16.0,12.0,10,9,,6.21,30.059055,,,TRUE,,,,,,,,BKN,500,OVC,8300,,,,,IFR,,,,,,,,,,,,METAR,525.0
LUKK 271400Z 24010KT 9999 SCT049 26/08 Q1003 R26/65D NOSIG,LUKK,2015-05-27T14:00:00Z,46.93,28.93,26.0,8.0,240,10,,6.21,29.616142,,,,,,TRUE,,,,,SCT,4900,,,,,,,VFR,,,,,,,,,,,,METAR,122.0
LDOS 271400Z 32014KT 9999 FEW027 SCT033 16/07 Q1015,LDOS,2015-05-27T14:00:00Z,45.47,18.82,16.0,7.0,320,14,,6.21,29.970472,,,,,,,,,,,FEW,2700,SCT,3300,,,,,VFR,,,,,,,,,,,,METAR,89.0
LDRI 271400Z 06014G26KT 350V120 9999 FEW050 SCT075 19/04 Q1015,LDRI,2015-05-27T14:00:00Z,45.22,14.57,19.0,4.0,60,14,26,6.21,29.970472,,,,,,,,,,,FEW,5000,SCT,7500,,,,,VFR,,,,,,,,,,,,METAR,85.0
LDZD 271400Z 05008KT 340V110 9999 FEW040 SCT075 20/05 Q1014 NOSIG,LDZD,2015-05-27T14:00:00Z,44.1,15.37,20.0,5.0,50,8,,6.21,29.940945,,,,,,TRUE,,,,,FEW,4000,SCT,7500,,,,,VFR,,,,,,,,,,,,METAR,84.0
LDZA 271400Z 04007KT 330V120 CAVOK 18/03 Q1017 NOSIG,LDZA,2015-05-27T14:00:00Z,45.72,16.07,18.0,3.0,40,7,,6.21,30.029528,,,,,,TRUE,,,,,CAVOK,,,,,,,,VFR,,,,,,,,,,,,METAR,107.0
LDDU 271400Z 01018G28KT 330V070 9999 FEW040 23/07 Q1009 NOSIG,LDDU,2015-05-27T14:00:00Z,42.57,18.27,23.0,7.0,10,18,28,6.21,29.793306,,,,,,TRUE,,,,,FEW,4000,,,,,,,VFR,,,,,,,,,,,,METAR,165.0
LDPL 271400Z 07010KT 020V100 9999 FEW059 20/06 Q1015 NOSIG,LDPL,2015-05-27T14:00:00Z,44.88,13.92,20.0,6.0,70,10,,6.21,29.970472,,,,,,TRUE,,,,,FEW,5900,,,,,,,VFR,,,,,,,,,,,,METAR,63.0
LDSP 271400Z 04009KT 350V140 CAVOK 22/03 Q1012 NOSIG,LDSP,2015-05-27T14:00:00Z,43.52,16.3,22.0,3.0,40,9,,6.21,29.88189,,,,,,TRUE,,,,,CAVOK,,,,,,,,VFR,,,,,,,,,,,,METAR,21.0
SBRJ 271400Z 16005KT 6000 NSC 22/20 Q1015,SBRJ,2015-05-27T14:00:00Z,-22.88,-43.17,22.0,20.0,160,5,,3.73,29.970472,,,,,,,,,,,,,,,,,,,,,,,,,,,,,,,METAR,3.0
UBBY 271400Z VRB02KT 9999 FEW100 30/08 Q1011 R33/////// NOSIG RMK MT OP,UBBY,2015-05-27T14:00:00Z,41.57,46.67,30.0,8.0,0,2,,6.21,29.852362,,,,,,TRUE,,,,,FEW,10000,,,,,,,VFR,,,,,,,,,,,,METAR,390.0
SKRG 271400Z 00000KT 9999 SCT010 BKN080 16/14 A3032,SKRG,2015-05-27T14:00:00Z,6.17,-75.42,16.0,14.0,0,0,,6.21,30.318897,,,,,,,,,,,SCT,1000,BKN,8000,,,,,VFR,,,,,,,,,,,,METAR,2137.0
GQPP 271400Z 32017KT 8000 NSC 22/16 Q1015 NOSIG,GQPP,2015-05-27T14:00:00Z,20.92,-17.02,22.0,16.0,320,17,,4.97,29.970472,,,,,,TRUE,,,,,,,,,,,,,,,,,,,,,,,,,METAR,3.0
SBGR 271400Z 01007KT CAVOK 25/18 Q1018,SBGR,2015-05-27T14:00:00Z,-23.42,-46.47,25.0,18.0,10,7,,6.21,30.059055,,,,,,,,,,,CAVOK,,,,,,,,VFR,,,,,,,,,,,,METAR,750.0
MBGT 271400Z 10010KT 9999 BKN018 25/21 Q1017,MBGT,2015-05-27T14:00:00Z,21.43,-71.15,25.0,21.0,100,10,,6.21,30.029528,,,,,,,,,,,BKN,1800,,,,,,,MVFR,,,,,,,,,,,,METAR,4.0
UBBQ 271400Z 32003KT 9999 FEW050CB 31/14 Q1008 R34/CLRD70 NOSIG RMK MT PT OBSC,UBBQ,2015-05-27T14:00:00Z,40.82,47.72,31.0,14.0,320,3,,6.21,29.763779,,,,,,TRUE,,,,,FEW,5000,,,,,,,VFR,,,,,,,,,,,,METAR,338.0
SBLO 271400Z 02008KT 9999 FEW030 25/20 Q1016,SBLO,2015-05-27T14:00:00Z,-23.32,-51.12,25.0,20.0,20,8,,6.21,30.0,,,,,,,,,,,FEW,3000,,,,,,,VFR,,,,,,,,,,,,METAR,570.0
SYGO 271400Z 05006KT 9999 SCT020 SCT300 28/23 Q1014 NOSIG,SYGO,2015-05-27T14:00:00Z,6.8,-58.1,28.0,23.0,50,6,,6.21,29.940945,,,,,,TRUE,,,,,SCT,2000,SCT,30000,,,,,VFR,,,,,,,,,,,,METAR,10.0
GABS 271400Z 03005KT 290V100 CAVOK 40/07 Q1011 NOSIG,GABS,2015-05-27T14:00:00Z,12.52,-7.95,40.0,7.0,30,5,,6.21,29.852362,,,,,,TRUE,,,,,CAVOK,,,,,,,,VFR,,,,,,,,,,,,METAR,381.0
OEKK 271400Z 32010KT CAVOK 42/11 Q1010 NOSIG,OEKK,2015-05-27T14:00:00Z,27.88,45.52,42.0,11.0,320,10,,6.21,29.822834,,,,,,TRUE,,,,,CAVOK,,,,,,,,VFR,,,,,,,,,,,,METAR,413.0
OEKJ 271400Z VRB06KT 9999 FEW050 42/02 Q1012,OEKJ,2015-05-27T14:00:00Z,24.07,47.58,42.0,2.0,0,6,,6.21,29.88189,,,,,,,,,,,FEW,5000,,,,,,,VFR,,,,,,,,,,,,METAR,503.0
OEHL 271400Z 06006KT CAVOK 36/00 Q1015 NOSIG,OEHL,2015-05-27T14:00:00Z,27.42,41.67,36.0,0.0,60,6,,6.21,29.970472,,,,,,TRUE,,,,,CAVOK,,,,,,,,VFR,,,,,,,,,,,,METAR,1013.0
OEGT 271400Z 22004KT CAVOK 39/M04 Q1009 NOSIG,OEGT,2015-05-27T14:00:00Z,31.42,37.27,39.0,-4.0,220,4,,6.21,29.793306,,,,,,TRUE,,,,,CAVOK,,,,,,,,VFR,,,,,,,,,,,,METAR,499.0
OEGS 271400Z 01004KT 9999 SCT040 40/12 Q1011,OEGS,2015-05-27T14:00:00Z,26.3,43.77,40.0,12.0,10,4,,6.21,29.852362,,,,,,,,,,,SCT,4000,,,,,,,VFR,,,,,,,,,,,,METAR,650.0
OEGN 271400Z 29014KT 9999 FEW030 36/26 Q1006 NOSIG,OEGN,2015-05-27T14:00:00Z,16.88,42.57,36.0,26.0,290,14,,6.21,29.704725,,,,,,TRUE,,,,,FEW,3000,,,,,,,VFR,,,,,,,,,,,,METAR,3.0
OEDM 271400Z 34003KT 9999 SCT040 38/02 Q1014,OEDM,2015-05-27T14:00:00Z,24.45,44.12,38.0,2.0,340,3,,6.21,29.940945,,,,,,,,,,,SCT,4000,,,,,,,VFR,,,,,,,,,,,,METAR,922.0
OEBH 271400Z 05010KT 9999 SCT030 36/08 Q1015 NOSIG,OEBH,2015-05-27T14:00:00Z,19.97,42.62,36.0,8.0,50,10,,6.21,29.970472,,,,,,TRUE,,,,,SCT,3000,,,,,,,VFR,,,,,,,,,,,,METAR,1157.0
OEBA 271400Z 11006KT 9999 FEW030 31/10 Q1019 NOSIG,OEBA,2015-05-27T14:00:00Z,20.3,41.62,31.0,10.0,110,6,,6.21,30.088583,,,,,,TRUE,,,,,FEW,3000,,,,,,,VFR,,,,,,,,,,,,METAR,1656.0
OEAR 271400Z 27013KT 6000 SCT040 41/12 Q1006,OEAR,2015-05-27T14:00:00Z,,,41.0,12.0,270,13,,3.73,29.704725,,,,,,,,,,,SCT,4000,,,,,,,MVFR,,,,,,,,,,,,METAR,
OEAO 271400Z 18008KT CAVOK 41/M08 Q1012,OEAO,2015-05-27T14:00:00Z,26.48,38.12,41.0,-8.0,180,8,,6.21,29.88189,,,,,,,,,,,CAVOK,,,,,,,,VFR,,,,,,,,,,,,METAR,624.0
OEAH 271400Z 33008KT 7000 SKC 42/03 Q1006 NOSIG,OEAH,2015-05-27T14:00:00Z,25.27,49.47,42.0,3.0,330,8,,4.35,29.704725,,,,,,TRUE,,,,,SKC,,,,,,,,MVFR,,,,,,,,,,,,METAR,172.0
OEAB 271400Z 08011KT 9999 TS SCT025 FEW030CB 24/09 Q1023 NOSIG,OEAB,2015-05-27T14:00:00Z,18.22,42.63,24.0,9.0,80,11,,6.21,30.206694,,,,,,TRUE,,,,TS,SCT,2500,FEW,3000,,,,,VFR,,,,,,,,,,,,METAR,2084.0
VTSM 271400Z 30008KT 8000 -TSRA SCT020CB SCT120 BKN300 26/23 Q1011 A2986,VTSM,2015-05-27T14:00:00Z,9.55,100.07,26.0,23.0,300,8,,4.97,29.852362,,,,,,,,,,-TSRA,SCT,2000,SCT,12000,BKN,30000,,,MVFR,,,,,,,,,,,,METAR,17.0
FGBT 271400Z 16008KT 100V190 6000 -TSRA OVC010 FEW020CB 25/24 Q1009 TEMPO TS,FGBT,2015-05-27T14:00:00Z,1.88,9.8,25.0,24.0,160,8,,3.73,29.793306,,,,,,,,,,-TSRA,OVC,1000,FEW,2000,,,,,MVFR,,,,,,,,,,,,SPECI,8.0
FGSL 271400Z VRB02KT 9999 SCT010 FEW020CB 30/26 Q1010 NOSIG,FGSL,2015-05-27T14:00:00Z,3.75,8.72,30.0,26.0,0,2,,6.21,29.822834,,,,,,TRUE,,,,,SCT,1000,FEW,2000,,,,,VFR,,,,,,,,,,,,METAR,56.0
FOOG 271400Z /////KT 9999 FEW016TCU SCT030 28/24 Q1010,FOOG,2015-05-27T14:00:00Z,-0.7,8.75,28.0,24.0,,,,6.21,29.822834,,,,,,,,,,,FEW,1600,SCT,3000,,,,,VFR,,,,,,,,,,,,SPECI,4.0
FOON 271400Z /////KT 8000 SCT020 30/23 Q1009,FOON,2015-05-27T14:00:00Z,-1.63,13.42,30.0,23.0,,,,4.97,29.793306,,,,,,,,,,,SCT,2000,,,,,,,MVFR,,,,,,,,,,,,SPECI,441.0
FPST 271400Z 17016KT 9999 FEW020 BKN040 30/26 Q1011 NOSIG,FPST,2015-05-27T14:00:00Z,0.37,6.72,30.0,26.0,170,16,,6.21,29.852362,,,,,,TRUE,,,,,FEW,2000,BKN,4000,,,,,VFR,,,,,,,,,,,,METAR,13.0
UTAA 271400Z 10006MPS 9999 SCT050CB BKN050 OVC200 32/01 Q1008 TEMPO VRB14MPS 3000 -TSRA,UTAA,2015-05-27T14:00:00Z,37.98,58.37,32.0,1.0,100,12,,6.21,29.763779,,,,,,,,,,,SCT,5000,BKN,5000,OVC,20000,,,VFR,,,,,,,,,,,,METAR,210.0
LZSL 271400Z 35016KT 300V030 9999 FEW045 14/04 Q1014,LZSL,2015-05-27T14:00:00Z,48.63,19.13,14.0,4.0,350,16,,6.21,29.940945,,,,,,,,,,,FEW,4500,,,,,,,VFR,,,,,,,,,,,,METAR,313.0
LZPP 271400Z 35015KT 9999 BKN046 14/05 Q1016,LZPP,2015-05-27T14:00:00Z,48.62,17.83,14.0,5.0,350,15,,6.21,30.0,,,,,,,,,,,BKN,4600,,,,,,,VFR,,,,,,,,,,,,METAR,161.0
LBGO 271400Z AUTO 22009KT 9999 BKN110/// 22/15 Q1005 NOSIG,LBGO,2015-05-27T14:00:00Z,43.15,25.72,22.0,15.0,220,9,,6.21,29.675198,,,TRUE,,,TRUE,,,,,,,,,,,,,,,,,,,,,,,,,METAR,86.0
LBPD 271400Z AUTO 03005KT 360V060 9999 -SHRA FEW035/// SCT066/// OVC075/// 21/12 Q1005 NOSIG,LBPD,2015-05-27T14:00:00Z,42.13,24.8,21.0,12.0,30,5,,6.21,29.675198,,,TRUE,,,TRUE,,,,-SHRA,,,,,,,,,,,,,,,,,,,,,METAR,185.0
LBBG 271400Z 10008KT 9999 -SHRA SCT020 SCT030TCU BKN040 18/16 Q1005 NOSIG,LBBG,2015-05-27T14:00:00Z,42.57,27.52,18.0,16.0,100,8,,6.21,29.675198,,,,,,TRUE,,,,-SHRA,SCT,2000,SCT,3000,BKN,4000,,,VFR,,,,,,,,,,,,METAR,28.0
LBWN 271400Z 12010KT 9999 VCSH FEW013 SCT036CB SCT040 19/17 Q1005 NOSIG,LBWN,2015-05-27T14:00:00Z,43.22,27.82,19.0,17.0,120,10,,6.21,29.675198,,,,,,TRUE,,,,VCSH,FEW,1300,SCT,3600,SCT,4000,,,VFR,,,,,,,,,,,,METAR,43.0
LBSF 271400Z 28020KT 9999 FEW022 SCT060 17/11 Q1009 TEMPO 28020G30KT,LBSF,2015-05-27T14:00:00Z,42.65,23.38,17.0,11.0,280,20,,6.21,29.793306,,,,,,,,,,,FEW,2200,SCT,6000,,,,,VFR,,,,,,,,,,,,METAR,595.0
MNMG 271400Z 12004KT 9999 FEW021 BKN300 28/22 Q1013 A2992 NOSIG,MNMG,2015-05-27T14:00:00Z,12.15,-86.17,28.0,22.0,120,4,,6.21,29.911417,,,,,,TRUE,,,,,FEW,2100,BKN,30000,,,,,VFR,,,,,,,,,,,,METAR,59.0
TFFR 271400Z AUTO VRB05KT 9999 BKN031 BKN039 BKN062 29/20 Q1015,TFFR,2015-05-27T14:00:00Z,16.27,-61.53,29.0,20.0,0,5,,6.21,29.970472,,,TRUE,,,,,,,,BKN,3100,BKN,3900,BKN,6200,,,VFR,,,,,,,,,,,,METAR,11.0
TBPB 271400Z 08013KT 9999 FEW018 BKN300 29/22 Q1015 NOSIG,TBPB,2015-05-27T14:00:00Z,13.07,-59.48,29.0,22.0,80,13,,6.21,29.970472,,,,,,TRUE,,,,,FEW,1800,BKN,30000,,,,,VFR,,,,,,,,,,,,METAR,52.0
WSSL 271400Z VRB02KT 9999 FEW018 BKN300 28/25 Q1010 RETS RMK 1330Z Q1010,WSSL,2015-05-27T14:00:00Z,1.42,103.87,28.0,25.0,0,2,,6.21,29.822834,,,,,,,,,,,FEW,1800,BKN,30000,,,,,VFR,,,,,,,,,,,,METAR,14.0
SBMN 271400Z 17002KT 9999 SCT015 BKN100 28/24 Q1014,SBMN,2015-05-27T14:00:00Z,-3.13,-59.97,28.0,24.0,170,2,,6.21,29.940945,,,,,,,,,,,SCT,1500,BKN,10000,,,,,VFR,,,,,,,,,,,,METAR,84.0
NTAA 271400Z AUTO 07003KT 9999 SCT064/// BKN076/// OVC094/// 26/21 Q1015,NTAA,2015-05-27T14:00:00Z,-17.55,-149.62,26.0,21.0,70,3,,6.21,29.970472,,,TRUE,,,,,,,,,,,,,,,,,,,,,,,,,,,,METAR,2.0
SBKP 271400Z 01011KT CAVOK 25/15 Q1018,SBKP,2015-05-27T14:00:00Z,-23.0,-47.12,25.0,15.0,10,11,,6.21,30.059055,,,,,,,,,,,CAVOK,,,,,,,,VFR,,,,,,,,,,,,METAR,661.0
SBSN 271400Z 09003KT 9999 FEW023 BKN100 28/25 Q1014,SBSN,2015-05-27T14:00:00Z,-2.42,-54.78,28.0,25.0,90,3,,6.21,29.940945,,,,,,,,,,,FEW,2300,BKN,10000,,,,,VFR,,,,,,,,,,,,METAR,72.0
NWWW 271400Z AUTO 00000KT 9999 NSC 16/13 Q1020,NWWW,2015-05-27T14:00:00Z,-22.02,166.22,16.0,13.0,0,0,,6.21,30.11811,,,TRUE,,,,,,,,,,,,,,,,,,,,,,,,,,,,METAR,16.0
YCCY 271400Z AUTO 14009KT //// // ////// 24/09 Q1017,YCCY,2015-05-27T14:00:00Z,-20.67,140.5,24.0,9.0,140,9,,,30.029528,,,TRUE,,,,,,,,,,,,,,,,,,,,,,,,,,,,METAR,570.0
YCBP 271400Z AUTO 05004KT //// // BKN083 OVC110 17/14 Q1020,YCBP,2015-05-27T14:00:00Z,-29.03,134.72,17.0,14.0,50,4,,,30.11811,,,TRUE,,,,,,,,BKN,8300,OVC,11000,,,,,,,,,,,,,,,,,METAR,226.0
YCBB 271400Z AUTO 35005KT //// // ////// 12/11 Q1024,YCBB,2015-05-27T14:00:00Z,-31.33,149.27,12.0,11.0,350,5,,,30.236221,,,TRUE,,,,,,,,,,,,,,,,,,,,,,,,,,,,METAR,645.0
YCBA 271400Z AUTO 04006KT //// // ////// 15/13 Q1022,YCBA,2015-05-27T14:00:00Z,-31.53,145.8,15.0,13.0,40,6,,,30.177166,,,TRUE,,,,,,,,,,,,,,,,,,,,,,,,,,,,METAR,221.0
YCAS 271400Z AUTO 31004KT //// // ////// 12/11 Q1024,YCAS,2015-05-27T14:00:00Z,-28.88,153.07,12.0,11.0,310,4,,,30.236221,,,TRUE,,,,,,,,,,,,,,,,,,,,,,,,,,,,METAR,26.0
YCAR 271400Z AUTO 18015KT 9999 // NCD 20/13 Q1016,YCAR,2015-05-27T14:00:00Z,-24.88,113.67,20.0,13.0,180,15,,6.21,30.0,,,TRUE,,,,,,,,,,,,,,,,,,,,,,,,,,,,METAR,8.0
YBWX 271400Z AUTO 08016KT //// // ////// 22/19 Q1014,YBWX,2015-05-27T14:00:00Z,-20.88,115.4,22.0,19.0,80,16,,,29.940945,,,TRUE,,,,,,,,,,,,,,,,,,,,,,,,,,,,METAR,6.0
YBWP 271400Z AUTO 15004KT 9999 // BKN031 24/21 Q1013,YBWP,2015-05-27T14:00:00Z,-12.68,141.92,24.0,21.0,150,4,,6.21,29.911417,,,TRUE,,,,,,,,BKN,3100,,,,,,,VFR,,,,,,,,,,,,METAR,12.0
YBUD 271400Z AUTO 17006KT 9999 // SCT042 16/15 Q1022,YBUD,2015-05-27T14:00:00Z,-24.9,152.32,16.0,15.0,170,6,,6.21,30.177166,,,TRUE,,,,,,,,SCT,4200,,,,,,,VFR,,,,,,,,,,,,METAR,82.0
YBTL 271400Z AUTO 13007KT 9999 // BKN065 22/19 Q1018,YBTL,2015-05-27T14:00:00Z,-19.25,146.75,22.0,19.0,130,7,,6.21,30.059055,,,TRUE,,,,,,,,BKN,6500,,,,,,,VFR,,,,,,,,,,,,METAR,6.0
LUBL 271400Z 29018KT 9999 FEW044 18/12 Q1006,LUBL,2015-05-27T14:00:00Z,47.83,27.78,18.0,12.0,290,18,,6.21,29.704725,,,,,,,,,,,FEW,4400,,,,,,,VFR,,,,,,,,,,,,METAR,232.0
OERK 271400Z 35007KT 8000 SCT040 40/02 Q1012 NOSIG,OERK,2015-05-27T14:00:00Z,24.95,46.72,40.0,2.0,350,7,,4.97,29.88189,,,,,,TRUE,,,,,SCT,4000,,,,,,,MVFR,,,,,,,,,,,,METAR,612.0
OEMA 271400Z 27010KT CAVOK 42/M09 Q1012 NOSIG,OEMA,2015-05-27T14:00:00Z,24.55,39.7,42.0,-9.0,270,10,,6.21,29.88189,,,,,,TRUE,,,,,CAVOK,,,,,,,,VFR,,,,,,,,,,,,METAR,631.0
OEJN 271400Z 29012KT CAVOK 37/10 Q1006 NOSIG,OEJN,2015-05-27T14:00:00Z,21.68,39.15,37.0,10.0,290,12,,6.21,29.704725,,,,,,TRUE,,,,,CAVOK,,,,,,,,VFR,,,,,,,,,,,,METAR,15.0
OEDF 271400Z 02012KT CAVOK 41/03 Q1005 NOSIG,OEDF,2015-05-27T14:00:00Z,26.47,49.8,41.0,3.0,20,12,,6.21,29.675198,,,,,,TRUE,,,,,CAVOK,,,,,,,,VFR,,,,,,,,,,,,METAR,22.0
SBMA 271400Z 03007KT 9999 BKN020 30/25 Q1014,SBMA,2015-05-27T14:00:00Z,-5.37,-49.13,30.0,25.0,30,7,,6.21,29.940945,,,,,,,,,,,BKN,2000,,,,,,,MVFR,,,,,,,,,,,,METAR,102.0
SECO 271400Z 20002KT 9999 SCT012 25/24 Q1015,SECO,2015-05-27T14:00:00Z,-0.45,-76.98,25.0,24.0,200,2,,6.21,29.970472,,,,,,,,,,,SCT,1200,,,,,,,VFR,,,,,,,,,,,,METAR,220.0
TFFF 271400Z AUTO 06009KT 010V110 9999 FEW038 30/19 Q1015,TFFF,2015-05-27T14:00:00Z,14.6,-61.0,30.0,19.0,60,9,,6.21,29.970472,,,TRUE,,,,,,,,FEW,3800,,,,,,,VFR,,,,,,,,,,,,METAR,5.0
MDST 271400Z 11008KT 9999 FEW023 28/21 Q1016 NOSIG,MDST,2015-05-27T14:00:00Z,19.4,-70.6,28.0,21.0,110,8,,6.21,30.0,,,,,,TRUE,,,,,FEW,2300,,,,,,,VFR,,,,,,,,,,,,METAR,184.0
MDAB 271400Z 00000KT 9999 FEW020 27/24 Q1016,MDAB,2015-05-27T14:00:00Z,19.2,-69.43,27.0,24.0,0,0,,6.21,30.0,,,,,,,,,,,FEW,2000,,,,,,,VFR,,,,,,,,,,,,METAR,35.0
MDCY 271400Z 20004KT 9999 STC018 27/25 Q1015,MDCY,2015-05-27T14:00:00Z,19.27,-69.73,27.0,25.0,200,4,,6.21,29.970472,,,,,,,,,,,,,,,,,,,,,,,,,,,,,,,METAR,10.0
MDLR 271400Z 07008KT 9999 SCT020 30/22 Q1015,MDLR,2015-05-27T14:00:00Z,18.45,-68.92,30.0,22.0,70,8,,6.21,29.970472,,,,,,,,,,,SCT,2000,,,,,,,VFR,,,,,,,,,,,,METAR,8.0
MDSD 271400Z 09006KT 9999 SCT020 30/24 Q1015,MDSD,2015-05-27T14:00:00Z,18.42,-69.67,30.0,24.0,90,6,,6.21,29.970472,,,,,,,,,,,SCT,2000,,,,,,,VFR,,,,,,,,,,,,METAR,18.0
MDJB 271400Z 03005KT 9999 SCT020 29/22 Q1016,MDJB,2015-05-27T14:00:00Z,18.57,-69.98,29.0,22.0,30,5,,6.21,30.0,,,,,,,,,,,SCT,2000,,,,,,,VFR,,,,,,,,,,,,METAR,30.0
MDBH 271400Z 00000KT 9999 FEW022 30/21 Q1017,MDBH,2015-05-27T14:00:00Z,18.25,-71.12,30.0,21.0,0,0,,6.21,30.029528,,,,,,,,,,,FEW,2200,,,,,,,VFR,,,,,,,,,,,,METAR,3.0
MDPC 271400Z 10006KT 9999 FEW020 29/22 Q1016,MDPC,2015-05-27T14:00:00Z,18.57,-68.37,29.0,22.0,100,6,,6.21,30.0,,,,,,,,,,,FEW,2000,,,,,,,VFR,,,,,,,,,,,,METAR,12.0
MDPP 271400Z 06005KT 9999 SCT020 30/22 Q1015 METAR ,MDPP,2015-05-27T14:00:00Z,19.75,-70.57,30.0,22.0,60,5,,6.21,29.970472,,,,,,,,,,,SCT,2000,,,,,,,VFR,,,,,,,,,,,,METAR,5.0
YWLM 271400Z AUTO 03004KT 9999 // NCD 12/10 Q1023,YWLM,2015-05-27T14:00:00Z,-32.8,151.83,12.0,10.0,30,4,,6.21,30.206694,,,TRUE,,,,,,,,,,,,,,,,,,,,,,,,,,,,METAR,9.0
YWHA 271400Z AUTO 29003KT 9999 // NCD 12/09 Q1018,YWHA,2015-05-27T14:00:00Z,-33.07,137.52,12.0,9.0,290,3,,6.21,30.059055,,,TRUE,,,,,,,,,,,,,,,,,,,,,,,,,,,,METAR,13.0
YWGT 271400Z AUTO 22003KT //// // ////// 09/09 Q1022,YWGT,2015-05-27T14:00:00Z,-36.42,146.3,9.0,9.0,220,3,,,30.177166,,,TRUE,,,,,,,,,,,,,,,,,,,,,,,,,,,,METAR,153.0
YTNK 271400Z AUTO 10006KT 9999 // NCD 22/08 Q1017,YTNK,2015-05-27T14:00:00Z,-19.63,134.18,22.0,8.0,100,6,,6.21,30.029528,,,TRUE,,,,,,,,,,,,,,,,,,,,,,,,,,,,METAR,377.0
YTEF 271400Z AUTO 13006KT //// // ////// 18/15 Q1017,YTEF,2015-05-27T14:00:00Z,-21.72,122.23,18.0,15.0,130,6,,,30.029528,,,TRUE,,,,,,,,,,,,,,,,,,,,,,,,,,,,METAR,296.0
YSWG 271400Z AUTO 08006KT 9999 // OVC100 10/08 Q1022,YSWG,2015-05-27T14:00:00Z,-35.13,147.47,10.0,8.0,80,6,,6.21,30.177166,,,TRUE,,,,,,,,OVC,10000,,,,,,,VFR,,,,,,,,,,,,METAR,213.0
YSTW 271400Z AUTO 18003KT 9999 // SCT100 OVC125 11/08 Q1024,YSTW,2015-05-27T14:00:00Z,-31.07,150.85,11.0,8.0,180,3,,6.21,30.236221,,,TRUE,,,,,,,,SCT,10000,OVC,12500,,,,,VFR,,,,,,,,,,,,METAR,410.0
LZZI 271400Z 34005KT 300V030 9999 SCT047 BKN060 12/03 Q1016,LZZI,2015-05-27T14:00:00Z,49.23,18.62,12.0,3.0,340,5,,6.21,30.0,,,,,,,,,,,SCT,4700,BKN,6000,,,,,VFR,,,,,,,,,,,,METAR,311.0
LHBP 271400Z 31019KT CAVOK 16/05 Q1014 NOSIG,LHBP,2015-05-27T14:00:00Z,47.42,19.27,16.0,5.0,310,19,,6.21,29.940945,,,,,,TRUE,,,,,CAVOK,,,,,,,,VFR,,,,,,,,,,,,METAR,185.0
LWSK 271400Z 01020KT 9999 FEW033TCU SCT040 BKN070 19/10 Q1009 NOSIG,LWSK,2015-05-27T14:00:00Z,41.97,21.63,19.0,10.0,10,20,,6.21,29.793306,,,,,,TRUE,,,,,FEW,3300,SCT,4000,BKN,7000,,,VFR,,,,,,,,,,,,METAR,239.0
SVMT 271400Z 07006KT 9999 BKN013 30/20 Q1013,SVMT,2015-05-27T14:00:00Z,9.75,-63.17,30.0,20.0,70,6,,6.21,29.911417,,,,,,,,,,,BKN,1300,,,,,,,MVFR,,,,,,,,,,,,METAR,66.0
SVCU 271400Z 07011KT 9999 FEW013 30/19 Q1012,SVCU,2015-05-27T14:00:00Z,10.45,-64.13,30.0,19.0,70,11,,6.21,29.88189,,,,,,,,,,,FEW,1300,,,,,,,VFR,,,,,,,,,,,,METAR,4.0
SVCR 271400Z /////KT 9999 FEW016 34/27 Q1013,SVCR,2015-05-27T14:00:00Z,11.42,-69.67,34.0,27.0,,,,6.21,29.911417,,,,,,,,,,,FEW,1600,,,,,,,VFR,,,,,,,,,,,,METAR,17.0
CXNP 271400Z AUTO 24008KT 19/15 RMK AO1 SLP207 T01940149 53001,CXNP,2015-05-27T14:00:00Z,45.75,-64.23,19.4,14.9,240,8,,,,1020.7,,TRUE,TRUE,,,,,,,,,,,,,,,,0.1,,,,,,,,,,,METAR,20.0
CTRA 271400Z AUTO 01005KT 14/08 RMK AO1 SLP103 T01390083 51025,CTRA,2015-05-27T14:00:00Z,49.67,-93.73,13.9,8.3,10,5,,,,1010.3,,TRUE,TRUE,,,,,,,,,,,,,,,,2.5,,,,,,,,,,,METAR,435.0
CWZQ 271400Z AUTO 21013G18KT 19/14 RMK AO1 PK WND 20020/1307 SLP197 T01920135 50009,CWZQ,2015-05-27T14:00:00Z,46.53,-61.05,19.2,13.5,210,13,18,,,1019.7,,TRUE,TRUE,,,,,,,,,,,,,,,,0.9,,,,,,,,,,,METAR,17.0
CWYL 271400Z AUTO 10004KT 03/03 RMK AO1 8002 SLP198 T00290029 50002,CWYL,2015-05-27T14:00:00Z,51.45,-116.32,2.9,2.9,100,4,,,,1019.8,,TRUE,TRUE,,,,,,,,,,,,,,,,0.2,,,,,,,,,,,METAR,1615.0
CWRA 271400Z AUTO 23020G26KT 08/06 RMK AO1 1002 PK WND 23027/1338 SLP241 T00760062 50012,CWRA,2015-05-27T14:00:00Z,46.63,-53.07,7.6,6.2,230,20,26,,,1024.1,,TRUE,TRUE,,,,,,,,,,,,,,,,1.2,,,,,,,,,,,METAR,28.0
CWDZ 271400Z AUTO 33003KT 12/07 RMK AO1 T01240074,CWDZ,2015-05-27T14:00:00Z,51.42,-112.67,12.4,7.4,330,3,,,,,,TRUE,TRUE,,,,,,,,,,,,,,,,,,,,,,,,,,,METAR,678.0
CWCJ 271400Z AUTO 03003KT 11/11 RMK AO1 0006 SLP061 T01100106 50011,CWCJ,2015-05-27T14:00:00Z,48.6,-86.28,11.0,10.6,30,3,,,,1006.1,,TRUE,TRUE,,,,,,,,,,,,,,,,1.1,,,,,,,,,,,METAR,206.0
CWBO 271400Z AUTO 34007KT 15/10 RMK AO1 SLP151 T01470101 51001,CWBO,2015-05-27T14:00:00Z,50.53,-111.83,14.7,10.1,340,7,,,,1015.1,,TRUE,TRUE,,,,,,,,,,,,,,,,0.1,,,,,,,,,,,METAR,747.0
CXCA 271400Z AUTO 01013KT 14/09 RMK AO1 PK WND 02017/1356 SLP065 T01360090 51014,CXCA,2015-05-27T14:00:00Z,49.15,-88.35,13.6,9.0,10,13,,,,1006.5,,TRUE,TRUE,,,,,,,,,,,,,,,,1.4,,,,,,,,,,,METAR,228.0
CZRP 271400Z AUTO 31021KT M04/M07 RMK AO1 PK WND 32025/1354 SLP275 T10431068 50002,CZRP,2015-05-27T14:00:00Z,75.37,-105.72,-4.3,-6.8,310,21,,,,1027.5,,TRUE,TRUE,,,,,,,,,,,,,,,,0.2,,,,,,,,,,,METAR,12.0
CXVN 271400Z AUTO 22012G17KT 23/18 RMK AO1 PK WND 21019/1325 SLP147 T02290179 51013,CXVN,2015-05-27T14:00:00Z,43.18,-79.4,22.9,17.9,220,12,17,,,1014.7,,TRUE,TRUE,,,,,,,,,,,,,,,,1.3,,,,,,,,,,,METAR,79.0
CXSE 271400Z AUTO 30014KT M05/M06 RMK AO1 PK WND 29017/1342 SLP269 T10541064 58009,CXSE,2015-05-27T14:00:00Z,73.77,-105.28,-5.4,-6.4,300,14,,,,1026.9,,TRUE,TRUE,,,,,,,,,,,,,,,,-0.9,,,,,,,,,,,METAR,11.0
CXPC 271400Z AUTO 21/16 RMK AO1 SLP108 T02100160 50002,CXPC,2015-05-27T14:00:00Z,45.35,-80.05,21.0,16.0,,,,,,1010.8,,TRUE,TRUE,,,,,,,,,,,,,,,,0.2,,,,,,,,,,,METAR,176.0
CXDK 271400Z AUTO 14006KT 11/03 RMK AO1 SLP211 T01140031 51020,CXDK,2015-05-27T14:00:00Z,61.27,-124.47,11.4,3.1,140,6,,,,1021.1,,TRUE,TRUE,,,,,,,,,,,,,,,,2.0,,,,,,,,,,,METAR,283.0
CZDB 271400Z AUTO 24006KT 19/15 RMK AO1 0001 SLP218 T01930147 50002,CZDB,2015-05-27T14:00:00Z,45.42,-63.47,19.3,14.7,240,6,,,,1021.8,,TRUE,TRUE,,,,,,,,,,,,,,,,0.2,,,,,,,,,,,METAR,38.0
CXTP 271400Z AUTO 25007G16KT 13/11 RMK AO1 PK WND 22018/1303 SLP187 T01250113 53014,CXTP,2015-05-27T14:00:00Z,48.55,-53.97,12.5,11.3,250,7,16,,,1018.7,,TRUE,TRUE,,,,,,,,,,,,,,,,1.4,,,,,,,,,,,METAR,107.0
CXRH 271400Z AUTO 26003KT 11/10 RMK AO1 3PAST HR M P0001 T01090098 50003,CXRH,2015-05-27T14:00:00Z,49.57,-57.88,10.9,9.8,260,3,,,,,,TRUE,TRUE,,,,,,,,,,,,,,,,0.3,,,,,0.01,,,,,,METAR,68.0
CXMY 271400Z AUTO 17/12 RMK AO1 T01730122,CXMY,2015-05-27T14:00:00Z,44.98,-62.48,17.3,12.2,,,,,,,,TRUE,TRUE,,,,,,,,,,,,,,,,,,,,,,,,,,,METAR,40.0
CXMM 271400Z AUTO 11003KT 11/03 RMK AO1 SLP141 T01080031 58007,CXMM,2015-05-27T14:00:00Z,56.65,-111.22,10.8,3.1,110,3,,,,1014.1,,TRUE,TRUE,,,,,,,,,,,,,,,,-0.7,,,,,,,,,,,METAR,369.0
CXET 271400Z AUTO 23012G18KT 23/15 RMK AO1 PK WND 23018/1355 SLP135 T02280154 51006,CXET,2015-05-27T14:00:00Z,44.23,-79.78,22.8,15.4,230,12,18,,,1013.5,,TRUE,TRUE,,,,,,,,,,,,,,,,0.6,,,,,,,,,,,METAR,251.0
CXEG 271400Z AUTO 13/10 RMK AO1 T01320102,CXEG,2015-05-27T14:00:00Z,53.3,-113.6,13.2,10.2,,,,,,,,TRUE,TRUE,,,,,,,,,,,,,,,,,,,,,,,,,,,METAR,715.0
CXDE 271400Z AUTO 10012KT 02/M06 RMK AO1 PK WND 09019/1321 SLP307 T00151058 52014,CXDE,2015-05-27T14:00:00Z,65.22,-123.43,1.5,-5.8,100,12,,,,1030.7,,TRUE,TRUE,,,,,,,,,,,,,,,,1.4,,,,,,,,,,,METAR,213.0
CWFF 271400Z AUTO 11008KT 09/04 RMK AO1 SLP198 T00930037 51008,CWFF,2015-05-27T14:00:00Z,52.82,-104.58,9.3,3.7,110,8,,,,1019.8,,TRUE,TRUE,,,,,,,,,,,,,,,,0.8,,,,,,,,,,,METAR,490.0
CWEZ 271400Z AUTO 22010KT 11/10 RMK AO1 SLP178 T01050097 52010,CWEZ,2015-05-27T14:00:00Z,48.78,-123.05,10.5,9.7,220,10,,,,1017.8,,TRUE,TRUE,,,,,,,,,,,,,,,,1.0,,,,,,,,,,,METAR,7.0
CWNC 271400Z AUTO 25004KT 15/14 RMK AO1 SLP152 T01530136 51011,CWNC,2015-05-27T14:00:00Z,43.95,-78.17,15.3,13.6,250,4,,,,1015.2,,TRUE,TRUE,,,,,,,,,,,,,,,,1.1,,,,,,,,,,,METAR,78.0
CWPC 271400Z AUTO 24015KT 16/14 RMK AO1 PK WND 23022/1300 SLP172 T01580136 51012,CWPC,2015-05-27T14:00:00Z,42.87,-79.25,15.8,13.6,240,15,,,,1017.2,,TRUE,TRUE,,,,,,,,,,,,,,,,1.2,,,,,,,,,,,METAR,184.0
CWJW 271400Z AUTO 20004KT 06/05 RMK AO1 SLP185 T00630052 50001,CWJW,2015-05-27T14:00:00Z,52.93,-118.03,6.3,5.2,200,4,,,,1018.5,,TRUE,TRUE,,,,,,,,,,,,,,,,0.1,,,,,,,,,,,METAR,1020.0
PKWA 271400Z AUTO 10006KT 10SM CLR 27/23 A2986 RMK AO2 T02720229,PKWA,2015-05-27T14:00:00Z,8.72,167.72,27.2,22.9,100,6,,10.0,29.861221,,,TRUE,TRUE,,,,,,,CLR,,,,,,,,VFR,,,,,,,,,,,,METAR,8.0
SEAM 271400Z 16003KT 8000 BKN020 SCT100 14/12 Q1030,SEAM,2015-05-27T14:00:00Z,-1.18,-78.57,14.0,12.0,160,3,,4.97,30.413385,,,,,,,,,,,BKN,2000,SCT,10000,,,,,MVFR,,,,,,,,,,,,METAR,2520.0
SEGS 271400Z 16010KT 9999 FEW026 27/23 Q1014 A2994,SEGS,2015-05-27T14:00:00Z,-0.45,-90.27,27.0,23.0,160,10,,6.21,29.940945,,,,,,,,,,,FEW,2600,,,,,,,VFR,,,,,,,,,,,,METAR,16.0
SEST 271400Z 15013KT 9999 SCT023 SCT100 27/24 Q1010 A2985,SEST,2015-05-27T14:00:00Z,-0.9,-89.58,27.0,24.0,150,13,,6.21,29.822834,,,,,,,,,,,SCT,2300,SCT,10000,,,,,VFR,,,,,,,,,,,,METAR,6.0
SENL 271400Z 00000KT 9999 FEW006 BKN020 BKN100 24/23 Q1016,SENL,2015-05-27T14:00:00Z,0.1,-76.87,24.0,23.0,0,0,,6.21,30.0,,,,,,,,,,,FEW,600,BKN,2000,BKN,10000,,,MVFR,,,,,,,,,,,,METAR,293.0
SEJD 271400Z 00000KT 9999 SCT100 25/22 Q1017 A3004,SEJD,2015-05-27T14:00:00Z,-1.07,-77.58,25.0,22.0,0,0,,6.21,30.029528,,,,,,,,,,,SCT,10000,,,,,,,VFR,,,,,,,,,,,,METAR,375.0
SECA 271400Z 13001KT 9999 FEW040 SCT100 22/18 Q1020,SECA,2015-05-27T14:00:00Z,-4.0,-79.37,22.0,18.0,130,1,,6.21,30.11811,,,,,,,,,,,FEW,4000,SCT,10000,,,,,VFR,,,,,,,,,,,,METAR,1121.0
SERB 271400Z 00000KT 9999 BKN030 12/11 Q1031,SERB,2015-05-27T14:00:00Z,-1.62,-78.67,12.0,11.0,0,0,,6.21,30.442913,,,,,,,,,,,BKN,3000,,,,,,,MVFR,,,,,,,,,,,,METAR,2796.0
SETU 271400Z 00000KT 9999 BKN030 BKN100 12/10 Q1033,SETU,2015-05-27T14:00:00Z,0.82,-77.7,12.0,10.0,0,0,,6.21,30.501968,,,,,,,,,,,BKN,3000,BKN,10000,,,,,MVFR,,,,,,,,,,,,METAR,2940.0
SERO 271400Z 03003KT 360V060 9999 FEW020 SCT033 BKN070 27/26 Q1013,SERO,2015-05-27T14:00:00Z,-3.43,-79.98,27.0,26.0,30,3,,6.21,29.911417,,,,,,,,,,,FEW,2000,SCT,3300,BKN,7000,,,VFR,,,,,,,,,,,,METAR,51.0
SESA 271400Z 27008KT 9999 FEW012 BKN080 26/22 Q1013,SESA,2015-05-27T14:00:00Z,-2.2,-80.97,26.0,22.0,270,8,,6.21,29.911417,,,,,,,,,,,FEW,1200,BKN,8000,,,,,VFR,,,,,,,,,,,,METAR,8.0
SEGU 271400Z 18003KT 150V210 9999 -RA FEW010 SCT030 BKN090 25/2 3 Q1013 NOSIG RMK A2991,SEGU,2015-05-27T14:00:00Z,-2.13,-79.87,25.0,,180,3,,6.21,29.911417,,,,,,TRUE,,,,-RA,FEW,1000,SCT,3000,BKN,9000,,,VFR,,,,,,,,,,,,METAR,9.0
SELT 271400Z 18008KT 9999 BKN030 SCT100 13/11 Q1032,SELT,2015-05-27T14:00:00Z,-0.92,-78.62,13.0,11.0,180,8,,6.21,30.47244,,,,,,,,,,,BKN,3000,SCT,10000,,,,,MVFR,,,,,,,,,,,,METAR,2785.0
SEQM 271400Z 23003KT 9999 SCT026 SCT300 16/12 Q1027 NOSIG RMK A3034,SEQM,2015-05-27T14:00:00Z,-0.12,-78.35,16.0,12.0,230,3,,6.21,30.324802,,,,,,TRUE,,,,,SCT,2600,SCT,30000,,,,,VFR,,,,,,,,,,,,METAR,2400.0
SBCR 271400Z 24009G19KT 180V290 9999 FEW020 FEW045TCU 25/21 Q10 15,SBCR,2015-05-27T14:00:00Z,-19.0,-57.67,25.0,21.0,240,9,19,6.21,,,,,,,,,,,,FEW,2000,FEW,4500,,,,,VFR,,,,,,,,,,,,METAR,141.0
UTSB 271400Z 35006KT CAVOK 32/08 Q1009 R01/CLRD70 NOSIG,UTSB,2015-05-27T14:00:00Z,39.77,64.48,32.0,8.0,350,6,,6.21,29.793306,,,,,,TRUE,,,,,CAVOK,,,,,,,,VFR,,,,,,,,,,,,METAR,226.0
SBUG 271400Z 17010KT 9999 FEW023 BKN043 BKN070 17/13 Q1017,SBUG,2015-05-27T14:00:00Z,-29.77,-57.02,17.0,13.0,170,10,,6.21,30.029528,,,,,,,,,,,FEW,2300,BKN,4300,BKN,7000,,,VFR,,,,,,,,,,,,METAR,74.0
SBCB 271400Z 09014KT 9999 FEW012 26/22 Q1016,SBCB,2015-05-27T14:00:00Z,-22.92,-42.08,26.0,22.0,90,14,,6.21,30.0,,,,,,,,,,,FEW,1200,,,,,,,VFR,,,,,,,,,,,,METAR,4.0
UBBG 271400Z 06006KT 9999 FEW040CB SCT083 30/11 Q1008 R30/CLRD70 NOSIG,UBBG,2015-05-27T14:00:00Z,40.73,46.32,30.0,11.0,60,6,,6.21,29.763779,,,,,,TRUE,,,,,FEW,4000,SCT,8300,,,,,VFR,,,,,,,,,,,,METAR,330.0
SBCP 271400Z 03008KT 9999 FEW015 27/22 Q1017,SBCP,2015-05-27T14:00:00Z,-21.7,-41.3,27.0,22.0,30,8,,6.21,30.029528,,,,,,,,,,,FEW,1500,,,,,,,VFR,,,,,,,,,,,,METAR,11.0
SOCA 271400Z AUTO VRB02KT 9999 FEW024/// SCT030/// BKN043/// 29/24 Q1013,SOCA,2015-05-27T14:00:00Z,4.82,-52.37,29.0,24.0,0,2,,6.21,29.911417,,,TRUE,,,,,,,,,,,,,,,,,,,,,,,,,,,,METAR,9.0
LZIB 271400Z 32016KT 9999 FEW040 BKN080 14/03 Q1017 NOSIG,LZIB,2015-05-27T14:00:00Z,48.17,17.22,14.0,3.0,320,16,,6.21,30.029528,,,,,,TRUE,,,,,FEW,4000,BKN,8000,,,,,VFR,,,,,,,,,,,,METAR,134.0
LZTT 271400Z 14005KT 100V200 9999 BKN046 BKN100 10/03 Q1013 NOSIG,LZTT,2015-05-27T14:00:00Z,49.07,20.25,10.0,3.0,140,5,,6.21,29.911417,,,,,,TRUE,,,,,BKN,4600,BKN,10000,,,,,VFR,,,,,,,,,,,,METAR,707.0
LZKZ 271400Z 35015G28KT 9999 SCT040 BKN070 12/03 Q1013 NOSIG,LZKZ,2015-05-27T14:00:00Z,48.67,21.23,12.0,3.0,350,15,28,6.21,29.911417,,,,,,TRUE,,,,,SCT,4000,BKN,7000,,,,,VFR,,,,,,,,,,,,METAR,232.0
VOCB 271400Z 20008KT 6000 FEW015 29/23 Q1009 NOSIG,VOCB,2015-05-27T14:00:00Z,11.02,77.03,29.0,23.0,200,8,,3.73,29.793306,,,,,,TRUE,,,,,FEW,1500,,,,,,,MVFR,,,,,,,,,,,,METAR,399.0
SPYL 271400Z 14019KT CAVOK 26/19 Q1013 RMK BIRD HAZARD RWY 17/35 FEW100 PP000,SPYL,2015-05-27T14:00:00Z,-4.57,-81.25,26.0,19.0,140,19,,6.21,29.911417,,,,,,,,,,,CAVOK,,,,,,,,VFR,,,,,,,,,,,,METAR,90.0
SPTU 271400Z VRB01KT 8000 BKN005 BKN030 27/25 Q1015 RMK BIRD HAZARD RWY 01/19 PP000,SPTU,2015-05-27T14:00:00Z,-12.62,-69.2,27.0,25.0,0,1,,4.97,29.970472,,,,,,,,,,,BKN,500,BKN,3000,,,,,IFR,,,,,,,,,,,,SPECI,266.0
SBVT 271400Z 04006KT 9999 BKN025 26/20 Q1018,SBVT,2015-05-27T14:00:00Z,-20.27,-40.27,26.0,20.0,40,6,,6.21,30.059055,,,,,,,,,,,BKN,2500,,,,,,,MVFR,,,,,,,,,,,,METAR,4.0
SPST 271400Z 00000KT 5000 BCFG SCT012 BKN080 25/22 Q1015 RMK BIRD HAZARD RWY 17/35 PP000,SPST,2015-05-27T14:00:00Z,-6.52,-76.37,25.0,22.0,0,0,,3.11,29.970472,,,,,,,,,,BCFG,SCT,1200,BKN,8000,,,,,MVFR,,,,,,,,,,,,SPECI,282.0
SPMS 271400Z 00000KT 8000 FEW012 BKN100 25/23 Q1017 RMK BIRD HAZARD RWY 09/27 PP000,SPMS,2015-05-27T14:00:00Z,-5.9,-76.12,25.0,23.0,0,0,,4.97,30.029528,,,,,,,,,,,FEW,1200,BKN,10000,,,,,MVFR,,,,,,,,,,,,SPECI,179.0
SPME 271400Z 00000KT 9999 FEW013 27/23 Q1012 RMK BIRD HAZARD RWY 32/14 PP000,SPME,2015-05-27T14:00:00Z,-3.53,-80.4,27.0,23.0,0,0,,6.21,29.88189,,,,,,,,,,,FEW,1300,,,,,,,VFR,,,,,,,,,,,,SPECI,27.0
SPLO 271400Z 10008KT 9999 OVC030 20/17 Q1014 RMK PP000,SPLO,2015-05-27T14:00:00Z,-17.7,-71.35,20.0,17.0,100,8,,6.21,29.940945,,,,,,,,,,,OVC,3000,,,,,,,MVFR,,,,,,,,,,,,METAR,9.0
SPJR 271400Z 00000KT 9999 FEW033 16/10 Q1031 RMK PP000,SPJR,2015-05-27T14:00:00Z,-7.12,-78.47,16.0,10.0,0,0,,6.21,30.442913,,,,,,,,,,,FEW,3300,,,,,,,VFR,,,,,,,,,,,,SPECI,2622.0
SPJL 271400Z VRB02KT CAVOK 10/03 Q1040 RMK PP000,SPJL,2015-05-27T14:00:00Z,-15.47,-70.15,10.0,3.0,0,2,,6.21,30.708662,,,,,,,,,,,CAVOK,,,,,,,,VFR,,,,,,,,,,,,SPECI,3827.0
SPJI 271400Z 00000KT 9999 BKN030 25/23 Q1024 RMK PP000,SPJI,2015-05-27T14:00:00Z,-7.17,-76.72,25.0,23.0,0,0,,6.21,30.236221,,,,,,,,,,,BKN,3000,,,,,,,MVFR,,,,,,,,,,,,SPECI,363.0
SPHY 271400Z 05003KT 9000 SCT012 BKN050 12/03 Q1037 RMK PP000,SPHY,2015-05-27T14:00:00Z,-13.7,-73.35,12.0,3.0,50,3,,5.59,30.620079,,,,,,,,,,,SCT,1200,BKN,5000,,,,,VFR,,,,,,,,,,,,SPECI,3548.0
SPHO 271400Z 04004KT 9999 FEW040 SCT090 16/09 Q1031 RMK PP000,SPHO,2015-05-27T14:00:00Z,-13.17,-74.22,16.0,9.0,40,4,,6.21,30.442913,,,,,,,,,,,FEW,4000,SCT,9000,,,,,VFR,,,,,,,,,,,,SPECI,2749.0
SPGM 271400Z /////KT 8000 SCT015 BKN090 23/21 Q1018 RMK PP000,SPGM,2015-05-27T14:00:00Z,-9.28,-76.0,23.0,21.0,,,,4.97,30.059055,,,,,,,,,,,SCT,1500,BKN,9000,,,,,MVFR,,,,,,,,,,,,SPECI,665.0
SPCL 271400Z 34004KT 9000 BKN013 BKN080 25/24 Q1016 RMK BIRD HAZAR RWY 02/20 PP000,SPCL,2015-05-27T14:00:00Z,-8.38,-74.58,25.0,24.0,340,4,,5.59,30.0,,,,,,,,,,,BKN,1300,BKN,8000,,,,,MVFR,,,,,,,,,,,,SPECI,149.0
DXXX 271400Z 19011KT 9999 FEW015 30/26 Q1011 NOSIG,DXXX,2015-05-27T14:00:00Z,6.17,1.25,30.0,26.0,190,11,,6.21,29.852362,,,,,,TRUE,,,,,FEW,1500,,,,,,,VFR,,,,,,,,,,,,METAR,25.0
UGSB 271400Z 35003KT 320V030 CAVOK 22/18 Q1007 R13/70D NOSIG,UGSB,2015-05-27T14:00:00Z,41.62,41.6,22.0,18.0,350,3,,6.21,29.734253,,,,,,TRUE,,,,,CAVOK,,,,,,,,VFR,,,,,,,,,,,,METAR,32.0
UGKO 271400Z VRB02KT CAVOK 30/18 Q1005 R25/09//70 NOSIG,UGKO,2015-05-27T14:00:00Z,42.18,42.48,30.0,18.0,0,2,,6.21,29.675198,,,,,,TRUE,,,,,CAVOK,,,,,,,,VFR,,,,,,,,,,,,METAR,68.0
UGTB 271400Z 23004KT 190V270 9999 SCT050CB 27/14 Q1011 R31L/CLRD80 NOSIG,UGTB,2015-05-27T14:00:00Z,41.67,44.95,27.0,14.0,230,4,,6.21,29.852362,,,,,,TRUE,,,,,SCT,5000,,,,,,,VFR,,,,,,,,,,,,METAR,495.0
SBPK 271400Z 12007KT 5000 -RA FEW040 OVC080 17/17 Q1018,SBPK,2015-05-27T14:00:00Z,-31.72,-52.33,17.0,17.0,120,7,,3.11,30.059055,,,,,,,,,,-RA,FEW,4000,OVC,8000,,,,,MVFR,,,,,,,,,,,,METAR,13.0
SBTE 271400Z 15005KT 9999 BKN025 31/26 Q1013,SBTE,2015-05-27T14:00:00Z,-5.03,-42.82,31.0,26.0,150,5,,6.21,29.911417,,,,,,,,,,,BKN,2500,,,,,,,MVFR,,,,,,,,,,,,METAR,69.0
SPZO 271400Z 00000KT 9999 SCT046 15/05 Q1034 NOSIG RMK PP000,SPZO,2015-05-27T14:00:00Z,-13.55,-71.97,15.0,5.0,0,0,,6.21,30.531496,,,,,,TRUE,,,,,SCT,4600,,,,,,,VFR,,,,,,,,,,,,METAR,3249.0
SPTN 271400Z 23003KT 9999 OVC028 17/14 Q1017 RMK PP000,SPTN,2015-05-27T14:00:00Z,-18.07,-70.28,17.0,14.0,230,3,,6.21,30.029528,,,,,,,,,,,OVC,2800,,,,,,,MVFR,,,,,,,,,,,,METAR,458.0
SPSO 271400Z 13006KT 8000 OVC030 20/16 Q1015 RMK FU QUAD E BIRD HAZARD RWY 22/04 PP000,SPSO,2015-05-27T14:00:00Z,-13.73,-76.22,20.0,16.0,130,6,,4.97,29.970472,,,,,,,,,,,OVC,3000,,,,,,,MVFR,,,,,,,,,,,,METAR,10.0
SPRU 271400Z 13007KT 7000 OVC027 23/19 Q1014 RMK PP000,SPRU,2015-05-27T14:00:00Z,-8.08,-79.12,23.0,19.0,130,7,,4.35,29.940945,,,,,,,,,,,OVC,2700,,,,,,,MVFR,,,,,,,,,,,,SPECI,30.0
SPQU 271400Z 23004KT 170V260 CAVOK 17/M01 Q1028 NOSIG RMK PP000,SPQU,2015-05-27T14:00:00Z,-16.33,-71.57,17.0,-1.0,230,4,,6.21,30.35433,,,,,,TRUE,,,,,CAVOK,,,,,,,,VFR,,,,,,,,,,,,METAR,2554.0
SPQT 271400Z 23006KT 200V260 9999 BKN012 BKN100 26/23 Q1014 NOSIG RMK BIRD HAZARD RWY 06/24 PP000,SPQT,2015-05-27T14:00:00Z,-3.78,-73.32,26.0,23.0,230,6,,6.21,29.940945,,,,,,TRUE,,,,,BKN,1200,BKN,10000,,,,,MVFR,,,,,,,,,,,,METAR,126.0
SPHI 271400Z 18005KT 9999 OVC032 23/20 Q1014 RMK PP000,SPHI,2015-05-27T14:00:00Z,-6.77,-79.82,23.0,20.0,180,5,,6.21,29.940945,,,,,,,,,,,OVC,3200,,,,,,,VFR,,,,,,,,,,,,SPECI,34.0
CZHY 271400Z AUTO 06014KT 02/M02 RMK AO1 2PAST HR 1031 PK WND 07022/1345 SLP219 P0001 T00191018 50002,CZHY,2015-05-27T14:00:00Z,60.83,-115.78,1.9,-1.8,60,14,,,,1021.9,,TRUE,TRUE,,,,,,,,,,,,,,,,0.2,,,,,0.01,,,,,,METAR,164.0
CZFS 271400Z AUTO 10004KT 09/M01 RMK AO1 SLP236 T00931009 51021,CZFS,2015-05-27T14:00:00Z,61.77,-121.23,9.3,-0.9,100,4,,,,1023.6,,TRUE,TRUE,,,,,,,,,,,,,,,,2.1,,,,,,,,,,,METAR,168.0
CZEV 271400Z AUTO 10006KT 07/M01 RMK AO1 SLP281 T00661010 51013,CZEV,2015-05-27T14:00:00Z,68.32,-133.52,6.6,-1.0,100,6,,,,1028.1,,TRUE,TRUE,,,,,,,,,,,,,,,,1.3,,,,,,,,,,,METAR,103.0
VTCC 271400Z 29004KT 9999 SCT035 30/20 Q1008 A2978 NOSIG,VTCC,2015-05-27T14:00:00Z,18.77,98.97,30.0,20.0,290,4,,6.21,29.763779,,,,,,TRUE,,,,,SCT,3500,,,,,,,VFR,,,,,,,,,,,,METAR,314.0
FNHU 271400Z 18006KT 9999 FEW016 25/03 Q1022,FNHU,2015-05-27T14:00:00Z,-12.82,15.77,25.0,3.0,180,6,,6.21,30.177166,,,,,,,,,,,FEW,1600,,,,,,,VFR,,,,,,,,,,,,METAR,1701.0
FNCA 271400Z 20007KT CAVOK 28/21 Q1010,FNCA,2015-05-27T14:00:00Z,-5.58,12.18,28.0,21.0,200,7,,6.21,29.822834,,,,,,,,,,,CAVOK,,,,,,,,VFR,,,,,,,,,,,,METAR,20.0
FNUE 271400Z 00000KT CAVOK 26/07 Q1018,FNUE,2015-05-27T14:00:00Z,-11.77,19.9,26.0,7.0,0,0,,6.21,30.059055,,,,,,,,,,,CAVOK,,,,,,,,VFR,,,,,,,,,,,,METAR,1329.0
FNBG 271400Z 29010KT CAVOK 25/19 Q1012,FNBG,2015-05-27T14:00:00Z,-12.62,13.4,25.0,19.0,290,10,,6.21,29.88189,,,,,,,,,,,CAVOK,,,,,,,,VFR,,,,,,,,,,,,METAR,36.0
FNGI 271400Z 03006KT CAVOK 31/04 Q1017,FNGI,2015-05-27T14:00:00Z,-17.05,15.68,31.0,4.0,30,6,,6.21,30.029528,,,,,,,,,,,CAVOK,,,,,,,,VFR,,,,,,,,,,,,METAR,1087.0
FNKU 271400Z 15009KT 9999 SCT014 24/02 Q1020,FNKU,2015-05-27T14:00:00Z,-12.37,16.93,24.0,2.0,150,9,,6.21,30.11811,,,,,,,,,,,SCT,1400,,,,,,,VFR,,,,,,,,,,,,METAR,1699.0
FNLU 271400Z 30010KT CAVOK 27/20 Q1010 NOSIG,FNLU,2015-05-27T14:00:00Z,-8.83,13.22,27.0,20.0,300,10,,6.21,29.822834,,,,,,TRUE,,,,,CAVOK,,,,,,,,VFR,,,,,,,,,,,,METAR,70.0
FNMA 271400Z 12008KT 9999 SCT007 BKN067 28/24 Q1016,FNMA,2015-05-27T14:00:00Z,-9.55,16.32,28.0,24.0,120,8,,6.21,30.0,,,,,,,,,,,SCT,700,BKN,6700,,,,,VFR,,,,,,,,,,,,METAR,1173.0
FNSU 271400Z 26009KT CAVOK 25/19 Q1013,FNSU,2015-05-27T14:00:00Z,-11.17,13.85,25.0,19.0,260,9,,6.21,29.911417,,,,,,,,,,,CAVOK,,,,,,,,VFR,,,,,,,,,,,,METAR,11.0
FNBC 271400Z VRB03KT CAVOK 30/27 Q1011,FNBC,2015-05-27T14:00:00Z,-6.27,14.25,30.0,27.0,0,3,,6.21,29.852362,,,,,,,,,,,CAVOK,,,,,,,,VFR,,,,,,,,,,,,METAR,567.0
FNUB 271400Z 11011KT CAVOK 25/04 Q1023,FNUB,2015-05-27T14:00:00Z,-14.93,13.57,25.0,4.0,110,11,,6.21,30.206694,,,,,,,,,,,CAVOK,,,,,,,,VFR,,,,,,,,,,,,METAR,1761.0
FNUG 271400Z 27010KT 9999 FEW024 32/11 Q1013,FNUG,2015-05-27T14:00:00Z,-7.6,15.28,32.0,11.0,270,10,,6.21,29.911417,,,,,,,,,,,FEW,2400,,,,,,,VFR,,,,,,,,,,,,METAR,829.0
FNSA 271400Z 00000KT CAVOK 32/06 Q1017,FNSA,2015-05-27T14:00:00Z,-9.68,20.43,32.0,6.0,0,0,,6.21,30.029528,,,,,,,,,,,CAVOK,,,,,,,,VFR,,,,,,,,,,,,METAR,1093.0
FNMO 271400Z 31008KT 9999 FEW013 23/19 Q1011,FNMO,2015-05-27T14:00:00Z,-15.27,12.15,23.0,19.0,310,8,,6.21,29.852362,,,,,,,,,,,FEW,1300,,,,,,,VFR,,,,,,,,,,,,METAR,64.0
FNSO 271400Z 16012KT CAVOK 29/20 Q1011,FNSO,2015-05-27T14:00:00Z,-6.13,12.37,29.0,20.0,160,12,,6.21,29.852362,,,,,,,,,,,CAVOK,,,,,,,,VFR,,,,,,,,,,,,METAR,5.0
GMMB 271400Z 36012KT 320V040 CAVOK 32/11 Q1014 NOSIG,GMMB,2015-05-27T14:00:00Z,33.65,-7.63,32.0,11.0,360,12,,6.21,29.940945,,,,,,TRUE,,,,,CAVOK,,,,,,,,VFR,,,,,,,,,,,,METAR,191.0
GMFO 271400Z 01003KT 9999 FEW026 28/13 Q1016 NOSIG,GMFO,2015-05-27T14:00:00Z,34.77,-1.92,28.0,13.0,10,3,,6.21,30.0,,,,,,TRUE,,,,,FEW,2600,,,,,,,VFR,,,,,,,,,,,,METAR,470.0
GMFM 271400Z 30004KT 9999 FEW020 FEW033CB 31/04 Q1014 NOSIG,GMFM,2015-05-27T14:00:00Z,33.87,-5.52,31.0,4.0,300,4,,6.21,29.940945,,,,,,TRUE,,,,,FEW,2000,FEW,3300,,,,,VFR,,,,,,,,,,,,METAR,549.0
GMFK 271400Z 22011KT 160V270 9999 FEW023 SCT026 28/03 Q1019 NOSIG,GMFK,2015-05-27T14:00:00Z,31.95,-4.4,28.0,3.0,220,11,,6.21,30.088583,,,,,,TRUE,,,,,FEW,2300,SCT,2600,,,,,VFR,,,,,,,,,,,,METAR,1045.0
GMAT 271400Z 32010KT 9999 BKN016 21/13 Q1015 NOSIG,GMAT,2015-05-27T14:00:00Z,28.43,-11.15,21.0,13.0,320,10,,6.21,29.970472,,,,,,TRUE,,,,,BKN,1600,,,,,,,MVFR,,,,,,,,,,,,METAR,200.0
GMAG 271400Z 32012KT 8000 BKN016 21/15 Q1013 NOSIG,GMAG,2015-05-27T14:00:00Z,29.03,-10.05,21.0,15.0,320,12,,4.97,29.911417,,,,,,TRUE,,,,,BKN,1600,,,,,,,MVFR,,,,,,,,,,,,METAR,333.0
SETN 271400Z 21004KT 9999 SCT020 BKN100 27/24 Q1012 A2990,SETN,2015-05-27T14:00:00Z,,,27.0,24.0,210,4,,6.21,29.88189,,,,,,,,,,,SCT,2000,BKN,10000,,,,,VFR,,,,,,,,,,,,METAR,
OPPS 271400Z 05006KT 4000 HZ FEW100 32/15 Q1004,OPPS,2015-05-27T14:00:00Z,34.02,71.52,32.0,15.0,50,6,,2.49,29.64567,,,,,,,,,,HZ,FEW,10000,,,,,,,IFR,,,,,,,,,,,,METAR,360.0
MZBZ 271400Z 11007KT 9999 SCT022 29/25 A2999 Q1015 NOSIG,MZBZ,2015-05-27T14:00:00Z,17.52,-88.3,29.0,25.0,110,7,,6.21,29.970472,,,,,,TRUE,,,,,SCT,2200,,,,,,,VFR,,,,,,,,,,,,METAR,5.0
MKJP 271400Z 33003KT 9999 FEW020 28/21 Q1015,MKJP,2015-05-27T14:00:00Z,17.92,-76.78,28.0,21.0,330,3,,6.21,29.970472,,,,,,,,,,,FEW,2000,,,,,,,VFR,,,,,,,,,,,,METAR,3.0
EPZG 271400Z 26009KT 230V300 9999 FEW039 SCT047 14/05 Q1019,EPZG,2015-05-27T14:00:00Z,52.13,15.8,14.0,5.0,260,9,,6.21,30.088583,,,,,,,,,,,FEW,3900,SCT,4700,,,,,VFR,,,,,,,,,,,,METAR,59.0
EPWR 271400Z 34011KT CAVOK 14/03 Q1019,EPWR,2015-05-27T14:00:00Z,51.1,16.87,14.0,3.0,340,11,,6.21,30.088583,,,,,,,,,,,CAVOK,,,,,,,,VFR,,,,,,,,,,,,METAR,121.0
EPSC 271400Z 31012KT 9999 FEW030 12/05 Q1018,EPSC,2015-05-27T14:00:00Z,53.58,14.9,12.0,5.0,310,12,,6.21,30.059055,,,,,,,,,,,FEW,3000,,,,,,,VFR,,,,,,,,,,,,METAR,3.0
EPMO 271400Z 31012KT 9999 SCT048 14/04 Q1013,EPMO,2015-05-27T14:00:00Z,52.45,20.65,14.0,4.0,310,12,,6.21,29.911417,,,,,,,,,,,SCT,4800,,,,,,,VFR,,,,,,,,,,,,METAR,104.0
EPLB 271400Z 31009KT 9999 FEW018 BKN034 10/08 Q1012,EPLB,2015-05-27T14:00:00Z,51.23,22.72,10.0,8.0,310,9,,6.21,29.88189,,,,,,,,,,,FEW,1800,BKN,3400,,,,,VFR,,,,,,,,,,,,METAR,206.0
EPKT 271400Z 32013KT 9999 BKN050TCU 12/04 Q1016,EPKT,2015-05-27T14:00:00Z,50.47,19.08,12.0,4.0,320,13,,6.21,30.0,,,,,,,,,,,BKN,5000,,,,,,,VFR,,,,,,,,,,,,METAR,284.0
EPBY 271400Z 31014KT CAVOK 15/03 Q1016,EPBY,2015-05-27T14:00:00Z,53.1,18.0,15.0,3.0,310,14,,6.21,30.0,,,,,,,,,,,CAVOK,,,,,,,,VFR,,,,,,,,,,,,METAR,71.0
WIII 271400Z 08006KT 7000 FEW020 27/24 Q1011 NOSIG,WIII,2015-05-27T14:00:00Z,-6.13,106.67,27.0,24.0,80,6,,4.35,29.852362,,,,,,TRUE,,,,,FEW,2000,,,,,,,MVFR,,,,,,,,,,,,METAR,8.0
GMTT 271400Z 08014KT CAVOK 31/09 Q1014 NOSIG,GMTT,2015-05-27T14:00:00Z,35.72,-5.9,31.0,9.0,80,14,,6.21,29.940945,,,,,,TRUE,,,,,CAVOK,,,,,,,,VFR,,,,,,,,,,,,METAR,21.0
GMMX 271400Z VRB06KT 9999 FEW023 33/11 Q1011 NOSIG,GMMX,2015-05-27T14:00:00Z,31.62,-8.02,33.0,11.0,0,6,,6.21,29.852362,,,,,,TRUE,,,,,FEW,2300,,,,,,,VFR,,,,,,,,,,,,METAR,466.0
GMMN 271400Z 36013KT 9999 FEW016 31/09 Q1013 NOSIG,GMMN,2015-05-27T14:00:00Z,33.37,-7.57,31.0,9.0,360,13,,6.21,29.911417,,,,,,TRUE,,,,,FEW,1600,,,,,,,VFR,,,,,,,,,,,,METAR,206.0
GMME 271400Z 35011KT 320V020 CAVOK 28/12 Q1012 NOSIG,GMME,2015-05-27T14:00:00Z,34.03,-6.77,28.0,12.0,350,11,,6.21,29.88189,,,,,,TRUE,,,,,CAVOK,,,,,,,,VFR,,,,,,,,,,,,METAR,75.0
GMFF 271400Z 02009KT 330V070 9999 FEW033 FEW040CB 31/10 Q1014 NOSIG,GMFF,2015-05-27T14:00:00Z,33.92,-4.97,31.0,10.0,20,9,,6.21,29.940945,,,,,,TRUE,,,,,FEW,3300,FEW,4000,,,,,VFR,,,,,,,,,,,,METAR,579.0
GMAD 271400Z 27012KT 200V300 9999 SCT020 SCT030 24/15 Q1013 NOSIG,GMAD,2015-05-27T14:00:00Z,30.32,-9.42,24.0,15.0,270,12,,6.21,29.911417,,,,,,TRUE,,,,,SCT,2000,SCT,3000,,,,,VFR,,,,,,,,,,,,METAR,74.0
UKDR 271400Z 18004MPS 150V240 9999 SCT030CB BKN100 BKN200 26/13 Q1005 1809//70 TEMPO 22012G18MPS 1000 TSRAGR SQ BKN010 BKN015CB,UKDR,2015-05-27T14:00:00Z,48.05,33.22,26.0,13.0,180,8,,6.21,29.675198,,,,,,,,,,,SCT,3000,BKN,10000,BKN,20000,,,VFR,,,,,,,,,,,,METAR,124.0
UKLL 271400Z 31007MPS 9999 OVC008 08/07 Q1011 31290065 TEMPO 32010G16MPS,UKLL,2015-05-27T14:00:00Z,49.82,23.93,8.0,7.0,310,14,,6.21,29.852362,,,,,,,,,,,OVC,800,,,,,,,IFR,,,,,,,,,,,,METAR,325.0
UKDD 271400Z 17004MPS 130V210 CAVOK 24/14 Q1006 08090070 NOSIG,UKDD,2015-05-27T14:00:00Z,48.37,35.1,24.0,14.0,170,8,,6.21,29.704725,,,,,,TRUE,,,,,CAVOK,,,,,,,,VFR,,,,,,,,,,,,METAR,149.0
UKDE 271400Z 20004MPS 140V230 9999 SCT033 25/14 Q1006 20CLRD70 NOSIG,UKDE,2015-05-27T14:00:00Z,47.87,35.32,25.0,14.0,200,8,,6.21,29.704725,,,,,,TRUE,,,,,SCT,3300,,,,,,,VFR,,,,,,,,,,,,METAR,113.0
UKOO 271400Z 18007MPS 9999 FEW036TCU SCT046 BKN200 20/18 Q1005 16090065 NOSIG,UKOO,2015-05-27T14:00:00Z,46.42,30.68,20.0,18.0,180,14,,6.21,29.675198,,,,,,TRUE,,,,,FEW,3600,SCT,4600,BKN,20000,,,VFR,,,,,,,,,,,,METAR,35.0
UKHH 271400Z 20006MPS 9999 SCT040 BKN200 26/12 Q1006 250///65 NOSIG,UKHH,2015-05-27T14:00:00Z,49.92,36.28,26.0,12.0,200,12,,6.21,29.704725,,,,,,TRUE,,,,,SCT,4000,BKN,20000,,,,,VFR,,,,,,,,,,,,METAR,155.0
UKBB 271400Z 18006MPS CAVOK 27/11 Q1003 88CLRD95 NOSIG,UKBB,2015-05-27T14:00:00Z,50.33,30.9,27.0,11.0,180,12,,6.21,29.616142,,,,,,TRUE,,,,,CAVOK,,,,,,,,VFR,,,,,,,,,,,,METAR,119.0
EPWA 271400Z 32011KT 9999 FEW043 14/05 Q1013 NOSIG,EPWA,2015-05-27T14:00:00Z,52.17,20.97,14.0,5.0,320,11,,6.21,29.911417,,,,,,TRUE,,,,,FEW,4300,,,,,,,VFR,,,,,,,,,,,,METAR,107.0
EPRZ 271400Z 32008KT 9999 -SHRA FEW015CB BKN023 08/07 Q1014,EPRZ,2015-05-27T14:00:00Z,50.1,22.05,8.0,7.0,320,8,,6.21,29.940945,,,,,,,,,,-SHRA,FEW,1500,BKN,2300,,,,,MVFR,,,,,,,,,,,,METAR,202.0
EPPO 271400Z 32014KT 9999 BKN036 13/04 Q1017,EPPO,2015-05-27T14:00:00Z,52.42,16.82,13.0,4.0,320,14,,6.21,30.029528,,,,,,,,,,,BKN,3600,,,,,,,VFR,,,,,,,,,,,,METAR,92.0
EPLL 271400Z 31009KT 270V350 9999 FEW043 14/03 Q1015,EPLL,2015-05-27T14:00:00Z,51.72,19.4,14.0,3.0,310,9,,6.21,29.970472,,,,,,,,,,,FEW,4300,,,,,,,VFR,,,,,,,,,,,,METAR,184.0
EPKK 271400Z 29011KT 260V330 9999 FEW040TCU BKN060 12/04 Q1016,EPKK,2015-05-27T14:00:00Z,50.07,19.8,12.0,4.0,290,11,,6.21,30.0,,,,,,,,,,,FEW,4000,BKN,6000,,,,,VFR,,,,,,,,,,,,METAR,237.0
EPGD 271400Z 29018KT 9999 SCT036 12/05 Q1014,EPGD,2015-05-27T14:00:00Z,54.37,18.47,12.0,5.0,290,18,,6.21,29.940945,,,,,,,,,,,SCT,3600,,,,,,,VFR,,,,,,,,,,,,METAR,138.0
TGPY 271400Z 12010KT 9999 FEW020 29/24 Q1013 NOSIG,TGPY,2015-05-27T14:00:00Z,12.0,-61.78,29.0,24.0,120,10,,6.21,29.911417,,,,,,TRUE,,,,,FEW,2000,,,,,,,VFR,,,,,,,,,,,,METAR,7.0
SBJP 271400Z 12010KT 090V150 9999 SCT033 SCT070 30/22 Q1015,SBJP,2015-05-27T14:00:00Z,-7.15,-34.95,30.0,22.0,120,10,,6.21,29.970472,,,,,,,,,,,SCT,3300,SCT,7000,,,,,VFR,,,,,,,,,,,,METAR,7.0
YBDV 271400Z AUTO 13004KT //// // ////// 20/08 Q1019,YBDV,2015-05-27T14:00:00Z,-25.9,139.35,20.0,8.0,130,4,,,30.088583,,,TRUE,,,,,,,,,,,,,,,,,,,,,,,,,,,,METAR,47.0
YBCV 271400Z AUTO 00000KT 9999 // NCD 12/10 Q1021,YBCV,2015-05-27T14:00:00Z,-26.38,146.27,12.0,10.0,0,0,,6.21,30.147638,,,TRUE,,,,,,,,,,,,,,,,,,,,,,,,,,,,METAR,304.0
YBCS 271400Z 17009KT 9999 FEW015 SCT035 23/20 Q1017,YBCS,2015-05-27T14:00:00Z,-16.87,145.75,23.0,20.0,170,9,,6.21,30.029528,,,,,,,,,,,FEW,1500,SCT,3500,,,,,VFR,,,,,,,,,,,,METAR,7.0
YBCG 271400Z AUTO 20001KT 9999 // NCD 15/14 Q1023,YBCG,2015-05-27T14:00:00Z,-28.17,153.5,15.0,14.0,200,1,,6.21,30.206694,,,TRUE,,,,,,,,,,,,,,,,,,,,,,,,,,,,METAR,6.0
YBBN 271400Z 19005KT 9999 FEW020 SCT042 16/15 Q1023,YBBN,2015-05-27T14:00:00Z,-27.38,153.13,16.0,15.0,190,5,,6.21,30.206694,,,,,,,,,,,FEW,2000,SCT,4200,,,,,VFR,,,,,,,,,,,,METAR,5.0
YBAS 271400Z AUTO 09006KT 9999 // NCD 18/09 Q1020,YBAS,2015-05-27T14:00:00Z,-23.8,133.9,18.0,9.0,90,6,,6.21,30.11811,,,TRUE,,,,,,,,,,,,,,,,,,,,,,,,,,,,METAR,541.0
YAYE 271400Z AUTO 17004KT 9999 // BKN105 OVC125 17/16 Q1019,YAYE,2015-05-27T14:00:00Z,-25.18,130.98,17.0,16.0,170,4,,6.21,30.088583,,,TRUE,,,,,,,,BKN,10500,OVC,12500,,,,,VFR,,,,,,,,,,,,METAR,496.0
YARG 271400Z AUTO 20003KT 9999 // NCD 25/11 Q1015,YARG,2015-05-27T14:00:00Z,-16.63,128.45,25.0,11.0,200,3,,6.21,29.970472,,,TRUE,,,,,,,,,,,,,,,,,,,,,,,,,,,,METAR,165.0
YAMB 271400Z AUTO 22004KT 9999 // NCD 11/11 Q1023,YAMB,2015-05-27T14:00:00Z,-27.63,152.72,11.0,11.0,220,4,,6.21,30.206694,,,TRUE,,,,,,,,,,,,,,,,,,,,,,,,,,,,METAR,28.0
YABA 271400Z AUTO 05002KT 9999 // SCT032 SCT047 BKN063 10/10 Q1021,YABA,2015-05-27T14:00:00Z,-34.93,117.8,10.0,10.0,50,2,,6.21,30.147638,,,TRUE,,,,,,,,SCT,3200,SCT,4700,BKN,6300,,,VFR,,,,,,,,,,,,METAR,69.0
UHHH 271400Z 20002MPS 170V230 CAVOK 15/06 Q1007 R23L/CLRD60 NOSIG RMK QFE749/0998,UHHH,2015-05-27T14:00:00Z,48.52,135.18,15.0,6.0,200,4,,6.21,29.734253,,,,,,TRUE,,,,,CAVOK,,,,,,,,VFR,,,,,,,,,,,,METAR,72.0
SECU 271400Z 08002KT 9999 BKN040 14/11 Q1028,SECU,2015-05-27T14:00:00Z,-2.87,-78.97,14.0,11.0,80,2,,6.21,30.35433,,,,,,,,,,,BKN,4000,,,,,,,VFR,,,,,,,,,,,,METAR,2531.0
FMCZ 271400Z 14009KT 9999 SCT022 28/22 Q1014 NOSIG,FMCZ,2015-05-27T14:00:00Z,-12.8,45.27,28.0,22.0,140,9,,6.21,29.940945,,,,,,TRUE,,,,,SCT,2200,,,,,,,VFR,,,,,,,,,,,,METAR,7.0
MBPV 271400Z 08009KT 9999 SCT013 24/23 Q1017,MBPV,2015-05-27T14:00:00Z,21.77,-72.27,24.0,23.0,80,9,,6.21,30.029528,,,,,,,,,,,SCT,1300,,,,,,,VFR,,,,,,,,,,,,METAR,5.0
VOCL 271400Z 28004KT 6000 FEW015 30/24 Q1007 NOSIG,VOCL,2015-05-27T14:00:00Z,11.13,75.95,30.0,24.0,280,4,,3.73,29.734253,,,,,,TRUE,,,,,FEW,1500,,,,,,,MVFR,,,,,,,,,,,,METAR,104.0
TNCA 271400Z 08020KT 9999 SCT021 29/24 Q1012 A2991 NOSIG,TNCA,2015-05-27T14:00:00Z,12.5,-70.0,29.0,24.0,80,20,,6.21,29.88189,,,,,,TRUE,,,,,SCT,2100,,,,,,,VFR,,,,,,,,,,,,METAR,18.0
FQMA 271400Z 08006KT CAVOK 30/17 Q1016 NOSIG,FQMA,2015-05-27T14:00:00Z,-25.92,32.57,30.0,17.0,80,6,,6.21,30.0,,,,,,TRUE,,,,,CAVOK,,,,,,,,VFR,,,,,,,,,,,,METAR,44.0
UKLN 271400Z 30008G14MPS 250V340 9999 BKN015CB BKN100 10/07 Q1009 3309//70 TEMPO 33012G17MPS 2000 SHRA BKN005 BKN015CB,UKLN,2015-05-27T14:00:00Z,48.27,25.98,10.0,7.0,300,16,27,6.21,29.793306,,,,,,,,,,,BKN,1500,BKN,10000,,,,,MVFR,,,,,,,,,,,,METAR,252.0
UKKM 271400Z 21006MPS 180V240 CAVOK 27/10 Q1002,UKKM,2015-05-27T14:00:00Z,50.6,30.2,27.0,10.0,210,12,,6.21,29.586615,,,,,,,,,,,CAVOK,,,,,,,,VFR,,,,,,,,,,,,METAR,157.0
UKKK 271400Z 18003MPS 140V230 CAVOK 26/11 Q1003 08CLRD70 NOSIG,UKKK,2015-05-27T14:00:00Z,50.4,30.45,26.0,11.0,180,6,,6.21,29.616142,,,,,,TRUE,,,,,CAVOK,,,,,,,,VFR,,,,,,,,,,,,METAR,179.0
UKLU 271400Z 33006G11MPS 9999 BKN040 12/04 Q1012 10090070 NOSIG,UKLU,2015-05-27T14:00:00Z,48.63,22.27,12.0,4.0,330,12,21,6.21,29.88189,,,,,,TRUE,,,,,BKN,4000,,,,,,,VFR,,9.0,,,,,,,,,,METAR,117.0
UKON 271400Z 18006MPS 150V220 9999 SCT033CB 24/16 Q1005 NOSIG,UKON,2015-05-27T14:00:00Z,47.05,31.92,24.0,16.0,180,12,,6.21,29.675198,,,,,,TRUE,,,,,SCT,3300,,,,,,,VFR,,,,,,,,,,,,METAR,56.0
UKLI 271400Z 29005MPS 260V330 3300 -SHRA BKN010 BKN022CB 08/07 Q1011 NOSIG,UKLI,2015-05-27T14:00:00Z,48.88,24.68,8.0,7.0,290,10,,2.05,29.852362,,,,,,TRUE,,,,-SHRA,BKN,1000,BKN,2200,,,,,IFR,,,,,,,,,,,,METAR,280.0
UKLR 271400Z 31009MPS 9999 OVC007 10/09 Q1006 30090070 NOSIG,UKLR,2015-05-27T14:00:00Z,50.6,26.13,10.0,9.0,310,17,,6.21,29.704725,,,,,,TRUE,,,,,OVC,700,,,,,,,IFR,,,,,,,,,,,,METAR,230.0
VHHH 271400Z 21010KT 9999 FEW015 30/26 Q1006 NOSIG,VHHH,2015-05-27T14:00:00Z,22.32,113.92,30.0,26.0,210,10,,6.21,29.704725,,,,,,TRUE,,,,,FEW,1500,,,,,,,VFR,,,,,,,,,,,,METAR,9.0
UBBB 271400Z 17008KT CAVOK 28/05 Q1008 88CLRD70 NOSIG,UBBB,2015-05-27T14:00:00Z,40.45,50.07,28.0,5.0,170,8,,6.21,29.763779,,,,,,TRUE,,,,,CAVOK,,,,,,,,VFR,,,,,,,,,,,,METAR,-6.0
TDPD 271400Z 09009KT 9999 SCT023 29/22 Q1015,TDPD,2015-05-27T14:00:00Z,15.55,-61.3,29.0,22.0,90,9,,6.21,29.970472,,,,,,,,,,,SCT,2300,,,,,,,VFR,,,,,,,,,,,,METAR,14.0
SBBV 271400Z 07004KT 9999 SCT025 27/22 Q1014,SBBV,2015-05-27T14:00:00Z,2.85,-60.7,27.0,22.0,70,4,,6.21,29.940945,,,,,,,,,,,SCT,2500,,,,,,,VFR,,,,,,,,,,,,METAR,140.0
KNEL 271400Z AUTO 10SM OVC014 24/20 A3018 RMK AO2 SLP219 T02440200 PWINO $,KNEL,2015-05-27T14:00:00Z,40.02,-74.33,24.4,20.0,,,,10.0,30.180119,1021.9,,TRUE,TRUE,TRUE,,,,TRUE,,OVC,1400,,,,,,,MVFR,,,,,,,,,,,,METAR,31.0
SBPB 271400Z 07018KT 9999 SCT017 34/25 Q1013,SBPB,2015-05-27T14:00:00Z,-2.92,-41.75,34.0,25.0,70,18,,6.21,29.911417,,,,,,,,,,,SCT,1700,,,,,,,VFR,,,,,,,,,,,,METAR,5.0
VOBL 271400Z 23008KT 6000 VCSH SCT015 FEW025CB SCT080 32/23 Q1012 NOSIG,VOBL,2015-05-27T14:00:00Z,13.2,77.7,32.0,23.0,230,8,,3.73,29.88189,,,,,,TRUE,,,,VCSH,SCT,1500,FEW,2500,SCT,8000,,,MVFR,,,,,,,,,,,,METAR,915.0
GMMW 271400Z 04013KT 010V070 9999 FEW020 25/15 Q1015?NOSIG,GMMW,2015-05-27T14:00:00Z,34.98,-3.02,25.0,15.0,40,13,,6.21,,,,,,,TRUE,,,,,FEW,2000,,,,,,,VFR,,,,,,,,,,,,METAR,175.0
GMML 271400Z 34012KT CAVOK 24/12 Q1016 NOSIG,GMML,2015-05-27T14:00:00Z,27.13,-13.23,24.0,12.0,340,12,,6.21,30.0,,,,,,TRUE,,,,,CAVOK,,,,,,,,VFR,,,,,,,,,,,,METAR,6.0
GMMH 271400Z 34021KT CAVOK 21/15 Q1016 NOSIG,GMMH,2015-05-27T14:00:00Z,23.72,-15.93,21.0,15.0,340,21,,6.21,30.0,,,,,,TRUE,,,,,CAVOK,,,,,,,,VFR,,,,,,,,,,,,METAR,11.0
GMMC 271400Z 02010KT CAVOK 27/16 Q1011,GMMC,2015-05-27T14:00:00Z,33.57,-7.67,27.0,16.0,20,10,,6.21,29.852362,,,,,,,,,,,CAVOK,,,,,,,,VFR,,,,,,,,,,,,METAR,62.0
CWNP 271400Z AUTO 26001KT 12/12 RMK AO1 SLP170 T01240116 51007,CWNP,2015-05-27T14:00:00Z,50.27,-117.82,12.4,11.6,260,1,,,,1017.0,,TRUE,TRUE,,,,,,,,,,,,,,,,0.7,,,,,,,,,,,METAR,524.0
CWNM 271400Z AUTO 24006KT 13/10 RMK AO1 SLP164 T01320104 50004,CWNM,2015-05-27T14:00:00Z,49.5,-117.28,13.2,10.4,240,6,,,,1016.4,,TRUE,TRUE,,,,,,,,,,,,,,,,0.4,,,,,,,,,,,METAR,535.0
CWNK 271400Z AUTO 36011G16KT 11/06 RMK AO1 PK WND 36017/1345 T01140055,CWNK,2015-05-27T14:00:00Z,49.5,-98.03,11.4,5.5,360,11,16,,,,,TRUE,TRUE,,,,,,,,,,,,,,,,,,,,,,,,,,,METAR,268.0
CWNE 271400Z AUTO 28005KT 14/12 RMK AO1 SLP187 T01400116 51016,CWNE,2015-05-27T14:00:00Z,47.07,-64.0,14.0,11.6,280,5,,,,1018.7,,TRUE,TRUE,,,,,,,,,,,,,,,,1.6,,,,,,,,,,,METAR,15.0
CXSL 271400Z AUTO 14005KT 11/04 RMK AO1 T01140044,CXSL,2015-05-27T14:00:00Z,54.28,-112.5,11.4,4.4,140,5,,,,,,TRUE,TRUE,,,,,,,,,,,,,,,,,,,,,,,,,,,METAR,680.0
CPXL 271400Z AUTO 31004KT 13/10 RMK AO1 T01320103,CPXL,2015-05-27T14:00:00Z,49.87,-111.38,13.2,10.3,310,4,,,,,,TRUE,TRUE,,,,,,,,,,,,,,,,,,,,,,,,,,,METAR,799.0
CPSV 271400Z AUTO 36007KT 15/10 RMK AO1 T01470102,CPSV,2015-05-27T14:00:00Z,49.92,-110.92,14.7,10.2,360,7,,,,,,TRUE,TRUE,,,,,,,,,,,,,,,,,,,,,,,,,,,METAR,766.0
CPST 271400Z AUTO 33004KT 13/08 RMK AO1 T01300081,CPST,2015-05-27T14:00:00Z,51.03,-113.28,13.0,8.1,330,4,,,,,,TRUE,TRUE,,,,,,,,,,,,,,,,,,,,,,,,,,,METAR,967.0
CPFI 271400Z AUTO 30006KT 13/10 RMK AO1 T01280103 50004,CPFI,2015-05-27T14:00:00Z,49.8,-112.03,12.8,10.3,300,6,,,,,,TRUE,TRUE,,,,,,,,,,,,,,,,0.4,,,,,,,,,,,METAR,833.0
CWGM 271400Z AUTO 24004KT 11/08 RMK AO1 T01130084,CWGM,2015-05-27T14:00:00Z,49.13,-113.78,11.3,8.4,240,4,,,,,,TRUE,TRUE,,,,,,,,,,,,,,,,,,,,,,,,,,,METAR,1296.0
CWGL 271400Z AUTO 20012KT 18/16 RMK AO1 SLP134 T01790158 51009,CWGL,2015-05-27T14:00:00Z,44.52,-79.22,17.9,15.8,200,12,,,,1013.4,,TRUE,TRUE,,,,,,,,,,,,,,,,0.9,,,,,,,,,,,METAR,221.0
CWGD 271400Z AUTO 20018G25KT 21/16 RMK AO1 PK WND 21026/1347 SLP128 T02120155 53001,CWGD,2015-05-27T14:00:00Z,43.77,-81.72,21.2,15.5,200,18,25,,,1012.8,,TRUE,TRUE,,,,,,,,,,,,,,,,0.1,,,,,,,,,,,METAR,214.0
CWGB 271400Z AUTO 28013KT 15/12 RMK AO1 SLP177 T01530120 52010,CWGB,2015-05-27T14:00:00Z,49.35,-124.17,15.3,12.0,280,13,,,,1017.7,,TRUE,TRUE,,,,,,,,,,,,,,,,1.0,,,,,,,,,,,METAR,5.0
CWFQ 271400Z AUTO 18005KT 25/19 RMK AO1 SLP154 T02520192 58008,CWFQ,2015-05-27T14:00:00Z,45.03,-72.82,25.2,19.2,180,5,,,,1015.4,,TRUE,TRUE,,,,,,,,,,,,,,,,-0.8,,,,,,,,,,,METAR,152.0
CWFJ 271400Z AUTO 26004KT 12/10 RMK AO1 T01180097,CWFJ,2015-05-27T14:00:00Z,49.2,-113.27,11.8,9.7,260,4,,,,,,TRUE,TRUE,,,,,,,,,,,,,,,,,,,,,,,,,,,METAR,1136.0
CWEW 271400Z AUTO 21008KT 25/20 RMK AO1 SLP146 T02520200 56009,CWEW,2015-05-27T14:00:00Z,45.82,-73.43,25.2,20.0,210,8,,,,1014.6,,TRUE,TRUE,,,,,,,,,,,,,,,,-0.9,,,,,,,,,,,METAR,21.0
CWEL 271400Z AUTO 31014KT 16/12 RMK AO1 PK WND 30017/1344 SLP178 T01560123 51008,CWEL,2015-05-27T14:00:00Z,49.22,-123.78,15.6,12.3,310,14,,,,1017.8,,TRUE,TRUE,,,,,,,,,,,,,,,,0.8,,,,,,,,,,,METAR,5.0
CWEB 271400Z AUTO 12006KT 11/10 RMK AO1 SLP187 T01060101 53003,CWEB,2015-05-27T14:00:00Z,49.38,-126.55,10.6,10.1,120,6,,,,1018.7,,TRUE,TRUE,,,,,,,,,,,,,,,,0.3,,,,,,,,,,,METAR,7.0
CWDK 271400Z AUTO 35006KT 12/09 RMK AO1 SLP175 T01220092 50003,CWDK,2015-05-27T14:00:00Z,50.02,-113.62,12.2,9.2,350,6,,,,1017.5,,TRUE,TRUE,,,,,,,,,,,,,,,,0.3,,,,,,,,,,,METAR,1012.0
OJAI 271400Z 23010KT 8000 NSC 36/03 Q1013 NOSIG,OJAI,2015-05-27T14:00:00Z,31.72,36.0,36.0,3.0,230,10,,4.97,29.911417,,,,,,TRUE,,,,,,,,,,,,,,,,,,,,,,,,,METAR,730.0
FMNN 271400Z 25002KT 9999 FEW020 SCT100 29/21 Q1014,FMNN,2015-05-27T14:00:00Z,-13.32,48.32,29.0,21.0,250,2,,6.21,29.940945,,,,,,,,,,,FEW,2000,SCT,10000,,,,,VFR,,,,,,,,,,,,METAR,9.0
FKYS 271400Z VRB02KT 9999 TS BKN013 SCT023CB 28/20 Q1014 TEMPO 4000 TSRA,FKYS,2015-05-27T14:00:00Z,3.82,11.52,28.0,20.0,0,2,,6.21,29.940945,,,,,,,,,,TS,BKN,1300,SCT,2300,,,,,MVFR,,,,,,,,,,,,METAR,760.0
FKKR 271400Z 36006KT 9999 SCT023TCU FEW026CB 41/21 Q1005 TEMPO TS,FKKR,2015-05-27T14:00:00Z,9.32,13.37,41.0,21.0,360,6,,6.21,29.675198,,,,,,,,,,,SCT,2300,FEW,2600,,,,,VFR,,,,,,,,,,,,METAR,244.0
CWPZ 271400Z AUTO 00000KT 09/07 RMK AO1 SOG 00 1005 SLP168 T00850073,CWPZ,2015-05-27T14:00:00Z,54.38,-125.97,8.5,7.3,0,0,,,,1016.8,,TRUE,TRUE,,,,,,,,,,,,,,,,,,,,,,,,,,,METAR,713.0
CWPR 271400Z AUTO 15001KT 11/09 RMK AO1 SLP176 T01060088 52008,CWPR,2015-05-27T14:00:00Z,49.47,-120.52,10.6,8.8,150,1,,,,1017.6,,TRUE,TRUE,,,,,,,,,,,,,,,,0.8,,,,,,,,,,,METAR,700.0
CWPE 271400Z AUTO 13003KT 10/08 RMK AO1 SLP214 T00960082 50006,CWPE,2015-05-27T14:00:00Z,45.07,-66.47,9.6,8.2,130,3,,,,1021.4,,TRUE,TRUE,,,,,,,,,,,,,,,,0.6,,,,,,,,,,,METAR,1.0
CWPD 271400Z AUTO 19007KT 16/16 RMK AO1 0PAST HR 8016 SLP122 P0004 T01610161 50010,CWPD,2015-05-27T14:00:00Z,47.57,-71.22,16.1,16.1,190,7,,,,1012.2,,TRUE,TRUE,,,,,,,,,,,,,,,,1.0,,,,,0.04,,,,,,METAR,803.0
CWOD 271400Z AUTO 14009KT 16/14 RMK AO1 SLP082 T01560137 58039,CWOD,2015-05-27T14:00:00Z,48.85,-72.55,15.6,13.7,140,9,,,,1008.2,,TRUE,TRUE,,,,,,,,,,,,,,,,-3.9,,,,,,,,,,,METAR,137.0
CWOC 271400Z AUTO 09002KT 13/11 RMK AO1 SLP179 T01320107 50011,CWOC,2015-05-27T14:00:00Z,48.02,-65.32,13.2,10.7,90,2,,,,1017.9,,TRUE,TRUE,,,,,,,,,,,,,,,,1.1,,,,,,,,,,,METAR,47.0
CWNQ 271400Z AUTO 21010G15KT 25/20 RMK AO1 SLP135 T02540201 58013,CWNQ,2015-05-27T14:00:00Z,46.22,-72.65,25.4,20.1,210,10,15,,,1013.5,,TRUE,TRUE,,,,,,,,,,,,,,,,-1.3,,,,,,,,,,,METAR,10.0
SVJC 271400Z 08018KT 9999 FEW013 ///// Q1012,SVJC,2015-05-27T14:00:00Z,11.77,-70.15,,,80,18,,6.21,29.88189,,,,,,,,,,,FEW,1300,,,,,,,VFR,,,,,,,,,,,,METAR,23.0
SVGU 271400Z /////KT 9999 FEW017 BKN070 28/21 Q1014,SVGU,2015-05-27T14:00:00Z,9.03,-69.75,28.0,21.0,,,,6.21,29.940945,,,,,,,,,,,FEW,1700,BKN,7000,,,,,VFR,,,,,,,,,,,,METAR,163.0
SVGI 271400Z /////KT 9999 SCT010 30/21 Q////,SVGI,2015-05-27T14:00:00Z,10.57,-62.32,30.0,21.0,,,,6.21,,,,,,,,,,,,SCT,1000,,,,,,,VFR,,,,,,,,,,,,METAR,14.0
KOPF 271400Z 11014KT 10SM SCT030 BKN038 BKN045 29/20 A3012 RMK AO2 T02890200,KOPF,2015-05-27T14:00:00Z,25.92,-80.28,28.9,20.0,110,14,,10.0,30.121063,,,,TRUE,,,,,,,SCT,3000,BKN,3800,BKN,4500,,,VFR,,,,,,,,,,,,METAR,16.0
SCIE 271400Z 17005KT 7000 VCFG FEW003 05/05 Q1020,SCIE,2015-05-27T14:00:00Z,-36.77,-73.07,5.0,5.0,170,5,,4.35,30.11811,,,,,,,,,,VCFG,FEW,300,,,,,,,MVFR,,,,,,,,,,,,METAR,16.0
SCCF 271400Z 100016KT CAVOK 14/M07 Q1028,SCCF,2015-05-27T14:00:00Z,-22.5,-68.9,14.0,-7.0,100,16,,6.21,30.35433,,,,,,,,,,,CAVOK,,,,,,,,VFR,,,,,,,,,,,,METAR,2312.0
SCBA 271400Z 00000KT 9999 FEW006 BKN010 05/04 Q1015,SCBA,2015-05-27T14:00:00Z,-45.92,-71.67,5.0,4.0,0,0,,6.21,29.970472,,,,,,,,,,,FEW,600,BKN,1000,,,,,MVFR,,,,,,,,,,,,METAR,524.0
SCAR 271400Z 31005KT 9999 OVC033 21/16 Q1016,SCAR,2015-05-27T14:00:00Z,-18.35,-70.32,21.0,16.0,310,5,,6.21,30.0,,,,,,,,,,,OVC,3300,,,,,,,VFR,,,,,,,,,,,,METAR,59.0
SCFA 271400Z 20004KT 9999 SCT017 16/12 Q1016 NOSIG,SCFA,2015-05-27T14:00:00Z,-23.42,-70.42,16.0,12.0,200,4,,6.21,30.0,,,,,,TRUE,,,,,SCT,1700,,,,,,,VFR,,,,,,,,,,,,METAR,120.0
SCAT 271400Z VRB03KT 9999 OVC006 12/10 Q1018,SCAT,2015-05-27T14:00:00Z,-27.27,-70.77,12.0,10.0,0,3,,6.21,30.059055,,,,,,,,,,,OVC,600,,,,,,,IFR,,,,,,,,,,,,METAR,204.0
SCSE 271400Z 33004KT CAVOK 13/09 Q1017,SCSE,2015-05-27T14:00:00Z,-29.92,-71.2,13.0,9.0,330,4,,6.21,30.029528,,,,,,,,,,,CAVOK,,,,,,,,VFR,,,,,,,,,,,,METAR,146.0
SCDA 271400Z 21008KT CAVOK 20/13 Q1016,SCDA,2015-05-27T14:00:00Z,-20.52,-70.17,20.0,13.0,210,8,,6.21,30.0,,,,,,,,,,,CAVOK,,,,,,,,VFR,,,,,,,,,,,,METAR,52.0
SCJO 271400Z VRB03KT 9999 SCT020 BKN045 09/06 Q1020,SCJO,2015-05-27T14:00:00Z,-40.6,-73.03,9.0,6.0,0,3,,6.21,30.11811,,,,,,,,,,,SCT,2000,BKN,4500,,,,,VFR,,,,,,,,,,,,METAR,65.0
SCQP 271400Z VRB02KT 0250 R01/0275N FG VV002 01/01 Q1021,SCQP,2015-05-27T14:00:00Z,-38.92,-72.65,1.0,1.0,0,2,,0.16,30.147638,,,,,,,,,,FG,OVX,0,,,,,,,LIFR,,,,,,,,,,,200,METAR,97.0
SCVD 271400Z VRB02KT 0400 R35/0550 FG VV002 03/03 Q1021,SCVD,2015-05-27T14:00:00Z,-39.65,-73.07,3.0,3.0,0,2,,0.25,30.147638,,,,,,,,,,FG,OVX,0,,,,,,,LIFR,,,,,,,,,,,200,METAR,14.0
SCTE 271400Z 36009KT 9000 -SHRA BKN040 10/08 Q1019 NOSIG,SCTE,2015-05-27T14:00:00Z,-41.42,-73.07,10.0,8.0,360,9,,5.59,30.088583,,,,,,TRUE,,,,-SHRA,BKN,4000,,,,,,,VFR,,,,,,,,,,,,METAR,86.0
OMAL 271400Z 29015KT 7000 NSC 38/02 Q1008 A2977 NOSIG,OMAL,2015-05-27T14:00:00Z,24.25,55.6,38.0,2.0,290,15,,4.35,29.763779,,,,,,TRUE,,,,,,,,,,,,,,,,,,,,,,,,,METAR,262.0
OMAD 271400Z 28013KT CAVOK 38/07 Q1005 A2970 NOSIG,OMAD,2015-05-27T14:00:00Z,24.42,54.47,38.0,7.0,280,13,,6.21,29.675198,,,,,,TRUE,,,,,CAVOK,,,,,,,,VFR,,,,,,,,,,,,METAR,3.0
OMAA 271400Z 28012KT CAVOK 37/09 Q1005 A2969 NOSIG,OMAA,2015-05-27T14:00:00Z,24.42,54.63,37.0,9.0,280,12,,6.21,29.675198,,,,,,TRUE,,,,,CAVOK,,,,,,,,VFR,,,,,,,,,,,,METAR,27.0
YSDU 271400Z AUTO 15005KT 9999 // SCT093 BKN120 12/10 Q1023,YSDU,2015-05-27T14:00:00Z,-32.22,148.57,12.0,10.0,150,5,,6.21,30.206694,,,TRUE,,,,,,,,SCT,9300,BKN,12000,,,,,VFR,,,,,,,,,,,,METAR,275.0
YPPD 271400Z AUTO 14009KT 9999 -SHRA SCT009 BKN052 OVC064 20/18 Q1016,YPPD,2015-05-27T14:00:00Z,-20.37,118.62,20.0,18.0,140,9,,6.21,30.0,,,TRUE,,,,,,,-SHRA,SCT,900,BKN,5200,OVC,6400,,,VFR,,,,,,,,,,,,METAR,6.0
YPKG 271400Z AUTO 17007KT 9999 // NCD 12/05 Q1021,YPKG,2015-05-27T14:00:00Z,-30.77,121.45,12.0,5.0,170,7,,6.21,30.147638,,,TRUE,,,,,,,,,,,,,,,,,,,,,,,,,,,,METAR,360.0
YPGV 271400Z AUTO 15001KT 9999 // NCD 21/20 Q1013,YPGV,2015-05-27T14:00:00Z,-12.27,136.82,21.0,20.0,150,1,,6.21,29.911417,,,TRUE,,,,,,,,,,,,,,,,,,,,,,,,,,,,METAR,55.0
YPEA 271400Z AUTO 15003KT //// // NCD 07/05 Q1022,YPEA,2015-05-27T14:00:00Z,-31.67,116.02,7.0,5.0,150,3,,,30.177166,,,TRUE,,,,,,,,,,,,,,,,,,,,,,,,,,,,METAR,49.0
YMLT 271400Z AUTO 32015KT 9999 -SHRA SCT029 BKN041 OVC049 12/10 Q1014 RESHRA,YMLT,2015-05-27T14:00:00Z,-41.52,147.18,12.0,10.0,320,15,,6.21,29.940945,,,TRUE,,,,,,,-SHRA,SCT,2900,BKN,4100,OVC,4900,,,VFR,,,,,,,,,,,,METAR,178.0
YMHB 271400Z 01009KT 9999 FEW040 BKN049 14/09 Q1011,YMHB,2015-05-27T14:00:00Z,-42.82,147.52,14.0,9.0,10,9,,6.21,29.852362,,,,,,,,,,,FEW,4000,BKN,4900,,,,,VFR,,,,,,,,,,,,METAR,27.0
YMAV 271400Z AUTO 35013KT 9999 // OVC100 15/10 Q1017,YMAV,2015-05-27T14:00:00Z,-38.03,144.48,15.0,10.0,350,13,,6.21,30.029528,,,TRUE,,,,,,,,OVC,10000,,,,,,,VFR,,,,,,,,,,,,METAR,8.0
YFRT 271400Z AUTO 12008KT //// // ////// 14/12 Q1019,YFRT,2015-05-27T14:00:00Z,-30.83,128.12,14.0,12.0,120,8,,,30.088583,,,TRUE,,,,,,,,,,,,,,,,,,,,,,,,,,,,METAR,156.0
YCIN 271400Z AUTO 24005KT //// // NCD 23/12 Q1013,YCIN,2015-05-27T14:00:00Z,-17.58,123.83,23.0,12.0,240,5,,,29.911417,,,TRUE,,,,,,,,,,,,,,,,,,,,,,,,,,,,METAR,91.0
YBRM 271400Z AUTO 00000KT 9999 // NCD 20/18 Q1014,YBRM,2015-05-27T14:00:00Z,-17.93,122.22,20.0,18.0,0,0,,6.21,29.940945,,,TRUE,,,,,,,,,,,,,,,,,,,,,,,,,,,,METAR,9.0
YBRK 271400Z AUTO 14006KT 9999 // NCD 19/16 Q1021,YBRK,2015-05-27T14:00:00Z,-23.37,150.47,19.0,16.0,140,6,,6.21,30.147638,,,TRUE,,,,,,,,,,,,,,,,,,,,,,,,,,,,METAR,14.0
YBMA 271400Z AUTO 00000KT 9999 // NCD 16/09 Q1018,YBMA,2015-05-27T14:00:00Z,-20.67,139.47,16.0,9.0,0,0,,6.21,30.059055,,,TRUE,,,,,,,,,,,,,,,,,,,,,,,,,,,,METAR,344.0
YBHM 271400Z AUTO 13012KT 9999 // NCD 22/18 Q1019,YBHM,2015-05-27T14:00:00Z,-20.35,148.95,22.0,18.0,130,12,,6.21,30.088583,,,TRUE,,,,,,,,,,,,,,,,,,,,,,,,,,,,METAR,5.0
SCTN 271400Z VRB02KT 9999 -RA FEW006 OVC014 09/09 Q1017,SCTN,2015-05-27T14:00:00Z,-42.92,-72.7,9.0,9.0,0,2,,6.21,30.029528,,,,,,,,,,-RA,FEW,600,OVC,1400,,,,,MVFR,,,,,,,,,,,,METAR,4.0
SCPQ 271400Z 34010KT 5000 -SHRA BR OVC002 08/08 Q1016,SCPQ,2015-05-27T14:00:00Z,-42.33,-73.72,8.0,8.0,340,10,,3.11,30.0,,,,,,,,,,-SHRA BR,OVC,200,,,,,,,LIFR,,,,,,,,,,,,METAR,5.0
SCIP 271400Z 11006KT 070V160 9999 -SHRA BKN020 19/14 Q1020 NOSIG,SCIP,2015-05-27T14:00:00Z,-27.17,-109.43,19.0,14.0,110,6,,6.21,30.11811,,,,,,TRUE,,,,-SHRA,BKN,2000,,,,,,,MVFR,,,,,,,,,,,,METAR,69.0
SCEL 271400Z VRB01KT 6000 SKC 09/01 Q1018 NOSIG,SCEL,2015-05-27T14:00:00Z,-33.37,-70.77,9.0,1.0,0,1,,3.73,30.059055,,,,,,TRUE,,,,,SKC,,,,,,,,MVFR,,,,,,,,,,,,METAR,476.0
SCCI 271400Z 26012KT 9999 FEW045 05/04 Q1009 NOSIG,SCCI,2015-05-27T14:00:00Z,-53.0,-70.83,5.0,4.0,260,12,,6.21,29.793306,,,,,,TRUE,,,,,FEW,4500,,,,,,,VFR,,,,,,,,,,,,METAR,37.0
SCNT 271400Z 01004KT 9999 FEW036 BKN200 M01/M02 Q1010,SCNT,2015-05-27T14:00:00Z,-51.67,-72.53,-1.0,-2.0,10,4,,6.21,29.822834,,,,,,,,,,,FEW,3600,BKN,20000,,,,,VFR,,,,,,,,,,,,METAR,67.0
OMDB 271400Z 26017KT CAVOK 34/17 Q1005 NOSIG,OMDB,2015-05-27T14:00:00Z,25.25,55.37,34.0,17.0,260,17,,6.21,29.675198,,,,,,TRUE,,,,,CAVOK,,,,,,,,VFR,,,,,,,,,,,,METAR,5.0
DABB 271400Z 30015G25KT 9999 FEW026 SCT040 23/12 Q1017,DABB,2015-05-27T14:00:00Z,36.82,7.82,23.0,12.0,300,15,25,6.21,30.029528,,,,,,,,,,,FEW,2600,SCT,4000,,,,,VFR,,,,,,,,,,,,METAR,4.0
SVGD 271400Z 29003KT 9999 FEW020 SCT070 30/21 Q////,SVGD,2015-05-27T14:00:00Z,7.22,-70.75,30.0,21.0,290,3,,6.21,,,,,,,,,,,,FEW,2000,SCT,7000,,,,,VFR,,,,,,,,,,,,METAR,131.0
SVVG 271400Z 27005KT 9999 OVC010 28/28 Q1010,SVVG,2015-05-27T14:00:00Z,8.62,-71.67,28.0,28.0,270,5,,6.21,29.822834,,,,,,,,,,,OVC,1000,,,,,,,MVFR,,,,,,,,,,,,METAR,100.0
SVCZ 271400Z /////KT 9999 SCT020 29/24 Q1010,SVCZ,2015-05-27T14:00:00Z,9.37,-66.92,29.0,24.0,,,,6.21,29.822834,,,,,,,,,,,SCT,2000,,,,,,,VFR,,,,,,,,,,,,METAR,160.0
SVJM 271400Z /////KT 9999 SCT020 26/24 Q1012,SVJM,2015-05-27T14:00:00Z,9.92,-67.38,26.0,24.0,,,,6.21,29.88189,,,,,,,,,,,SCT,2000,,,,,,,VFR,,,,,,,,,,,,METAR,429.0
SKCL 271400Z 13003KT 9000 SCT030 SCT100 24/20 A3004 RMK/HZ,SKCL,2015-05-27T14:00:00Z,3.53,-76.37,24.0,20.0,130,3,,5.59,30.041338,,,,,,,,,,,SCT,3000,SCT,10000,,,,,VFR,,,,,,,,,,,,METAR,969.0
LYPG 271400Z 01023KT 310V030 9999 FEW040 23/07 Q1008 NOSIG,LYPG,2015-05-27T14:00:00Z,42.37,19.25,23.0,7.0,10,23,,6.21,29.763779,,,,,,TRUE,,,,,FEW,4000,,,,,,,VFR,,,,,,,,,,,,METAR,43.0
LYNI 271400Z 30009G21KT 9999 SCT015 BKN020 13/11 Q1012 NOSIG,LYNI,2015-05-27T14:00:00Z,43.32,21.88,13.0,11.0,300,9,21,6.21,29.88189,,,,,,TRUE,,,,,SCT,1500,BKN,2000,,,,,MVFR,,,,,,,,,,,,METAR,202.0
LYKV 271400Z 30010KT 250V340 9999 SCT015 BKN027 13/10 Q1015 NOSIG,LYKV,2015-05-27T14:00:00Z,43.82,20.58,13.0,10.0,300,10,,6.21,29.970472,,,,,,TRUE,,,,,SCT,1500,BKN,2700,,,,,MVFR,,,,,,,,,,,,METAR,209.0
LYBT 271400Z 31005KT 9999 -RA SCT020 BKN030 13/10 Q1014 NOSIG,LYBT,2015-05-27T14:00:00Z,44.93,20.25,13.0,10.0,310,5,,6.21,29.940945,,,,,,TRUE,,,,-RA,SCT,2000,BKN,3000,,,,,MVFR,,,,,,,,,,,,METAR,80.0
LYBE 271400Z 32005KT 9999 FEW020 BKN033 13/12 Q1014 NOSIG,LYBE,2015-05-27T14:00:00Z,44.82,20.28,13.0,12.0,320,5,,6.21,29.940945,,,,,,TRUE,,,,,FEW,2000,BKN,3300,,,,,VFR,,,,,,,,,,,,METAR,99.0
BIRK 271400Z 01017KT 9999 SCT020 BKN055 08/01 Q0999,BIRK,2015-05-27T14:00:00Z,64.13,-21.93,8.0,1.0,10,17,,6.21,29.498032,,,,,,,,,,,SCT,2000,BKN,5500,,,,,VFR,,,,,,,,,,,,METAR,61.0
BIKF 271400Z 36017KT 9999 FEW014 BKN095 BKN180 07/03 Q1000,BIKF,2015-05-27T14:00:00Z,63.98,-22.6,7.0,3.0,360,17,,6.21,29.52756,,,,,,,,,,,FEW,1400,BKN,9500,BKN,18000,,,VFR,,,,,,,,,,,,METAR,54.0
BIEG 271400Z 02007KT 9999 VCSH SCT020 BKN030 BKN050 07/03 Q0999,BIEG,2015-05-27T14:00:00Z,65.27,-14.4,7.0,3.0,20,7,,6.21,29.498032,,,,,,,,,,VCSH,SCT,2000,BKN,3000,BKN,5000,,,MVFR,,,,,,,,,,,,METAR,38.0
BIAR 271400Z 36018KT 9999 SCT016 BKN040 06/04 Q1000,BIAR,2015-05-27T14:00:00Z,65.67,-18.07,6.0,4.0,360,18,,6.21,29.52756,,,,,,,,,,,SCT,1600,BKN,4000,,,,,VFR,,,,,,,,,,,,METAR,27.0
LQTZ 271400Z 30009KT 9999 BKN050 15/07 Q1016,LQTZ,2015-05-27T14:00:00Z,44.47,18.73,15.0,7.0,300,9,,6.21,30.0,,,,,,,,,,,BKN,5000,,,,,,,VFR,,,,,,,,,,,,METAR,306.0
LQSA 271400Z 33005KT 270V050 9999 FEW035 BKN052 13/05 Q1016 NOSIG,LQSA,2015-05-27T14:00:00Z,43.82,18.32,13.0,5.0,330,5,,6.21,30.0,,,,,,TRUE,,,,,FEW,3500,BKN,5200,,,,,VFR,,,,,,,,,,,,METAR,511.0
LQBK 271400Z 33006KT 9999 FEW043 17/06 Q1016 NOSIG,LQBK,2015-05-27T14:00:00Z,44.93,17.3,17.0,6.0,330,6,,6.21,30.0,,,,,,TRUE,,,,,FEW,4300,,,,,,,VFR,,,,,,,,,,,,METAR,122.0
SVPC 271400Z 00000KT 9999 BKN050 30/XX Q1014,SVPC,2015-05-27T14:00:00Z,10.48,-68.07,30.0,,0,0,,6.21,29.940945,,,,,,,,,,,BKN,5000,,,,,,,VFR,,,,,,,,,,,,METAR,2.0
SVVA 271400Z 11007KT 9999 FEW013 29/20 Q1015,SVVA,2015-05-27T14:00:00Z,10.15,-67.92,29.0,20.0,110,7,,6.21,29.970472,,,,,,,,,,,FEW,1300,,,,,,,VFR,,,,,,,,,,,,METAR,431.0
TQPF 271400Z 13005KT 9999 SCT019 28/21 Q1016,TQPF,2015-05-27T14:00:00Z,18.18,-63.03,28.0,21.0,130,5,,6.21,30.0,,,,,,,,,,,SCT,1900,,,,,,,VFR,,,,,,,,,,,,METAR,31.0
LYTV 271400Z 36005KT 9999 FEW040 24/08 Q1008 NOSIG,LYTV,2015-05-27T14:00:00Z,42.38,18.72,24.0,8.0,360,5,,6.21,29.763779,,,,,,TRUE,,,,,FEW,4000,,,,,,,VFR,,,,,,,,,,,,METAR,5.0
LYUZ 271400Z 30014KT 4000 BR BKN003 OVC015 06/05 Q1015,LYUZ,2015-05-27T14:00:00Z,43.9,19.7,6.0,5.0,300,14,,2.49,29.970472,,,,,,,,,,BR,BKN,300,OVC,1500,,,,,LIFR,,,,,,,,,,,,METAR,904.0
LYVR 271400Z VRB06KT 9999 -RA SCT026 SCT033 13/12 Q1013 NOSIG,LYVR,2015-05-27T14:00:00Z,45.13,21.32,13.0,12.0,0,6,,6.21,29.911417,,,,,,TRUE,,,,-RA,SCT,2600,SCT,3300,,,,,VFR,,,,,,,,,,,,METAR,85.0
LKKV 271400Z 28008KT 240V300 9999 SCT033 BKN043 09/01 Q1021,LKKV,2015-05-27T14:00:00Z,50.2,12.92,9.0,1.0,280,8,,6.21,30.147638,,,,,,,,,,,SCT,3300,BKN,4300,,,,,VFR,,,,,,,,,,,,METAR,604.0
LKMT 271400Z 34010KT 9999 FEW046 11/04 Q1017 NOSIG,LKMT,2015-05-27T14:00:00Z,49.67,18.12,11.0,4.0,340,10,,6.21,30.029528,,,,,,TRUE,,,,,FEW,4600,,,,,,,VFR,,,,,,,,,,,,METAR,256.0
LKTB 271400Z 32012KT 9999 SCT043 13/03 Q1018 NOSIG,LKTB,2015-05-27T14:00:00Z,49.13,16.68,13.0,3.0,320,12,,6.21,30.059055,,,,,,TRUE,,,,,SCT,4300,,,,,,,VFR,,,,,,,,,,,,METAR,246.0
LKPR 271400Z 33013KT 9999 SCT038 11/02 Q1021 NOSIG,LKPR,2015-05-27T14:00:00Z,50.1,14.27,11.0,2.0,330,13,,6.21,30.147638,,,,,,TRUE,,,,,SCT,3800,,,,,,,VFR,,,,,,,,,,,,METAR,365.0
EIDW 271400Z 23014KT 9999 -RA FEW018 SCT025 BKN035 10/07 Q1016 NOSIG,EIDW,2015-05-27T14:00:00Z,53.42,-6.25,10.0,7.0,230,14,,6.21,30.0,,,,,,TRUE,,,,-RA,FEW,1800,SCT,2500,BKN,3500,,,VFR,,,,,,,,,,,,METAR,85.0
EINN 271400Z 24019KT 6000 -DZ FEW005 BKN007 BKN010 12/12 Q1017 NOSIG,EINN,2015-05-27T14:00:00Z,52.7,-8.92,12.0,12.0,240,19,,3.73,30.029528,,,,,,TRUE,,,,-DZ,FEW,500,BKN,700,BKN,1000,,,IFR,,,,,,,,,,,,METAR,20.0
EICK 271400Z 23015KT 9999 BKN008 BKN017 BKN060 11/10 Q1020 NOSIG,EICK,2015-05-27T14:00:00Z,51.85,-8.47,11.0,10.0,230,15,,6.21,30.11811,,,,,,TRUE,,,,,BKN,800,BKN,1700,BKN,6000,,,IFR,,,,,,,,,,,,METAR,162.0
EIKN 271400Z 21013KT 170V240 2200 -RADZ OVC003 11/10 Q1013 NOSIG,EIKN,2015-05-27T14:00:00Z,53.92,-8.82,11.0,10.0,210,13,,1.37,29.911417,,,,,,TRUE,,,,-RA -DZ,OVC,300,,,,,,,LIFR,,,,,,,,,,,,METAR,64.0
SYCJ 271400Z 00000KT 9999 BKN014 27/24 Q1014,SYCJ,2015-05-27T14:00:00Z,6.5,-58.25,27.0,24.0,0,0,,6.21,29.940945,,,,,,,,,,,BKN,1400,,,,,,,MVFR,,,,,,,,,,,,METAR,30.0
KQEJ 271400Z AUTO 19001KT 9999 CLR 17/07 A2983 RMK A02 TSNO,KQEJ,2015-05-27T14:00:00Z,100.65,-1000.65,17.0,7.0,190,1,,6.21,29.828741,,,TRUE,TRUE,,,TRUE,,,,CLR,,,,,,,,VFR,,,,,,,,,,,,METAR,999.0
MRPV 271400Z 08016KT 9999 FEW030 BKN250 23/16 A3006 NOSIG,MRPV,2015-05-27T14:00:00Z,9.95,-84.15,23.0,16.0,80,16,,6.21,30.059055,,,,,,TRUE,,,,,FEW,3000,BKN,25000,,,,,VFR,,,,,,,,,,,,METAR,994.0
SAAR 271400Z 18006KT 9000 NSC 15/11 Q1023,SAAR,2015-05-27T14:00:00Z,-32.92,-60.77,15.0,11.0,180,6,,5.59,30.206694,,,,,,,,,,,,,,,,,,,,,,,,,,,,,,,METAR,25.0
SAEZ 271400Z 13007KT CAVOK 16/12 Q1024,SAEZ,2015-05-27T14:00:00Z,-34.82,-58.52,16.0,12.0,130,7,,6.21,30.236221,,,,,,,,,,,CAVOK,,,,,,,,VFR,,,,,,,,,,,,METAR,20.0
SAME 271400Z 00000KT CAVOK 13/03 Q1022,SAME,2015-05-27T14:00:00Z,-32.82,-68.77,13.0,3.0,0,0,,6.21,30.177166,,,,,,,,,,,CAVOK,,,,,,,,VFR,,,,,,,,,,,,METAR,704.0
SARE 271400Z 17005KT 130V240 9999 OVC012 16/15 Q1017,SARE,2015-05-27T14:00:00Z,-27.43,-59.03,16.0,15.0,170,5,,6.21,30.029528,,,,,,,,,,,OVC,1200,,,,,,,MVFR,,,,,,,,,,,,METAR,52.0
SARL 271400Z 18012KT 9999 SCT014 OVC100 16/14 Q1017,SARL,2015-05-27T14:00:00Z,-29.67,-57.13,16.0,14.0,180,12,,6.21,30.029528,,,,,,,,,,,SCT,1400,OVC,10000,,,,,VFR,,,,,,,,,,,,METAR,70.0
SASJ 271400Z 18004KT 9999 BKN025 BKN100 16/12 Q1023,SASJ,2015-05-27T14:00:00Z,-24.37,-65.1,16.0,12.0,180,4,,6.21,30.206694,,,,,,,,,,,BKN,2500,BKN,10000,,,,,MVFR,,,,,,,,,,,,METAR,1167.0
SAVC 271400Z 27010KT CAVOK 14/04 Q1015,SAVC,2015-05-27T14:00:00Z,-45.77,-67.47,14.0,4.0,270,10,,6.21,29.970472,,,,,,,,,,,CAVOK,,,,,,,,VFR,,,,,,,,,,,,METAR,46.0
SAWG 271400Z 27006KT 9999 FEW045 SCT200 04/02 Q1010,SAWG,2015-05-27T14:00:00Z,-51.62,-69.32,4.0,2.0,270,6,,6.21,29.822834,,,,,,,,,,,FEW,4500,SCT,20000,,,,,VFR,,,,,,,,,,,,METAR,19.0
SAZM 271400Z 00000KT 2500 BR FEW015 13/12 Q1025,SAZM,2015-05-27T14:00:00Z,-37.92,-57.57,13.0,12.0,0,0,,1.55,30.265747,,,,,,,,,,BR,FEW,1500,,,,,,,IFR,,,,,,,,,,,,METAR,21.0
OIFM 271400Z 30010KT 7000 FEW035CB FEW040 29/M10 Q1014 A2996,OIFM,2015-05-27T14:00:00Z,32.75,51.87,29.0,-10.0,300,10,,4.35,29.940945,,,,,,,,,,,FEW,3500,FEW,4000,,,,,MVFR,,,,,,,,,,,,METAR,1542.0
OIII 271400Z 30011KT 9999 FEW040 BKN100 29/M03 Q1012 A2990 TEMPO 27020G30KT,OIII,2015-05-27T14:00:00Z,35.68,51.3,29.0,-3.0,300,11,,6.21,29.88189,,,,,,,,,,,FEW,4000,BKN,10000,,,,,VFR,,,,,,,,,,,,METAR,1191.0
OIKB 271400Z 20018KT 4000 SA NSC 32/26 Q1001 A2957 NOSIG,OIKB,2015-05-27T14:00:00Z,27.22,56.37,32.0,26.0,200,18,,2.49,29.557087,,,,,,TRUE,,,,SA,,,,,,,,,,,,,,,,,,,,,METAR,10.0
OIMM 271400Z 08010KT 9999 FEW040 BKN190 29/M05 Q1013 A2992,OIMM,2015-05-27T14:00:00Z,36.23,59.62,29.0,-5.0,80,10,,6.21,29.911417,,,,,,,,,,,FEW,4000,BKN,19000,,,,,VFR,,,,,,,,,,,,METAR,980.0
OISS 271400Z 27016KT 9999 FEW040 31/M04 Q1013 A2994,OISS,2015-05-27T14:00:00Z,29.52,52.57,31.0,-4.0,270,16,,6.21,29.911417,,,,,,,,,,,FEW,4000,,,,,,,VFR,,,,,,,,,,,,METAR,1491.0
OITT 271400Z 30010KT 8000 FEW035TCU FEW040CB BKN180 25/06 Q1016 A3001 NOSIG,OITT,2015-05-27T14:00:00Z,38.13,46.23,25.0,6.0,300,10,,4.97,30.0,,,,,,TRUE,,,,,FEW,3500,FEW,4000,BKN,18000,,,MVFR,,,,,,,,,,,,METAR,1361.0
OIZH 271400Z 36010KT 9999 FEW040 31/M02 Q1010 A2984 NOSIG,OIZH,2015-05-27T14:00:00Z,29.47,60.92,31.0,-2.0,360,10,,6.21,29.822834,,,,,,TRUE,,,,,FEW,4000,,,,,,,VFR,,,,,,,,,,,,METAR,1370.0
OIAA 271400Z 33014KT CAVOK 42/08 Q1005,OIAA,2015-05-27T14:00:00Z,30.37,48.25,42.0,8.0,330,14,,6.21,29.675198,,,,,,,,,,,CAVOK,,,,,,,,VFR,,,,,,,,,,,,METAR,11.0
OIBK 271400Z 29018KT 5000 HZ NSC 32/22 Q1001,OIBK,2015-05-27T14:00:00Z,26.53,53.98,32.0,22.0,290,18,,3.11,29.557087,,,,,,,,,,HZ,,,,,,,,,,,,,,,,,,,,,METAR,30.0
OICC 271400Z 29012KT 4500 DU FEW040 SCT180 28/M08 Q1016 A3000 TEMPO 5000 DU,OICC,2015-05-27T14:00:00Z,34.33,47.17,28.0,-8.0,290,12,,2.8,30.0,,,,,,,,,,DU,FEW,4000,SCT,18000,,,,,IFR,,,,,,,,,,,,METAR,1322.0
OIGG 271400Z VRB02KT 8000 FEW025CB SCT090 BKN160 27/16 Q1008,OIGG,2015-05-27T14:00:00Z,37.33,49.6,27.0,16.0,0,2,,4.97,29.763779,,,,,,,,,,,FEW,2500,SCT,9000,BKN,16000,,,MVFR,,,,,,,,,,,,METAR,-13.0
OIIE 271400Z 35014KT 9999 FEW040 FEW045CB SCT180 30/M05 Q1010,OIIE,2015-05-27T14:00:00Z,35.42,51.15,30.0,-5.0,350,14,,6.21,29.822834,,,,,,,,,,,FEW,4000,FEW,4500,SCT,18000,,,VFR,,,,,,,,,,,,METAR,1008.0
OITR 271400Z 01006KT 9999 FEW035CB FEW040 BKN170 23/09 Q1014 TEMP CHECK TEXT NEW ENDING ADDED VABBYFYX,OITR,2015-05-27T14:00:00Z,37.67,45.07,23.0,9.0,10,6,,6.21,29.940945,,,,,,,,,,VA,FEW,3500,FEW,4000,BKN,17000,,,VFR,,,,,,,,,,,,METAR,1312.0
ORBI 271400Z 29012KT CAVOK 38/05 Q1008 NOSIG,ORBI,2015-05-27T14:00:00Z,33.27,44.23,38.0,5.0,290,12,,6.21,29.763779,,,,,,TRUE,,,,,CAVOK,,,,,,,,VFR,,,,,,,,,,,,METAR,35.0
LFPO 271400Z 25004KT 190V320 CAVOK 21/07 Q1023 NOSIG,LFPO,2015-05-27T14:00:00Z,48.72,2.38,21.0,7.0,250,4,,6.21,30.206694,,,,,,TRUE,,,,,CAVOK,,,,,,,,VFR,,,,,,,,,,,,METAR,96.0
LFPG 271400Z 01004KT 300V060 CAVOK 21/06 Q1023 NOSIG,LFPG,2015-05-27T14:00:00Z,49.02,2.52,21.0,6.0,10,4,,6.21,30.206694,,,,,,TRUE,,,,,CAVOK,,,,,,,,VFR,,,,,,,,,,,,METAR,109.0
LFMN 271400Z 20009KT 9999 FEW043TCU 22/12 Q1015 NOSIG,LFMN,2015-05-27T14:00:00Z,43.63,7.2,22.0,12.0,200,9,,6.21,29.970472,,,,,,TRUE,,,,,FEW,4300,,,,,,,VFR,,,,,,,,,,,,METAR,10.0
LFLL 271400Z 35017KT CAVOK 19/04 Q1021 NOSIG,LFLL,2015-05-27T14:00:00Z,45.72,5.07,19.0,4.0,350,17,,6.21,30.147638,,,,,,TRUE,,,,,CAVOK,,,,,,,,VFR,,,,,,,,,,,,METAR,240.0
LFPV 271400Z AUTO VRB02KT 9999 NSC 20/09 Q1023,LFPV,2015-05-27T14:00:00Z,48.77,2.2,20.0,9.0,0,2,,6.21,30.206694,,,TRUE,,,,,,,,,,,,,,,,,,,,,,,,,,,,METAR,179.0
LFPC 271400Z AUTO VRB02KT CAVOK 21/09 Q1023,LFPC,2015-05-27T14:00:00Z,49.25,2.52,21.0,9.0,0,2,,6.21,30.206694,,,TRUE,,,,,,,,CAVOK,,,,,,,,VFR,,,,,,,,,,,,METAR,88.0
LFOA 271400Z AUTO VRB04KT 9999 NSC 21/06 Q1023,LFOA,2015-05-27T14:00:00Z,47.03,2.63,21.0,6.0,0,4,,6.21,30.206694,,,TRUE,,,,,,,,,,,,,,,,,,,,,,,,,,,,METAR,179.0
ORER 271400Z 28011KT 7000 NSC 33/04 Q1011 NOSIG,ORER,2015-05-27T14:00:00Z,36.23,43.97,33.0,4.0,280,11,,4.35,29.852362,,,,,,TRUE,,,,,,,,,,,,,,,,,,,,,,,,,METAR,409.0
LFQQ 271400Z 24011KT 210V270 CAVOK 20/05 Q1022 NOSIG,LFQQ,2015-05-27T14:00:00Z,50.57,3.1,20.0,5.0,240,11,,6.21,30.177166,,,,,,TRUE,,,,,CAVOK,,,,,,,,VFR,,,,,,,,,,,,METAR,52.0
LFRB 271400Z 29008KT 250V330 9999 SCT031 17/11 Q1024 NOSIG,LFRB,2015-05-27T14:00:00Z,48.45,-4.42,17.0,11.0,290,8,,6.21,30.236221,,,,,,TRUE,,,,,SCT,3100,,,,,,,VFR,,,,,,,,,,,,METAR,103.0
LFRS 271400Z 25003KT 200V310 9999 SCT047 22/11 Q1024 NOSIG,LFRS,2015-05-27T14:00:00Z,47.17,-1.6,22.0,11.0,250,3,,6.21,30.236221,,,,,,TRUE,,,,,SCT,4700,,,,,,,VFR,,,,,,,,,,,,METAR,27.0
LRBS 271400Z 27007KT 220V320 CAVOK 25/11 Q1004 NOSIG,LRBS,2015-05-27T14:00:00Z,44.5,26.08,25.0,11.0,270,7,,6.21,29.64567,,,,,,TRUE,,,,,CAVOK,,,,,,,,VFR,,,,,,,,,,,,METAR,91.0
LRCK 271400Z 17008KT 9999 FEW050CB 20/15 Q1005 NOSIG,LRCK,2015-05-27T14:00:00Z,44.37,28.48,20.0,15.0,170,8,,6.21,29.675198,,,,,,TRUE,,,,,FEW,5000,,,,,,,VFR,,,,,,,,,,,,METAR,108.0
LROP 271400Z 26009KT 230V290 CAVOK 25/10 Q1004 NOSIG,LROP,2015-05-27T14:00:00Z,44.57,26.1,25.0,10.0,260,9,,6.21,29.64567,,,,,,TRUE,,,,,CAVOK,,,,,,,,VFR,,,,,,,,,,,,METAR,95.0
OMFJ 271400Z 28020G31KT 2000 BLDU NSC 40/04 Q1003 RMK A2963,OMFJ,2015-05-27T14:00:00Z,25.1,56.32,40.0,4.0,280,20,31,1.24,29.616142,,,,,,,,,,BLDU,,,,,,,,,,,,,,,,,,,,,SPECI,28.0
OMDW 271400Z 28023KT 3500 BLDU NSC 37/10 Q1006 TEMPO 2500,OMDW,2015-05-27T14:00:00Z,24.9,55.17,37.0,10.0,280,23,,2.17,29.704725,,,,,,,,,,BLDU,,,,,,,,,,,,,,,,,,,,,METAR,25.0
OMSJ 271400Z 26021KT 8000 NSC 36/15 Q1005,OMSJ,2015-05-27T14:00:00Z,25.32,55.52,36.0,15.0,260,21,,4.97,29.675198,,,,,,,,,,,,,,,,,,,,,,,,,,,,,,,METAR,33.0
LRSB 271400Z 32023KT 9999 FEW058 SCT074 15/09 Q1009,LRSB,2015-05-27T14:00:00Z,45.78,24.08,15.0,9.0,320,23,,6.21,29.793306,,,,,,,,,,,FEW,5800,SCT,7400,,,,,VFR,,,,,,,,,,,,METAR,444.0
LRTR 271400Z 36011KT 330V040 9999 FEW035 BKN047 14/08 Q1013 NOSIG,LRTR,2015-05-27T14:00:00Z,45.82,21.33,14.0,8.0,360,11,,6.21,29.911417,,,,,,TRUE,,,,,FEW,3500,BKN,4700,,,,,VFR,,,,,,,,,,,,METAR,88.0
LFSI 271400Z AUTO VRB06KT CAVOK 19/06 Q1023,LFSI,2015-05-27T14:00:00Z,48.62,4.9,19.0,6.0,0,6,,6.21,30.206694,,,TRUE,,,,,,,,CAVOK,,,,,,,,VFR,,,,,,,,,,,,METAR,140.0
LFSO 271400Z AUTO 34005KT 230V040 CAVOK 17/05 Q1023,LFSO,2015-05-27T14:00:00Z,48.57,5.97,17.0,5.0,340,5,,6.21,30.206694,,,TRUE,,,,,,,,CAVOK,,,,,,,,VFR,,,,,,,,,,,,METAR,350.0
LFSX 271400Z AUTO 35007KT 290V040 CAVOK 19/04 Q1023,LFSX,2015-05-27T14:00:00Z,47.77,6.33,19.0,4.0,350,7,,6.21,30.206694,,,TRUE,,,,,,,,CAVOK,,,,,,,,VFR,,,,,,,,,,,,METAR,273.0
OIZB 271400Z 31004KT 9999 SCT040 39/06 Q1003,OIZB,2015-05-27T14:00:00Z,31.1,61.55,39.0,6.0,310,4,,6.21,29.616142,,,,,,,,,,,SCT,4000,,,,,,,VFR,,,,,,,,,,,,METAR,489.0
OING 271400Z 26018KT 8000 FEW035CB FEW040TCU BKN170 28/13 Q1010,OING,2015-05-27T14:00:00Z,36.9,54.4,28.0,13.0,260,18,,4.97,29.822834,,,,,,,,,,,FEW,3500,FEW,4000,BKN,17000,,,MVFR,,,,,,,,,,,,METAR,155.0
OIBS 271400Z 26014KT CAVOK 32/22 Q1003,OIBS,2015-05-27T14:00:00Z,25.9,54.55,32.0,22.0,260,14,,6.21,29.616142,,,,,,,,,,,CAVOK,,,,,,,,VFR,,,,,,,,,,,,METAR,14.0
OIBJ 271400Z 32019KT CAVOK 35/03 Q1009,OIBJ,2015-05-27T14:00:00Z,27.82,52.35,35.0,3.0,320,19,,6.21,29.793306,,,,,,,,,,,CAVOK,,,,,,,,VFR,,,,,,,,,,,,METAR,663.0
OIZJ 271400Z 27010KT 5000 HZ NSC 33/24 Q1001,OIZJ,2015-05-27T14:00:00Z,25.65,57.8,33.0,24.0,270,10,,3.11,29.557087,,,,,,,,,,HZ,,,,,,,,,,,,,,,,,,,,,METAR,4.0
OIMN 271400Z 06006KT 9999 FEW040CB SCT040 BKN170 29/05 Q1013,OIMN,2015-05-27T14:00:00Z,37.48,57.3,29.0,5.0,60,6,,6.21,29.911417,,,,,,,,,,,FEW,4000,SCT,4000,BKN,17000,,,VFR,,,,,,,,,,,,METAR,1074.0
OIIP 271400Z 36010KT 9999 SCT040 SCT100 28/M01 Q1012,OIIP,2015-05-27T14:00:00Z,35.78,50.83,28.0,-1.0,360,10,,6.21,29.88189,,,,,,,,,,,SCT,4000,SCT,10000,,,,,VFR,,,,,,,,,,,,METAR,1271.0
OIBV 271400Z 29016KT CAVOK 31/21 Q1002,OIBV,2015-05-27T14:00:00Z,26.82,53.35,31.0,21.0,290,16,,6.21,29.586615,,,,,,,,,,,CAVOK,,,,,,,,VFR,,,,,,,,,,,,METAR,24.0
OIBA 271400Z 26014KT 8000 NSC 32/23 Q1002,OIBA,2015-05-27T14:00:00Z,25.88,55.03,32.0,23.0,260,14,,4.97,29.586615,,,,,,,,,,,,,,,,,,,,,,,,,,,,,,,METAR,7.0
TKPN 271400Z 07009KT 9999 SCT021 29/21 Q1015,TKPN,2015-05-27T14:00:00Z,17.18,-62.57,29.0,21.0,70,9,,6.21,29.970472,,,,,,,,,,,SCT,2100,,,,,,,VFR,,,,,,,,,,,,METAR,17.0
LJPZ 271400Z 10010KT 050V150 CAVOK 22/04 Q1015,LJPZ,2015-05-27T14:00:00Z,45.47,13.62,22.0,4.0,100,10,,6.21,29.970472,,,,,,,,,,,CAVOK,,,,,,,,VFR,,,,,,,,,,,,METAR,2.0
LJMB 271400Z 36013KT 320V040 CAVOK 15/03 Q1018,LJMB,2015-05-27T14:00:00Z,46.47,15.67,15.0,3.0,360,13,,6.21,30.059055,,,,,,,,,,,CAVOK,,,,,,,,VFR,,,,,,,,,,,,METAR,265.0
LJLJ 271400Z 33010KT 290V020 9999 FEW080 BKN100 18/M01 Q1017 NOSIG,LJLJ,2015-05-27T14:00:00Z,46.22,14.47,18.0,-1.0,330,10,,6.21,30.029528,,,,,,TRUE,,,,,FEW,8000,BKN,10000,,,,,VFR,,,,,,,,,,,,METAR,385.0
LFLX 271400Z AUTO 33003KT 260V060 CAVOK 21/07 Q1023,LFLX,2015-05-27T14:00:00Z,46.85,1.72,21.0,7.0,330,3,,6.21,30.206694,,,TRUE,,,,,,,,CAVOK,,,,,,,,VFR,,,,,,,,,,,,METAR,157.0
LFLB 271400Z 34009KT 9999 FEW050 21/06 Q1020 NOSIG,LFLB,2015-05-27T14:00:00Z,45.63,5.87,21.0,6.0,340,9,,6.21,30.11811,,,,,,TRUE,,,,,FEW,5000,,,,,,,VFR,,,,,,,,,,,,METAR,239.0
LFBZ 271400Z AUTO 36010KT 320V030 9999 FEW050 20/14 Q1023,LFBZ,2015-05-27T14:00:00Z,43.47,-1.52,20.0,14.0,360,10,,6.21,30.206694,,,TRUE,,,,,,,,FEW,5000,,,,,,,VFR,,,,,,,,,,,,METAR,71.0
LFBT 271400Z AUTO 05006KT 320V110 CAVOK 20/08 Q1023,LFBT,2015-05-27T14:00:00Z,43.17,0.0,20.0,8.0,50,6,,6.21,30.206694,,,TRUE,,,,,,,,CAVOK,,,,,,,,VFR,,,,,,,,,,,,METAR,363.0
LFBP 271400Z AUTO 01008KT 330V090 CAVOK 21/08 Q1022,LFBP,2015-05-27T14:00:00Z,43.37,-0.42,21.0,8.0,10,8,,6.21,30.177166,,,TRUE,,,,,,,,CAVOK,,,,,,,,VFR,,,,,,,,,,,,METAR,185.0
LFBO 271400Z AUTO 34011KT 300V030 9999 FEW013 22/02 Q1022,LFBO,2015-05-27T14:00:00Z,43.62,1.37,22.0,2.0,340,11,,6.21,30.177166,,,TRUE,,,,,,,,FEW,1300,,,,,,,VFR,,,,,,,,,,,,METAR,153.0
LFBL 271400Z AUTO 01007KT 340V050 CAVOK 19/07 Q1023,LFBL,2015-05-27T14:00:00Z,45.87,1.17,19.0,7.0,10,7,,6.21,30.206694,,,TRUE,,,,,,,,CAVOK,,,,,,,,VFR,,,,,,,,,,,,METAR,402.0
LFBI 271400Z AUTO 36005KT 290V100 CAVOK 21/05 Q1023,LFBI,2015-05-27T14:00:00Z,46.57,0.32,21.0,5.0,360,5,,6.21,30.206694,,,TRUE,,,,,,,,CAVOK,,,,,,,,VFR,,,,,,,,,,,,METAR,120.0
LFBH 271400Z AUTO 30010KT CAVOK 20/09 Q1024,LFBH,2015-05-27T14:00:00Z,46.18,-1.2,20.0,9.0,300,10,,6.21,30.236221,,,TRUE,,,,,,,,CAVOK,,,,,,,,VFR,,,,,,,,,,,,METAR,10.0
LFBD 271400Z AUTO VRB06KT CAVOK 24/08 Q1023,LFBD,2015-05-27T14:00:00Z,44.82,-0.7,24.0,8.0,0,6,,6.21,30.206694,,,TRUE,,,,,,,,CAVOK,,,,,,,,VFR,,,,,,,,,,,,METAR,61.0
OITL 271400Z 12010KT 9999 FEW035TCU FEW040CB FEW080 SCT170 21/07 Q1015,OITL,2015-05-27T14:00:00Z,38.33,48.42,21.0,7.0,120,10,,6.21,29.970472,,,,,,,,,,,FEW,3500,FEW,4000,FEW,8000,SCT,17000,VFR,,,,,,,,,,,,METAR,1316.0
OINZ 271400Z 21008KT 9999 FEW040 SCT090 27/19 Q1010,OINZ,2015-05-27T14:00:00Z,36.63,53.2,27.0,19.0,210,8,,6.21,29.822834,,,,,,,,,,,FEW,4000,SCT,9000,,,,,VFR,,,,,,,,,,,,METAR,11.0
OIBP 271400Z 30019KT CAVOK 35/19 Q1002 A2959,OIBP,2015-05-27T14:00:00Z,27.38,52.73,35.0,19.0,300,19,,6.21,29.586615,,,,,,,,,,,CAVOK,,,,,,,,VFR,,,,,,,,,,,,METAR,9.0
OIBB 271400Z 30019KT CAVOK 33/17 Q1004 A2965,OIBB,2015-05-27T14:00:00Z,28.97,50.82,33.0,17.0,300,19,,6.21,29.64567,,,,,,,,,,,CAVOK,,,,,,,,VFR,,,,,,,,,,,,METAR,19.0
LFMY 271400Z AUTO 33014KT 280V350 CAVOK 24/06 Q1015,LFMY,2015-05-27T14:00:00Z,43.6,5.08,24.0,6.0,330,14,,6.21,29.970472,,,TRUE,,,,,,,,CAVOK,,,,,,,,VFR,,,,,,,,,,,,METAR,60.0
LFMO 271400Z AUTO 35027G38KT CAVOK 23/05 Q1016,LFMO,2015-05-27T14:00:00Z,44.12,4.87,23.0,5.0,350,27,38,6.21,30.0,,,TRUE,,,,,,,,CAVOK,,,,,,,,VFR,,,,,,,,,,,,METAR,55.0
LFMC 271400Z 23009KT 170V270 9999 FEW060TCU SCT066 25/08 Q1014,LFMC,2015-05-27T14:00:00Z,43.37,6.37,25.0,8.0,230,9,,6.21,29.940945,,,,,,,,,,,FEW,6000,SCT,6600,,,,,VFR,,,,,,,,,,,,METAR,78.0
LFKS 271400Z AUTO 23005KT 9999 FEW034 BKN054 BKN070 20/15 Q1014,LFKS,2015-05-27T14:00:00Z,41.92,9.4,20.0,15.0,230,5,,6.21,29.940945,,,TRUE,,,,,,,,FEW,3400,BKN,5400,BKN,7000,,,VFR,,,,,,,,,,,,METAR,22.0
LFBY 271400Z 07005KT 350V130 CAVOK 22/08 Q1022,LFBY,2015-05-27T14:00:00Z,43.67,-1.07,22.0,8.0,70,5,,6.21,30.177166,,,,,,,,,,,CAVOK,,,,,,,,VFR,,,,,,,,,,,,METAR,32.0
LFBM 271400Z AUTO VRB05KT CAVOK 23/07 Q1022,LFBM,2015-05-27T14:00:00Z,43.92,-0.5,23.0,7.0,0,5,,6.21,30.177166,,,TRUE,,,,,,,,CAVOK,,,,,,,,VFR,,,,,,,,,,,,METAR,63.0
LFBG 271400Z AUTO 33005KT 290V040 CAVOK 23/08 Q1023,LFBG,2015-05-27T14:00:00Z,45.67,-0.32,23.0,8.0,330,5,,6.21,30.206694,,,TRUE,,,,,,,,CAVOK,,,,,,,,VFR,,,,,,,,,,,,METAR,31.0
LFBC 271400Z AUTO 31012KT 260V340 CAVOK 22/09 Q1023,LFBC,2015-05-27T14:00:00Z,44.52,-1.12,22.0,9.0,310,12,,6.21,30.206694,,,TRUE,,,,,,,,CAVOK,,,,,,,,VFR,,,,,,,,,,,,METAR,33.0
LJCE 271400Z AUTO 02006KT 330V070 9999 NSC 17/03 Q1017,LJCE,2015-05-27T14:00:00Z,45.9,15.52,17.0,3.0,20,6,,6.21,30.029528,,,TRUE,,,,,,,,,,,,,,,,,,,,,,,,,,,,METAR,155.0
OITZ 271400Z 12010KT 9999 FEW030CB SCT035 24/01 Q1015,OITZ,2015-05-27T14:00:00Z,36.77,48.37,24.0,1.0,120,10,,6.21,29.970472,,,,,,,,,,,FEW,3000,SCT,3500,,,,,VFR,,,,,,,,,,,,METAR,1663.0
OISY 271400Z 31012KT 9999 FEW050 27/M06 Q1019,OISY,2015-05-27T14:00:00Z,30.7,51.55,27.0,-6.0,310,12,,6.21,30.088583,,,,,,,,,,,FEW,5000,,,,,,,VFR,,,,,,,,,,,,METAR,1811.0
OISL 271400Z 27010KT CAVOK 37/05 Q1005,OISL,2015-05-27T14:00:00Z,27.67,54.37,37.0,5.0,270,10,,6.21,29.675198,,,,,,,,,,,CAVOK,,,,,,,,VFR,,,,,,,,,,,,METAR,805.0
OINR 271400Z 01004KT 9999 FEW015 FEW040CB 24/21 Q1007,OINR,2015-05-27T14:00:00Z,36.88,50.67,24.0,21.0,10,4,,6.21,29.734253,,,,,,,,,,,FEW,1500,FEW,4000,,,,,VFR,,,,,,,,,,,,METAR,-20.0
OINN 271400Z 08014KT 9999 FEW035 BKN170 26/19 Q1006,OINN,2015-05-27T14:00:00Z,36.67,51.47,26.0,19.0,80,14,,6.21,29.704725,,,,,,,,,,,FEW,3500,BKN,17000,,,,,VFR,,,,,,,,,,,,METAR,-19.0
OIKQ 271400Z 23022KT 2500 SA NSC 32/24 Q1000,OIKQ,2015-05-27T14:00:00Z,26.75,55.9,32.0,24.0,230,22,,1.55,29.52756,,,,,,,,,,SA,,,,,,,,,,,,,,,,,,,,,METAR,12.0
OICI 271400Z 26012KT 8000 NSC 28/M05 Q1017 A3005,OICI,2015-05-27T14:00:00Z,33.58,46.4,28.0,-5.0,260,12,,4.97,30.029528,,,,,,,,,,,,,,,,,,,,,,,,,,,,,,,METAR,1343.0
OIAM 271400Z 25008KT CAVOK 42/01 Q1004,OIAM,2015-05-27T14:00:00Z,30.55,49.15,42.0,1.0,250,8,,6.21,29.64567,,,,,,,,,,,CAVOK,,,,,,,,VFR,,,,,,,,,,,,METAR,4.0
OIAG 271400Z 30012KT CAVOK 42/M17 Q1005,OIAG,2015-05-27T14:00:00Z,30.77,49.67,42.0,-17.0,300,12,,6.21,29.675198,,,,,,,,,,,CAVOK,,,,,,,,VFR,,,,,,,,,,,,METAR,29.0
LFRL 271400Z AUTO 29011KT 9999 NSC 17/12 Q1025,LFRL,2015-05-27T14:00:00Z,48.27,-4.42,17.0,12.0,290,11,,6.21,30.265747,,,TRUE,,,,,,,,,,,,,,,,,,,,,,,,,,,,METAR,82.0
LFRJ 271400Z AUTO 31009KT 280V350 9999 BKN019 BKN025 17/13 Q1024,LFRJ,2015-05-27T14:00:00Z,48.52,-4.15,17.0,13.0,310,9,,6.21,30.236221,,,TRUE,,,,,,,,BKN,1900,BKN,2500,,,,,MVFR,,,,,,,,,,,,METAR,115.0
LFOJ 271400Z AUTO 28004KT 190V350 9999 NSC 22/08 Q1023,LFOJ,2015-05-27T14:00:00Z,47.97,1.75,22.0,8.0,280,4,,6.21,30.206694,,,TRUE,,,,,,,,,,,,,,,,,,,,,,,,,,,,METAR,125.0
LFOE 271400Z AUTO VRB01KT CAVOK 20/08 Q1023,LFOE,2015-05-27T14:00:00Z,49.02,1.22,20.0,8.0,0,1,,6.21,30.206694,,,TRUE,,,,,,,,CAVOK,,,,,,,,VFR,,,,,,,,,,,,METAR,146.0
LFOC 271400Z AUTO 25005KT 210V290 9999 NSC 21/09 Q1023,LFOC,2015-05-27T14:00:00Z,48.03,1.37,21.0,9.0,250,5,,6.21,30.206694,,,TRUE,,,,,,,,,,,,,,,,,,,,,,,,,,,,METAR,127.0
LFYR 271400Z AUTO VRB03KT CAVOK 22/06 Q1023,LFYR,2015-05-27T14:00:00Z,47.32,1.67,22.0,6.0,0,3,,6.21,30.206694,,,TRUE,,,,,,,,CAVOK,,,,,,,,VFR,,,,,,,,,,,,METAR,86.0
UUWW 271400Z 12006MPS CAVOK 26/10 Q1006 R06/000070 NOSIG,UUWW,2015-05-27T14:00:00Z,55.6,37.27,26.0,10.0,120,12,,6.21,29.704725,,,,,,TRUE,,,,,CAVOK,,,,,,,,VFR,,,,,,,,,,,,METAR,203.0
UUEE 271400Z 15005MPS CAVOK 28/09 Q1007 R07L/000062 R07R/000062 NOSIG,UUEE,2015-05-27T14:00:00Z,55.97,37.42,28.0,9.0,150,10,,6.21,29.734253,,,,,,TRUE,,,,,CAVOK,,,,,,,,VFR,,,,,,,,,,,,METAR,190.0
UUDL 271400Z 13004MPS 090V160 CAVOK 29/10 Q1009 R23/010095 NOSIG RMK QFE748,UUDL,2015-05-27T14:00:00Z,57.57,40.17,29.0,10.0,130,8,,6.21,29.793306,,,,,,TRUE,,,,,CAVOK,,,,,,,,VFR,,,,,,,,,,,,METAR,88.0
UUDD 271400Z 13006G11MPS CAVOK 28/09 Q1007 R88/010095 NOSIG,UUDD,2015-05-27T14:00:00Z,55.4,37.9,28.0,9.0,130,12,21,6.21,29.734253,,,,,,TRUE,,,,,CAVOK,,,,,,,,VFR,,,,,,,,,,,,SPECI,168.0
UUBW 271400Z 12007MPS CAVOK 29/09 Q1007 R30/////60 NOSIG,UUBW,2015-05-27T14:00:00Z,55.55,38.15,29.0,9.0,120,14,,6.21,29.734253,,,,,,TRUE,,,,,CAVOK,,,,,,,,VFR,,,,,,,,,,,,METAR,115.0
ULLI 271400Z 30005MPS 250V330 9999 FEW016 BKN070 OVC200 15/09 Q1007 R28R/090070 NOSIG,ULLI,2015-05-27T14:00:00Z,59.8,30.27,15.0,9.0,300,10,,6.21,29.734253,,,,,,TRUE,,,,,FEW,1600,BKN,7000,OVC,20000,,,VFR,,,,,,,,,,,,METAR,4.0
UHWW 271400Z 00000MPS 9999 OVC013 11/09 Q1013 R25L/0///70 NOSIG RMK QFE758,UHWW,2015-05-27T14:00:00Z,43.4,132.15,11.0,9.0,0,0,,6.21,29.911417,,,,,,TRUE,,,,,OVC,1300,,,,,,,MVFR,,,,,,,,,,,,METAR,184.0
UHSS 271400Z 14002MPS 9999 NSC 05/04 Q1011 RMK QFE757/1009,UHSS,2015-05-27T14:00:00Z,46.88,142.72,5.0,4.0,140,4,,6.21,29.852362,,,,,,,,,,,,,,,,,,,,,,,,,,,,,,,METAR,31.0
UHPP 271400Z 05002MPS 020V080 9999 NSC 06/M03 Q0998 R34R/CLRD70 NOSIG RMK QFE745/0994,UHPP,2015-05-27T14:00:00Z,53.17,158.45,6.0,-3.0,50,4,,6.21,29.468504,,,,,,TRUE,,,,,,,,,,,,,,,,,,,,,,,,,SPECI,40.0
UHMM 271400Z 07001MPS 9999 FEW050 00/M04 Q1005 RMK QFE739,UHMM,2015-05-27T14:00:00Z,59.92,150.72,0.0,-4.0,70,2,,6.21,29.675198,,,,,,,,,,,FEW,5000,,,,,,,VFR,,,,,,,,,,,,METAR,118.0
UHMA 271400Z 09012G18MPS 9999 -SHRA SCT010 BKN018CB OVC080 03/01 Q1009 RMK QFE753/1004 MT OBSC,UHMA,2015-05-27T14:00:00Z,64.73,177.73,3.0,1.0,90,23,35,6.21,29.793306,,,,,,,,,,-SHRA,SCT,1000,BKN,1800,OVC,8000,,,MVFR,,,,,,,,,,,,METAR,62.0
UHBB 271400Z 22003MPS 9999 FEW033 SCT200 16/05 Q1002 R36/090060 NOSIG RMK QFE734/0979,UHBB,2015-05-27T14:00:00Z,50.43,127.42,16.0,5.0,220,6,,6.21,29.586615,,,,,,TRUE,,,,,FEW,3300,SCT,20000,,,,,VFR,,,,,,,,,,,,METAR,195.0
DAAV 271400Z 02012KT 9999 FEW020 22/14 Q1019,DAAV,2015-05-27T14:00:00Z,36.8,5.88,22.0,14.0,20,12,,6.21,30.088583,,,,,,,,,,,FEW,2000,,,,,,,VFR,,,,,,,,,,,,METAR,11.0
VVPQ 271400Z 28004KT 9999 FEW017 28/24 Q1009 NOSIG,VVPQ,2015-05-27T14:00:00Z,10.23,103.97,28.0,24.0,280,4,,6.21,29.793306,,,,,,TRUE,,,,,FEW,1700,,,,,,,VFR,,,,,,,,,,,,METAR,4.0
VVCR 271400Z 23013KT 9999 FEW017 32/26 Q1008 NOSIG,VVCR,2015-05-27T14:00:00Z,12.0,109.22,32.0,26.0,230,13,,6.21,29.763779,,,,,,TRUE,,,,,FEW,1700,,,,,,,VFR,,,,,,,,,,,,METAR,12.0
VVPB 271400Z VRB02KT 9999 FEW017 SCT300 30/26 Q1006 NOSIG,VVPB,2015-05-27T14:00:00Z,16.38,107.7,30.0,26.0,0,2,,6.21,29.704725,,,,,,TRUE,,,,,FEW,1700,SCT,30000,,,,,VFR,,,,,,,,,,,,METAR,17.0
VVDN 271400Z VRB02KT 9999 FEW017 SCT300 30/25 Q1007 NOSIG,VVDN,2015-05-27T14:00:00Z,16.02,108.2,30.0,25.0,0,2,,6.21,29.734253,,,,,,TRUE,,,,,FEW,1700,SCT,30000,,,,,VFR,,,,,,,,,,,,METAR,7.0
VVNB 271400Z 11008KT CAVOK 31/25 Q1001 NOSIG,VVNB,2015-05-27T14:00:00Z,21.22,105.8,31.0,25.0,110,8,,6.21,29.557087,,,,,,TRUE,,,,,CAVOK,,,,,,,,VFR,,,,,,,,,,,,METAR,12.0
VVTS 271400Z 25010KT 9999 FEW020 30/23 Q1009 NOSIG,VVTS,2015-05-27T14:00:00Z,10.82,106.67,30.0,23.0,250,10,,6.21,29.793306,,,,,,TRUE,,,,,FEW,2000,,,,,,,VFR,,,,,,,,,,,,METAR,19.0
GOSP 271400Z 04002KT CAVOK 38/02 Q1011,GOSP,2015-05-27T14:00:00Z,16.68,-14.97,38.0,2.0,40,2,,6.21,29.852362,,,,,,,,,,,CAVOK,,,,,,,,VFR,,,,,,,,,,,,METAR,7.0
GOSS 271400Z 35008KT 320V040 CAVOK 32/19 Q1012,GOSS,2015-05-27T14:00:00Z,16.05,-16.43,32.0,19.0,350,8,,6.21,29.88189,,,,,,,,,,,CAVOK,,,,,,,,VFR,,,,,,,,,,,,METAR,4.0
GOTT 271400Z 36006KT CAVOK 41/10 Q1008,GOTT,2015-05-27T14:00:00Z,13.73,-13.65,41.0,10.0,360,6,,6.21,29.763779,,,,,,,,,,,CAVOK,,,,,,,,VFR,,,,,,,,,,,,METAR,50.0
GOGG 271400Z 10004KT CAVOK 39/11 Q1011,GOGG,2015-05-27T14:00:00Z,12.55,-16.27,39.0,11.0,100,4,,6.21,29.852362,,,,,,,,,,,CAVOK,,,,,,,,VFR,,,,,,,,,,,,METAR,23.0
SCRM 271400Z 28015KT 9999 SCT015 M02/M04 Q1000,SCRM,2015-05-27T14:00:00Z,-62.18,-58.98,-2.0,-4.0,280,15,,6.21,29.52756,,,,,,,,,,,SCT,1500,,,,,,,VFR,,,,,,,,,,,,METAR,45.0
SCCH 271400Z 20006KT 0150 FG VV000 02/02 Q1021,SCCH,2015-05-27T14:00:00Z,-36.57,-72.02,2.0,2.0,200,6,,0.09,30.147638,,,,,,,,,,FG,OVX,0,,,,,,,LIFR,,,,,,,,,,,0,METAR,148.0
OJAQ 271400Z 21012KT 5000 HZ NSC 42/02 Q1007 NOSIG,OJAQ,2015-05-27T14:00:00Z,29.62,35.02,42.0,2.0,210,12,,3.11,29.734253,,,,,,TRUE,,,,HZ,,,,,,,,,,,,,,,,,,,,,METAR,51.0
UWLW 271400Z 20010MPS 8000 TS SCT033CB BKN100 29/15 Q1014 R20/CLRD60 TEMPO VRB10MPS 3000 -TSRA RMK QFE756,UWLW,2015-05-27T14:00:00Z,54.4,48.8,29.0,15.0,200,19,,4.97,29.940945,,,,,,,,,,TS,SCT,3300,BKN,10000,,,,,MVFR,,,,,,,,,,,,SPECI,66.0
UWKS 271400Z 21004MPS 9999 FEW020 28/12 Q1014 R24/000060 NOSIG RMK QFE746,UWKS,2015-05-27T14:00:00Z,56.08,47.35,28.0,12.0,210,8,,6.21,29.940945,,,,,,TRUE,,,,,FEW,2000,,,,,,,VFR,,,,,,,,,,,,METAR,170.0
UWKE 271400Z 21003MPS 9999 SCT033CB 28/13 Q1016 R21/090070 NOSIG RMK QFE745/0994,UWKE,2015-05-27T14:00:00Z,55.57,52.08,28.0,13.0,210,6,,6.21,30.0,,,,,,TRUE,,,,,SCT,3300,,,,,,,VFR,,,,,,,,,,,,SPECI,196.0
UWKD 271400Z 16005MPS 9999 SCT033 28/10 Q1015 R11/70D NOSIG RMK QFE751/1001,UWKD,2015-05-27T14:00:00Z,55.62,49.28,28.0,10.0,160,10,,6.21,29.970472,,,,,,TRUE,,,,,SCT,3300,,,,,,,VFR,,,,,,,,,,,,METAR,126.0
USPP 271400Z 29002MPS CAVOK 24/10 Q1015 R21/090060 NOSIG RMK QFE750,USPP,2015-05-27T14:00:00Z,57.92,56.02,24.0,10.0,290,4,,6.21,29.970472,,,,,,TRUE,,,,,CAVOK,,,,,,,,VFR,,,,,,,,,,,,SPECI,123.0
USCM 271400Z 30003MPS 9999 SCT040CB 23/12 Q1019 R01/090065 TEMPO TSRA RMK QFE725,USCM,2015-05-27T14:00:00Z,53.4,58.75,23.0,12.0,300,6,,6.21,30.088583,,,,,,,,,,,SCT,4000,,,,,,,VFR,,,,,,,,,,,,METAR,435.0
UUMO 271400Z 14005MPS CAVOK 28/11 Q1006 R08/090060 NOSIG RMK QFE740/0987,UUMO,2015-05-27T14:00:00Z,55.52,37.5,28.0,11.0,140,10,,6.21,29.704725,,,,,,TRUE,,,,,CAVOK,,,,,,,,VFR,,,,,,,,,,,,METAR,174.0
UIBB 271400Z 03003MPS 9999 NSC 12/M05 Q1010 R30/CLRD60 NOSIG RMK QFE715/0953,UIBB,2015-05-27T14:00:00Z,56.37,101.7,12.0,-5.0,30,6,,6.21,29.822834,,,,,,TRUE,,,,,,,,,,,,,,,,,,,,,,,,,SPECI,490.0
UIAA 271400Z 02002MPS 9000 SCT043CB 16/02 Q1000 R29/CLRD70 NOSIG RMK QFE692,UIAA,2015-05-27T14:00:00Z,52.02,113.32,16.0,2.0,20,4,,5.59,29.52756,,,,,,TRUE,,,,,SCT,4300,,,,,,,VFR,,,,,,,,,,,,SPECI,685.0
UWWW 271400Z 25002MPS 9999 FEW033 SCT100 BKN200 25/09 Q1017 R23/CLRD60 NOSIG RMK QFE751/1002,UWWW,2015-05-27T14:00:00Z,53.5,50.17,25.0,9.0,250,4,,6.21,30.029528,,,,,,TRUE,,,,,FEW,3300,SCT,10000,BKN,20000,,,VFR,,,,,,,,,,,,SPECI,146.0
UWSS 271400Z 04004MPS 9999 SCT050CB BKN100 26/13 Q1013 R30/190095 NOSIG RMK QFE746,UWSS,2015-05-27T14:00:00Z,51.57,46.07,26.0,13.0,40,8,,6.21,29.911417,,,,,,TRUE,,,,,SCT,5000,BKN,10000,,,,,VFR,,,,,,,,,,,,SPECI,166.0
UWOO 271400Z VRB01MPS P5000 TS SCT040CB 25/07 Q1018 R08/290055 TEMPO TSRA RMK QFE753/1004,UWOO,2015-05-27T14:00:00Z,51.8,55.47,25.0,7.0,0,2,,3.11,30.059055,,,,,,,,,,TS,SCT,4000,,,,,,,MVFR,,,,,,,,,,,,METAR,109.0
UWOR 271400Z 27002MPS 9999 SCT050CB BKN200 25/16 Q1019 R25/CLRD65 NOSIG RMK QFE740/0987,UWOR,2015-05-27T14:00:00Z,51.07,58.6,25.0,16.0,270,4,,6.21,30.088583,,,,,,TRUE,,,,,SCT,5000,BKN,20000,,,,,VFR,,,,,,,,,,,,SPECI,277.0
SBAF 271400Z 02003KT 5000 HZ NSC 26/19 Q1015,SBAF,2015-05-27T14:00:00Z,-22.87,-43.37,26.0,19.0,20,3,,3.11,29.970472,,,,,,,,,,HZ,,,,,,,,,,,,,,,,,,,,,SPECI,34.0
MNPC 271400Z 08006KT 6000 VCRA BKN016TCU 29/24 Q1013 TCURA/S,MNPC,2015-05-27T14:00:00Z,14.05,-83.38,29.0,24.0,80,6,,3.73,29.911417,,,,,,,,,,VCRA RA,BKN,1600,,,,,,,MVFR,,,,,,,,,,,,METAR,16.0
RKSM 271400Z 31001KT 9999 BKN200 20/06 A2981 RMK CIG200 SLP093 8/008 9/006,RKSM,2015-05-27T14:00:00Z,37.42,127.12,20.0,6.0,310,1,,6.21,29.811024,1009.3,,,,,,,,,,BKN,20000,,,,,,,VFR,,,,,,,,,,,,METAR,20.0
MNRS 271400Z 36006KT CAVOK 29/22 Q1013,MNRS,2015-05-27T14:00:00Z,11.42,-85.82,29.0,22.0,360,6,,6.21,29.911417,,,,,,,,,,,CAVOK,,,,,,,,VFR,,,,,,,,,,,,SPECI,53.0
MNJG 271400Z 36004KT 9999 FEW017 SCT200 22/15 Q1015,MNJG,2015-05-27T14:00:00Z,13.08,-86.02,22.0,15.0,360,4,,6.21,29.970472,,,,,,,,,,,FEW,1700,SCT,20000,,,,,VFR,,,,,,,,,,,,SPECI,985.0
MNJU 271400Z 03006KT 9999 FEW020 BKN300 28/222 Q1014,MNJU,2015-05-27T14:00:00Z,12.08,-85.37,,,30,6,,6.21,29.940945,,,,,,,,,,,FEW,2000,BKN,30000,,,,,VFR,,,,,,,,,,,,METAR,90.0
MNBL 271400Z 02004KT 9999 SCT018 28/24 Q1014,MNBL,2015-05-27T14:00:00Z,12.0,-83.77,28.0,24.0,20,4,,6.21,29.940945,,,,,,,,,,,SCT,1800,,,,,,,VFR,,,,,,,,,,,,SPECI,5.0
MNCH 271400Z 00000KT CAVOK 29/22 Q1013,MNCH,2015-05-27T14:00:00Z,12.62,-87.12,29.0,22.0,0,0,,6.21,29.911417,,,,,,,,,,,CAVOK,,,,,,,,VFR,,,,,,,,,,,,SPECI,53.0
FAPE 271400Z 13005KT 100V160 CAVOK 20/13 Q1017 NOSIG,FAPE,2015-05-27T14:00:00Z,-33.97,25.6,20.0,13.0,130,5,,6.21,30.029528,,,,,,TRUE,,,,,CAVOK,,,,,,,,VFR,,,,,,,,,,,,METAR,60.0
FAKN 271400Z 08007KT CAVOK 26/M00 Q1020,FAKN,2015-05-27T14:00:00Z,-25.38,31.1,26.0,0.0,80,7,,6.21,30.11811,,,,,,,,,,,CAVOK,,,,,,,,VFR,,,,,,,,,,,,METAR,862.0
YNBR 271400Z AUTO 21002KT 9999 // SCT110 12/11 Q1023,YNBR,2015-05-27T14:00:00Z,-30.32,149.83,12.0,11.0,210,2,,6.21,30.206694,,,TRUE,,,,,,,,SCT,11000,,,,,,,VFR,,,,,,,,,,,,METAR,240.0
YNAR 271400Z AUTO 00000KT //// // ////// 11/10 Q1022,YNAR,2015-05-27T14:00:00Z,-34.7,146.52,11.0,10.0,0,0,,,30.177166,,,TRUE,,,,,,,,,,,,,,,,,,,,,,,,,,,,METAR,145.0
YNTN 271400Z AUTO 14006KT //// // ////// 25/12 Q1014,YNTN,2015-05-27T14:00:00Z,-17.68,141.07,25.0,12.0,140,6,,,29.940945,,,TRUE,,,,,,,,,,,,,,,,,,,,,,,,,,,,METAR,22.0
YMEK 271400Z AUTO 09006KT 9999 // SCT060 16/12 Q1018,YMEK,2015-05-27T14:00:00Z,-26.62,118.55,16.0,12.0,90,6,,6.21,30.059055,,,TRUE,,,,,,,,SCT,6000,,,,,,,VFR,,,,,,,,,,,,METAR,522.0
YMER 271400Z AUTO 00000KT 9999 // BKN100 11/09 Q1020,YMER,2015-05-27T14:00:00Z,-36.92,149.9,11.0,9.0,0,0,,6.21,30.11811,,,TRUE,,,,,,,,BKN,10000,,,,,,,VFR,,,,,,,,,,,,METAR,2.0
YMEN 271400Z AUTO 36013KT 9999 // NCD 13/10 Q1018,YMEN,2015-05-27T14:00:00Z,-37.72,144.9,13.0,10.0,360,13,,6.21,30.059055,,,TRUE,,,,,,,,,,,,,,,,,,,,,,,,,,,,METAR,86.0
LEMD 271400Z 03009KT 360V060 CAVOK 28/03 Q1017 NOSIG,LEMD,2015-05-27T14:00:00Z,40.48,-3.57,28.0,3.0,30,9,,6.21,30.029528,,,,,,TRUE,,,,,CAVOK,,,,,,,,VFR,,,,,,,,,,,,METAR,582.0
YMOR 271400Z AUTO 10005KT 9999 // SCT120 11/08 Q1023,YMOR,2015-05-27T14:00:00Z,-29.5,149.85,11.0,8.0,100,5,,6.21,30.206694,,,TRUE,,,,,,,,SCT,12000,,,,,,,VFR,,,,,,,,,,,,METAR,214.0
YMIA 271400Z AUTO 05003KT 9999 // NCD 11/08 Q1019,YMIA,2015-05-27T14:00:00Z,-34.23,142.08,11.0,8.0,50,3,,6.21,30.088583,,,TRUE,,,,,,,,,,,,,,,,,,,,,,,,,,,,METAR,51.0
LEPA 271400Z 21011KT 170V250 9999 FEW028 23/16 Q1019 NOSIG,LEPA,2015-05-27T14:00:00Z,39.53,2.72,23.0,16.0,210,11,,6.21,30.088583,,,,,,TRUE,,,,,FEW,2800,,,,,,,VFR,,,,,,,,,,,,METAR,8.0
LEBL 271400Z 14009KT 080V200 CAVOK 20/15 Q1019 NOSIG,LEBL,2015-05-27T14:00:00Z,41.27,2.07,20.0,15.0,140,9,,6.21,30.088583,,,,,,TRUE,,,,,CAVOK,,,,,,,,VFR,,,,,,,,,,,,METAR,6.0
LEZL 271400Z 29004KT 240V360 CAVOK 33/08 Q1013 NOSIG,LEZL,2015-05-27T14:00:00Z,37.42,-5.9,33.0,8.0,290,4,,6.21,29.911417,,,,,,TRUE,,,,,CAVOK,,,,,,,,VFR,,,,,,,,,,,,METAR,31.0
LEMG 271400Z 11009KT 080V150 9999 FEW050 22/15 Q1017 NOSIG,LEMG,2015-05-27T14:00:00Z,36.67,-4.5,22.0,15.0,110,9,,6.21,30.029528,,,,,,TRUE,,,,,FEW,5000,,,,,,,VFR,,,,,,,,,,,,METAR,7.0
RKPK 271400Z 16001KT CAVOK 19/14 Q1010 NOSIG,RKPK,2015-05-27T14:00:00Z,35.17,128.92,19.0,14.0,160,1,,6.21,29.822834,,,,,,TRUE,,,,,CAVOK,,,,,,,,VFR,,,,,,,,,,,,METAR,15.0
RKPC 271400Z 05003KT 010V070 CAVOK 19/15 Q1009 NOSIG,RKPC,2015-05-27T14:00:00Z,33.5,126.48,19.0,15.0,50,3,,6.21,29.793306,,,,,,TRUE,,,,,CAVOK,,,,,,,,VFR,,,,,,,,,,,,METAR,27.0
RKSS 271400Z 34001KT CAVOK 19/05 Q1009 NOSIG,RKSS,2015-05-27T14:00:00Z,37.53,126.78,19.0,5.0,340,1,,6.21,29.793306,,,,,,TRUE,,,,,CAVOK,,,,,,,,VFR,,,,,,,,,,,,METAR,19.0
RKSI 271400Z 13001KT CAVOK 20/02 Q1009 NOSIG,RKSI,2015-05-27T14:00:00Z,37.47,126.45,20.0,2.0,130,1,,6.21,29.793306,,,,,,TRUE,,,,,CAVOK,,,,,,,,VFR,,,,,,,,,,,,METAR,7.0
LRCT 271400Z 34012KT 9999 6000S FEW020 BKN033 OVC050 11/07 Q100 9 BLU BLU,LRCT,2015-05-27T14:00:00Z,46.5,23.88,11.0,7.0,340,12,,6.21,,,,,,,,,,,,FEW,2000,BKN,3300,OVC,5000,,,VFR,,,,,,,,,,,,METAR,331.0
SBRP 271400Z 06004KT CAVOK 27/15 Q1017,SBRP,2015-05-27T14:00:00Z,-21.12,-47.77,27.0,15.0,60,4,,6.21,30.029528,,,,,,,,,,,CAVOK,,,,,,,,VFR,,,,,,,,,,,,METAR,549.0
SBPL 271400Z 14007KT 9999 BKN025 SCT070 29/21 Q1017,SBPL,2015-05-27T14:00:00Z,-9.37,-40.57,29.0,21.0,140,7,,6.21,30.029528,,,,,,,,,,,BKN,2500,SCT,7000,,,,,MVFR,,,,,,,,,,,,METAR,375.0
TNCM 271400Z VRB03KT 9999 FEW020 28/21 Q1016 A3000 NOSIG,TNCM,2015-05-27T14:00:00Z,18.05,-63.12,28.0,21.0,0,3,,6.21,30.0,,,,,,TRUE,,,,,FEW,2000,,,,,,,VFR,,,,,,,,,,,,METAR,4.0
GUCY 271400Z 27008KT 9999 SCT015 32/24 Q1011 NOSIG,GUCY,2015-05-27T14:00:00Z,9.57,-13.62,32.0,24.0,270,8,,6.21,29.852362,,,,,,TRUE,,,,,SCT,1500,,,,,,,VFR,,,,,,,,,,,,METAR,26.0
SAWH 271400Z 32003KT 9999 SCT040 SCT200 05/01 Q1006,SAWH,2015-05-27T14:00:00Z,-54.85,-68.3,5.0,1.0,320,3,,6.21,29.704725,,,,,,,,,,,SCT,4000,SCT,20000,,,,,VFR,,,,,,,,,,,,METAR,14.0
GCGM 271400Z 16005KT 100V230 9999 FEW025 SCT030 21/13 Q1018 RMK R09/VRB04KT ARP/17003KT 100V200,GCGM,2015-05-27T14:00:00Z,28.03,-17.22,21.0,13.0,160,5,,6.21,30.059055,,,,,,,,,,,FEW,2500,SCT,3000,,,,,VFR,,,,,,,,,,,,METAR,219.0
GCHI 271400Z 36011KT 320V030 9999 FEW035 23/15 Q1018,GCHI,2015-05-27T14:00:00Z,27.82,-17.87,23.0,15.0,360,11,,6.21,30.059055,,,,,,,,,,,FEW,3500,,,,,,,VFR,,,,,,,,,,,,METAR,30.0
LETO 271400Z 04006KT 340V110 CAVOK 27/03 Q1017 NOSIG,LETO,2015-05-27T14:00:00Z,40.47,-3.47,27.0,3.0,40,6,,6.21,30.029528,,,,,,TRUE,,,,,CAVOK,,,,,,,,VFR,,,,,,,,,,,,METAR,608.0
LELN 271400Z VRB04KT 9999 FEW040 22/04 Q1021,LELN,2015-05-27T14:00:00Z,42.57,-5.65,22.0,4.0,0,4,,6.21,30.147638,,,,,,,,,,,FEW,4000,,,,,,,VFR,,,,,,,,,,,,METAR,914.0
LELC 271400Z 09008KT 030V120 9999 FEW030 23/15 Q1018 NOSIG,LELC,2015-05-27T14:00:00Z,37.77,-0.8,23.0,15.0,90,8,,6.21,30.059055,,,,,,TRUE,,,,,FEW,3000,,,,,,,VFR,,,,,,,,,,,,METAR,3.0
LEBZ 271400Z 09005KT 020V170 CAVOK 33/M00 Q1015,LEBZ,2015-05-27T14:00:00Z,38.87,-6.82,33.0,0.0,90,5,,6.21,29.970472,,,,,,,,,,,CAVOK,,,,,,,,VFR,,,,,,,,,,,,METAR,192.0
LEAB 271400Z VRB04KT 9999 FEW040 25/05 Q1018 NOSIG,LEAB,2015-05-27T14:00:00Z,38.95,-1.85,25.0,5.0,0,4,,6.21,30.059055,,,,,,TRUE,,,,,FEW,4000,,,,,,,VFR,,,,,,,,,,,,METAR,704.0
LEXJ 271400Z 04009KT 350V080 9999 FEW026 17/13 Q1024,LEXJ,2015-05-27T14:00:00Z,43.42,-3.82,17.0,13.0,40,9,,6.21,30.236221,,,,,,,,,,,FEW,2600,,,,,,,VFR,,,,,,,,,,,,METAR,6.0
LEPP 271400Z 35013G24KT 320V040 9999 FEW035 20/06 Q1021,LEPP,2015-05-27T14:00:00Z,42.77,-1.65,20.0,6.0,350,13,24,6.21,30.147638,,,,,,,,,,,FEW,3500,,,,,,,VFR,,,,,,,,,,,,METAR,459.0
LELL 271400Z 13010KT 070V160 9999 FEW030 21/13 Q1019,LELL,2015-05-27T14:00:00Z,41.52,2.1,21.0,13.0,130,10,,6.21,30.088583,,,,,,,,,,,FEW,3000,,,,,,,VFR,,,,,,,,,,,,METAR,250.0
LEJR 271400Z 19008KT 140V260 CAVOK 33/10 Q1014,LEJR,2015-05-27T14:00:00Z,36.75,-6.07,33.0,10.0,190,8,,6.21,29.940945,,,,,,,,,,,CAVOK,,,,,,,,VFR,,,,,,,,,,,,METAR,30.0
LETL 271400Z AUTO 27004KT 8000 NSC 23/01 Q1019,LETL,2015-05-27T14:00:00Z,40.42,-1.22,23.0,1.0,270,4,,4.97,30.088583,,,TRUE,,,,,,,,,,,,,,,,,,,,,,,,,,,,METAR,1013.0
LEAG 271400Z AUTO 07013KT CAVOK 21/14 Q1017,LEAG,2015-05-27T14:00:00Z,,,21.0,14.0,70,13,,6.21,30.029528,,,TRUE,,,,,,,,CAVOK,,,,,,,,VFR,,,,,,,,,,,,METAR,
GCLA 271400Z 04005KT 320V090 9999 SCT035 23/14 Q1019,GCLA,2015-05-27T14:00:00Z,28.62,-17.75,23.0,14.0,40,5,,6.21,30.088583,,,,,,,,,,,SCT,3500,,,,,,,VFR,,,,,,,,,,,,METAR,31.0
GCFV 271400Z 34011KT 290V030 9999 FEW025 SCT040 24/11 Q1016,GCFV,2015-05-27T14:00:00Z,28.43,-13.87,24.0,11.0,340,11,,6.21,30.0,,,,,,,,,,,FEW,2500,SCT,4000,,,,,VFR,,,,,,,,,,,,METAR,23.0
GCRR 271400Z 32013KT 290V350 9999 SCT045 24/13 Q1016,GCRR,2015-05-27T14:00:00Z,28.93,-13.58,24.0,13.0,320,13,,6.21,30.0,,,,,,,,,,,SCT,4500,,,,,,,VFR,,,,,,,,,,,,METAR,40.0
GCXO 271400Z 33013KT 300V360 9999 FEW008 BKN030 16/13 Q1019 NOSIG,GCXO,2015-05-27T14:00:00Z,28.48,-16.35,16.0,13.0,330,13,,6.21,30.088583,,,,,,TRUE,,,,,FEW,800,BKN,3000,,,,,MVFR,,,,,,,,,,,,METAR,632.0
GCLP 271400Z 03022KT 9999 FEW025 SCT035 BKN050 22/15 Q1017 NOSIG,GCLP,2015-05-27T14:00:00Z,27.92,-15.37,22.0,15.0,30,22,,6.21,30.029528,,,,,,TRUE,,,,,FEW,2500,SCT,3500,BKN,5000,,,VFR,,,,,,,,,,,,METAR,25.0
LESA 271400Z 09006KT 060V140 CAVOK 26/01 Q1019,LESA,2015-05-27T14:00:00Z,40.95,-5.5,26.0,1.0,90,6,,6.21,30.088583,,,,,,,,,,,CAVOK,,,,,,,,VFR,,,,,,,,,,,,METAR,795.0
LEVS 271400Z VRB05KT CAVOK 28/03 Q1018,LEVS,2015-05-27T14:00:00Z,40.37,-3.77,28.0,3.0,0,5,,6.21,30.059055,,,,,,,,,,,CAVOK,,,,,,,,VFR,,,,,,,,,,,,METAR,687.0
LEVD 271400Z 07007KT 030V140 CAVOK 23/06 Q1020,LEVD,2015-05-27T14:00:00Z,41.72,-4.83,23.0,6.0,70,7,,6.21,30.11811,,,,,,,,,,,CAVOK,,,,,,,,VFR,,,,,,,,,,,,METAR,854.0
LEGR 271400Z 18005KT 110V250 9999 FEW060 32/01 Q1016,LEGR,2015-05-27T14:00:00Z,37.17,-3.77,32.0,1.0,180,5,,6.21,30.0,,,,,,,,,,,FEW,6000,,,,,,,VFR,,,,,,,,,,,,METAR,559.0
LEAM 271400Z 21006KT 170V240 9999 FEW045 23/14 Q1017,LEAM,2015-05-27T14:00:00Z,36.85,-2.37,23.0,14.0,210,6,,6.21,30.029528,,,,,,,,,,,FEW,4500,,,,,,,VFR,,,,,,,,,,,,METAR,21.0
LEMH 271400Z 01018KT 9999 FEW025 SCT040 21/06 Q1019,LEMH,2015-05-27T14:00:00Z,39.87,4.22,21.0,6.0,10,18,,6.21,30.088583,,,,,,,,,,,FEW,2500,SCT,4000,,,,,VFR,,,,,,,,,,,,METAR,82.0
LERS 271400Z 15005KT 070V230 9999 FEW020 23/11 Q1019,LERS,2015-05-27T14:00:00Z,41.13,1.17,23.0,11.0,150,5,,6.21,30.088583,,,,,,,,,,,FEW,2000,,,,,,,VFR,,,,,,,,,,,,METAR,76.0
LEVT 271400Z 36011KT 330V060 9999 FEW035 19/07 Q1022,LEVT,2015-05-27T14:00:00Z,42.87,-2.72,19.0,7.0,360,11,,6.21,30.177166,,,,,,,,,,,FEW,3500,,,,,,,VFR,,,,,,,,,,,,METAR,509.0
LESO 271400Z 34007KT 280V050 9999 FEW028 19/13 Q1023,LESO,2015-05-27T14:00:00Z,43.35,-1.8,19.0,13.0,340,7,,6.21,30.206694,,,,,,,,,,,FEW,2800,,,,,,,VFR,,,,,,,,,,,,METAR,8.0
LEZG 271400Z 32014G26KT 290V350 CAVOK 25/04 Q1018,LEZG,2015-05-27T14:00:00Z,41.67,-1.02,25.0,4.0,320,14,26,6.21,30.059055,,,,,,,,,,,CAVOK,,,,,,,,VFR,,,,,,,,,,,,METAR,258.0
LEST 271400Z 06011KT 020V100 CAVOK 24/10 Q1020 NOSIG,LEST,2015-05-27T14:00:00Z,42.88,-8.42,24.0,10.0,60,11,,6.21,30.11811,,,,,,TRUE,,,,,CAVOK,,,,,,,,VFR,,,,,,,,,,,,METAR,367.0
LEGE 271400Z 18012KT 140V220 9999 FEW035 23/12 Q1018,LEGE,2015-05-27T14:00:00Z,41.88,2.77,23.0,12.0,180,12,,6.21,30.059055,,,,,,,,,,,FEW,3500,,,,,,,VFR,,,,,,,,,,,,METAR,129.0
LECO 271400Z 35012KT 310V020 CAVOK 20/13 Q1020 NOSIG,LECO,2015-05-27T14:00:00Z,43.28,-8.37,20.0,13.0,350,12,,6.21,30.11811,,,,,,TRUE,,,,,CAVOK,,,,,,,,VFR,,,,,,,,,,,,METAR,103.0
LEBB 271400Z 05007KT 350V120 9999 SCT035 SCT045 21/13 Q1023 NOSIG,LEBB,2015-05-27T14:00:00Z,43.28,-2.92,21.0,13.0,50,7,,6.21,30.206694,,,,,,TRUE,,,,,SCT,3500,SCT,4500,,,,,VFR,,,,,,,,,,,,METAR,34.0
LEAS 271400Z 07010KT 020V120 9999 FEW025 18/13 Q1023 NOSIG,LEAS,2015-05-27T14:00:00Z,43.53,-6.02,18.0,13.0,70,10,,6.21,30.206694,,,,,,TRUE,,,,,FEW,2500,,,,,,,VFR,,,,,,,,,,,,METAR,134.0
LEVX 271400Z 06005KT 010V170 CAVOK 29/12 Q1018 NOSIG,LEVX,2015-05-27T14:00:00Z,42.22,-8.62,29.0,12.0,60,5,,6.21,30.059055,,,,,,TRUE,,,,,CAVOK,,,,,,,,VFR,,,,,,,,,,,,METAR,256.0
LEIB 271400Z 21010KT 9999 FEW045 23/15 Q1019 NOSIG,LEIB,2015-05-27T14:00:00Z,38.87,1.37,23.0,15.0,210,10,,6.21,30.088583,,,,,,TRUE,,,,,FEW,4500,,,,,,,VFR,,,,,,,,,,,,METAR,12.0
LEAL 271400Z 09008KT 030V180 CAVOK 25/11 Q1018 NOSIG,LEAL,2015-05-27T14:00:00Z,38.27,-0.55,25.0,11.0,90,8,,6.21,30.059055,,,,,,TRUE,,,,,CAVOK,,,,,,,,VFR,,,,,,,,,,,,METAR,31.0
LEVC 271400Z 11010KT 080V140 9999 FEW025 24/12 Q1018 NOSIG,LEVC,2015-05-27T14:00:00Z,39.5,-0.47,24.0,12.0,110,10,,6.21,30.059055,,,,,,TRUE,,,,,FEW,2500,,,,,,,VFR,,,,,,,,,,,,METAR,62.0
RKTU 271400Z 10001KT CAVOK 20/09 Q1009,RKTU,2015-05-27T14:00:00Z,36.7,127.5,20.0,9.0,100,1,,6.21,29.793306,,,,,,,,,,,CAVOK,,,,,,,,VFR,,,,,,,,,,,,METAR,66.0
RKTN 271400Z 06003KT CAVOK 22/10 Q1009 NOSIG,RKTN,2015-05-27T14:00:00Z,35.88,128.65,22.0,10.0,60,3,,6.21,29.793306,,,,,,TRUE,,,,,CAVOK,,,,,,,,VFR,,,,,,,,,,,,METAR,35.0
RKJB 271400Z AUTO 08003KT 3000 NCD 19/13 Q1009,RKJB,2015-05-27T14:00:00Z,34.98,126.38,19.0,13.0,80,3,,1.86,29.793306,,,TRUE,,,,,,,,,,,,,,,,,,,,,,,,,,,,METAR,2.0
RKNY 271400Z AUTO 22003KT 3000 NCD 14/13 Q1010,RKNY,2015-05-27T14:00:00Z,38.07,128.67,14.0,13.0,220,3,,1.86,29.822834,,,TRUE,,,,,,,,,,,,,,,,,,,,,,,,,,,,METAR,74.0
SBPP 271400Z 15006KT 2000 -RA BR OVC002 18/15 Q1019,SBPP,2015-05-27T14:00:00Z,-22.55,-55.7,18.0,15.0,150,6,,1.24,30.088583,,,,,,,,,,-RA BR,OVC,200,,,,,,,LIFR,,,,,,,,,,,,METAR,660.0
SBTT 271400Z 04002KT 9999 SCT010 ///// Q1014,SBTT,2015-05-27T14:00:00Z,-4.25,-69.93,,,40,2,,6.21,29.940945,,,,,,,,,,,SCT,1000,,,,,,,VFR,,,,,,,,,,,,METAR,85.0
SBBE 271400Z 08010KT 9999 BKN020 BKN100 30/24 Q1014,SBBE,2015-05-27T14:00:00Z,-1.37,-48.47,30.0,24.0,80,10,,6.21,29.940945,,,,,,,,,,,BKN,2000,BKN,10000,,,,,MVFR,,,,,,,,,,,,METAR,16.0
TTCP 271400Z 07006KT 9999 FEW018 SCT040 29/21 Q1015 NOSIG,TTCP,2015-05-27T14:00:00Z,11.15,-60.85,29.0,21.0,70,6,,6.21,29.970472,,,,,,TRUE,,,,,FEW,1800,SCT,4000,,,,,VFR,,,,,,,,,,,,METAR,8.0
TTPP 271400Z 14012KT 9999 SCT020 SCT036 32/21 Q1014 NOSIG,TTPP,2015-05-27T14:00:00Z,10.58,-61.35,32.0,21.0,140,12,,6.21,29.940945,,,,,,TRUE,,,,,SCT,2000,SCT,3600,,,,,VFR,,,,,,,,,,,,METAR,15.0
GCTS 271400Z 19007KT 150V250 9999 SCT030 22/14 Q1018 NOSIG,GCTS,2015-05-27T14:00:00Z,28.05,-16.57,22.0,14.0,190,7,,6.21,30.059055,,,,,,TRUE,,,,,SCT,3000,,,,,,,VFR,,,,,,,,,,,,METAR,72.0
SLSU 271400Z 13004KT 9999 NSC 13/06 Q1032,SLSU,2015-05-27T14:00:00Z,-19.02,-65.27,13.0,6.0,130,4,,6.21,30.47244,,,,,,,,,,,,,,,,,,,,,,,,,,,,,,,METAR,2903.0
SLPS 271400Z 21004KT 9999 FEW012 BKN015 BKN070 25/21 Q1015,SLPS,2015-05-27T14:00:00Z,-18.98,-57.82,25.0,21.0,210,4,,6.21,29.970472,,,,,,,,,,,FEW,1200,BKN,1500,BKN,7000,,,MVFR,,,,,,,,,,,,METAR,135.0
SLCO 271400Z 27004KT 9999 FEW012 SCT080 28/25 Q1014,SLCO,2015-05-27T14:00:00Z,-11.03,-68.78,28.0,25.0,270,4,,6.21,29.940945,,,,,,,,,,,FEW,1200,SCT,8000,,,,,VFR,,,,,,,,,,,,METAR,272.0
SAZN 271400Z 27002KT CAVOK 06/M00 Q1022,SAZN,2015-05-27T14:00:00Z,-38.95,-68.15,6.0,0.0,270,2,,6.21,30.177166,,,,,,,,,,,CAVOK,,,,,,,,VFR,,,,,,,,,,,,METAR,271.0
SARP 271400Z 18005KT 5000 DZ BKN003 OVC015 18/17 Q1014,SARP,2015-05-27T14:00:00Z,-27.38,-55.97,18.0,17.0,180,5,,3.11,29.940945,,,,,,,,,,DZ,BKN,300,OVC,1500,,,,,LIFR,,,,,,,,,,,,METAR,125.0
SARI 271400Z 36006KT 8888 -RA BKN006 OVC040 18/18 Q1016,SARI,2015-05-27T14:00:00Z,-25.72,-54.47,18.0,18.0,360,6,,5.52,30.0,,,,,,,,,,-RA,BKN,600,OVC,4000,,,,,IFR,,,,,,,,,,,,METAR,270.0
SARF 271400Z 23010KT 9999 -DZ BKN008 SCT015 20/18 Q1016,SARF,2015-05-27T14:00:00Z,-26.22,-58.22,20.0,18.0,230,10,,6.21,30.0,,,,,,,,,,-DZ,BKN,800,SCT,1500,,,,,IFR,,,,,,,,,,,,METAR,60.0
SACO 271400Z 11002KT 0200 -DZ FG OVC001 12/12 Q1025,SACO,2015-05-27T14:00:00Z,-31.32,-64.22,12.0,12.0,110,2,,0.12,30.265747,,,,,,,,,,-DZ FG,OVC,100,,,,,,,LIFR,,,,,,,,,,,,METAR,474.0
SABE 271400Z 11011KT 050V160 9999 FEW022 SCT100 17/13 Q1024,SABE,2015-05-27T14:00:00Z,-34.57,-58.42,17.0,13.0,110,11,,6.21,30.236221,,,,,,,,,,,FEW,2200,SCT,10000,,,,,VFR,,,,,,,,,,,,METAR,6.0
UCFO 271400Z 01002MPS 9999 FEW050CB SCT160 23/09 Q1015 R12/CLRD70 NOSIG,UCFO,2015-05-27T14:00:00Z,40.6,72.8,23.0,9.0,10,4,,6.21,29.970472,,,,,,TRUE,,,,,FEW,5000,SCT,16000,,,,,VFR,,,,,,,,,,,,METAR,884.0
UCFM 271400Z 06003MPS CAVOK 24/07 Q1014 R08/CLRD70 NOSIG,UCFM,2015-05-27T14:00:00Z,43.07,74.48,24.0,7.0,60,6,,6.21,29.940945,,,,,,TRUE,,,,,CAVOK,,,,,,,,VFR,,,,,,,,,,,,METAR,633.0
UTDL 271400Z 25003MPS 9999 FEW053 FEW200 29/07 Q1012 NOSIG RMK QFE721/0961 88CLRD70,UTDL,2015-05-27T14:00:00Z,40.22,69.7,29.0,7.0,250,6,,6.21,29.88189,,,,,,TRUE,,,,,FEW,5300,FEW,20000,,,,,VFR,,,,,,,,,,,,METAR,442.0
UTDT 271400Z 30002MPS 9999 SKC 30/08 Q1009 35CLRD70 RMK QFE718/0957,UTDT,2015-05-27T14:00:00Z,37.87,68.87,30.0,8.0,300,4,,6.21,29.793306,,,,,,,,,,,SKC,,,,,,,,VFR,,,,,,,,,,,,METAR,449.0
UTDK 271400Z 21002MPS 9999 SKC 37/05 Q1011 01CLRD70 RMK QFE701/0935,UTDK,2015-05-27T14:00:00Z,37.98,69.8,37.0,5.0,210,4,,6.21,29.852362,,,,,,,,,,,SKC,,,,,,,,VFR,,,,,,,,,,,,METAR,699.0
UTDD 271400Z 21002MPS 9999 NSC 27/08 Q1012 R09/D NOSIG RMK QFE691/0922,UTDD,2015-05-27T14:00:00Z,38.53,68.82,27.0,8.0,210,4,,6.21,29.88189,,,,,,TRUE,,,,,,,,,,,,,,,,,,,,,,,,,METAR,803.0
UDSG 271400Z 00000MPS 9000 BKN043CB OVC100 20/08 Q1015 R02/CLRD70 NOSIG,UDSG,2015-05-27T14:00:00Z,40.75,43.87,20.0,8.0,0,0,,5.59,29.970472,,,,,,TRUE,,,,,BKN,4300,OVC,10000,,,,,VFR,,,,,,,,,,,,METAR,1524.0
UDYZ 271400Z 15002MPS 9999 FEW040CB BKN200 26/07 Q1011 R09/0///70 NOSIG,UDYZ,2015-05-27T14:00:00Z,40.15,44.4,26.0,7.0,150,4,,6.21,29.852362,,,,,,TRUE,,,,,FEW,4000,BKN,20000,,,,,VFR,,,,,,,,,,,,METAR,865.0
UAUU 271400Z 36002MPS CAVOK 26/08 Q1016 R33/CLRD70 NOSIG RMK QFE746/0995,UAUU,2015-05-27T14:00:00Z,53.2,63.55,26.0,8.0,360,4,,6.21,30.0,,,,,,TRUE,,,,,CAVOK,,,,,,,,VFR,,,,,,,,,,,,METAR,182.0
UATT 271400Z 08003MPS CAVOK 28/09 Q1018 R13/70D NOSIG RMK QFE744/0992,UATT,2015-05-27T14:00:00Z,50.25,57.2,28.0,9.0,80,6,,6.21,30.059055,,,,,,TRUE,,,,,CAVOK,,,,,,,,VFR,,,,,,,,,,,,METAR,227.0
UATG 271400Z 13008MPS 9999 SCT033CB BKN150 33/02 Q1011 R14/CLRD70 NOSIG RMK QFE760/1013,UATG,2015-05-27T14:00:00Z,47.12,51.83,33.0,2.0,130,16,,6.21,29.852362,,,,,,TRUE,,,,,SCT,3300,BKN,15000,,,,,VFR,,,,,,,,,,,,METAR,-22.0
UATE 271400Z VRB01MPS CAVOK 27/00 Q1010 R30/0///70 NOSIG RMK QFE756/1008,UATE,2015-05-27T14:00:00Z,43.87,51.1,27.0,0.0,0,2,,6.21,29.822834,,,,,,TRUE,,,,,CAVOK,,,,,,,,VFR,,,,,,,,,,,,METAR,22.0
UARR 271400Z 09006MPS CAVOK 31/09 Q1015 R04/CLRD70 NOSIG RMK QFE758/1010,UARR,2015-05-27T14:00:00Z,51.15,51.53,31.0,9.0,90,12,,6.21,29.970472,,,,,,TRUE,,,,,CAVOK,,,,,,,,VFR,,,,,,,,,,,,METAR,38.0
UASS 271400Z 30001MPS CAVOK 21/06 Q1017 R08/0///60 NOSIG RMK QFE742/0989,UASS,2015-05-27T14:00:00Z,50.35,80.23,21.0,6.0,300,2,,6.21,30.029528,,,,,,TRUE,,,,,CAVOK,,,,,,,,VFR,,,,,,,,,,,,METAR,232.0
UASP 271400Z 36004MPS CAVOK 19/00 Q1017 R21/0///70 NOSIG RMK QFE751/1002,UASP,2015-05-27T14:00:00Z,52.2,77.07,19.0,0.0,360,8,,6.21,30.029528,,,,,,TRUE,,,,,CAVOK,,,,,,,,VFR,,,,,,,,,,,,METAR,125.0
UASK 271400Z 15002MPS 9999 FEW100 SCT230 17/07 Q1018 R12/090060 NOSIG RMK QFE738/0984,UASK,2015-05-27T14:00:00Z,50.03,82.5,17.0,7.0,150,4,,6.21,30.059055,,,,,,TRUE,,,,,FEW,10000,SCT,23000,,,,,VFR,,,,,,,,,,,,METAR,286.0
UAOO 271400Z 04006MPS CAVOK 30/04 Q1014 R06/CLRD70 NOSIG RMK QFE749/0999,UAOO,2015-05-27T14:00:00Z,44.7,65.6,30.0,4.0,40,12,,6.21,29.940945,,,,,,TRUE,,,,,CAVOK,,,,,,,,VFR,,,,,,,,,,,,METAR,129.0
UAKK 271400Z VRB01MPS CAVOK 19/13 Q1019 R23/0///70 NOSIG RMK QFE717/0956,UAKK,2015-05-27T14:00:00Z,49.67,73.33,19.0,13.0,0,2,,6.21,30.088583,,,,,,TRUE,,,,,CAVOK,,,,,,,,VFR,,,,,,,,,,,,METAR,538.0
UAII 271400Z 01004MPS CAVOK 26/10 Q1013 R10/0///70 NOSIG RMK QFE724/0966,UAII,2015-05-27T14:00:00Z,42.37,69.48,26.0,10.0,10,8,,6.21,29.911417,,,,,,TRUE,,,,,CAVOK,,,,,,,,VFR,,,,,,,,,,,,METAR,422.0
UACC 271400Z 25004MPS 9999 SCT040 21/13 Q1017 R22/0/0070 NOSIG RMK QFE731/0975,UACC,2015-05-27T14:00:00Z,51.02,71.47,21.0,13.0,250,8,,6.21,30.029528,,,,,,TRUE,,,,,SCT,4000,,,,,,,VFR,,,,,,,,,,,,METAR,355.0
UADD 271400Z 28002MPS 9999 NSC 24/08 Q1014 R13/0///65 NOSIG RMK QFE704/0938,UADD,2015-05-27T14:00:00Z,42.85,71.3,24.0,8.0,280,4,,6.21,29.940945,,,,,,TRUE,,,,,,,,,,,,,,,,,,,,,,,,,METAR,665.0
UAAA 271400Z 02002MPS 9999 SCT050CB BKN100 20/09 Q1016 R88/65D TEMPO VRB16MPS TSRA SQ,UAAA,2015-05-27T14:00:00Z,43.35,77.03,20.0,9.0,20,4,,6.21,30.0,,,,,,,,,,,SCT,5000,BKN,10000,,,,,VFR,,,,,,,,,,,,METAR,847.0
FAKM 271400Z 22003KT CAVOK 27/03 Q1020,FAKM,2015-05-27T14:00:00Z,-28.8,24.77,27.0,3.0,220,3,,6.21,30.11811,,,,,,,,,,,CAVOK,,,,,,,,VFR,,,,,,,,,,,,METAR,1192.0
FAUT 271400Z /////KT CAVOK 19/10 Q1020,FAUT,2015-05-27T14:00:00Z,-31.52,28.67,19.0,10.0,,,,6.21,30.11811,,,,,,,,,,,CAVOK,,,,,,,,VFR,,,,,,,,,,,,METAR,732.0
LPPT 271400Z VRB05G17KT CAVOK 32/01 Q1014,LPPT,2015-05-27T14:00:00Z,38.77,-9.12,32.0,1.0,0,5,17,6.21,29.940945,,,,,,,,,,,CAVOK,,,,,,,,VFR,,,,,,,,,,,,METAR,123.0
LPPS 271400Z 36014KT 340V040 9999 FEW015 BKN030 21/13 Q1019,LPPS,2015-05-27T14:00:00Z,33.07,-16.35,21.0,13.0,360,14,,6.21,30.088583,,,,,,,,,,,FEW,1500,BKN,3000,,,,,MVFR,,,,,,,,,,,,METAR,82.0
LPPR 271400Z 33011KT CAVOK 27/11 Q1016,LPPR,2015-05-27T14:00:00Z,41.22,-8.67,27.0,11.0,330,11,,6.21,30.0,,,,,,,,,,,CAVOK,,,,,,,,VFR,,,,,,,,,,,,METAR,73.0
LPMA 271400Z 15007KT 120V200 9999 SCT016 22/14 Q1019,LPMA,2015-05-27T14:00:00Z,32.7,-16.77,22.0,14.0,150,7,,6.21,30.088583,,,,,,,,,,,SCT,1600,,,,,,,VFR,,,,,,,,,,,,METAR,55.0
LPFR 271400Z 16010KT 9999 FEW025 26/14 Q1015,LPFR,2015-05-27T14:00:00Z,37.02,-7.97,26.0,14.0,160,10,,6.21,29.970472,,,,,,,,,,,FEW,2500,,,,,,,VFR,,,,,,,,,,,,METAR,4.0
LPBJ 271400Z 17006KT 090V250 9999 FEW040 33/02 Q1015,LPBJ,2015-05-27T14:00:00Z,38.08,-7.93,33.0,2.0,170,6,,6.21,29.970472,,,,,,,,,,,FEW,4000,,,,,,,VFR,,,,,,,,,,,,METAR,247.0
LEBA 271400Z 15002KT CAVOK 32/01 Q1014,LEBA,2015-05-27T14:00:00Z,37.85,-4.82,32.0,1.0,150,2,,6.21,29.940945,,,,,,,,,,,CAVOK,,,,,,,,VFR,,,,,,,,,,,,METAR,92.0
LEHC 271400Z 23007KT CAVOK 25/04 Q1018,LEHC,2015-05-27T14:00:00Z,42.08,-0.32,25.0,4.0,230,7,,6.21,30.059055,,,,,,,,,,,CAVOK,,,,,,,,VFR,,,,,,,,,,,,METAR,539.0
LEBG 271400Z 04018KT 9999 FEW030 18/06 Q1022,LEBG,2015-05-27T14:00:00Z,42.37,-3.62,18.0,6.0,40,18,,6.21,30.177166,,,,,,,,,,,FEW,3000,,,,,,,VFR,,,,,,,,,,,,METAR,891.0
LELO 271400Z 29007KT 9999 FEW035 24/07 Q1020,LELO,2015-05-27T14:00:00Z,42.45,-2.32,24.0,7.0,290,7,,6.21,30.11811,,,,,,,,,,,FEW,3500,,,,,,,VFR,,,,,,,,,,,,METAR,363.0
LECV 271400Z 16006KT CAVOK 25/03 Q1019,LECV,2015-05-27T14:00:00Z,40.63,-3.72,25.0,3.0,160,6,,6.21,30.088583,,,,,,,,,,,CAVOK,,,,,,,,VFR,,,,,,,,,,,,METAR,710.0
LEBT 271400Z AUTO 10006KT 030V170 CAVOK 25/10 Q1018,LEBT,2015-05-27T14:00:00Z,39.58,-0.45,25.0,10.0,100,6,,6.21,30.059055,,,TRUE,,,,,,,,CAVOK,,,,,,,,VFR,,,,,,,,,,,,METAR,50.0
LEAO 271400Z 07004KT CAVOK 28/03 Q1017,LEAO,2015-05-27T14:00:00Z,38.95,-3.73,28.0,3.0,70,4,,6.21,30.029528,,,,,,,,,,,CAVOK,,,,,,,,VFR,,,,,,,,,,,,METAR,629.0
GEML 271400Z 02007KT 350V070 9999 FEW005 23/17 Q1017,GEML,2015-05-27T14:00:00Z,35.27,-2.95,23.0,17.0,20,7,,6.21,30.029528,,,,,,,,,,,FEW,500,,,,,,,VFR,,,,,,,,,,,,METAR,55.0
LECH 271400Z 12008KT 080V160 9999 FEW025 22/10 Q1019,LECH,2015-05-27T14:00:00Z,40.87,-1.3,22.0,10.0,120,8,,6.21,30.088583,,,,,,,,,,,FEW,2500,,,,,,,VFR,,,,,,,,,,,,METAR,899.0
SUSO 271400Z 18012KT 9000 -RA SCT012 OVC067 15/12 Q1020,SUSO,2015-05-27T14:00:00Z,-31.43,-57.98,15.0,12.0,180,12,,5.59,30.11811,,,,,,,,,,-RA,SCT,1200,OVC,6700,,,,,VFR,,,,,,,,,,,,METAR,34.0
SUDU 271400Z 13010KT 9999 -RA FEW026 OVC080 14/11 Q1021,SUDU,2015-05-27T14:00:00Z,-33.35,-56.5,14.0,11.0,130,10,,6.21,30.147638,,,,,,,,,,-RA,FEW,2600,OVC,8000,,,,,VFR,,,,,,,,,,,,METAR,93.0
SULS 271400Z 10012KT 9999 SCT020 OVC070 16/11 Q1023,SULS,2015-05-27T14:00:00Z,-34.87,-55.1,16.0,11.0,100,12,,6.21,30.206694,,,,,,,,,,,SCT,2000,OVC,7000,,,,,VFR,,,,,,,,,,,,METAR,30.0
SUCA 271400Z 12008KT 9999 SCT013 SCT00 15/12 Q1021,SUCA,2015-05-27T14:00:00Z,-34.45,-57.77,15.0,12.0,120,8,,6.21,30.147638,,,,,,,,,,,SCT,1300,,,,,,,VFR,,,,,,,,,,,,METAR,23.0
SUAA 271400Z 12011KT 9999 FEW010 OVC060 16/12 Q1023,SUAA,2015-05-27T14:00:00Z,-34.77,-56.25,16.0,12.0,120,11,,6.21,30.206694,,,,,,,,,,,FEW,1000,OVC,6000,,,,,VFR,,,,,,,,,,,,METAR,54.0
TLPC 271400Z COR 10009KT 9999 FEW025 BKN300 30/20 Q1015 NOSIG,TLPC,2015-05-27T14:00:00Z,14.02,-61.0,30.0,20.0,100,9,,6.21,29.970472,,TRUE,,,,TRUE,,,,,FEW,2500,BKN,30000,,,,,VFR,,,,,,,,,,,,METAR,2.0
YSNW 271400Z AUTO 32010KT 9999 // SCT086 14/09 Q1021,YSNW,2015-05-27T14:00:00Z,-34.95,150.52,14.0,9.0,320,10,,6.21,30.147638,,,TRUE,,,,,,,,SCT,8600,,,,,,,VFR,,,,,,,,,,,,METAR,110.0
OIBQ 271400Z 27008KT CAVOK 36/15 Q1005,OIBQ,2015-05-27T14:00:00Z,29.27,50.32,36.0,15.0,270,8,,6.21,29.675198,,,,,,,,,,,CAVOK,,,,,,,,VFR,,,,,,,,,,,,METAR,6.0
ZYTX 271400Z 18002MPS CAVOK 21/11 Q1006 NOSIG,ZYTX,2015-05-27T14:00:00Z,41.63,123.48,21.0,11.0,180,4,,6.21,29.704725,,,,,,TRUE,,,,,CAVOK,,,,,,,,VFR,,,,,,,,,,,,METAR,35.0
ZYTL 271400Z 16003MPS 130V210 CAVOK 19/11 Q1008 NOSIG,ZYTL,2015-05-27T14:00:00Z,38.97,121.53,19.0,11.0,160,6,,6.21,29.763779,,,,,,TRUE,,,,,CAVOK,,,,,,,,VFR,,,,,,,,,,,,METAR,97.0
ZWWW 271400Z 35001MPS CAVOK 20/05 Q1017 NOSIG,ZWWW,2015-05-27T14:00:00Z,43.88,87.47,20.0,5.0,350,2,,6.21,30.029528,,,,,,TRUE,,,,,CAVOK,,,,,,,,VFR,,,,,,,,,,,,METAR,654.0
ZWSH 271400Z VRB05MPS 9999 FEW040CB FEW040 24/M04 Q1014 NOSIG,ZWSH,2015-05-27T14:00:00Z,39.55,76.02,24.0,-4.0,0,10,,6.21,29.940945,,,,,,TRUE,,,,,FEW,4000,FEW,4000,,,,,VFR,,,,,,,,,,,,METAR,1291.0
ZSSS 271400Z 09003MPS 060V130 9999 BKN009 21/19 Q1004 BECMG TL1500 BKN010,ZSSS,2015-05-27T14:00:00Z,31.2,121.33,21.0,19.0,90,6,,6.21,29.64567,,,,,,,,,,,BKN,900,,,,,,,IFR,,,,,,,,,,,,METAR,7.0
ZSPD 271400Z 11003MPS 9999 BKN007 20/19 Q1005 NOSIG,ZSPD,2015-05-27T14:00:00Z,31.15,121.8,20.0,19.0,110,6,,6.21,29.675198,,,,,,TRUE,,,,,BKN,700,,,,,,,IFR,,,,,,,,,,,,METAR,4.0
ZSHC 271400Z 10002MPS 3500 BR SCT033 22/19 Q1004 NOSIG,ZSHC,2015-05-27T14:00:00Z,30.22,120.43,22.0,19.0,100,4,,2.17,29.64567,,,,,,TRUE,,,,BR,SCT,3300,,,,,,,IFR,,,,,,,,,,,,METAR,43.0
ZGGG 271400Z 14002MPS 9999 BKN026 29/27 Q1005 NOSIG,ZGGG,2015-05-27T14:00:00Z,23.4,113.3,29.0,27.0,140,4,,6.21,29.675198,,,,,,TRUE,,,,,BKN,2600,,,,,,,MVFR,,,,,,,,,,,,METAR,15.0
ZBYN 271400Z 07006G11MPS 4000 HZ NSC 23/15 Q1006 NOSIG,ZBYN,2015-05-27T14:00:00Z,37.77,112.63,23.0,15.0,70,12,21,2.49,29.704725,,,,,,TRUE,,,,HZ,,,,,,,,,,,,,,,,,,,,,METAR,779.0
ZBTJ 271400Z 16003MPS 4500 HZ NSC 22/14 Q1005 NOSIG,ZBTJ,2015-05-27T14:00:00Z,39.12,117.35,22.0,14.0,160,6,,2.8,29.675198,,,,,,TRUE,,,,HZ,,,,,,,,,,,,,,,,,,,,,METAR,3.0
ZBSJ 271400Z 14001MPS 8000 NSC 22/18 Q1005 NOSIG,ZBSJ,2015-05-27T14:00:00Z,38.28,114.7,22.0,18.0,140,2,,4.97,29.675198,,,,,,TRUE,,,,,,,,,,,,,,,,,,,,,,,,,METAR,71.0
ZBAA 271400Z 15004MPS 7000 NSC 26/16 Q1004 NOSIG,ZBAA,2015-05-27T14:00:00Z,40.07,116.58,26.0,16.0,150,8,,4.35,29.64567,,,,,,TRUE,,,,,,,,,,,,,,,,,,,,,,,,,METAR,30.0
ZUUU 271400Z 14002MPS CAVOK 27/17 Q1004 NOSIG,ZUUU,2015-05-27T14:00:00Z,30.58,103.95,27.0,17.0,140,4,,6.21,29.64567,,,,,,TRUE,,,,,CAVOK,,,,,,,,VFR,,,,,,,,,,,,METAR,508.0
ZUGY 271400Z 04002MPS 010V090 7000 FEW036 21/21 Q1007 NOSIG,ZUGY,2015-05-27T14:00:00Z,26.53,106.8,21.0,21.0,40,4,,4.35,29.734253,,,,,,TRUE,,,,,FEW,3600,,,,,,,MVFR,,,,,,,,,,,,METAR,1074.0
ZSQD 271400Z 19002MPS CAVOK 18/14 Q1008 NOSIG,ZSQD,2015-05-27T14:00:00Z,36.27,120.38,18.0,14.0,190,4,,6.21,29.763779,,,,,,TRUE,,,,,CAVOK,,,,,,,,VFR,,,,,,,,,,,,METAR,77.0
ZSNB 271400Z 12002MPS 6000 FEW026 23/21 Q1004 NOSIG,ZSNB,2015-05-27T14:00:00Z,29.83,121.47,23.0,21.0,120,4,,3.73,29.64567,,,,,,TRUE,,,,,FEW,2600,,,,,,,MVFR,,,,,,,,,,,,METAR,4.0
ZSFZ 271400Z 21005MPS 3200 BR FEW011 24/23 Q1005 NOSIG,ZSFZ,2015-05-27T14:00:00Z,25.93,119.67,24.0,23.0,210,10,,1.99,29.675198,,,,,,TRUE,,,,BR,FEW,1100,,,,,,,IFR,,,,,,,,,,,,METAR,85.0
ZSAM 271400Z 26001MPS 5000 BR FEW009 SCT030 26/25 Q1006 NOSIG,ZSAM,2015-05-27T14:00:00Z,24.53,118.13,26.0,25.0,260,2,,3.11,29.704725,,,,,,TRUE,,,,BR,FEW,900,SCT,3000,,,,,MVFR,,,,,,,,,,,,METAR,139.0
ZPPP 271400Z 21007MPS CAVOK 21/12 Q1015 NOSIG,ZPPP,2015-05-27T14:00:00Z,25.0,102.75,21.0,12.0,210,14,,6.21,29.970472,,,,,,TRUE,,,,,CAVOK,,,,,,,,VFR,,,,,,,,,,,,METAR,1892.0
ZLXY 271400Z 03002MPS CAVOK 22/14 Q1003 NOSIG,ZLXY,2015-05-27T14:00:00Z,34.43,108.75,22.0,14.0,30,4,,6.21,29.616142,,,,,,TRUE,,,,,CAVOK,,,,,,,,VFR,,,,,,,,,,,,METAR,479.0
ZGSZ 271400Z 17006MPS 9999 FEW013 28/26 Q1006 NOSIG,ZGSZ,2015-05-27T14:00:00Z,22.63,113.8,28.0,26.0,170,12,,6.21,29.704725,,,,,,TRUE,,,,,FEW,1300,,,,,,,VFR,,,,,,,,,,,,METAR,18.0
ZGOW 271400Z 00000MPS 3500 BR SCT017 26/26 Q1007 NOSIG,ZGOW,2015-05-27T14:00:00Z,23.55,116.5,26.0,26.0,0,0,,2.17,29.734253,,,,,,TRUE,,,,BR,SCT,1700,,,,,,,IFR,,,,,,,,,,,,METAR,3.0
ZGNN 271400Z 15003MPS CAVOK 29/26 Q1002 NOSIG,ZGNN,2015-05-27T14:00:00Z,22.62,108.17,29.0,26.0,150,6,,6.21,29.586615,,,,,,TRUE,,,,,CAVOK,,,,,,,,VFR,,,,,,,,,,,,METAR,73.0
ZGKL 271400Z VRB01MPS 6000 SCT040 OVC066 28/27 Q1003 NOSIG,ZGKL,2015-05-27T14:00:00Z,25.22,110.03,28.0,27.0,0,2,,3.73,29.616142,,,,,,TRUE,,,,,SCT,4000,OVC,6600,,,,,MVFR,,,,,,,,,,,,METAR,166.0
KSBD 271400Z 00000KT 3SM BR OVC015 14/12 A2998,KSBD,2015-05-27T14:00:00Z,34.08,-117.25,14.0,12.0,0,0,,3.0,29.97933,,,,,,,,,,BR,OVC,1500,,,,,,,MVFR,,,,,,,,,,,,METAR,353.0
DTTN 271400Z 29014KT 230V340 9999 SCT020 22/13 Q1017,DTTN,2015-05-27T14:00:00Z,36.47,8.8,22.0,13.0,290,14,,6.21,30.029528,,,,,,,,,,,SCT,2000,,,,,,,VFR,,,,,,,,,,,,METAR,144.0
DTTK 271400Z 32006KT 9999 BKN023 28/07 Q1014NA DTTL NIL,DTTK,2015-05-27T14:00:00Z,35.67,10.08,28.0,7.0,320,6,,6.21,,,,,,,,,,,,BKN,2300,,,,,,,MVFR,,,,,,,,,,,,METAR,68.0
DTTG 271400Z 30009KT 230V330 9999 SCT030 28/07 Q1015 NOSIG,DTTG,2015-05-27T14:00:00Z,33.73,9.92,28.0,7.0,300,9,,6.21,29.970472,,,,,,TRUE,,,,,SCT,3000,,,,,,,VFR,,,,,,,,,,,,METAR,5.0
DTTD 271400Z 35004KT 9999 FEW026 28/05 Q1016,DTTD,2015-05-27T14:00:00Z,32.32,10.4,28.0,5.0,350,4,,6.21,30.0,,,,,,,,,,,FEW,2600,,,,,,,VFR,,,,,,,,,,,,METAR,301.0
DTTB 271400Z 29015G26KT 9999 SCT020 20/14 Q1016,DTTB,2015-05-27T14:00:00Z,37.25,9.8,20.0,14.0,290,15,26,6.21,30.0,,,,,,,,,,,SCT,2000,,,,,,,VFR,,,,,,,,,,,,METAR,3.0
LKPD 271400Z 30012KT 270V340 9999 SCT046 BKN062 12/03 Q1020 NOSIG RMK BLU BLU,LKPD,2015-05-27T14:00:00Z,50.02,15.73,12.0,3.0,300,12,,6.21,30.11811,,,,,,TRUE,,,,,SCT,4600,BKN,6200,,,,,VFR,,,,,,,,,,,,METAR,226.0
LKNA 271400Z 33013KT CAVOK 11/02 Q1018 NOSIG RMK BLU BLU,LKNA,2015-05-27T14:00:00Z,49.17,16.12,11.0,2.0,330,13,,6.21,30.059055,,,,,,TRUE,,,,,CAVOK,,,,,,,,VFR,,,,,,,,,,,,METAR,472.0
LKLN 271400Z AUTO 33004KT 260V030 9999 FEW047 BKN060 12/02 Q1022,LKLN,2015-05-27T14:00:00Z,49.68,13.27,12.0,2.0,330,4,,6.21,30.177166,,,TRUE,,,,,,,,FEW,4700,BKN,6000,,,,,VFR,,,,,,,,,,,,METAR,362.0
LKKB 271400Z 32010KT 260V360 9999 SCT047 OVC060 12/02 Q1020 NOSIG,LKKB,2015-05-27T14:00:00Z,50.12,14.53,12.0,2.0,320,10,,6.21,30.11811,,,,,,TRUE,,,,,SCT,4700,OVC,6000,,,,,VFR,,,,,,,,,,,,METAR,286.0
LKCV 271400Z 31014KT 9999 SCT040 BKN050 12/03 Q1020 NOSIG RMK BLU BLU,LKCV,2015-05-27T14:00:00Z,49.93,15.38,12.0,3.0,310,14,,6.21,30.11811,,,,,,TRUE,,,,,SCT,4000,BKN,5000,,,,,VFR,,,,,,,,,,,,METAR,242.0
TNCB 271400Z 07017KT 050V130 9999 SCT020 30/24 Q1013 NOSIG,TNCB,2015-05-27T14:00:00Z,12.13,-68.28,30.0,24.0,70,17,,6.21,29.911417,,,,,,TRUE,,,,,SCT,2000,,,,,,,VFR,,,,,,,,,,,,METAR,6.0
TNCC 271400Z 10013KT 9999 SCT020 30/23 Q1014 NOSIG,TNCC,2015-05-27T14:00:00Z,12.2,-68.97,30.0,23.0,100,13,,6.21,29.940945,,,,,,TRUE,,,,,SCT,2000,,,,,,,VFR,,,,,,,,,,,,METAR,9.0
WSSS 271400Z 18004KT 140V240 9999 TS FEW016 FEW018CB BKN280 29/25 Q1011 BECMG FM1430 TL1440 NSW,WSSS,2015-05-27T14:00:00Z,1.37,103.97,29.0,25.0,180,4,,6.21,29.852362,,,,,,,,,,TS,FEW,1600,FEW,1800,BKN,28000,,,VFR,,,,,,,,,,,,METAR,16.0
RJAH 271400Z 04013KT 9999 SCT007 BKN012 BKN030 17/13 Q1012,RJAH,2015-05-27T14:00:00Z,36.17,140.42,17.0,13.0,40,13,,6.21,29.88189,,,,,,,,,,,SCT,700,BKN,1200,BKN,3000,,,MVFR,,,,,,,,,,,,METAR,35.0
ROAH 271400Z 14006KT 9999 -RA FEW015 BKN035 24/22 Q1008 RMK 1CU015 6SC035 A2977,ROAH,2015-05-27T14:00:00Z,26.17,127.65,24.0,22.0,140,6,,6.21,29.763779,,,,,,,,,,-RA,FEW,1500,BKN,3500,,,,,VFR,,,,,,,,,,,,METAR,8.0
RJTT 271400Z 05015KT 9999 FEW015 SCT025 BKN/// 20/17 Q1012 TEMPO FEW008 BKN012 RMK 2CU015 4CU025 A2990,RJTT,2015-05-27T14:00:00Z,35.53,139.77,20.0,17.0,50,15,,6.21,29.88189,,,,,,,,,,,FEW,1500,SCT,2500,,,,,VFR,,,,,,,,,,,,METAR,8.0
RJOH 271400Z 17004KT 9999 NSC 18/12 Q1010,RJOH,2015-05-27T14:00:00Z,35.47,133.25,18.0,12.0,170,4,,6.21,29.822834,,,,,,,,,,,,,,,,,,,,,,,,,,,,,,,METAR,9.0
RJGG 271400Z 12011KT CAVOK 22/17 Q1009 NOSIG,RJGG,2015-05-27T14:00:00Z,34.87,136.8,22.0,17.0,120,11,,6.21,29.793306,,,,,,TRUE,,,,,CAVOK,,,,,,,,VFR,,,,,,,,,,,,METAR,5.0
RJFR 271400Z 35002KT 9999 FEW030 BKN/// 22/15 Q1009,RJFR,2015-05-27T14:00:00Z,33.82,131.03,22.0,15.0,350,2,,6.21,29.793306,,,,,,,,,,,FEW,3000,,,,,,,VFR,,,,,,,,,,,,METAR,6.0
RJFF 271400Z 10003KT CAVOK 21/12 Q1009 RMK A2982,RJFF,2015-05-27T14:00:00Z,33.57,130.43,21.0,12.0,100,3,,6.21,29.793306,,,,,,,,,,,CAVOK,,,,,,,,VFR,,,,,,,,,,,,METAR,12.0
RJFS 271400Z 32003KT 290V350 CAVOK 21/14 Q1009,RJFS,2015-05-27T14:00:00Z,33.15,130.3,21.0,14.0,320,3,,6.21,29.793306,,,,,,,,,,,CAVOK,,,,,,,,VFR,,,,,,,,,,,,METAR,5.0
RJCC 271400Z 13006KT 9999 FEW005 BKN010 09/07 Q1015 RMK 1ST005 6ST010 A2999,RJCC,2015-05-27T14:00:00Z,42.77,141.67,9.0,7.0,130,6,,6.21,29.970472,,,,,,,,,,,FEW,500,BKN,1000,,,,,MVFR,,,,,,,,,,,,METAR,30.0
RJBB 271400Z VRB01KT CAVOK 23/13 Q1010 NOSIG,RJBB,2015-05-27T14:00:00Z,34.42,135.25,23.0,13.0,0,1,,6.21,29.822834,,,,,,TRUE,,,,,CAVOK,,,,,,,,VFR,,,,,,,,,,,,METAR,8.0
RJAA 271400Z 03012KT 9000 BKN007 18/15 Q1013 NOSIG RMK 7ST007 A2991,RJAA,2015-05-27T14:00:00Z,35.77,140.37,18.0,15.0,30,12,,5.59,29.911417,,,,,,TRUE,,,,,BKN,700,,,,,,,IFR,,,,,,,,,,,,METAR,44.0
FBSP 271400Z 13010KT CAVOK 29/07 Q1020,FBSP,2015-05-27T14:00:00Z,-22.05,27.82,29.0,7.0,130,10,,6.21,30.11811,,,,,,,,,,,CAVOK,,,,,,,,VFR,,,,,,,,,,,,METAR,892.0
FBMN 271400Z 12006KT CAVOK 29/M02 Q1018,FBMN,2015-05-27T14:00:00Z,-19.97,23.42,29.0,-2.0,120,6,,6.21,30.059055,,,,,,,,,,,CAVOK,,,,,,,,VFR,,,,,,,,,,,,METAR,900.0
FBKE 271400Z 08008KT 010V130 9999 FEW030 28/05 Q1018,FBKE,2015-05-27T14:00:00Z,-17.82,25.17,28.0,5.0,80,8,,6.21,30.059055,,,,,,,,,,,FEW,3000,,,,,,,VFR,,,,,,,,,,,,METAR,1000.0
FBFT 271400Z 11012KT 080V140 CAVOK 27/M01 Q1020,FBFT,2015-05-27T14:00:00Z,-21.17,27.48,27.0,-1.0,110,12,,6.21,30.11811,,,,,,,,,,,CAVOK,,,,,,,,VFR,,,,,,,,,,,,METAR,1000.0
NFTF 271400Z 00000KT 9999 FEW010 SCT016 BKN110 20/19 Q1019 RESH,NFTF,2015-05-27T14:00:00Z,-21.23,-175.15,20.0,19.0,0,0,,6.21,30.088583,,,,,,,,,,,FEW,1000,SCT,1600,BKN,11000,,,VFR,,,,,,,,,,,,METAR,38.0
NFTV 271400Z 13009KT 9999 -RA SCT008 BKN100 23/22 Q1016,NFTV,2015-05-27T14:00:00Z,-18.58,-173.97,23.0,22.0,130,9,,6.21,30.0,,,,,,,,,,-RA,SCT,800,BKN,10000,,,,,VFR,,,,,,,,,,,,METAR,71.0
FAUP 271400Z 32011KT CAVOK 28/M01 Q1018 NOSIG,FAUP,2015-05-27T14:00:00Z,-28.38,21.27,28.0,-1.0,320,11,,6.21,30.059055,,,,,,TRUE,,,,,CAVOK,,,,,,,,VFR,,,,,,,,,,,,METAR,836.0
FAPP 271400Z 12003KT CAVOK 26/M05 Q1022 NOSIG,FAPP,2015-05-27T14:00:00Z,-23.83,29.45,26.0,-5.0,120,3,,6.21,30.177166,,,,,,TRUE,,,,,CAVOK,,,,,,,,VFR,,,,,,,,,,,,METAR,1242.0
FAPN 271400Z AUTO 22002KT //// // ////// 28/M03 Q1021,FAPN,2015-05-27T14:00:00Z,-25.33,27.17,28.0,-3.0,220,2,,,30.147638,,,TRUE,,,,,,,,,,,,,,,,,,,,,,,,,,,,METAR,1039.0
FAOR 271400Z VRB02KT CAVOK 22/M05 Q1026 NOSIG,FAOR,2015-05-27T14:00:00Z,-26.12,28.22,22.0,-5.0,0,2,,6.21,30.295275,,,,,,TRUE,,,,,CAVOK,,,,,,,,VFR,,,,,,,,,,,,METAR,1700.0
FAOB 271400Z AUTO 19006KT //// // ////// 20/09 Q1015,FAOB,2015-05-27T14:00:00Z,-34.6,20.27,20.0,9.0,190,6,,,29.970472,,,TRUE,,,,,,,,,,,,,,,,,,,,,,,,,,,,METAR,75.0
FAMM 271400Z 36003KT CAVOK 26/M07 Q1022 NOSIG,FAMM,2015-05-27T14:00:00Z,-25.8,25.52,26.0,-7.0,360,3,,6.21,30.177166,,,,,,TRUE,,,,,CAVOK,,,,,,,,VFR,,,,,,,,,,,,METAR,1277.0
FALW 271400Z AUTO 36008KT //// // ////// 18/10 Q1017,FALW,2015-05-27T14:00:00Z,-32.97,18.17,18.0,10.0,360,8,,,30.029528,,,TRUE,,,,,,,,,,,,,,,,,,,,,,,,,,,,SPECI,0.0
FALE 271400Z 17006KT 9999 SCT025 23/19 Q1019 NOSIG,FALE,2015-05-27T14:00:00Z,-29.62,31.12,23.0,19.0,170,6,,6.21,30.088583,,,,,,TRUE,,,,,SCT,2500,,,,,,,VFR,,,,,,,,,,,,METAR,109.0
FALA 271400Z VRB03KT CAVOK 25/M04 Q1024 NOSIG,FALA,2015-05-27T14:00:00Z,-25.92,27.92,25.0,-4.0,0,3,,6.21,30.236221,,,,,,TRUE,,,,,CAVOK,,,,,,,,VFR,,,,,,,,,,,,METAR,1377.0
FAGG 271400Z 11006KT 9999 FEW040 18/10 Q1016,FAGG,2015-05-27T14:00:00Z,-34.0,22.37,18.0,10.0,110,6,,6.21,30.0,,,,,,,,,,,FEW,4000,,,,,,,VFR,,,,,,,,,,,,METAR,193.0
FAEL 271400Z 13005KT 100V170 CAVOK 20/14 Q1018,FAEL,2015-05-27T14:00:00Z,-33.02,27.82,20.0,14.0,130,5,,6.21,30.059055,,,,,,,,,,,CAVOK,,,,,,,,VFR,,,,,,,,,,,,METAR,125.0
FACT 271400Z 30015KT 9999 FEW030 18/13 Q1017 NOSIG,FACT,2015-05-27T14:00:00Z,-33.97,18.6,18.0,13.0,300,15,,6.21,30.029528,,,,,,TRUE,,,,,FEW,3000,,,,,,,VFR,,,,,,,,,,,,METAR,42.0
FABL 271400Z 28010KT 250V320 CAVOK 24/M02 Q1022 NOSIG,FABL,2015-05-27T14:00:00Z,-29.1,26.3,24.0,-2.0,280,10,,6.21,30.177166,,,,,,TRUE,,,,,CAVOK,,,,,,,,VFR,,,,,,,,,,,,METAR,1348.0
BIVM 271400Z 33007KT 9999 SCT015 BKN025 06/03 Q0998,BIVM,2015-05-27T14:00:00Z,63.42,-20.27,6.0,3.0,330,7,,6.21,29.468504,,,,,,,,,,,SCT,1500,BKN,2500,,,,,MVFR,,,,,,,,,,,,METAR,124.0
SBTF 271400Z 09003KT 9999 SCT015 31/25 Q1014,SBTF,2015-05-27T14:00:00Z,-3.37,-64.72,31.0,25.0,90,3,,6.21,29.940945,,,,,,,,,,,SCT,1500,,,,,,,VFR,,,,,,,,,,,,METAR,47.0
LPHR 271400Z 05012KT 010V080 9999 FEW013 SCT025 20/14 Q1029,LPHR,2015-05-27T14:00:00Z,38.52,-28.72,20.0,14.0,50,12,,6.21,30.383858,,,,,,,,,,,FEW,1300,SCT,2500,,,,,VFR,,,,,,,,,,,,METAR,41.0
LPFL 271400Z 04005KT 340V080 9999 FEW015 BKN030 19/14 Q1032,LPFL,2015-05-27T14:00:00Z,39.45,-31.12,19.0,14.0,40,5,,6.21,30.47244,,,,,,,,,,,FEW,1500,BKN,3000,,,,,MVFR,,,,,,,,,,,,METAR,29.0
LPAZ 271400Z 05016KT 9999 FEW013 BKN026 19/13 Q1026,LPAZ,2015-05-27T14:00:00Z,36.97,-25.17,19.0,13.0,50,16,,6.21,30.295275,,,,,,,,,,,FEW,1300,BKN,2600,,,,,MVFR,,,,,,,,,,,,METAR,100.0
CXDI 271400Z AUTO 23009G16KT 22/18 RMK AO1 PK WND 24019/1321 SLP155 T02210176 50007,CXDI,2015-05-27T14:00:00Z,42.87,-80.55,22.1,17.6,230,9,16,,,1015.5,,TRUE,TRUE,,,,,,,,,,,,,,,,0.7,,,,,,,,,,,METAR,232.0
CXCH 271400Z AUTO 20/14 RMK AO1 T02010136,CXCH,2015-05-27T14:00:00Z,46.63,-60.95,20.1,13.6,,,,,,,,TRUE,TRUE,,,,,,,,,,,,,,,,,,,,,,,,,,,METAR,44.0
CXBO 271400Z AUTO 08010KT RMK AO1,CXBO,2015-05-27T14:00:00Z,46.83,-71.2,,,80,10,,,,,,TRUE,TRUE,,,,,,,,,,,,,,,,,,,,,,,,,,,METAR,100.0
CXKT 271400Z AUTO 06004KT 20/14 RMK AO1 SLP212 T02040143 52001,CXKT,2015-05-27T14:00:00Z,45.07,-64.48,20.4,14.3,60,4,,,,1021.2,,TRUE,TRUE,,,,,,,,,,,,,,,,0.1,,,,,,,,,,,METAR,49.0
CXBK 271400Z AUTO 08014KT 14/07 RMK AO1 3PAST HR 1009 PK WND 08018/1355 SLP141 P0001 T01400071 50003,CXBK,2015-05-27T14:00:00Z,50.2,-104.7,14.0,7.1,80,14,,,,1014.1,,TRUE,TRUE,,,,,,,,,,,,,,,,0.3,,,,,0.01,,,,,,METAR,580.0
CZZJ 271400Z AUTO 25006KT 11/07 RMK AO1 SLP161 T01090069 58004,CZZJ,2015-05-27T14:00:00Z,53.58,-116.47,10.9,6.9,250,6,,,,1016.1,,TRUE,TRUE,,,,,,,,,,,,,,,,-0.4,,,,,,,,,,,METAR,927.0
CZTB 271400Z AUTO 28006KT 21/14 RMK AO1 SLP068 T02140135 51007,CZTB,2015-05-27T14:00:00Z,48.37,-89.32,21.4,13.5,280,6,,,,1006.8,,TRUE,TRUE,,,,,,,,,,,,,,,,0.7,,,,,,,,,,,METAR,199.0
CZMJ 271400Z AUTO 08007KT 14/08 RMK AO1 SLP161 T01350075 51007,CZMJ,2015-05-27T14:00:00Z,50.33,-105.57,13.5,7.5,80,7,,,,1016.1,,TRUE,TRUE,,,,,,,,,,,,,,,,0.7,,,,,,,,,,,METAR,577.0
CXZV 271400Z AUTO 16004KT 10/09 RMK AO1 SLP176 T00980092 50004,CXZV,2015-05-27T14:00:00Z,50.22,-66.25,9.8,9.2,160,4,,,,1017.6,,TRUE,TRUE,,,,,,,,,,,,,,,,0.4,,,,,,,,,,,METAR,52.0
CXTD 271400Z AUTO 23007KT 24/17 RMK AO1 SLP214 T02420170 51010,CXTD,2015-05-27T14:00:00Z,45.62,-61.68,24.2,17.0,230,7,,,,1021.4,,TRUE,TRUE,,,,,,,,,,,,,,,,1.0,,,,,,,,,,,METAR,68.0
CXRL 271400Z AUTO 10/04 RMK AO1 T00970035,CXRL,2015-05-27T14:00:00Z,54.5,-111.7,9.7,3.5,,,,,,,,TRUE,TRUE,,,,,,,,,,,,,,,,,,,,,,,,,,,METAR,585.0
CXLB 271400Z AUTO 15004KT 14/ RMK AO1 SLP223 T0140 50003,CXLB,2015-05-27T14:00:00Z,44.37,-64.3,14.0,,150,4,,,,1022.3,,TRUE,TRUE,,,,,,,,,,,,,,,,0.3,,,,,,,,,,,METAR,4.0
CXKI 271400Z AUTO 19/17 RMK AO1 SLP057 T01920174 50003,CXKI,2015-05-27T14:00:00Z,48.22,-80.0,19.2,17.4,,,,,,1005.7,,TRUE,TRUE,,,,,,,,,,,,,,,,0.3,,,,,,,,,,,METAR,324.0
CXCP 271400Z AUTO 30010KT 12/10 RMK AO1 T01180101,CXCP,2015-05-27T14:00:00Z,50.28,-113.35,11.8,10.1,300,10,,,,,,TRUE,TRUE,,,,,,,,,,,,,,,,,,,,,,,,,,,METAR,1006.0
CWER 271400Z AUTO 04007KT RMK AO1,CWER,2015-05-27T14:00:00Z,47.0,-70.82,,,40,7,,,,,,TRUE,TRUE,,,,,,,,,,,,,,,,,,,,,,,,,,,METAR,5.0
USCC 271400Z 29005MPS CAVOK 24/03 Q1015 R27/000060 NOSIG RMK QFE741,USCC,2015-05-27T14:00:00Z,55.3,61.5,24.0,3.0,290,10,,6.21,29.970472,,,,,,TRUE,,,,,CAVOK,,,,,,,,VFR,,,,,,,,,,,,SPECI,234.0
UWUU 271400Z VRB01MPS 9999 TS BKN033CB 24/15 Q1017 R32R/0///60 TEMPO VRB15MPS 2000 TSRAGR SQ BKN007 RMK QFE752/1002,UWUU,2015-05-27T14:00:00Z,54.57,55.87,24.0,15.0,0,2,,6.21,30.029528,,,,,,,,,,TS,BKN,3300,,,,,,,VFR,,,,,,,,,,,,SPECI,137.0
UWGG 271400Z 21002MPS 9999 BKN033 28/10 Q1012 R18R/090070 NOSIG RMK QFE752,UWGG,2015-05-27T14:00:00Z,56.23,43.78,28.0,10.0,210,4,,6.21,29.88189,,,,,,TRUE,,,,,BKN,3300,,,,,,,VFR,,,,,,,,,,,,SPECI,73.0
UUOK 271400Z 14006MPS 9999 BKN033CB BKN130 24/12 Q1006 R12/CLRD70 NOSIG RMK QFE737/0982,UUOK,2015-05-27T14:00:00Z,51.75,36.28,24.0,12.0,140,12,,6.21,29.704725,,,,,,TRUE,,,,,BKN,3300,BKN,13000,,,,,VFR,,,,,,,,,,,,METAR,209.0
UUOB 271400Z 18006G09MPS 9999 SCT040 BKN200 26/13 Q1006 R11/090060 NOSIG,UUOB,2015-05-27T14:00:00Z,50.65,36.58,26.0,13.0,180,12,17,6.21,29.704725,,,,,,TRUE,,,,,SCT,4000,BKN,20000,,,,,VFR,,,,,,,,,,,,METAR,224.0
UUBP 271400Z 19002MPS 9999 TS BKN035CB 25/13 Q1004 R16/CLRD70 NOSIG RMK QFE735/0980,UUBP,2015-05-27T14:00:00Z,53.22,34.18,25.0,13.0,190,4,,6.21,29.64567,,,,,,TRUE,,,,TS,BKN,3500,,,,,,,VFR,,,,,,,,,,,,SPECI,202.0
ULWC 271400Z 21003G08MPS 9999 FEW033 SCT/// 29/12 Q1007 R21/010060 NOSIG RMK QFE745/0994,ULWC,2015-05-27T14:00:00Z,59.28,38.02,29.0,12.0,210,6,16,6.21,29.734253,,,,,,TRUE,,,,,FEW,3300,,,,,,,VFR,,,,,,,,,,,,METAR,115.0
UIUU 271400Z 30008MPS 9999 -SHRA OVC029CB 10/06 Q1003 R26/010095 NOSIG RMK QFE708/0945,UIUU,2015-05-27T14:00:00Z,51.8,107.45,10.0,6.0,300,16,,6.21,29.616142,,,,,,TRUE,,,,-SHRA,OVC,2900,,,,,,,MVFR,,,,,,,,,,,,SPECI,515.0
UIII 271400Z 31006MPS 4000 -SHRA OVC014CB 07/07 Q1009 R30/290250 NOSIG RMK QFE713/0950,UIII,2015-05-27T14:00:00Z,52.27,104.4,7.0,7.0,310,12,,2.49,29.793306,,,,,,TRUE,,,,-SHRA,OVC,1400,,,,,,,IFR,,,,,,,,,,,,SPECI,513.0
YBHI 271400Z AUTO 01004KT 9999 // BKN100 12/11 Q1021,YBHI,2015-05-27T14:00:00Z,-32.0,141.47,12.0,11.0,10,4,,6.21,30.147638,,,TRUE,,,,,,,,BKN,10000,,,,,,,VFR,,,,,,,,,,,,METAR,292.0
YPBO 271400Z AUTO 08004KT 9999 // SCT110 BKN120 17/17 Q1017,YPBO,2015-05-27T14:00:00Z,-23.2,117.75,17.0,17.0,80,4,,6.21,30.029528,,,TRUE,,,,,,,,SCT,11000,BKN,12000,,,,,VFR,,,,,,,,,,,,METAR,1292.0
YBNA 271400Z AUTO 00000KT 9000 // SCT030 12/12 Q1023,YBNA,2015-05-27T14:00:00Z,-28.83,153.57,12.0,12.0,0,0,,5.59,30.206694,,,TRUE,,,,,,,,SCT,3000,,,,,,,VFR,,,,,,,,,,,,METAR,2.0
YBMK 271400Z AUTO 19007KT 9999 // SCT022 BKN057 19/18 Q1019,YBMK,2015-05-27T14:00:00Z,-21.17,149.17,19.0,18.0,190,7,,6.21,30.088583,,,TRUE,,,,,,,,SCT,2200,BKN,5700,,,,,VFR,,,,,,,,,,,,METAR,31.0
YBOK 271400Z AUTO 09005KT 9999 // NCD 09/08 Q1024,YBOK,2015-05-27T14:00:00Z,-27.42,151.72,9.0,8.0,90,5,,6.21,30.236221,,,TRUE,,,,,,,,,,,,,,,,,,,,,,,,,,,,METAR,407.0
YBPN 271400Z AUTO 21007KT 9999 // NCD 17/16 Q1019,YBPN,2015-05-27T14:00:00Z,-20.5,148.55,17.0,16.0,210,7,,6.21,30.088583,,,TRUE,,,,,,,,,,,,,,,,,,,,,,,,,,,,METAR,25.0
YGTH 271400Z AUTO 02004KT 9999 // SCT100 12/11 Q1021,YGTH,2015-05-27T14:00:00Z,-34.25,146.07,12.0,11.0,20,4,,6.21,30.147638,,,TRUE,,,,,,,,SCT,10000,,,,,,,VFR,,,,,,,,,,,,METAR,134.0
YGTE 271400Z AUTO 00000KT 9999 // NCD 21/20 Q1014,YGTE,2015-05-27T14:00:00Z,-13.97,136.45,21.0,20.0,0,0,,6.21,29.940945,,,TRUE,,,,,,,,,,,,,,,,,,,,,,,,,,,,METAR,14.0
YGLA 271400Z AUTO 19005KT 9999 // NCD 19/16 Q1021,YGLA,2015-05-27T14:00:00Z,-23.87,151.22,19.0,16.0,190,5,,6.21,30.147638,,,TRUE,,,,,,,,,,,,,,,,,,,,,,,,,,,,METAR,52.0
YGFN 271400Z AUTO 00000KT 9999 // NCD 11/11 Q1024,YGFN,2015-05-27T14:00:00Z,-29.77,153.03,11.0,11.0,0,0,,6.21,30.236221,,,TRUE,,,,,,,,,,,,,,,,,,,,,,,,,,,,METAR,34.0
YHUG 271400Z AUTO 10005KT //// // ////// 19/10 Q1019,YHUG,2015-05-27T14:00:00Z,-20.82,144.23,19.0,10.0,100,5,,,30.088583,,,TRUE,,,,,,,,,,,,,,,,,,,,,,,,,,,,METAR,318.0
YKRY 271400Z AUTO 18005KT //// // ////// 09/08 Q1024,YKRY,2015-05-27T14:00:00Z,-26.57,151.83,9.0,8.0,180,5,,,30.236221,,,TRUE,,,,,,,,,,,,,,,,,,,,,,,,,,,,METAR,434.0
YDBY 271400Z AUTO 18004KT //// // ////// 24/15 Q1013,YDBY,2015-05-27T14:00:00Z,-17.37,123.67,24.0,15.0,180,4,,,29.911417,,,TRUE,,,,,,,,,,,,,,,,,,,,,,,,,,,,METAR,7.0
YCOM 271400Z AUTO 32006KT 9999 // NCD 05/04 Q1022,YCOM,2015-05-27T14:00:00Z,-36.3,148.97,5.0,4.0,320,6,,6.21,30.177166,,,TRUE,,,,,,,,,,,,,,,,,,,,,,,,,,,,METAR,941.0
YCNM 271400Z AUTO 09007KT //// // ////// 15/15 Q1023,YCNM,2015-05-27T14:00:00Z,-30.98,148.38,15.0,15.0,90,7,,,30.206694,,,TRUE,,,,,,,,,,,,,,,,,,,,,,,,,,,,METAR,184.0
YLEC 271400Z AUTO 35003KT //// // ////// 14/10 Q1020,YLEC,2015-05-27T14:00:00Z,-30.6,138.43,14.0,10.0,350,3,,,30.11811,,,TRUE,,,,,,,,,,,,,,,,,,,,,,,,,,,,METAR,262.0
YRMD 271400Z AUTO 09009KT //// // ////// 22/12 Q1018,YRMD,2015-05-27T14:00:00Z,-20.7,143.12,22.0,12.0,90,9,,,30.059055,,,TRUE,,,,,,,,,,,,,,,,,,,,,,,,,,,,METAR,207.0
YESP 271400Z AUTO 31008KT 9999 // SCT046 BKN057 11/07 Q1021,YESP,2015-05-27T14:00:00Z,-33.68,121.82,11.0,7.0,310,8,,6.21,30.147638,,,TRUE,,,,,,,,SCT,4600,BKN,5700,,,,,VFR,,,,,,,,,,,,METAR,143.0
YEML 271400Z AUTO 10005KT 9999 // NCD 16/10 Q1021,YEML,2015-05-27T14:00:00Z,-23.57,148.18,16.0,10.0,100,5,,6.21,30.147638,,,TRUE,,,,,,,,,,,,,,,,,,,,,,,,,,,,METAR,190.0
FYGB 271400Z AUTO 07002KT //// // ////// 28/M00 Q1023,FYGB,2015-05-27T14:00:00Z,-22.5,18.97,28.0,0.0,70,2,,,30.206694,,,TRUE,,,,,,,,,,,,,,,,,,,,,,,,,,,,METAR,1442.0
FYML 271400Z AUTO 03005KT //// // ////// 30/M01 Q1021,FYML,2015-05-27T14:00:00Z,-24.6,17.93,30.0,-1.0,30,5,,,30.147638,,,TRUE,,,,,,,,,,,,,,,,,,,,,,,,,,,,METAR,1113.0
OETR 271400Z 25010KT CAVOK 34/03 Q1014 NOSIG,OETR,2015-05-27T14:00:00Z,31.7,38.73,34.0,3.0,250,10,,6.21,29.940945,,,,,,TRUE,,,,,CAVOK,,,,,,,,VFR,,,,,,,,,,,,METAR,855.0
OESK 271400Z 32011KT CAVOK 39/M02 Q1013 NOSIG,OESK,2015-05-27T14:00:00Z,29.77,40.1,39.0,-2.0,320,11,,6.21,29.911417,,,,,,TRUE,,,,,CAVOK,,,,,,,,VFR,,,,,,,,,,,,METAR,684.0
OERR 271400Z 27009KT CAVOK 39/10 Q1011 NOSIG,OERR,2015-05-27T14:00:00Z,30.88,41.12,39.0,10.0,270,9,,6.21,29.852362,,,,,,TRUE,,,,,CAVOK,,,,,,,,VFR,,,,,,,,,,,,METAR,552.0
OEYN 271400Z 24010KT CAVOK 35/19 Q1006 NOSIG,OEYN,2015-05-27T14:00:00Z,24.13,38.07,35.0,19.0,240,10,,6.21,29.704725,,,,,,TRUE,,,,,CAVOK,,,,,,,,VFR,,,,,,,,,,,,METAR,8.0
OEWJ 271400Z 29009KT CAVOK 33/26 Q1007 NOSIG,OEWJ,2015-05-27T14:00:00Z,26.18,36.47,33.0,26.0,290,9,,6.21,29.734253,,,,,,TRUE,,,,,CAVOK,,,,,,,,VFR,,,,,,,,,,,,METAR,16.0
YOLD 271400Z AUTO 02006KT 9999 // BKN125 14/10 Q1020,YOLD,2015-05-27T14:00:00Z,-30.48,136.88,14.0,10.0,20,6,,6.21,30.11811,,,TRUE,,,,,,,,BKN,12500,,,,,,,VFR,,,,,,,,,,,,METAR,105.0
LPLA 271400Z /////KT 9999 FEW008 SCT015 BKN030 18/16 Q1030,LPLA,2015-05-27T14:00:00Z,38.77,-27.1,18.0,16.0,,,,6.21,30.413385,,,,,,,,,,,FEW,800,SCT,1500,BKN,3000,,,MVFR,,,,,,,,,,,,METAR,55.0
FLKK 271400Z 10009KT CAVOK 26/16 Q1020,FLKK,2015-05-27T14:00:00Z,-15.32,28.45,26.0,16.0,100,9,,6.21,30.11811,,,,,,,,,,,CAVOK,,,,,,,,VFR,,,,,,,,,,,,METAR,1154.0
FLHN 271400Z 13005KT CAVOK 27/07 Q1019 NOSIG,FLHN,2015-05-27T14:00:00Z,-17.82,25.82,27.0,7.0,130,5,,6.21,30.088583,,,,,,TRUE,,,,,CAVOK,,,,,,,,VFR,,,,,,,,,,,,METAR,986.0
FLSK 271400Z 00000KT CAVOK 27/12 Q1019,FLSK,2015-05-27T14:00:00Z,-13.0,28.67,27.0,12.0,0,0,,6.21,30.088583,,,,,,,,,,,CAVOK,,,,,,,,VFR,,,,,,,,,,,,METAR,1261.0
FXMM 271400Z 26010KT 9999 FEW040 22/M03 Q1024 NOSIG,FXMM,2015-05-27T14:00:00Z,-29.47,27.55,22.0,-3.0,260,10,,6.21,30.236221,,,,,,TRUE,,,,,FEW,4000,,,,,,,VFR,,,,,,,,,,,,METAR,1631.0
FAWB 271400Z AUTO 02002KT //// // ////// 26/01 Q1021,FAWB,2015-05-27T14:00:00Z,-25.63,28.22,26.0,1.0,20,2,,,30.147638,,,TRUE,,,,,,,,,,,,,,,,,,,,,,,,,,,,METAR,1248.0
FAWK 271400Z AUTO 23005KT //// // ////// 24/M04 Q1025,FAWK,2015-05-27T14:00:00Z,-25.82,28.22,24.0,-4.0,230,5,,,30.265747,,,TRUE,,,,,,,,,,,,,,,,,,,,,,,,,,,,SPECI,1500.0
LCPH 271400Z 13007KT 9999 FEW040 27/13 Q1006,LCPH,2015-05-27T14:00:00Z,34.72,32.47,27.0,13.0,130,7,,6.21,29.704725,,,,,,,,,,,FEW,4000,,,,,,,VFR,,,,,,,,,,,,METAR,8.0
LCLK 271400Z 12009KT 9999 FEW020 25/20 Q1006 NOSIG,LCLK,2015-05-27T14:00:00Z,34.87,33.62,25.0,20.0,120,9,,6.21,29.704725,,,,,,TRUE,,,,,FEW,2000,,,,,,,VFR,,,,,,,,,,,,METAR,2.0
SESM 271400Z 35002KT 9999 FEW033 SCT100 24/19 Q1019 RMK A3011,SESM,2015-05-27T14:00:00Z,-1.5,-78.07,24.0,19.0,350,2,,6.21,30.088583,,,,,,,,,,,FEW,3300,SCT,10000,,,,,VFR,,,,,,,,,,,,METAR,1056.0
GMMI 271400Z VRB09KT 5000 SCT016 24/16 Q1013 NOSIG,GMMI,2015-05-27T14:00:00Z,31.4,-9.68,24.0,16.0,0,9,,3.11,29.911417,,,,,,TRUE,,,,,SCT,1600,,,,,,,MVFR,,,,,,,,,,,,METAR,8.0
GMTN 271400Z 07009KT 040V110 8000 SCT016 22/16 Q1016 NOSIG,GMTN,2015-05-27T14:00:00Z,35.57,-5.32,22.0,16.0,70,9,,4.97,30.0,,,,,,TRUE,,,,,SCT,1600,,,,,,,MVFR,,,,,,,,,,,,METAR,10.0
GMTA 271400Z 02014KT 9999 FEW020 26/16 Q1014 NOSIG,GMTA,2015-05-27T14:00:00Z,35.17,-3.85,26.0,16.0,20,14,,6.21,29.940945,,,,,,TRUE,,,,,FEW,2000,,,,,,,VFR,,,,,,,,,,,,METAR,14.0
GMMZ 271400Z 08012KT 050V110 9999 BKN040 28/01 Q1016 NOSIG,GMMZ,2015-05-27T14:00:00Z,30.92,-6.9,28.0,1.0,80,12,,6.21,30.0,,,,,,TRUE,,,,,BKN,4000,,,,,,,VFR,,,,,,,,,,,,METAR,1140.0
RPLL 271400Z 02004KT 330V060 9999 FEW025 SCT100 29/22 Q1011 NOSIG RMK A2985,RPLL,2015-05-27T14:00:00Z,14.52,121.0,29.0,22.0,20,4,,6.21,29.852362,,,,,,TRUE,,,,,FEW,2500,SCT,10000,,,,,VFR,,,,,,,,,,,,METAR,21.0
EISG 271400Z 16009KT 140V210 9999 FEW014 BKN019 OVC023 11/09 Q1013,EISG,2015-05-27T14:00:00Z,54.28,-8.6,11.0,9.0,160,9,,6.21,29.911417,,,,,,,,,,,FEW,1400,BKN,1900,OVC,2300,,,MVFR,,,,,,,,,,,,METAR,3.0
CYQT 271400Z 28010KT 230V300 20SM SCT100 BKN240 22/13 A2973 RMK AC4CI3 SLP069 DENSITY ALT 1700FT,CYQT,2015-05-27T14:00:00Z,48.37,-89.32,22.0,13.0,280,10,,20.0,29.731298,1006.9,,,,,,,,,,SCT,10000,BKN,24000,,,,,VFR,,,,,,,,,,,,METAR,199.0
CYPQ 271400Z AUTO 23011G16KT 180V250 9SM FEW020 SCT240 22/18 A2997 RMK SLP147 DENSITY ALT 1500FT,CYPQ,2015-05-27T14:00:00Z,44.22,-78.37,22.0,18.0,230,11,16,9.0,29.970472,1014.7,,TRUE,,,,,,,,FEW,2000,SCT,24000,,,,,VFR,,,,,,,,,,,,METAR,191.0
CYND 271400Z 21009KT 10SM -RA SCT035 BKN052 OVC100 23/20 A2993 RMK SC3SC3AC2 SLP135 DENSITY ALT 1100FT,CYND,2015-05-27T14:00:00Z,45.52,-75.57,23.0,20.0,210,9,,10.0,29.929134,1013.5,,,,,,,,,-RA,SCT,3500,BKN,5200,OVC,10000,,,VFR,,,,,,,,,,,,METAR,64.0
CYNA 271400Z AUTO 22009KT 9SM CLR 13/10 A3005 RMK SLP175,CYNA,2015-05-27T14:00:00Z,50.17,-61.82,13.0,10.0,220,9,,9.0,30.050198,1017.5,,TRUE,,,,,,,,CLR,,,,,,,,VFR,,,,,,,,,,,,METAR,11.0
CYMO 271400Z AUTO 02008KT 9SM SCT024 18/13 A2964 RMK SLP037 DENSITY ALT 700FT,CYMO,2015-05-27T14:00:00Z,51.28,-80.62,18.0,13.0,20,8,,9.0,29.639763,1003.7,,TRUE,,,,,,,,SCT,2400,,,,,,,VFR,,,,,,,,,,,,METAR,10.0
CYHU 271400Z AUTO 20011KT 9SM SCT043 SCT050 BKN087 BKN150 26/19 A2996 RMK SLP143 DENSITY ALT 1300FT,CYHU,2015-05-27T14:00:00Z,45.52,-73.42,26.0,19.0,200,11,,9.0,29.958662,1014.3,,TRUE,,,,,,,,SCT,4300,SCT,5000,BKN,8700,BKN,15000,VFR,,,,,,,,,,,,METAR,27.0
CYHD 271400Z AUTO 33008KT 310V030 9SM CLR 14/08 A2986 RMK SLP114 DENSITY ALT 1600FT,CYHD,2015-05-27T14:00:00Z,49.82,-92.75,14.0,8.0,330,8,,9.0,29.861221,1011.4,,TRUE,,,,,,,,CLR,,,,,,,,VFR,,,,,,,,,,,,METAR,413.0
CYGR 271400Z 29012KT 3SM BCFG SCT005 SCT045 BKN240 13/11 A3007 RMK FG2SC1SC1CI1 FG BNK W-NE VIS 1 SLP183,CYGR,2015-05-27T14:00:00Z,47.42,-61.77,13.0,11.0,290,12,,3.0,30.070866,1018.3,,,,,,,,,BCFG,SCT,500,SCT,4500,BKN,24000,,,MVFR,,,,,,,,,,,,METAR,10.0
CYGP 271400Z 32003KT 270V020 15SM BKN015 BKN120 16/12 A3006 RMK CU6AC1 SLP178,CYGP,2015-05-27T14:00:00Z,48.77,-64.47,16.0,12.0,320,3,,15.0,30.059055,1017.8,,,,,,,,,,BKN,1500,BKN,12000,,,,,MVFR,,,,,,,,,,,,METAR,33.0
CYFT 271400Z 11007KT 15SM FEW070 FEW240 08/M08 A3007 RMK AC1CS1 CS TR SLP186,CYFT,2015-05-27T14:00:00Z,55.07,-59.17,8.0,-8.0,110,7,,15.0,30.070866,1018.6,,,,,,,,,,FEW,7000,FEW,24000,,,,,VFR,,,,,,,,,,,,METAR,71.0
CYZX 271400Z 22004KT 15SM BKN250 23/17 A3016 RMK CI4 WNDY HILL 24005KT SLP215,CYZX,2015-05-27T14:00:00Z,44.98,-64.92,23.0,17.0,220,4,,15.0,30.159449,1021.5,,,,,,,,,,BKN,25000,,,,,,,VFR,,,,,,,,,,,,METAR,28.0
USNN 271400Z 15002MPS 9999 SCT030CB 09/09 Q1009 R21/250348 NOSIG RMK QFE752,USNN,2015-05-27T14:00:00Z,60.95,76.48,9.0,9.0,150,4,,6.21,29.793306,,,,,,TRUE,,,,,SCT,3000,,,,,,,VFR,,,,,,,,,,,,SPECI,54.0
YMDG 271400Z AUTO 00000KT //// // OVC050 10/10 Q1024,YMDG,2015-05-27T14:00:00Z,-32.57,149.62,10.0,10.0,0,0,,,30.236221,,,TRUE,,,,,,,,OVC,5000,,,,,,,,,,,,,,,,,,,METAR,471.0
YMAY 271400Z AUTO 00000KT 9999 // OVC096 11/09 Q1022,YMAY,2015-05-27T14:00:00Z,-36.07,146.93,11.0,9.0,0,0,,6.21,30.177166,,,TRUE,,,,,,,,OVC,9600,,,,,,,VFR,,,,,,,,,,,,METAR,171.0
YLRE 271400Z AUTO 11005KT 9999 // ////// 17/07 Q1019,YLRE,2015-05-27T14:00:00Z,-23.43,144.28,17.0,7.0,110,5,,6.21,30.088583,,,TRUE,,,,,,,,,,,,,,,,,,,,,,,,,,,,METAR,193.0
YSSY 271400Z 34005KT CAVOK 14/08 Q1022 NOSIG,YSSY,2015-05-27T14:00:00Z,-33.95,151.17,14.0,8.0,340,5,,6.21,30.177166,,,,,,TRUE,,,,,CAVOK,,,,,,,,VFR,,,,,,,,,,,,METAR,3.0
YPXM 271400Z AUTO 13009KT 9999 // SCT018 SCT023 25/21 Q1014,YPXM,2015-05-27T14:00:00Z,-10.45,105.67,25.0,21.0,130,9,,6.21,29.940945,,,TRUE,,,,,,,,SCT,1800,SCT,2300,,,,,VFR,,,,,,,,,,,,METAR,259.0
YPTN 271400Z AUTO 18004KT 9999 // NCD 21/16 Q1014,YPTN,2015-05-27T14:00:00Z,-14.52,132.38,21.0,16.0,180,4,,6.21,29.940945,,,TRUE,,,,,,,,,,,,,,,,,,,,,,,,,,,,METAR,109.0
YPPH 271400Z 09003KT CAVOK 06/04 Q1022 NOSIG,YPPH,2015-05-27T14:00:00Z,-31.93,115.98,6.0,4.0,90,3,,6.21,30.177166,,,,,,TRUE,,,,,CAVOK,,,,,,,,VFR,,,,,,,,,,,,METAR,13.0
YPLM 271400Z AUTO 03006KT 9999 // NCD 19/18 Q1015,YPLM,2015-05-27T14:00:00Z,-22.22,114.07,19.0,18.0,30,6,,6.21,29.970472,,,TRUE,,,,,,,,,,,,,,,,,,,,,,,,,,,,METAR,6.0
YPKU 271400Z AUTO 00000KT //// // NCD 22/15 Q1014,YPKU,2015-05-27T14:00:00Z,-15.77,128.68,22.0,15.0,0,0,,,29.940945,,,TRUE,,,,,,,,,,,,,,,,,,,,,,,,,,,,METAR,45.0
YPDN 271400Z 07002KT CAVOK 25/22 Q1013,YPDN,2015-05-27T14:00:00Z,-12.42,130.9,25.0,22.0,70,2,,6.21,29.911417,,,,,,,,,,,CAVOK,,,,,,,,VFR,,,,,,,,,,,,METAR,30.0
YPCC 271400Z AUTO 13017KT 9999 // SCT025 BKN066 27/22 Q1013,YPCC,2015-05-27T14:00:00Z,-12.17,96.82,27.0,22.0,130,17,,6.21,29.911417,,,TRUE,,,,,,,,SCT,2500,BKN,6600,,,,,VFR,,,,,,,,,,,,METAR,3.0
YPAD 271400Z 02005KT 9999 NSC 13/10 Q1018 NOSIG,YPAD,2015-05-27T14:00:00Z,-34.95,138.52,13.0,10.0,20,5,,6.21,30.059055,,,,,,TRUE,,,,,,,,,,,,,,,,,,,,,,,,,METAR,4.0
YMML 271400Z 36021KT CAVOK 13/10 Q1018 FM1400 MOD TURB BLW 5000FT,YMML,2015-05-27T14:00:00Z,-37.67,144.82,13.0,10.0,360,21,,6.21,30.059055,,,,,,,,,,,CAVOK,,,,,,,,VFR,,,,,,,,,,,,METAR,141.0
OMRK 271400Z 27013KT 5000 DU NSC 35/14 Q1004 A2967,OMRK,2015-05-27T14:00:00Z,25.62,55.92,35.0,14.0,270,13,,3.11,29.64567,,,,,,,,,,DU,,,,,,,,,,,,,,,,,,,,,METAR,31.0
OIYY 271400Z 06014G23KT 3500 SA FEW040 29/04 Q1014,OIYY,2015-05-27T14:00:00Z,31.9,54.28,29.0,4.0,60,14,23,2.17,29.940945,,,,,,,,,,SA,FEW,4000,,,,,,,IFR,,,,,,,,,,,,METAR,1236.0
FKKD 271400Z 22008KT 9999 BKN016 FEW020CB 31/24 Q1010 TEMPO TS,FKKD,2015-05-27T14:00:00Z,4.0,9.72,31.0,24.0,220,8,,6.21,29.822834,,,,,,,,,,,BKN,1600,FEW,2000,,,,,MVFR,,,,,,,,,,,,METAR,9.0
MKJS 271400Z 08004KT 9999 SCT018 FEW020CB BKN030 26/24 Q1015,MKJS,2015-05-27T14:00:00Z,18.5,-77.92,26.0,24.0,80,4,,6.21,29.970472,,,,,,,,,,,SCT,1800,FEW,2000,BKN,3000,,,MVFR,,,,,,,,,,,,METAR,1.0
LFSL 271400Z AUTO 32010KT 280V360 9999 NSC 22/04 Q1022,LFSL,2015-05-27T14:00:00Z,45.03,1.48,22.0,4.0,320,10,,6.21,30.177166,,,TRUE,,,,,,,,,,,,,,,,,,,,,,,,,,,,METAR,310.0
LFMV 271400Z AUTO 34024KT 320V030 CAVOK 23/04 Q1015,LFMV,2015-05-27T14:00:00Z,43.9,4.9,23.0,4.0,340,24,,6.21,29.970472,,,TRUE,,,,,,,,CAVOK,,,,,,,,VFR,,,,,,,,,,,,METAR,38.0
LFMP 271400Z AUTO 31021KT CAVOK 24/04 Q1018,LFMP,2015-05-27T14:00:00Z,42.72,2.87,24.0,4.0,310,21,,6.21,30.059055,,,TRUE,,,,,,,,CAVOK,,,,,,,,VFR,,,,,,,,,,,,METAR,48.0
LFLC 271400Z 02009KT 340V060 9999 FEW056 20/04 Q1023 NOSIG,LFLC,2015-05-27T14:00:00Z,45.77,3.17,20.0,4.0,20,9,,6.21,30.206694,,,,,,TRUE,,,,,FEW,5600,,,,,,,VFR,,,,,,,,,,,,METAR,330.0
LFKJ 271400Z 14004KT 090V200 9999 -SHRA FEW030CB BKN073 21/13 Q1013 RETSRA NOSIG,LFKJ,2015-05-27T14:00:00Z,41.92,8.8,21.0,13.0,140,4,,6.21,29.911417,,,,,,TRUE,,,,-SHRA,FEW,3000,BKN,7300,,,,,VFR,,,,,,,,,,,,METAR,9.0
LFKF 271400Z AUTO VRB02KT 9999 NCD 20/15 Q1014,LFKF,2015-05-27T14:00:00Z,41.5,9.08,20.0,15.0,0,2,,6.21,29.940945,,,TRUE,,,,,,,,,,,,,,,,,,,,,,,,,,,,METAR,23.0
LFKC 271400Z 01012KT 340V050 9999 FEW043 23/11 Q1014 NOSIG,LFKC,2015-05-27T14:00:00Z,42.52,8.8,23.0,11.0,10,12,,6.21,29.940945,,,,,,TRUE,,,,,FEW,4300,,,,,,,VFR,,,,,,,,,,,,METAR,58.0
LFKB 271400Z 01013KT 340V040 9999 FEW036TCU 22/11 Q1014 NOSIG,LFKB,2015-05-27T14:00:00Z,42.53,9.47,22.0,11.0,10,13,,6.21,29.940945,,,,,,TRUE,,,,,FEW,3600,,,,,,,VFR,,,,,,,,,,,,METAR,12.0
LRTC 271400Z 15011KT 9999 SCT050CB 24/11 Q1005,LRTC,2015-05-27T14:00:00Z,45.07,28.72,24.0,11.0,150,11,,6.21,29.675198,,,,,,,,,,,SCT,5000,,,,,,,VFR,,,,,,,,,,,,METAR,6.0
LRSV 271400Z 34021KT 280V350 9999 -RA SCT045 09/08 Q1008,LRSV,2015-05-27T14:00:00Z,47.68,26.35,9.0,8.0,340,21,,6.21,29.763779,,,,,,,,,,-RA,SCT,4500,,,,,,,VFR,,,,,,,,,,,,METAR,351.0
LRIA 271400Z 32018KT 9999 SCT045 17/10 Q1005,LRIA,2015-05-27T14:00:00Z,47.17,27.62,17.0,10.0,320,18,,6.21,29.675198,,,,,,,,,,,SCT,4500,,,,,,,VFR,,,,,,,,,,,,METAR,104.0
LRCV 271400Z 26017KT 9999 FEW048 20/09 Q1006 R27/29//95,LRCV,2015-05-27T14:00:00Z,44.32,23.88,20.0,9.0,260,17,,6.21,29.704725,,,,,,,,,,,FEW,4800,,,,,,,VFR,,,,,,,,,,,,METAR,191.0
LRBC 271400Z 36018KT 9999 SCT055 BKN065 20/12 Q1005,LRBC,2015-05-27T14:00:00Z,46.52,26.92,20.0,12.0,360,18,,6.21,29.675198,,,,,,,,,,,SCT,5500,BKN,6500,,,,,VFR,,,,,,,,,,,,METAR,185.0
LFTH 271400Z AUTO 21009KT 170V240 CAVOK 22/09 Q1015,LFTH,2015-05-27T14:00:00Z,43.1,6.15,22.0,9.0,210,9,,6.21,29.970472,,,TRUE,,,,,,,,CAVOK,,,,,,,,VFR,,,,,,,,,,,,METAR,4.0
LFST 271400Z AUTO VRB06KT 9999 FEW056 SCT250 18/03 Q1023,LFST,2015-05-27T14:00:00Z,48.53,7.62,18.0,3.0,0,6,,6.21,30.206694,,,TRUE,,,,,,,,FEW,5600,SCT,25000,,,,,VFR,,,,,,,,,,,,METAR,154.0
LFSG 271400Z AUTO VRB05KT 9999 NSC 16/06 Q1023,LFSG,2015-05-27T14:00:00Z,48.33,6.07,16.0,6.0,0,5,,6.21,30.206694,,,TRUE,,,,,,,,,,,,,,,,,,,,,,,,,,,,METAR,330.0
LFSB 271400Z 30006KT 250V040 CAVOK 18/04 Q1023 NOSIG,LFSB,2015-05-27T14:00:00Z,47.6,7.52,18.0,4.0,300,6,,6.21,30.206694,,,,,,TRUE,,,,,CAVOK,,,,,,,,VFR,,,,,,,,,,,,METAR,271.0
LFRZ 271400Z AUTO 20007KT 170V260 9999 FEW045 20/11 Q1024,LFRZ,2015-05-27T14:00:00Z,47.32,-2.17,20.0,11.0,200,7,,6.21,30.236221,,,TRUE,,,,,,,,FEW,4500,,,,,,,VFR,,,,,,,,,,,,METAR,4.0
LFRV 271400Z AUTO 18007KT 100V240 9999 FEW039 19/09 Q1024,LFRV,2015-05-27T14:00:00Z,47.72,-2.72,19.0,9.0,180,7,,6.21,30.236221,,,TRUE,,,,,,,,FEW,3900,,,,,,,VFR,,,,,,,,,,,,METAR,133.0
LFRO 271400Z AUTO 30008KT 270V350 CAVOK 17/12 Q1024,LFRO,2015-05-27T14:00:00Z,48.75,-3.47,17.0,12.0,300,8,,6.21,30.236221,,,TRUE,,,,,,,,CAVOK,,,,,,,,VFR,,,,,,,,,,,,METAR,89.0
LFRN 271400Z AUTO 30003KT 220V030 9999 FEW046 21/11 Q1024,LFRN,2015-05-27T14:00:00Z,48.07,-1.72,21.0,11.0,300,3,,6.21,30.236221,,,TRUE,,,,,,,,FEW,4600,,,,,,,VFR,,,,,,,,,,,,METAR,37.0
LFRM 271400Z AUTO VRB04KT CAVOK 22/07 Q1023,LFRM,2015-05-27T14:00:00Z,47.95,0.2,22.0,7.0,0,4,,6.21,30.206694,,,TRUE,,,,,,,,CAVOK,,,,,,,,VFR,,,,,,,,,,,,METAR,52.0
LFRI 271400Z AUTO VRB03KT 9999 FEW048 21/09 Q1024,LFRI,2015-05-27T14:00:00Z,46.7,-1.37,21.0,9.0,0,3,,6.21,30.236221,,,TRUE,,,,,,,,FEW,4800,,,,,,,VFR,,,,,,,,,,,,METAR,91.0
LFRD 271400Z AUTO 33007KT CAVOK 19/10 Q1024,LFRD,2015-05-27T14:00:00Z,48.58,-2.07,19.0,10.0,330,7,,6.21,30.236221,,,TRUE,,,,,,,,CAVOK,,,,,,,,VFR,,,,,,,,,,,,METAR,59.0
LFOV 271400Z AUTO VRB02KT 9999 BKN044 19/09 Q1023,LFOV,2015-05-27T14:00:00Z,48.03,-0.75,19.0,9.0,0,2,,6.21,30.206694,,,TRUE,,,,,,,,BKN,4400,,,,,,,VFR,,,,,,,,,,,,METAR,101.0
LFMK 271400Z AUTO 30014KT 270V340 CAVOK 23/04 Q1021,LFMK,2015-05-27T14:00:00Z,43.22,2.32,23.0,4.0,300,14,,6.21,30.147638,,,TRUE,,,,,,,,CAVOK,,,,,,,,VFR,,,,,,,,,,,,METAR,130.0
LFMI 271400Z AUTO 35017KT 9999 FEW001 24/03 Q1015,LFMI,2015-05-27T14:00:00Z,43.52,4.92,24.0,3.0,350,17,,6.21,29.970472,,,TRUE,,,,,,,,FEW,100,,,,,,,VFR,,,,,,,,,,,,METAR,24.0
SESD 271400Z 00000KT 4000 -DZ BR BKN007 OVC013 22/22 Q1013,SESD,2015-05-27T14:00:00Z,-0.25,-79.2,22.0,22.0,0,0,,2.49,29.911417,,,,,,,,,,-DZ BR,BKN,700,OVC,1300,,,,,IFR,,,,,,,,,,,,METAR,522.0
LFRU 271400Z AUTO 33009KT 300V360 CAVOK 16/12 Q1024,LFRU,2015-05-27T14:00:00Z,48.6,-3.82,16.0,12.0,330,9,,6.21,30.236221,,,TRUE,,,,,,,,CAVOK,,,,,,,,VFR,,,,,,,,,,,,METAR,86.0
LFRK 271400Z AUTO 20005KT 170V260 9999 BKN049 21/09 Q1023,LFRK,2015-05-27T14:00:00Z,49.17,-0.45,21.0,9.0,200,5,,6.21,30.206694,,,TRUE,,,,,,,,BKN,4900,,,,,,,VFR,,,,,,,,,,,,METAR,67.0
LFRG 271400Z AUTO 34007KT 310V020 CAVOK 18/08 Q1024,LFRG,2015-05-27T14:00:00Z,49.37,0.15,18.0,8.0,340,7,,6.21,30.236221,,,TRUE,,,,,,,,CAVOK,,,,,,,,VFR,,,,,,,,,,,,METAR,146.0
LFRC 271400Z AUTO 31005KT 270V350 9999 BKN034 17/10 Q1023,LFRC,2015-05-27T14:00:00Z,49.63,-1.47,17.0,10.0,310,5,,6.21,30.206694,,,TRUE,,,,,,,,BKN,3400,,,,,,,VFR,,,,,,,,,,,,METAR,138.0
LFPN 271400Z AUTO VRB02KT CAVOK 19/07 Q1023,LFPN,2015-05-27T14:00:00Z,48.75,2.12,19.0,7.0,0,2,,6.21,30.206694,,,TRUE,,,,,,,,CAVOK,,,,,,,,VFR,,,,,,,,,,,,METAR,164.0
LFOT 271400Z AUTO VRB04KT CAVOK 20/07 Q1023,LFOT,2015-05-27T14:00:00Z,47.43,0.72,20.0,7.0,0,4,,6.21,30.206694,,,TRUE,,,,,,,,CAVOK,,,,,,,,VFR,,,,,,,,,,,,METAR,108.0
LFMH 271400Z 34013KT 290V010 9999 FEW053 19/05 Q1022 NOSIG,LFMH,2015-05-27T14:00:00Z,45.52,4.28,19.0,5.0,340,13,,6.21,30.177166,,,,,,TRUE,,,,,FEW,5300,,,,,,,VFR,,,,,,,,,,,,METAR,402.0
LFMD 271400Z AUTO VRB11KT CAVOK 24/09 Q1015,LFMD,2015-05-27T14:00:00Z,43.53,6.95,24.0,9.0,0,11,,6.21,29.970472,,,TRUE,,,,,,,,CAVOK,,,,,,,,VFR,,,,,,,,,,,,METAR,9.0
LFJR 271400Z AUTO VRB03KT CAVOK 21/08 Q1024,LFJR,2015-05-27T14:00:00Z,47.57,-0.3,21.0,8.0,0,3,,6.21,30.236221,,,TRUE,,,,,,,,CAVOK,,,,,,,,VFR,,,,,,,,,,,,METAR,60.0
LFGJ 271400Z AUTO 35009KT 320V040 CAVOK 19/06 Q1022,LFGJ,2015-05-27T14:00:00Z,47.05,5.43,19.0,6.0,350,9,,6.21,30.177166,,,TRUE,,,,,,,,CAVOK,,,,,,,,VFR,,,,,,,,,,,,METAR,196.0
LFBE 271400Z AUTO 34010KT 300V020 CAVOK 23/05 Q1022,LFBE,2015-05-27T14:00:00Z,44.82,0.52,23.0,5.0,340,10,,6.21,30.177166,,,TRUE,,,,,,,,CAVOK,,,,,,,,VFR,,,,,,,,,,,,METAR,52.0
LFBA 271400Z AUTO 33009KT 290V350 CAVOK 23/07 Q1022,LFBA,2015-05-27T14:00:00Z,44.17,0.6,23.0,7.0,330,9,,6.21,30.177166,,,TRUE,,,,,,,,CAVOK,,,,,,,,VFR,,,,,,,,,,,,METAR,60.0
LFTW 271400Z AUTO 02018KT 350V050 CAVOK 23/04 Q1016,LFTW,2015-05-27T14:00:00Z,43.75,4.42,23.0,4.0,20,18,,6.21,30.0,,,TRUE,,,,,,,,CAVOK,,,,,,,,VFR,,,,,,,,,,,,METAR,96.0
LFSD 271400Z AUTO VRB05KT CAVOK 20/07 Q1023,LFSD,2015-05-27T14:00:00Z,47.27,5.07,20.0,7.0,0,5,,6.21,30.206694,,,TRUE,,,,,,,,CAVOK,,,,,,,,VFR,,,,,,,,,,,,METAR,227.0
LFRT 271400Z AUTO 05008KT CAVOK 18/12 Q1024,LFRT,2015-05-27T14:00:00Z,48.52,-2.85,18.0,12.0,50,8,,6.21,30.236221,,,TRUE,,,,,,,,CAVOK,,,,,,,,VFR,,,,,,,,,,,,METAR,136.0
LFRQ 271400Z AUTO 26008KT 220V310 9999 BKN032 19/11 Q1024,LFRQ,2015-05-27T14:00:00Z,47.97,-4.17,19.0,11.0,260,8,,6.21,30.236221,,,TRUE,,,,,,,,BKN,3200,,,,,,,VFR,,,,,,,,,,,,METAR,94.0
LFRH 271400Z AUTO 24009KT 9999 NSC 17/10 Q1025,LFRH,2015-05-27T14:00:00Z,47.77,-3.45,17.0,10.0,240,9,,6.21,30.265747,,,TRUE,,,,,,,,,,,,,,,,,,,,,,,,,,,,METAR,44.0
LFPT 271400Z AUTO VRB03KT CAVOK 21/07 Q1023,LFPT,2015-05-27T14:00:00Z,49.1,2.03,21.0,7.0,0,3,,6.21,30.206694,,,TRUE,,,,,,,,CAVOK,,,,,,,,VFR,,,,,,,,,,,,METAR,99.0
LFPM 271400Z AUTO 10003KT 060V120 CAVOK 20/07 Q1023,LFPM,2015-05-27T14:00:00Z,48.62,2.67,20.0,7.0,100,3,,6.21,30.206694,,,TRUE,,,,,,,,CAVOK,,,,,,,,VFR,,,,,,,,,,,,METAR,92.0
LFLN 271400Z AUTO 34009KT 310V020 CAVOK 20/06 Q1022,LFLN,2015-05-27T14:00:00Z,46.42,4.02,20.0,6.0,340,9,,6.21,30.177166,,,TRUE,,,,,,,,CAVOK,,,,,,,,VFR,,,,,,,,,,,,METAR,244.0
LFGA 271400Z AUTO VRB04KT 9999 NSC 18/04 Q1023,LFGA,2015-05-27T14:00:00Z,48.1,7.35,18.0,4.0,0,4,,6.21,30.206694,,,TRUE,,,,,,,,,,,,,,,,,,,,,,,,,,,,METAR,191.0
LFBU 271400Z AUTO 34005KT 260V020 CAVOK 22/03 Q1023,LFBU,2015-05-27T14:00:00Z,45.72,0.22,22.0,3.0,340,5,,6.21,30.206694,,,TRUE,,,,,,,,CAVOK,,,,,,,,VFR,,,,,,,,,,,,METAR,133.0
LFAT 271400Z AUTO 25009KT 220V290 CAVOK 16/08 Q1023,LFAT,2015-05-27T14:00:00Z,50.52,1.62,16.0,8.0,250,9,,6.21,30.206694,,,TRUE,,,,,,,,CAVOK,,,,,,,,VFR,,,,,,,,,,,,METAR,14.0
LFAQ 271400Z AUTO 26009KT 230V300 9999 FEW049 19/08 Q1022,LFAQ,2015-05-27T14:00:00Z,49.97,2.7,19.0,8.0,260,9,,6.21,30.177166,,,TRUE,,,,,,,,FEW,4900,,,,,,,VFR,,,,,,,,,,,,METAR,111.0
LFSN 271400Z AUTO 06005KT 360V100 CAVOK 17/05 Q1023,LFSN,2015-05-27T14:00:00Z,48.67,6.22,17.0,5.0,60,5,,6.21,30.206694,,,TRUE,,,,,,,,CAVOK,,,,,,,,VFR,,,,,,,,,,,,METAR,217.0
LFQB 271400Z AUTO VRB03KT CAVOK 19/08 Q1023,LFQB,2015-05-27T14:00:00Z,48.32,4.02,19.0,8.0,0,3,,6.21,30.206694,,,TRUE,,,,,,,,CAVOK,,,,,,,,VFR,,,,,,,,,,,,METAR,118.0
LFQA 271400Z AUTO 35005KT 310V050 CAVOK 18/05 Q1023,LFQA,2015-05-27T14:00:00Z,49.2,4.15,18.0,5.0,350,5,,6.21,30.206694,,,TRUE,,,,,,,,CAVOK,,,,,,,,VFR,,,,,,,,,,,,METAR,95.0
LFPB 271400Z AUTO 26005KT 180V340 CAVOK 21/06 Q1023,LFPB,2015-05-27T14:00:00Z,48.97,2.45,21.0,6.0,260,5,,6.21,30.206694,,,TRUE,,,,,,,,CAVOK,,,,,,,,VFR,,,,,,,,,,,,METAR,65.0
LFOP 271400Z AUTO 29006KT 220V330 9999 BKN049 21/09 Q1023,LFOP,2015-05-27T14:00:00Z,49.37,1.17,21.0,9.0,290,6,,6.21,30.206694,,,TRUE,,,,,,,,BKN,4900,,,,,,,VFR,,,,,,,,,,,,METAR,157.0
LFOK 271400Z AUTO 07003KT 010V140 CAVOK 19/06 Q1023,LFOK,2015-05-27T14:00:00Z,48.78,4.18,19.0,6.0,70,3,,6.21,30.206694,,,TRUE,,,,,,,,CAVOK,,,,,,,,VFR,,,,,,,,,,,,METAR,162.0
LFOH 271400Z AUTO 29005KT 250V330 CAVOK 17/08 Q1024,LFOH,2015-05-27T14:00:00Z,49.52,0.07,17.0,8.0,290,5,,6.21,30.236221,,,TRUE,,,,,,,,CAVOK,,,,,,,,VFR,,,,,,,,,,,,METAR,103.0
LFOB 271400Z AUTO 20007KT CAVOK 19/07 Q1023,LFOB,2015-05-27T14:00:00Z,49.47,2.12,19.0,7.0,200,7,,6.21,30.206694,,,TRUE,,,,,,,,CAVOK,,,,,,,,VFR,,,,,,,,,,,,METAR,111.0
LFMU 271400Z AUTO 31018KT 280V340 CAVOK 25/05 Q1017,LFMU,2015-05-27T14:00:00Z,43.32,3.35,25.0,5.0,310,18,,6.21,30.029528,,,TRUE,,,,,,,,CAVOK,,,,,,,,VFR,,,,,,,,,,,,METAR,17.0
LFMT 271400Z 02010KT 350V060 CAVOK 27/03 Q1016 NOSIG,LFMT,2015-05-27T14:00:00Z,43.57,3.97,27.0,3.0,20,10,,6.21,30.0,,,,,,TRUE,,,,,CAVOK,,,,,,,,VFR,,,,,,,,,,,,METAR,6.0
LFLY 271400Z AUTO 36017KT CAVOK 21/05 Q1021,LFLY,2015-05-27T14:00:00Z,45.72,4.95,21.0,5.0,360,17,,6.21,30.147638,,,TRUE,,,,,,,,CAVOK,,,,,,,,VFR,,,,,,,,,,,,METAR,201.0
LFLU 271400Z AUTO 01021KT CAVOK 21/05 Q1019,LFLU,2015-05-27T14:00:00Z,44.92,4.98,21.0,5.0,10,21,,6.21,30.088583,,,TRUE,,,,,,,,CAVOK,,,,,,,,VFR,,,,,,,,,,,,METAR,160.0
LFLS 271400Z AUTO 35012KT 310V030 9999 FEW056 19/05 Q1021,LFLS,2015-05-27T14:00:00Z,45.37,5.32,19.0,5.0,350,12,,6.21,30.147638,,,TRUE,,,,,,,,FEW,5600,,,,,,,VFR,,,,,,,,,,,,METAR,386.0
LFLP 271400Z AUTO 03011KT 360V090 CAVOK 20/01 Q1020,LFLP,2015-05-27T14:00:00Z,45.92,6.08,20.0,1.0,30,11,,6.21,30.11811,,,TRUE,,,,,,,,CAVOK,,,,,,,,VFR,,,,,,,,,,,,METAR,463.0
LFJL 271400Z AUTO VRB04KT 9999 FEW049 16/03 Q1024,LFJL,2015-05-27T14:00:00Z,48.97,6.25,16.0,3.0,0,4,,6.21,30.236221,,,TRUE,,,,,,,,FEW,4900,,,,,,,VFR,,,,,,,,,,,,METAR,264.0
LFCR 271400Z AUTO 35009KT 320V030 CAVOK 20/07 Q1021,LFCR,2015-05-27T14:00:00Z,44.38,2.47,20.0,7.0,350,9,,6.21,30.147638,,,TRUE,,,,,,,,CAVOK,,,,,,,,VFR,,,,,,,,,,,,METAR,580.0
LRTM 271400Z 30012KT 270V330 8000 -SHRA SCT010 BKN017 FEW025CB 09/07 Q1010 R07/0729//95,LRTM,2015-05-27T14:00:00Z,46.47,24.42,9.0,7.0,300,12,,4.97,29.822834,,,,,,,,,,-SHRA,SCT,1000,BKN,1700,FEW,2500,,,MVFR,,,,,,,,,,,,METAR,309.0
LRSM 271400Z 33015KT 290V360 CAVOK 13/07 Q1010,LRSM,2015-05-27T14:00:00Z,47.7,22.88,13.0,7.0,330,15,,6.21,29.822834,,,,,,,,,,,CAVOK,,,,,,,,VFR,,,,,,,,,,,,METAR,124.0
LROD 271400Z 35013KT 9999 BKN034 OVC042 12/06 Q1013,LROD,2015-05-27T14:00:00Z,47.03,21.92,12.0,6.0,350,13,,6.21,29.911417,,,,,,,,,,,BKN,3400,OVC,4200,,,,,VFR,,,,,,,,,,,,METAR,140.0
LRCL 271400Z 28013KT 250V310 9999 BKN016 OVC030 10/08 Q1011 R07/19//95,LRCL,2015-05-27T14:00:00Z,46.78,23.68,10.0,8.0,280,13,,6.21,29.852362,,,,,,,,,,,BKN,1600,OVC,3000,,,,,MVFR,,,,,,,,,,,,METAR,413.0
LRBM 271400Z 26009KT 9999 SCT030 BKN035 13/10 Q1010 R10/29//95,LRBM,2015-05-27T14:00:00Z,47.67,23.47,13.0,10.0,260,9,,6.21,29.822834,,,,,,,,,,,SCT,3000,BKN,3500,,,,,VFR,,,,,,,,,,,,METAR,185.0
LRAR 271400Z 34008KT 9999 FEW028 SCT035 13/08 Q1013,LRAR,2015-05-27T14:00:00Z,46.18,21.27,13.0,8.0,340,8,,6.21,29.911417,,,,,,,,,,,FEW,2800,SCT,3500,,,,,VFR,,,,,,,,,,,,METAR,118.0
OITM 271400Z 27006KT 9999 FEW029TCU FEW031 BKN190 26/04 Q1014,OITM,2015-05-27T14:00:00Z,37.35,46.15,26.0,4.0,270,6,,6.21,29.940945,,,,,,,,,,,FEW,2900,FEW,3100,BKN,19000,,,VFR,,,,,,,,,,,,METAR,1340.0
OINE 271400Z 19024KT 8000 FEW025CB SCT030 BKN100 29/12 Q1007,OINE,2015-05-27T14:00:00Z,37.38,55.45,29.0,12.0,190,24,,4.97,29.734253,,,,,,,,,,,FEW,2500,SCT,3000,BKN,10000,,,MVFR,,,,,,,,,,,,METAR,130.0
OIMQ 271400Z 25006KT 9999 SCT040 OVC100 31/M04 Q1011,OIMQ,2015-05-27T14:00:00Z,35.23,58.47,31.0,-4.0,250,6,,6.21,29.852362,,,,,,,,,,,SCT,4000,OVC,10000,,,,,VFR,,,,,,,,,,,,METAR,1140.0
OIMD 271400Z 02010KT 9999 SCT030 BKN180 30/03 Q1008,OIMD,2015-05-27T14:00:00Z,34.38,58.63,30.0,3.0,20,10,,6.21,29.763779,,,,,,,,,,,SCT,3000,BKN,18000,,,,,VFR,,,,,,,,,,,,METAR,1100.0
OIMC 271400Z 36004KT 9999 FEW035 SCT200 35/02 Q1008,OIMC,2015-05-27T14:00:00Z,36.5,61.07,35.0,2.0,360,4,,6.21,29.763779,,,,,,,,,,,FEW,3500,SCT,20000,,,,,VFR,,,,,,,,,,,,METAR,288.0
OIIK 271400Z 27012KT 9000 TS SCT030CB SCT040 SCT200 26/04 Q1014,OIIK,2015-05-27T14:00:00Z,36.25,50.05,26.0,4.0,270,12,,5.59,29.940945,,,,,,,,,,TS,SCT,3000,SCT,4000,SCT,20000,,,VFR,,,,,,,,,,,,METAR,1278.0
OIBL 271400Z 27020KT 6000 NSC 34/18 Q1000,OIBL,2015-05-27T14:00:00Z,26.53,54.82,34.0,18.0,270,20,,3.73,29.52756,,,,,,,,,,,,,,,,,,,,,,,,,,,,,,,METAR,14.0
FMSD 271400Z 06010KT 9999 FEW016 24/21 Q1017,FMSD,2015-05-27T14:00:00Z,-25.02,46.95,24.0,21.0,60,10,,6.21,30.029528,,,,,,,,,,,FEW,1600,,,,,,,VFR,,,,,,,,,,,,METAR,9.0
FMNM 271400Z 30007KT 9999 FEW023 28/23 Q1014 NOSIG,FMNM,2015-05-27T14:00:00Z,-15.67,46.35,28.0,23.0,300,7,,6.21,29.940945,,,,,,TRUE,,,,,FEW,2300,,,,,,,VFR,,,,,,,,,,,,METAR,18.0
FMMT 271400Z 14004KT 9999 FEW017 SCT033 26/20 Q1018 NOSIG,FMMT,2015-05-27T14:00:00Z,-18.12,49.38,26.0,20.0,140,4,,6.21,30.059055,,,,,,TRUE,,,,,FEW,1700,SCT,3300,,,,,VFR,,,,,,,,,,,,METAR,6.0
FMCH 271400Z VRB03KT 9999 FEW020TCU SCT030 29/21 Q1015 NOSIG,FMCH,2015-05-27T14:00:00Z,-11.52,43.27,29.0,21.0,0,3,,6.21,29.970472,,,,,,TRUE,,,,,FEW,2000,SCT,3000,,,,,VFR,,,,,,,,,,,,METAR,29.0
OIZI 271400Z 24008KT 9999 FEW045 41/03 Q1003,OIZI,2015-05-27T14:00:00Z,27.23,60.72,41.0,3.0,240,8,,6.21,29.616142,,,,,,,,,,,FEW,4500,,,,,,,VFR,,,,,,,,,,,,METAR,591.0
CYYZ 271400Z 21016KT 15SM FEW030 SCT038 BKN070 BKN250 24/17 A2998 RMK CU2CU2AC2CI1 SLP149 DENSITY ALT 1600FT,CYYZ,2015-05-27T14:00:00Z,43.67,-79.62,24.0,17.0,210,16,,15.0,29.97933,1014.9,,,,,,,,,,FEW,3000,SCT,3800,BKN,7000,BKN,25000,VFR,,,,,,,,,,,,METAR,173.0
CYYT 271400Z 25025G32KT 12SM BKN007 13/11 A3012 RMK SF7 SLP203,CYYT,2015-05-27T14:00:00Z,47.62,-52.72,13.0,11.0,250,25,32,12.0,30.121063,1020.3,,,,,,,,,,BKN,700,,,,,,,IFR,,,,,,,,,,,,METAR,140.0
CYYR 271400Z 07011KT 15SM FEW190 FEW270 BKN300 11/00 A3003 RMK AC1CI1CI1 SLP172,CYYR,2015-05-27T14:00:00Z,53.32,-60.42,11.0,0.0,70,11,,15.0,30.029528,1017.2,,,,,,,,,,FEW,19000,FEW,27000,BKN,30000,,,VFR,,,,,,,,,,,,METAR,49.0
CYYQ 271400Z 36014G21KT 15SM OVC022 M01/M05 A3012 RMK SC8 SLP201,CYYQ,2015-05-27T14:00:00Z,58.75,-94.07,-1.0,-5.0,360,14,21,15.0,30.121063,1020.1,,,,,,,,,,OVC,2200,,,,,,,MVFR,,,,,,,,,,,,METAR,29.0
CYYJ 271400Z 09004KT 30SM FEW001 BKN042 BKN120 12/10 A3006 RMK SF1SC7AC1 SF TR AC TR SLP181,CYYJ,2015-05-27T14:00:00Z,48.63,-123.42,12.0,10.0,90,4,,30.0,30.059055,1018.1,,,,,,,,,,FEW,100,BKN,4200,BKN,12000,,,VFR,,,,,,,,,,,,METAR,19.0
CYYC 271400Z 29003KT 30SM FEW070 BKN110 14/08 A3003 RMK AC2AC5 SLP174 DENSITY ALT 4100FT,CYYC,2015-05-27T14:00:00Z,51.12,-114.02,14.0,8.0,290,3,,30.0,30.029528,1017.4,,,,,,,,,,FEW,7000,BKN,11000,,,,,VFR,,,,,,,,,,,,METAR,1084.0
CYXX 271400Z 26003KT 20SM OVC045 14/12 A3007 RMK SC8 SLP181,CYXX,2015-05-27T14:00:00Z,49.03,-122.38,14.0,12.0,260,3,,20.0,30.070866,1018.1,,,,,,,,,,OVC,4500,,,,,,,VFR,,,,,,,,,,,,METAR,58.0
CYWG 271400Z 01012KT 15SM SCT270 11/06 A2999 RMK CI3 SLP160,CYWG,2015-05-27T14:00:00Z,49.88,-97.22,11.0,6.0,10,12,,15.0,29.991142,1016.0,,,,,,,,,,SCT,27000,,,,,,,VFR,,,,,,,,,,,,METAR,239.0
CYVR 271400Z 14005KT 20SM OVC040 15/11 A3007 RMK SC8 SLP181,CYVR,2015-05-27T14:00:00Z,49.17,-123.17,15.0,11.0,140,5,,20.0,30.070866,1018.1,,,,,,,,,,OVC,4000,,,,,,,VFR,,,,,,,,,,,,METAR,2.0
CYUL 271400Z 22010KT 15SM FEW050TCU SCT068 BKN120 BKN150 26/20 A2995 RMK TCU1AC3AC1AC2 SLP142 DENSITY ALT 1300FT,CYUL,2015-05-27T14:00:00Z,45.47,-73.73,26.0,20.0,220,10,,15.0,29.949802,1014.2,,,,,,,,,,FEW,5000,SCT,6800,BKN,12000,BKN,15000,VFR,,,,,,,,,,,,METAR,36.0
CYTR 271400Z 22011G16KT 12SM FEW021 BKN091 20/18 A2998 RMK SC2AC5 SLP152,CYTR,2015-05-27T14:00:00Z,44.12,-77.52,20.0,18.0,220,11,16,12.0,29.97933,1015.2,,,,,,,,,,FEW,2100,BKN,9100,,,,,VFR,,,,,,,,,,,,METAR,86.0
CYQY 271400Z 21007G15KT 190V270 15SM FEW120 SCT240 BKN270 24/16 A3010 RMK AC1CS2CI2 ACSL ASOCTD SLP192 DENSITY ALT 1000FT,CYQY,2015-05-27T14:00:00Z,46.17,-60.03,24.0,16.0,210,7,15,15.0,30.100393,1019.2,,,,,,,,,,FEW,12000,SCT,24000,BKN,27000,,,VFR,,,,,,,,,,,,METAR,62.0
CYQQ 271400Z 32006KT 20SM FEW040 FEW100 SCT250 13/10 A3008 RMK SC1AC1CI1 SC TR SLP186,CYQQ,2015-05-27T14:00:00Z,49.72,-124.9,13.0,10.0,320,6,,20.0,30.079725,1018.6,,,,,,,,,,FEW,4000,FEW,10000,SCT,25000,,,VFR,,,,,,,,,,,,METAR,24.0
CYQM 271400Z 17004KT 120V210 15SM FEW050 BKN250 24/15 A3010 RMK SC1CI5 SC TR SLP192 DENSITY ALT 1100FT,CYQM,2015-05-27T14:00:00Z,46.12,-64.67,24.0,15.0,170,4,,15.0,30.100393,1019.2,,,,,,,,,,FEW,5000,BKN,25000,,,,,VFR,,,,,,,,,,,,METAR,71.0
CYQG 271400Z 24014G21KT 15SM FEW025 BKN280 23/18 A2998 RMK CU1CI4 SLP148 DENSITY ALT 1600FT,CYQG,2015-05-27T14:00:00Z,42.27,-82.97,23.0,18.0,240,14,21,15.0,29.97933,1014.8,,,,,,,,,,FEW,2500,BKN,28000,,,,,VFR,,,,,,,,,,,,METAR,190.0
CYQB 271400Z 07008KT 10SM FEW003 BKN006 OVC061 16/15 A2998 RMK SF2ST5SC1 VIS LWR NE SLP152,CYQB,2015-05-27T14:00:00Z,46.78,-71.37,16.0,15.0,70,8,,10.0,29.97933,1015.2,,,,,,,,,,FEW,300,BKN,600,OVC,6100,,,IFR,,,,,,,,,,,,METAR,73.0
CYOW 271400Z 21014KT 15SM -RA SCT032 BKN043 OVC100 23/19 A2994 RMK SC3SC3AC2 VRY LGT RA SLP138 DENSITY ALT 1300FT,CYOW,2015-05-27T14:00:00Z,45.32,-75.67,23.0,19.0,210,14,,15.0,29.940945,1013.8,,,,,,,,,-RA,SCT,3200,BKN,4300,OVC,10000,,,VFR,,,,,,,,,,,,METAR,114.0
CYMX 271400Z 24007KT 190V260 25SM FEW045 BKN100 24/20 A2996 RMK SC2AC5 SLP145 DENSITY ALT 1200FT,CYMX,2015-05-27T14:00:00Z,45.67,-74.02,24.0,20.0,240,7,,25.0,29.958662,1014.5,,,,,,,,,,FEW,4500,BKN,10000,,,,,VFR,,,,,,,,,,,,METAR,82.0
CYJT 271400Z 28005KT 1/2SM R27/3500V5500FT/U -DZ FG OVC006 11/10 A3007 RMK FG5SF3 SLP183,CYJT,2015-05-27T14:00:00Z,48.55,-58.57,11.0,10.0,280,5,,0.5,30.070866,1018.3,,,,,,,,,-DZ FG,OVC,600,,,,,,,LIFR,,,,,,,,,,,,METAR,26.0
CYHZ 271400Z 21005KT 15SM BKN260 19/15 A3019 RMK CI5 SLP225 DENSITY ALT 700FT,CYHZ,2015-05-27T14:00:00Z,44.87,-63.5,19.0,15.0,210,5,,15.0,30.188976,1022.5,,,,,,,,,,BKN,26000,,,,,,,VFR,,,,,,,,,,,,METAR,145.0
CYGL 271400Z VRB02KT 15SM FEW030 BKN220 17/08 A2963 RMK SC2CI4 SLP041 DENSITY ALT 1300FT,CYGL,2015-05-27T14:00:00Z,53.62,-77.7,17.0,8.0,0,2,,15.0,29.630905,1004.1,,,,,,,,,,FEW,3000,BKN,22000,,,,,VFR,,,,,,,,,,,,METAR,195.0
CYFC 271400Z AUTO 17010KT 9SM CLR 26/16 A3006 RMK SLP179 DENSITY ALT 1200FT,CYFC,2015-05-27T14:00:00Z,45.87,-66.52,26.0,16.0,170,10,,9.0,30.059055,1017.9,,TRUE,,,,,,,,CLR,,,,,,,,VFR,,,,,,,,,,,,METAR,20.0
CYFB 271400Z 34013KT 30SM FEW019 M02/M06 A2988 RMK SC2 SLP120,CYFB,2015-05-27T14:00:00Z,63.75,-68.55,-2.0,-6.0,340,13,,30.0,29.878937,1012.0,,,,,,,,,,FEW,1900,,,,,,,VFR,,,,,,,,,,,,METAR,34.0
CYEG 271400Z 22004KT 15SM SCT085 OVC120 13/09 A2999 RMK AC3AC5 SLP157 DENSITY ALT 2600FT,CYEG,2015-05-27T14:00:00Z,53.28,-113.57,13.0,9.0,220,4,,15.0,29.991142,1015.7,,,,,,,,,,SCT,8500,OVC,12000,,,,,VFR,,,,,,,,,,,,METAR,723.0
CYBG 271400Z 09016KT 25SM FEW020 FEW040 BKN150 OVC240 16/11 A2989 RMK CU1SC2AC3CI2 SLP123,CYBG,2015-05-27T14:00:00Z,48.33,-70.98,16.0,11.0,90,16,,25.0,29.890747,1012.3,,,,,,,,,,FEW,2000,FEW,4000,BKN,15000,OVC,24000,VFR,,,,,,,,,,,,METAR,159.0
CYAW 271400Z 21005KT 10SM SCT006 BKN250 15/13 A3020 RMK SF2CI1 DA-36FT FG BANK S VIS 5 SLP228,CYAW,2015-05-27T14:00:00Z,44.63,-63.5,15.0,13.0,210,5,,10.0,30.200787,1022.8,,,,,,,,,,SCT,600,BKN,25000,,,,,VFR,,,,,,,,,,,,METAR,51.0
CZMT 271400Z 30011G17KT 280V340 15SM BKN008 10/07 A3021 RMK CU7 SLP231,CZMT,2015-05-27T14:00:00Z,54.03,-132.13,10.0,7.0,300,11,17,15.0,30.209646,1023.1,,,,,,,,,,BKN,800,,,,,,,IFR,,,,,,,,,,,,METAR,8.0
CZFA 271400Z VRB02KT 30SM FEW035 BKN044 OVC087 12/10 A2997 RMK CF1SC5AC3 CF TR FU VIS SE-SW 10 CLIMAT 21.5/11.7/0.0 SLP159 DENSITY ALT 2400FT,CZFA,2015-05-27T14:00:00Z,62.2,-133.37,12.0,10.0,0,2,,30.0,29.970472,1015.9,,,,,,,,,,FEW,3500,BKN,4400,OVC,8700,,,VFR,,,,,,,,,,,,METAR,717.0
CYZY 271400Z AUTO VRB02KT 9SM CLR 12/08 A2998 RMK SLP158 DENSITY ALT 2300FT,CYZY,2015-05-27T14:00:00Z,55.28,-123.12,12.0,8.0,0,2,,9.0,29.97933,1015.8,,TRUE,,,,,,,,CLR,,,,,,,,VFR,,,,,,,,,,,,METAR,690.0
CYYF 271400Z 00000KT 15SM FEW100 SCT230 13/10 A3003 RMK AC2CI1 SLP170,CYYF,2015-05-27T14:00:00Z,49.47,-119.58,13.0,10.0,0,0,,15.0,30.029528,1017.0,,,,,,,,,,FEW,10000,SCT,23000,,,,,VFR,,,,,,,,,,,,METAR,344.0
CYYE 271400Z 31010KT 15SM FEW015 BKN050 OVC120 12/11 A3001 RMK SF2SC4AC2 SLP170,CYYE,2015-05-27T14:00:00Z,58.82,-122.57,12.0,11.0,310,10,,15.0,30.008858,1017.0,,,,,,,,,,FEW,1500,BKN,5000,OVC,12000,,,VFR,,,,,,,,,,,,METAR,382.0
CYYD 271400Z 28004KT 25SM SKC 12/08 A3005 RMK SLP177,CYYD,2015-05-27T14:00:00Z,54.82,-127.18,12.0,8.0,280,4,,25.0,30.050198,1017.7,,,,,,,,,,SKC,,,,,,,,VFR,,,,,,,,,,,,METAR,523.0
CYXY 271400Z VRB02KT 15SM -SHRA SCT030 BKN038 OVC060 08/06 A3003 RMK SC3SC3SC2 SLP182,CYXY,2015-05-27T14:00:00Z,60.72,-135.07,8.0,6.0,0,2,,15.0,30.029528,1018.2,,,,,,,,,-SHRA,SCT,3000,BKN,3800,OVC,6000,,,VFR,,,,,,,,,,,,METAR,703.0
CYXT 271400Z 24003KT 20SM SKC 11/08 A3010 RMK SLP194,CYXT,2015-05-27T14:00:00Z,54.47,-128.57,11.0,8.0,240,3,,20.0,30.100393,1019.4,,,,,,,,,,SKC,,,,,,,,VFR,,,,,,,,,,,,METAR,217.0
CYXJ 271400Z 23002KT 15SM SCT110 BKN150 13/09 A2994 RMK AC4AC2 SLP144 DENSITY ALT 2500FT,CYXJ,2015-05-27T14:00:00Z,56.25,-120.73,13.0,9.0,230,2,,15.0,29.940945,1014.4,,,,,,,,,,SCT,11000,BKN,15000,,,,,VFR,,,,,,,,,,,,METAR,695.0
CYWL 271400Z 14003KT 15SM FEW090 FEW140 OVC230 13/09 A3002 RMK AC1AC1CI8 AC TR AC TR SLP163 DENSITY ALT 3400FT,CYWL,2015-05-27T14:00:00Z,52.18,-122.07,13.0,9.0,140,3,,15.0,30.02067,1016.3,,,,,,,,,,FEW,9000,FEW,14000,OVC,23000,,,VFR,,,,,,,,,,,,METAR,940.0
CYQU 271400Z 21002KT 20SM SCT170 BKN240 13/09 A2995 RMK AC3CI2 SLP148 DENSITY ALT 2400FT,CYQU,2015-05-27T14:00:00Z,55.18,-118.88,13.0,9.0,210,2,,20.0,29.949802,1014.8,,,,,,,,,,SCT,17000,BKN,24000,,,,,VFR,,,,,,,,,,,,METAR,669.0
CYQH 271400Z VRB02KT 20SM BKN020 BKN040 12/08 A3002 RMK SC5SC2 FU/RAGGED CIG SLP175,CYQH,2015-05-27T14:00:00Z,60.12,-128.82,12.0,8.0,0,2,,20.0,30.02067,1017.5,,,,,,,,,,BKN,2000,BKN,4000,,,,,MVFR,,,,,,,,,,,,METAR,690.0
CYPW 271400Z 28002KT 50SM FEW015 FEW100 BKN250 12/11 A3008 RMK SF1AC1CI3 SLP185,CYPW,2015-05-27T14:00:00Z,49.82,-124.5,12.0,11.0,280,2,,50.0,30.079725,1018.5,,,,,,,,,,FEW,1500,FEW,10000,BKN,25000,,,VFR,,,,,,,,,,,,METAR,130.0
CYOC 271400Z 09007KT 35SM FEW045 FEW220 08/02 A3024 RMK SC1CI1 SC TR SLP250,CYOC,2015-05-27T14:00:00Z,67.57,-139.82,8.0,2.0,90,7,,35.0,30.239174,1025.0,,,,,,,,,,FEW,4500,FEW,22000,,,,,VFR,,,,,,,,,,,,METAR,251.0
CYMA 271400Z 06004KT 010V080 20SM BKN050 15/09 A2997 RMK SC7 FU SLP161 DENSITY ALT 1900FT,CYMA,2015-05-27T14:00:00Z,63.62,-135.87,15.0,9.0,60,4,,20.0,29.970472,1016.1,,,,,,,,,,BKN,5000,,,,,,,VFR,,,,,,,,,,,,METAR,504.0
CYLW 271400Z AUTO 00000KT 9SM CLR 12/10 A3004 RMK SLP172,CYLW,2015-05-27T14:00:00Z,49.95,-119.37,12.0,10.0,0,0,,9.0,30.041338,1017.2,,TRUE,,,,,,,,CLR,,,,,,,,VFR,,,,,,,,,,,,METAR,430.0
CYKA 271400Z 10004KT 40SM FEW090 FEW250 14/11 A3003 RMK AC1CI2 AC TR SLP172,CYKA,2015-05-27T14:00:00Z,50.7,-120.45,14.0,11.0,100,4,,40.0,30.029528,1017.2,,,,,,,,,,FEW,9000,FEW,25000,,,,,VFR,,,,,,,,,,,,METAR,346.0
CYIN 271400Z AUTO 07003KT 330V080 9SM CLR 10/08 A3005 RMK SLP172 DENSITY ALT 3800FT,CYIN,2015-05-27T14:00:00Z,51.27,-121.68,10.0,8.0,70,3,,9.0,30.050198,1017.2,,TRUE,,,,,,,,CLR,,,,,,,,VFR,,,,,,,,,,,,METAR,1128.0
CYGE 271400Z 30006KT 20SM BCFG FEW110 FEW200 SCT290 08/08 A3007 RMK AC1CI1CS1 TR SF SLP190,CYGE,2015-05-27T14:00:00Z,51.3,-116.98,8.0,8.0,300,6,,20.0,30.070866,1019.0,,,,,,,,,BCFG,FEW,11000,FEW,20000,SCT,29000,,,VFR,,,,,,,,,,,,METAR,785.0
CYDL 271400Z AUTO 00000KT 9SM BKN060 OVC079 08/08 A3003 RMK SLP173,CYDL,2015-05-27T14:00:00Z,58.42,-130.02,8.0,8.0,0,0,,9.0,30.029528,1017.3,,TRUE,,,,,,,,BKN,6000,OVC,7900,,,,,VFR,,,,,,,,,,,,METAR,816.0
CYDA 271400Z CCA 00000KT 20SM OVC045 10/08 A3003 RMK SC8 CLIMAT 26.1/8.4/4.0MM SLP180,CYDA,2015-05-27T14:00:00Z,64.03,-139.12,10.0,8.0,0,0,,20.0,30.029528,1018.0,,,,,,,,,,OVC,4500,,,,,,,VFR,,,,,,,,,,,,METAR,369.0
CYCG 271400Z VRB02KT 15SM FEW005 BKN082 OVC120 12/12 A3004 RMK SF1AC4AC3 SLP173,CYCG,2015-05-27T14:00:00Z,49.28,-117.62,12.0,12.0,0,2,,15.0,30.041338,1017.3,,,,,,,,,,FEW,500,BKN,8200,OVC,12000,,,VFR,,,,,,,,,,,,METAR,495.0
CYCD 271400Z 29003KT 20SM FEW040 BKN080 14/11 A3007 RMK SC1AC6 SLP183,CYCD,2015-05-27T14:00:00Z,49.05,-123.87,14.0,11.0,290,3,,20.0,30.070866,1018.3,,,,,,,,,,FEW,4000,BKN,8000,,,,,VFR,,,,,,,,,,,,METAR,30.0
CYBD 271400Z 00000KT 8SM FEW010 SCT020 12/11 A3009 RMK SF1SC3 SF TR SLP191,CYBD,2015-05-27T14:00:00Z,52.37,-126.57,12.0,11.0,0,0,,8.0,30.088583,1019.1,,,,,,,,,,FEW,1000,SCT,2000,,,,,VFR,,,,,,,,,,,,METAR,35.0
CYWH 271400Z 00000KT 15SM BKN042 BKN080 12/10 A3006 RMK SC6AC1 FG DIST E-SW SLP179,CYWH,2015-05-27T14:00:00Z,48.42,-123.38,12.0,10.0,0,0,,15.0,30.059055,1017.9,,,,,,,,,,BKN,4200,BKN,8000,,,,,VFR,,,,,,,,,,,,METAR,10.0
CZVL 271400Z AUTO 15004KT 130V190 9SM CLR 13/09 A2998 RMK SLP153 DENSITY ALT 2400FT,CZVL,2015-05-27T14:00:00Z,53.67,-113.85,13.0,9.0,150,4,,9.0,29.97933,1015.3,,TRUE,,,,,,,,CLR,,,,,,,,VFR,,,,,,,,,,,,METAR,686.0
CYZH 271400Z AUTO 12005KT 3SM HZ CLR 12/04 A2995 RMK SLP154,CYZH,2015-05-27T14:00:00Z,55.28,-114.77,12.0,4.0,120,5,,3.0,29.949802,1015.4,,TRUE,,,,,,,HZ,CLR,,,,,,,,MVFR,,,,,,,,,,,,METAR,581.0
CYYN 271400Z AUTO 09013G18KT 9SM FEW200 13/09 A2996 RMK SLP141 DENSITY ALT 3000FT,CYYN,2015-05-27T14:00:00Z,50.27,-107.67,13.0,9.0,90,13,18,9.0,29.958662,1014.1,,TRUE,,,,,,,,FEW,20000,,,,,,,VFR,,,,,,,,,,,,METAR,818.0
CYYL 271400Z AUTO 08005KT 030V100 9SM CLR 07/M03 A3011 RMK SLP212,CYYL,2015-05-27T14:00:00Z,56.87,-101.07,7.0,-3.0,80,5,,9.0,30.109253,1021.2,,TRUE,,,,,,,,CLR,,,,,,,,VFR,,,,,,,,,,,,METAR,357.0
CYVC 271400Z 15007KT 15SM FEW250 09/04 A3009 RMK CI1 SLP202,CYVC,2015-05-27T14:00:00Z,55.15,-105.27,9.0,4.0,150,7,,15.0,30.088583,1020.2,,,,,,,,,,FEW,25000,,,,,,,VFR,,,,,,,,,,,,METAR,379.0
CYQW 271400Z AUTO 13012KT 9SM CLR 11/05 A3006 RMK SLP186,CYQW,2015-05-27T14:00:00Z,52.77,-108.25,11.0,5.0,130,12,,9.0,30.059055,1018.6,,TRUE,,,,,,,,CLR,,,,,,,,VFR,,,,,,,,,,,,METAR,548.0
CYQR 271400Z 09012KT 15SM FEW110 SCT280 13/08 A2999 RMK AC1CI4 AC TR SLP161 DENSITY ALT 2000FT,CYQR,2015-05-27T14:00:00Z,50.43,-104.67,13.0,8.0,90,12,,15.0,29.991142,1016.1,,,,,,,,,,FEW,11000,SCT,28000,,,,,VFR,,,,,,,,,,,,METAR,577.0
CYQL 271400Z 29014KT 15SM 13/10 A3003 RMK SLP171 DENSITY ALT 3300FT,CYQL,2015-05-27T14:00:00Z,49.63,-112.8,13.0,10.0,290,14,,15.0,30.029528,1017.1,,,,,,,,,,,,,,,,,,,,,,,,,,,,,,METAR,929.0
CYQF 271400Z 20003KT 12SM FEW120 BKN250 11/07 A3002 RMK AC1CI4 SLP172 DENSITY ALT 3000FT,CYQF,2015-05-27T14:00:00Z,52.17,-113.9,11.0,7.0,200,3,,12.0,30.02067,1017.2,,,,,,,,,,FEW,12000,BKN,25000,,,,,VFR,,,,,,,,,,,,METAR,905.0
CYPY 271400Z AUTO 11006KT 070V150 9SM FEW130 11/03 A2998 RMK SLP160,CYPY,2015-05-27T14:00:00Z,58.77,-111.12,11.0,3.0,110,6,,9.0,29.97933,1016.0,,TRUE,,,,,,,,FEW,13000,,,,,,,VFR,,,,,,,,,,,,METAR,232.0
CYPA 271400Z 14006KT 100V170 15SM FEW020 FEW100 BKN250 10/04 A3009 RMK CU1AC1CI5 CU TR AC TR SLP198,CYPA,2015-05-27T14:00:00Z,53.22,-105.67,10.0,4.0,140,6,,15.0,30.088583,1019.8,,,,,,,,,,FEW,2000,FEW,10000,BKN,25000,,,VFR,,,,,,,,,,,,METAR,428.0
CYOJ 271400Z 35003KT 330V040 15SM OVC085 10/03 A2998 RMK AC8 FU SLP159,CYOJ,2015-05-27T14:00:00Z,58.62,-117.17,10.0,3.0,350,3,,15.0,29.97933,1015.9,,,,,,,,,,OVC,8500,,,,,,,VFR,,,,,,,,,,,,METAR,338.0
CYNE 271400Z AUTO 36004KT 310V060 9SM CLR 07/M00 A3012 RMK SLP211,CYNE,2015-05-27T14:00:00Z,53.97,-97.82,7.0,0.0,360,4,,9.0,30.121063,1021.1,,TRUE,,,,,,,,CLR,,,,,,,,VFR,,,,,,,,,,,,METAR,223.0
CYMM 271400Z AUTO 10004KT 6SM HZ CLR 10/02 A2998 RMK SLP161,CYMM,2015-05-27T14:00:00Z,56.65,-111.22,10.0,2.0,100,4,,6.0,29.97933,1016.1,,TRUE,,,,,,,HZ,CLR,,,,,,,,VFR,,,,,,,,,,,,METAR,369.0
CYLL 271400Z 15008KT 15SM SCT250 12/05 A3003 RMK CI4 SLP175,CYLL,2015-05-27T14:00:00Z,53.32,-110.07,12.0,5.0,150,8,,15.0,30.029528,1017.5,,,,,,,,,,SCT,25000,,,,,,,VFR,,,,,,,,,,,,METAR,669.0
CYKJ 271400Z AUTO 20004KT 160V280 9SM CLR 11/M00 A3002 RMK SLP180,CYKJ,2015-05-27T14:00:00Z,57.25,-105.62,11.0,0.0,200,4,,9.0,30.02067,1018.0,,TRUE,,,,,,,,CLR,,,,,,,,VFR,,,,,,,,,,,,METAR,509.0
CYGX 271400Z 34009KT 15SM BKN030 03/M02 A3010 RMK SC7 SLP201,CYGX,2015-05-27T14:00:00Z,56.35,-94.7,3.0,-2.0,340,9,,15.0,30.100393,1020.1,,,,,,,,,,BKN,3000,,,,,,,MVFR,,,,,,,,,,,,METAR,145.0
CYET 271400Z AUTO 26005KT 9SM CLR 10/07 A2999 RMK SLP164 DENSITY ALT 3100FT,CYET,2015-05-27T14:00:00Z,53.57,-116.47,10.0,7.0,260,5,,9.0,29.991142,1016.4,,TRUE,,,,,,,,CLR,,,,,,,,VFR,,,,,,,,,,,,METAR,925.0
CYEN 271400Z 09013G18KT 15SM FEW120 BKN250 13/08 A2997 RMK AC1CC7 AC TR SLP150 DENSITY ALT 2000FT,CYEN,2015-05-27T14:00:00Z,49.22,-102.97,13.0,8.0,90,13,18,15.0,29.970472,1015.0,,,,,,,,,,FEW,12000,BKN,25000,,,,,VFR,,,,,,,,,,,,METAR,581.0
CYDN 271400Z AUTO 03010KT 9SM CLR 09/04 A3008 RMK SLP193,CYDN,2015-05-27T14:00:00Z,51.1,-100.03,9.0,4.0,30,10,,9.0,30.079725,1019.3,,TRUE,,,,,,,,CLR,,,,,,,,VFR,,,,,,,,,,,,METAR,305.0
CYBU 271400Z AUTO 09007KT 060V120 9SM CLR 10/04 A3010 RMK SLP202,CYBU,2015-05-27T14:00:00Z,53.32,-104.0,10.0,4.0,90,7,,9.0,30.100393,1020.2,,TRUE,,,,,,,,CLR,,,,,,,,VFR,,,,,,,,,,,,METAR,374.0
CYBR 271400Z 07011KT 15SM FEW015 OVC250 09/05 A3003 RMK SC1CI8 SC TR SLP178,CYBR,2015-05-27T14:00:00Z,49.92,-99.95,9.0,5.0,70,11,,15.0,30.029528,1017.8,,,,,,,,,,FEW,1500,OVC,25000,,,,,VFR,,,,,,,,,,,,METAR,409.0
CYBK 271400Z 36015KT 20SM -SN OVC020 M03/M06 A3018 RMK SC8 SLP223,CYBK,2015-05-27T14:00:00Z,64.28,-96.07,-3.0,-6.0,360,15,,20.0,30.180119,1022.3,,,,,,,,,-SN,OVC,2000,,,,,,,MVFR,,,,,,,,,,,,METAR,18.0
CYAB 271400Z 06004KT 050V110 25SM OVC030 M02/M08 A3007 RMK SC8 SLP185,CYAB,2015-05-27T14:00:00Z,73.0,-85.05,-2.0,-8.0,60,4,,25.0,30.070866,1018.5,,,,,,,,,,OVC,3000,,,,,,,MVFR,,,,,,,,,,,,METAR,22.0
CWHN 271400Z AUTO 00000KT 9SM CLR 11/04 A3002 RMK SLP176,CWHN,2015-05-27T14:00:00Z,54.88,-109.97,11.0,4.0,0,0,,9.0,30.02067,1017.6,,TRUE,,,,,,,,CLR,,,,,,,,VFR,,,,,,,,,,,,METAR,636.0
HSSS 271400Z 04002KT CAVOK 40/11 Q1008 NO SIG,HSSS,2015-05-27T14:00:00Z,15.58,32.53,40.0,11.0,40,2,,6.21,29.763779,,,,,,,,,,,CAVOK,,,,,,,,VFR,,,,,,,,,,,,METAR,380.0
NZCH 271400Z AUTO 19001KT 9999 NCD 00/M02 Q1023 NOSIG,NZCH,2015-05-27T14:00:00Z,-43.47,172.55,0.0,-2.0,190,1,,6.21,30.206694,,,TRUE,,,TRUE,,,,,,,,,,,,,,,,,,,,,,,,,SPECI,34.0
NZWN 271400Z AUTO 19011KT 6000 FEW025/// SCT035/// 10/06 Q1023 NOSIG,NZWN,2015-05-27T14:00:00Z,-41.32,174.8,10.0,6.0,190,11,,3.73,30.206694,,,TRUE,,,TRUE,,,,,,,,,,,,,,,,,,,,,,,,,SPECI,7.0
NZAA 271400Z AUTO 16003KT 9999 BKN041/// 06/04 Q1021 NOSIG,NZAA,2015-05-27T14:00:00Z,-37.02,174.8,6.0,4.0,160,3,,6.21,30.147638,,,TRUE,,,TRUE,,,,,,,,,,,,,,,,,,,,,,,,,SPECI,6.0
RJNK 271400Z 19004KT 9999 NSC 19/15 Q1011,RJNK,2015-05-27T14:00:00Z,36.37,136.42,19.0,15.0,190,4,,6.21,29.852362,,,,,,,,,,,,,,,,,,,,,,,,,,,,,,,METAR,9.0
UMOO 271400Z 15003MPS 9999 SCT030 25/12 Q1001 R13/CLRD// NOSIG,UMOO,2015-05-27T14:00:00Z,53.95,30.1,25.0,12.0,150,6,,6.21,29.557087,,,,,,TRUE,,,,,SCT,3000,,,,,,,VFR,,,,,,,,,,,,METAR,194.0
UMMS 271400Z 31007G11MPS 9999 BKN014CB BKN200 17/14 Q1004 R31/D NOSIG,UMMS,2015-05-27T14:00:00Z,53.88,28.03,17.0,14.0,310,14,21,6.21,29.64567,,,,,,TRUE,,,,,BKN,1400,BKN,20000,,,,,MVFR,,,,,,,,,,,,METAR,205.0
UMMM 271400Z 33007G10MPS 9999 OVC009 15/13 Q1005 R30/290050 NOSIG RMK QFE734,UMMM,2015-05-27T14:00:00Z,53.87,27.52,15.0,13.0,330,14,19,6.21,29.675198,,,,,,TRUE,,,,,OVC,900,,,,,,,IFR,,,,,,,,,,,,METAR,234.0
UMMG 271400Z 33004G07MPS 8000 -SHRA BKN030CB OVC066 10/06 Q1009 R35/290060 NOSIG,UMMG,2015-05-27T14:00:00Z,53.6,24.05,10.0,6.0,330,8,14,4.97,29.793306,,,,,,TRUE,,,,-SHRA,BKN,3000,OVC,6600,,,,,MVFR,,,,,,,,,,,,METAR,135.0
UMGG 271400Z 15006MPS CAVOK 26/13 Q1003 R28/D NOSIG,UMGG,2015-05-27T14:00:00Z,52.53,31.02,26.0,13.0,150,12,,6.21,29.616142,,,,,,TRUE,,,,,CAVOK,,,,,,,,VFR,,,,,,,,,,,,METAR,144.0
FSIA 271400Z 16010KT 9999 FEW015 CB 29/25 Q1011 NOSIG,FSIA,2015-05-27T14:00:00Z,-4.67,55.52,29.0,25.0,160,10,,6.21,29.852362,,,,,,TRUE,,,,,FEW,1500,,,,,,,VFR,,,,,,,,,,,,METAR,3.0
EIWF 271400Z 25013G24KT 190V300 8000 RA FEW009 SCT035 BKN077 11/09 Q1019 R21/1/////,EIWF,2015-05-27T14:00:00Z,52.18,-7.08,11.0,9.0,250,13,24,4.97,30.088583,,,,,,,,,,RA,FEW,900,SCT,3500,BKN,7700,,,MVFR,,,,,,,,,,,,METAR,36.0
EIME 271400Z 24015KT 9999 -RA FEW015 BKN033 09/06 Q1016,EIME,2015-05-27T14:00:00Z,53.3,-6.45,9.0,6.0,240,15,,6.21,30.0,,,,,,,,,,-RA,FEW,1500,BKN,3300,,,,,VFR,,,,,,,,,,,,METAR,93.0
EIKY 271400Z 26021G32KT 9000 -RA SCT007 BKN015 OVC024 13/12 Q1019,EIKY,2015-05-27T14:00:00Z,52.18,-9.52,13.0,12.0,260,21,32,5.59,30.088583,,,,,,,,,,-RA,SCT,700,BKN,1500,OVC,2400,,,MVFR,,,,,,,,,,,,METAR,34.0
OIAW 271400Z 31012KT 7000 NSC 41/07 Q1004,OIAW,2015-05-27T14:00:00Z,31.32,48.77,41.0,7.0,310,12,,4.35,29.64567,,,,,,,,,,,,,,,,,,,,,,,,,,,,,,,METAR,22.0
TDCF 271400Z 30002KT 9999 BKN019 29/20 Q1014,TDCF,2015-05-27T14:00:00Z,15.33,-61.4,29.0,20.0,300,2,,6.21,29.940945,,,,,,,,,,,BKN,1900,,,,,,,MVFR,,,,,,,,,,,,METAR,5.0
DTTZ 271400Z 28011KT 9999 SCT030 28/08 Q1015 NOSIG,DTTZ,2015-05-27T14:00:00Z,33.92,8.08,28.0,8.0,280,11,,6.21,29.970472,,,,,,TRUE,,,,,SCT,3000,,,,,,,VFR,,,,,,,,,,,,METAR,93.0
DTTX 271400Z VRB09G19KT 9999 SCT023 25/10 Q1014 NOSIG,DTTX,2015-05-27T14:00:00Z,34.72,10.67,25.0,10.0,0,9,19,6.21,29.940945,,,,,,TRUE,,,,,SCT,2300,,,,,,,VFR,,,,,,,,,,,,METAR,23.0
DTTF 271400Z 31015G29KT 270V360 8000 SCT026 28/04 Q1014 NOSIG,DTTF,2015-05-27T14:00:00Z,34.42,8.82,28.0,4.0,310,15,29,4.97,29.940945,,,,,,TRUE,,,,,SCT,2600,,,,,,,MVFR,,,,,,,,,,,,METAR,314.0
DTTA 271400Z 28017KT 240V320 9999 SCT026 22/12 Q1015 NOSIG,DTTA,2015-05-27T14:00:00Z,36.85,10.22,22.0,12.0,280,17,,6.21,29.970472,,,,,,TRUE,,,,,SCT,2600,,,,,,,VFR,,,,,,,,,,,,METAR,4.0
DTMB 271400Z 35016KT 9999 SCT023 23/14 Q1014 NOSIG,DTMB,2015-05-27T14:00:00Z,35.77,10.75,23.0,14.0,350,16,,6.21,29.940945,,,,,,TRUE,,,,,SCT,2300,,,,,,,VFR,,,,,,,,,,,,METAR,2.0
DTKA 271400Z 25019KT 9999 SCT020 SCT030 20/13 Q1018 NOSIG,DTKA,2015-05-27T14:00:00Z,36.98,8.88,20.0,13.0,250,19,,6.21,30.059055,,,,,,TRUE,,,,,SCT,2000,SCT,3000,,,,,VFR,,,,,,,,,,,,METAR,21.0
DTTR 271400Z 34006KT CAVOK 30/06 Q1016,DTTR,2015-05-27T14:00:00Z,31.7,9.27,30.0,6.0,340,6,,6.21,30.0,,,,,,,,,,,CAVOK,,,,,,,,VFR,,,,,,,,,,,,METAR,259.0
ZYHB 271400Z 13003MPS 090V160 CAVOK 22/11 Q1005 NOSIG,ZYHB,2015-05-27T14:00:00Z,45.62,126.25,22.0,11.0,130,6,,6.21,29.675198,,,,,,TRUE,,,,,CAVOK,,,,,,,,VFR,,,,,,,,,,,,METAR,140.0
ZYCC 271400Z 15002MPS 120V190 CAVOK 22/10 Q1006 NOSIG,ZYCC,2015-05-27T14:00:00Z,43.98,125.68,22.0,10.0,150,4,,6.21,29.704725,,,,,,TRUE,,,,,CAVOK,,,,,,,,VFR,,,,,,,,,,,,METAR,238.0
ZUCK 271400Z 07002MPS 040V100 CAVOK 24/19 Q1004 NOSIG,ZUCK,2015-05-27T14:00:00Z,29.72,106.63,24.0,19.0,70,4,,6.21,29.64567,,,,,,TRUE,,,,,CAVOK,,,,,,,,VFR,,,,,,,,,,,,METAR,351.0
ZSOF 271400Z 03001MPS 1600 BR BKN007 OVC040 20/19 Q1005 BECMG TL1600 1400 SCT010,ZSOF,2015-05-27T14:00:00Z,31.78,117.3,20.0,19.0,30,2,,0.99,29.675198,,,,,,,,,,BR,BKN,700,OVC,4000,,,,,LIFR,,,,,,,,,,,,METAR,33.0
ZSNJ 271400Z 05002MPS 2500 BR BKN008 OVC033 21/20 Q1004 NOSIG,ZSNJ,2015-05-27T14:00:00Z,31.75,118.87,21.0,20.0,50,4,,1.55,29.64567,,,,,,TRUE,,,,BR,BKN,800,OVC,3300,,,,,IFR,,,,,,,,,,,,METAR,33.0
ZLLL 271400Z 34005MPS 9999 FEW016 OVC046 13/06 Q1016 NOSIG,ZLLL,2015-05-27T14:00:00Z,36.52,103.62,13.0,6.0,340,10,,6.21,30.0,,,,,,TRUE,,,,,FEW,1600,OVC,4600,,,,,VFR,,,,,,,,,,,,METAR,1947.0
ZJSY 271400Z 14002MPS 100V190 CAVOK 30/26 Q1006 NOSIG,ZJSY,2015-05-27T14:00:00Z,18.3,109.42,30.0,26.0,140,4,,6.21,29.704725,,,,,,TRUE,,,,,CAVOK,,,,,,,,VFR,,,,,,,,,,,,METAR,27.0
ZJHK 271400Z 18001MPS CAVOK 25/22 Q1005 NOSIG,ZJHK,2015-05-27T14:00:00Z,19.93,110.47,25.0,22.0,180,2,,6.21,29.675198,,,,,,TRUE,,,,,CAVOK,,,,,,,,VFR,,,,,,,,,,,,METAR,23.0
ZHHH 271400Z 00000MPS 2000 BR SCT017 23/22 Q1004 NOSIG,ZHHH,2015-05-27T14:00:00Z,30.78,114.22,23.0,22.0,0,0,,1.24,29.64567,,,,,,TRUE,,,,BR,SCT,1700,,,,,,,IFR,,,,,,,,,,,,METAR,23.0
ZHCC 271400Z 13002MPS 100V160 3000 BR NSC 22/18 Q1005 NOSIG,ZHCC,2015-05-27T14:00:00Z,34.52,113.83,22.0,18.0,130,4,,1.86,29.675198,,,,,,TRUE,,,,BR,,,,,,,,,,,,,,,,,,,,,METAR,111.0
ZGHA 271400Z 36003MPS 330V040 2500 BR SCT005 24/22 Q1003 NOSIG,ZGHA,2015-05-27T14:00:00Z,28.18,113.22,24.0,22.0,360,6,,1.55,29.616142,,,,,,TRUE,,,,BR,SCT,500,,,,,,,IFR,,,,,,,,,,,,METAR,66.0
ZBHH 271400Z 08002MPS 9999 FEW040 24/05 Q1004 NOSIG,ZBHH,2015-05-27T14:00:00Z,40.85,111.82,24.0,5.0,80,4,,6.21,29.64567,,,,,,TRUE,,,,,FEW,4000,,,,,,,VFR,,,,,,,,,,,,METAR,1065.0
DAUZ 271400Z 00000KT 7000 NSC 35/02 Q1013,DAUZ,2015-05-27T14:00:00Z,28.05,9.62,35.0,2.0,0,0,,4.35,29.911417,,,,,,,,,,,,,,,,,,,,,,,,,,,,,,,METAR,562.0
DAUH 271400Z 00000KT CAVOK 33/14 Q1015,DAUH,2015-05-27T14:00:00Z,31.67,6.15,33.0,14.0,0,0,,6.21,29.970472,,,,,,,,,,,CAVOK,,,,,,,,VFR,,,,,,,,,,,,METAR,142.0
DAOO 271400Z 36014KT 9999 SCT020 27/15 Q1016,DAOO,2015-05-27T14:00:00Z,35.62,-0.6,27.0,15.0,360,14,,6.21,30.0,,,,,,,,,,,SCT,2000,,,,,,,VFR,,,,,,,,,,,,METAR,90.0
DAON 271400Z 34011KT 9999 SCT026 28/14 Q1016,DAON,2015-05-27T14:00:00Z,35.02,-1.47,28.0,14.0,340,11,,6.21,30.0,,,,,,,,,,,SCT,2600,,,,,,,VFR,,,,,,,,,,,,METAR,247.0
DABS 271400Z 34016KT 9999 BKN040 21/03 Q1019,DABS,2015-05-27T14:00:00Z,35.43,8.12,21.0,3.0,340,16,,6.21,30.088583,,,,,,,,,,,BKN,4000,,,,,,,VFR,,,,,,,,,,,,METAR,813.0
DABC 271400Z 34010KT 300V020 9999 SCT026 SCT030 21/08 Q1020,DABC,2015-05-27T14:00:00Z,36.27,6.62,21.0,8.0,340,10,,6.21,30.11811,,,,,,,,,,,SCT,2600,SCT,3000,,,,,VFR,,,,,,,,,,,,METAR,694.0
DAAT 271400Z 29010KT 240V340 9000 NSC 36/M02 Q1020,DAAT,2015-05-27T14:00:00Z,22.82,5.47,36.0,-2.0,290,10,,5.59,30.11811,,,,,,,,,,,,,,,,,,,,,,,,,,,,,,,METAR,1377.0
DAAG 271400Z 04014KT 9999 FEW026 24/12 Q1018,DAAG,2015-05-27T14:00:00Z,36.72,3.22,24.0,12.0,40,14,,6.21,30.059055,,,,,,,,,,,FEW,2600,,,,,,,VFR,,,,,,,,,,,,METAR,25.0
DAOV 271400Z 03010KT 9999 SCT030 28/10 Q1017,DAOV,2015-05-27T14:00:00Z,35.2,0.15,28.0,10.0,30,10,,6.21,30.029528,,,,,,,,,,,SCT,3000,,,,,,,VFR,,,,,,,,,,,,METAR,514.0
DAER 271400Z 01006KT 6000 NSC 35/08 Q1014,DAER,2015-05-27T14:00:00Z,,,35.0,8.0,10,6,,3.73,29.940945,,,,,,,,,,,,,,,,,,,,,,,,,,,,,,,METAR,
DAUU 271400Z 30006KT 9000 NSC 32/07 Q1015,DAUU,2015-05-27T14:00:00Z,31.92,5.4,32.0,7.0,300,6,,5.59,29.970472,,,,,,,,,,,,,,,,,,,,,,,,,,,,,,,METAR,141.0
DAUT 271400Z 00000KT 7000 NSC 35/03 Q1014,DAUT,2015-05-27T14:00:00Z,29.25,0.27,35.0,3.0,0,0,,4.35,29.940945,,,,,,,,,,,,,,,,,,,,,,,,,,,,,,,METAR,312.0
DAUO 271400Z 210//KT 9999 FEW040 30/10 Q1015,DAUO,2015-05-27T14:00:00Z,33.5,6.78,30.0,10.0,,,,6.21,29.970472,,,,,,,,,,,FEW,4000,,,,,,,VFR,,,,,,,,,,,,METAR,63.0
DAUL 271400Z 18008KT 9999 SCT030 27/07 Q1018,DAUL,2015-05-27T14:00:00Z,33.77,2.92,27.0,7.0,180,8,,6.21,30.059055,,,,,,,,,,,SCT,3000,,,,,,,VFR,,,,,,,,,,,,METAR,765.0
DAUK 271400Z 18006KT 9999 FEW040 31/11 Q1015,DAUK,2015-05-27T14:00:00Z,33.08,6.12,31.0,11.0,180,6,,6.21,29.970472,,,,,,,,,,,FEW,4000,,,,,,,VFR,,,,,,,,,,,,METAR,85.0
DAUI 271400Z 26010KT 6000 NSC 38/04 Q1012,DAUI,2015-05-27T14:00:00Z,27.25,2.52,38.0,4.0,260,10,,3.73,29.88189,,,,,,,,,,,,,,,,,,,,,,,,,,,,,,,METAR,269.0
DAUG 271400Z 12008KT 050V180 9999 SCT046 30/06 Q1017,DAUG,2015-05-27T14:00:00Z,32.37,3.82,30.0,6.0,120,8,,6.21,30.029528,,,,,,,,,,,SCT,4600,,,,,,,VFR,,,,,,,,,,,,METAR,450.0
DAUB 271400Z VRB02KT 9999 SCT040 29/11 Q1014,DAUB,2015-05-27T14:00:00Z,34.78,5.72,29.0,11.0,0,2,,6.21,29.940945,,,,,,,,,,,SCT,4000,,,,,,,VFR,,,,,,,,,,,,METAR,87.0
DAUA 271400Z 36007KT 8000 NSC 38/06 Q1012,DAUA,2015-05-27T14:00:00Z,27.83,-0.18,38.0,6.0,360,7,,4.97,29.88189,,,,,,,,,,,,,,,,,,,,,,,,,,,,,,,METAR,263.0
DAOR 271400Z 00000KT 8000 SCT033 31/13 Q1018,DAOR,2015-05-27T14:00:00Z,31.65,-2.27,31.0,13.0,0,0,,4.97,30.059055,,,,,,,,,,,SCT,3300,,,,,,,MVFR,,,,,,,,,,,,METAR,773.0
DAOL 271400Z 04012KT 9999 SCT026 30/11 Q1016,DAOL,2015-05-27T14:00:00Z,35.53,-0.52,30.0,11.0,40,12,,6.21,30.0,,,,,,,,,,,SCT,2600,,,,,,,VFR,,,,,,,,,,,,METAR,112.0
DAOI 271400Z 00000KT 9999 SCT026 30/09 Q1016,DAOI,2015-05-27T14:00:00Z,36.22,1.32,30.0,9.0,0,0,,6.21,30.0,,,,,,,,,,,SCT,2600,,,,,,,VFR,,,,,,,,,,,,METAR,143.0
DAOF 271400Z 21006KT CAVOK 30/06 Q1013,DAOF,2015-05-27T14:00:00Z,27.7,-8.17,30.0,6.0,210,6,,6.21,29.911417,,,,,,,,,,,CAVOK,,,,,,,,VFR,,,,,,,,,,,,METAR,431.0
DAFH 271400Z 00000KT 9999 BKN030 28/12 Q1018,DAFH,2015-05-27T14:00:00Z,32.93,3.32,28.0,12.0,0,0,,6.21,30.059055,,,,,,,,,,,BKN,3000,,,,,,,MVFR,,,,,,,,,,,,METAR,774.0
DAEN 271400Z /////KT 2000 HZ NSC 33/07 Q1014,DAEN,2015-05-27T14:00:00Z,29.73,6.72,33.0,7.0,,,,1.24,29.940945,,,,,,,,,,HZ,,,,,,,,,,,,,,,,,,,,,METAR,252.0
DAEF 271400Z 00000KT 7000 NSC 36/05 Q1014,DAEF,2015-05-27T14:00:00Z,28.43,7.55,36.0,5.0,0,0,,4.35,29.940945,,,,,,,,,,,,,,,,,,,,,,,,,,,,,,,METAR,472.0
DABT 271400Z 36012KT 9999 SCT020 22/02 Q1020,DABT,2015-05-27T14:00:00Z,35.75,6.32,22.0,2.0,360,12,,6.21,30.11811,,,,,,,,,,,SCT,2000,,,,,,,VFR,,,,,,,,,,,,METAR,1052.0
DAAY 271400Z 30004KT 8000 SCT026 25/09 Q1021,DAAY,2015-05-27T14:00:00Z,33.53,-0.25,25.0,9.0,300,4,,4.97,30.147638,,,,,,,,,,,SCT,2600,,,,,,,MVFR,,,,,,,,,,,,METAR,1149.0
DAAS 271400Z 28002KT 9999 BKN030 20/17 Q1021,DAAS,2015-05-27T14:00:00Z,36.18,5.33,20.0,17.0,280,2,,6.21,30.147638,,,,,,,,,,,BKN,3000,,,,,,,MVFR,,,,,,,,,,,,METAR,1038.0
DAAP 271400Z /////KT 5000 NSC 38/03 Q1013,DAAP,2015-05-27T14:00:00Z,26.72,8.62,38.0,3.0,,,,3.11,29.911417,,,,,,,,,,,,,,,,,,,,,,,,,,,,,,,METAR,558.0
DAAJ 271400Z 28018KT 3000 DRSA NSC 40/// Q1016,DAAJ,2015-05-27T14:00:00Z,24.28,9.47,,,280,18,,1.86,30.0,,,,,,,,,,DRSA,,,,,,,,,,,,,,,,,,,,,METAR,968.0
DAAE 271400Z 09006KT 9999 FEW020 22/14 Q1019,DAAE,2015-05-27T14:00:00Z,36.72,5.07,22.0,14.0,90,6,,6.21,30.088583,,,,,,,,,,,FEW,2000,,,,,,,VFR,,,,,,,,,,,,METAR,2.0
DAAD 271400Z 33008KT 9999 FEW033 27/10 Q1018,DAAD,2015-05-27T14:00:00Z,35.32,4.2,27.0,10.0,330,8,,6.21,30.059055,,,,,,,,,,,FEW,3300,,,,,,,VFR,,,,,,,,,,,,METAR,461.0
TVSV 271400Z 11013KT 9999 SCT020 SCT280 29/22 Q1015,TVSV,2015-05-27T14:00:00Z,13.13,-61.2,29.0,22.0,110,13,,6.21,29.970472,,,,,,,,,,,SCT,2000,SCT,28000,,,,,VFR,,,,,,,,,,,,METAR,9.0
SLET 271400Z 13012KT 7000 -RA FEW007 BKN012 OVC070 20/18 Q1018,SLET,2015-05-27T14:00:00Z,-17.8,-63.17,20.0,18.0,130,12,,4.35,30.059055,,,,,,,,,,-RA,FEW,700,BKN,1200,OVC,7000,,,MVFR,,,,,,,,,,,,METAR,414.0
LERI 271400Z 14010KT 070V180 9999 FEW050 28/12 Q1017 NOSIG,LERI,2015-05-27T14:00:00Z,37.95,-1.22,28.0,12.0,140,10,,6.21,30.029528,,,,,,TRUE,,,,,FEW,5000,,,,,,,VFR,,,,,,,,,,,,METAR,75.0
LEGT 271400Z 05005KT CAVOK 28/03 Q1017,LEGT,2015-05-27T14:00:00Z,40.28,-3.72,28.0,3.0,50,5,,6.21,30.029528,,,,,,,,,,,CAVOK,,,,,,,,VFR,,,,,,,,,,,,METAR,612.0
LEGA 271400Z 18012KT 150V270 9999 FEW070 28/08 Q1017,LEGA,2015-05-27T14:00:00Z,37.12,-3.62,28.0,8.0,180,12,,6.21,30.029528,,,,,,,,,,,FEW,7000,,,,,,,VFR,,,,,,,,,,,,METAR,686.0
FAVV 271400Z AUTO /////KT //// // ////// 23/M03 Q1024,FAVV,2015-05-27T14:00:00Z,-26.57,27.97,23.0,-3.0,,,,,30.236221,,,TRUE,,,,,,,,,,,,,,,,,,,,,,,,,,,,METAR,1483.0
FASI 271400Z AUTO /////KT //// // ////// 22/M00 Q1025,FASI,2015-05-27T14:00:00Z,-26.25,28.4,22.0,0.0,,,,,30.265747,,,TRUE,,,,,,,,,,,,,,,,,,,,,,,,,,,,METAR,1628.0
FAJB 271400Z AUTO 34002KT //// // ////// 23/M03 Q1025,FAJB,2015-05-27T14:00:00Z,-26.15,28.0,23.0,-3.0,340,2,,,30.265747,,,TRUE,,,,,,,,,,,,,,,,,,,,,,,,,,,,METAR,1626.0
FAGC 271400Z AUTO 30003KT //// // ////// 23/M05 Q1025,FAGC,2015-05-27T14:00:00Z,-25.98,28.13,23.0,-5.0,300,3,,,30.265747,,,TRUE,,,,,,,,,,,,,,,,,,,,,,,,,,,,METAR,1623.0
LERT 271400Z 23007KT 9999 FEW030 27/13 Q1014 NOSIG,LERT,2015-05-27T14:00:00Z,36.63,-6.33,27.0,13.0,230,7,,6.21,29.940945,,,,,,TRUE,,,,,FEW,3000,,,,,,,VFR,,,,,,,,,,,,METAR,26.0
SLVR 271400Z 18008KT 8000 -RA BKN020 OVC070 19/1004KT 9999 NSC 13/06 Q1032,SLVR,2015-05-27T14:00:00Z,-17.63,-63.12,13.0,6.0,180,8,,6.21,30.47244,,,,,,,,,,-RA,BKN,2000,OVC,7000,,,,,MVFR,,,,,,,,,,,,METAR,373.0
SLTR 271400Z 00000KT 9999 FEW015 SCT080 29/24 Q1015,SLTR,2015-05-27T14:00:00Z,-14.83,-64.92,29.0,24.0,0,0,,6.21,29.970472,,,,,,,,,,,FEW,1500,SCT,8000,,,,,VFR,,,,,,,,,,,,METAR,157.0
SLTJ 271400Z 00000KT 9999 BKN030 17/09 Q1025,SLTJ,2015-05-27T14:00:00Z,-21.55,-64.72,17.0,9.0,0,0,,6.21,30.265747,,,,,,,,,,,BKN,3000,,,,,,,MVFR,,,,,,,,,,,,METAR,1858.0
SLLP 271400Z 27005KT 230V310 9999 FEW012 08/02 Q1039,SLLP,2015-05-27T14:00:00Z,-16.52,-68.17,8.0,2.0,270,5,,6.21,30.679134,,,,,,,,,,,FEW,1200,,,,,,,VFR,,,,,,,,,,,,METAR,4014.0
SLCB 271400Z 00000KT 8000 FEW027 15/08 Q1029,SLCB,2015-05-27T14:00:00Z,-17.42,-66.18,15.0,8.0,0,0,,4.97,30.383858,,,,,,,,,,,FEW,2700,,,,,,,MVFR,,,,,,,,,,,,METAR,2548.0
SGES 271400Z 36007KT 7000 -RADZ BKN007 OVC014 18/18 Q1015,SGES,2015-05-27T14:00:00Z,-25.45,-54.85,18.0,18.0,360,7,,4.35,29.970472,,,,,,,,,,-RA -DZ,BKN,700,OVC,1400,,,,,IFR,,,,,,,,,,,,METAR,849.0
SGAS 271400Z 29006KT 250V320 9999 BKN007 20/19 Q1015,SGAS,2015-05-27T14:00:00Z,-25.25,-57.52,20.0,19.0,290,6,,6.21,29.970472,,,,,,,,,,,BKN,700,,,,,,,IFR,,,,,,,,,,,,METAR,101.0
RPVM 271400Z 24003KT 9999 FEW020 SCT300 29/25 Q1011 RMK A2985,RPVM,2015-05-27T14:00:00Z,10.32,123.98,29.0,25.0,240,3,,6.21,29.852362,,,,,,,,,,,FEW,2000,SCT,30000,,,,,VFR,,,,,,,,,,,,METAR,10.0
CWWU 271400Z 24014G24KT 15SM OVC008 13/10 A3016 RMK SF8 SLP215,CWWU,2015-05-27T14:00:00Z,47.52,-52.98,13.0,10.0,240,14,24,15.0,30.159449,1021.5,,,,,,,,,,OVC,800,,,,,,,IFR,,,,,,,,,,,,METAR,13.0
CWTU 271400Z AUTO 07007KT 01/ A3002 RMK SLP189,CWTU,2015-05-27T14:00:00Z,54.72,-58.35,1.0,,70,7,,,30.02067,1018.9,,TRUE,,,,,,,,,,,,,,,,,,,,,,,,,,,,METAR,683.0
CWSA 271400Z AUTO 21017G22KT 1/2SM FG VV003 12/10 A3029 RMK SLP255,CWSA,2015-05-27T14:00:00Z,43.93,-60.0,12.0,10.0,210,17,22,0.5,30.28937,1025.5,,TRUE,,,,,,,FG,OVX,0,,,,,,,LIFR,,,,,,,,,,,300,METAR,4.0
CWRH 271400Z AUTO ///// M06/ A2981 RMK SLP132,CWRH,2015-05-27T14:00:00Z,61.57,-64.65,-6.0,,,,,,29.811024,1013.2,,TRUE,,,,,,,,,,,,,,,,,,,,,,,,,,,,METAR,369.0
CWKP 271400Z AUTO 09010KT M04/ A3043 RMK SLP339,CWKP,2015-05-27T14:00:00Z,69.67,-121.67,-4.0,,90,10,,,30.431103,1033.9,,TRUE,,,,,,,,,,,,,,,,,,,,,,,,,,,,METAR,330.0
CWEU 271400Z 29009KT 15SM FEW220 M09/M14 A3019 RMK CI1 SLP226,CWEU,2015-05-27T14:00:00Z,80.0,-85.92,-9.0,-14.0,290,9,,15.0,30.188976,1022.6,,,,,,,,,,FEW,22000,,,,,,,VFR,,,,,,,,,,,,METAR,10.0
CYYG 271400Z 22011KT 15SM OVC300 21/16 A3011 RMK CI8 CONTRAILS SLP197 DENSITY ALT 600FT,CYYG,2015-05-27T14:00:00Z,46.27,-63.12,21.0,16.0,220,11,,15.0,30.109253,1019.7,,,,,,,,,,OVC,30000,,,,,,,VFR,,,,,,,,,,,,METAR,54.0
CYTQ 271400Z 08007KT 15SM BKN030 BKN080 03/M05 A2991 RMK SC5AC1 SLP133,CYTQ,2015-05-27T14:00:00Z,58.67,-69.95,3.0,-5.0,80,7,,15.0,29.911417,1013.3,,,,,,,,,,BKN,3000,BKN,8000,,,,,MVFR,,,,,,,,,,,,METAR,31.0
CYSJ 271400Z 19011KT 5SM BR OVC005 13/11 A3017 RMK SF8 VIS W-N 2 1/2 SLP219,CYSJ,2015-05-27T14:00:00Z,45.32,-65.87,13.0,11.0,190,11,,5.0,30.171259,1021.9,,,,,,,,,BR,OVC,500,,,,,,,IFR,,,,,,,,,,,,METAR,109.0
CYHH 271400Z 18008KT 15SM BKN006 OVC016 16/14 A2965 RMK SC6SC2 SLP044,CYHH,2015-05-27T14:00:00Z,51.7,-76.12,16.0,14.0,180,8,,15.0,29.648623,1004.4,,,,,,,,,,BKN,600,OVC,1600,,,,,IFR,,,,,,,,,,,,METAR,244.0
CYDP 271400Z VRB02KT 15SM BKN029 OVC100 03/M06 A3004 RMK SC6AS2 SLP171,CYDP,2015-05-27T14:00:00Z,56.53,-61.67,3.0,-6.0,0,2,,15.0,30.041338,1017.1,,,,,,,,,,BKN,2900,OVC,10000,,,,,MVFR,,,,,,,,,,,,METAR,7.0
CYDF 271400Z 04005KT 10SM OVC010 13/11 A3006 RMK SF8 SLP179,CYDF,2015-05-27T14:00:00Z,49.22,-57.4,13.0,11.0,40,5,,10.0,30.059055,1017.9,,,,,,,,,,OVC,1000,,,,,,,MVFR,,,,,,,,,,,,METAR,22.0
CYCX 271400Z 15006KT 100V190 15SM FEW080 BKN240 26/17 A3007 RMK AC1CI2 DA1576FT SLP182,CYCX,2015-05-27T14:00:00Z,45.82,-66.42,26.0,17.0,150,6,,15.0,30.070866,1018.2,,,,,,,,,,FEW,8000,BKN,24000,,,,,VFR,,,,,,,,,,,,METAR,51.0
CYAY 271400Z AUTO 27012KT 9SM CLR 15/11 A3004 RMK SLP172,CYAY,2015-05-27T14:00:00Z,51.38,-56.07,15.0,11.0,270,12,,9.0,30.041338,1017.2,,TRUE,,,,,,,,CLR,,,,,,,,VFR,,,,,,,,,,,,METAR,28.0
CYQD 271400Z CCA 16008KT 15SM FEW080 FEW220 09/M00 A3013 RMK AC1CS1 CC ASOCTD SLP211,CYQD,2015-05-27T14:00:00Z,53.97,-101.08,9.0,0.0,160,8,,15.0,30.129921,1021.1,,,,,,,,,,FEW,8000,FEW,22000,,,,,VFR,,,,,,,,,,,,METAR,271.0
CYZR 271400Z AUTO 22013G22KT 9SM FEW027 23/17 A2994 RMK SLP137 DENSITY ALT 1600FT,CYZR,2015-05-27T14:00:00Z,43.0,-82.3,23.0,17.0,220,13,22,9.0,29.940945,1013.7,,TRUE,,,,,,,,FEW,2700,,,,,,,VFR,,,,,,,,,,,,METAR,181.0
CYZE 271400Z AUTO 19013KT 9SM FEW005 SCT022 OVC032 14/13 A2977 RMK SLP084 DENSITY ALT 800FT,CYZE,2015-05-27T14:00:00Z,45.87,-82.57,14.0,13.0,190,13,,9.0,29.769686,1008.4,,TRUE,,,,,,,,FEW,500,SCT,2200,OVC,3200,,,VFR,,,,,,,,,,,,METAR,193.0
CYYY 271400Z 02009KT 15SM FEW012 SCT050 BKN240 13/11 A3000 RMK SC1SC2CI4 SLP162,CYYY,2015-05-27T14:00:00Z,48.6,-68.22,13.0,11.0,20,9,,15.0,30.0,1016.2,,,,,,,,,,FEW,1200,SCT,5000,BKN,24000,,,VFR,,,,,,,,,,,,METAR,52.0
CYXR 271400Z AUTO 20016G24KT 9SM FEW016 SCT060 20/17 A2973 RMK SLP068 DENSITY ALT 1700FT,CYXR,2015-05-27T14:00:00Z,47.7,-79.83,20.0,17.0,200,16,24,9.0,29.731298,1006.8,,TRUE,,,,,,,,FEW,1600,SCT,6000,,,,,VFR,,,,,,,,,,,,METAR,243.0
CYVV 271400Z 22020G31KT 15SM BKN030 22/16 A2987 RMK SC7 SLP113 DENSITY ALT 1700FT,CYVV,2015-05-27T14:00:00Z,44.75,-81.08,22.0,16.0,220,20,31,15.0,29.870079,1011.3,,,,,,,,,,BKN,3000,,,,,,,MVFR,,,,,,,,,,,,METAR,222.0
CYVP 271400Z 15010KT 15SM FEW012 BKN067 03/M07 A2993 RMK SF1AC7 SF TR SLP139,CYVP,2015-05-27T14:00:00Z,58.12,-68.42,3.0,-7.0,150,10,,15.0,29.929134,1013.9,,,,,,,,,,FEW,1200,BKN,6700,,,,,VFR,,,,,,,,,,,,METAR,60.0
CYTZ 271400Z AUTO 20011G16KT 8SM FEW070 16/14 A2997 RMK SLP150 DENSITY ALT 300FT,CYTZ,2015-05-27T14:00:00Z,43.63,-79.4,16.0,14.0,200,11,16,8.0,29.970472,1015.0,,TRUE,,,,,,,,FEW,7000,,,,,,,VFR,,,,,,,,,,,,METAR,77.0
CYTS 271400Z 19004KT 3SM BR BKN005 BKN018 OVC025 17/16 A2965 RMK SF5SC2SC1 SLP044 DENSITY ALT 1700FT,CYTS,2015-05-27T14:00:00Z,48.57,-81.37,17.0,16.0,190,4,,3.0,29.648623,1004.4,,,,,,,,,BR,BKN,500,BKN,1800,OVC,2500,,,IFR,,,,,,,,,,,,METAR,295.0
CYRL 271400Z 36010KT 15SM OVC014 07/03 A2996 RMK SC8 SLP154,CYRL,2015-05-27T14:00:00Z,51.07,-93.78,7.0,3.0,360,10,,15.0,29.958662,1015.4,,,,,,,,,,OVC,1400,,,,,,,MVFR,,,,,,,,,,,,METAR,383.0
CZEM 271400Z 29002KT 15SM BKN070 BKN110 17/13 A2963 RMK AC5AC2 SLP034 DENSITY ALT 500FT,CZEM,2015-05-27T14:00:00Z,52.22,-78.52,17.0,13.0,290,2,,15.0,29.630905,1003.4,,,,,,,,,,BKN,7000,BKN,11000,,,,,VFR,,,,,,,,,,,,METAR,7.0
CYPD 271400Z AUTO 29009KT 250V320 9SM CLR 25/15 A3014 RMK SLP208 DENSITY ALT 1300FT,CYPD,2015-05-27T14:00:00Z,45.67,-61.37,25.0,15.0,290,9,,9.0,30.138779,1020.8,,TRUE,,,,,,,,CLR,,,,,,,,VFR,,,,,,,,,,,,METAR,114.0
CWYM 271400Z AUTO ///// M03/ A2963 RMK SLP081,CWYM,2015-05-27T14:00:00Z,64.95,-63.57,-3.0,,,,,,29.630905,1008.1,,TRUE,,,,,,,,,,,,,,,,,,,,,,,,,,,,METAR,583.0
CWXR 271400Z AUTO 24005KT M02/ A3050 RMK SLP340,CWXR,2015-05-27T14:00:00Z,69.27,-119.22,-2.0,,240,5,,,30.499016,1034.0,,TRUE,,,,,,,,,,,,,,,,,,,,,,,,,,,,METAR,69.0
CYBW 271400Z AUTO 32006KT 9SM OVC100 11/08 A3003 RMK SLP179 DENSITY ALT 4200FT,CYBW,2015-05-27T14:00:00Z,51.1,-114.37,11.0,8.0,320,6,,9.0,30.029528,1017.9,,TRUE,,,,,,,,OVC,10000,,,,,,,VFR,,,,,,,,,,,,METAR,1200.0
CWVD 271400Z AUTO 34014KT M06/ A2980 RMK SLP142,CWVD,2015-05-27T14:00:00Z,67.52,-63.77,-6.0,,340,14,,,29.799213,1014.2,,TRUE,,,,,,,,,,,,,,,,,,,,,,,,,,,,METAR,573.0
CWRF 271400Z AUTO ///// M07/ A3000 RMK SLP198,CWRF,2015-05-27T14:00:00Z,69.42,-89.72,-7.0,,,,,,30.0,1019.8,,TRUE,,,,,,,,,,,,,,,,,,,,,,,,,,,,METAR,325.0
CZUM 271400Z AUTO 21007KT 170V260 9SM CLR 17/05 A2995 RMK SLP153 DENSITY ALT 2000FT,CZUM,2015-05-27T14:00:00Z,53.53,-64.08,17.0,5.0,210,7,,9.0,29.949802,1015.3,,TRUE,,,,,,,,CLR,,,,,,,,VFR,,,,,,,,,,,,METAR,440.0
CZPC 271400Z AUTO 27005KT 9SM SCT070 SCT084 11/08 A3006 RMK SLP175 DENSITY ALT 4100FT,CZPC,2015-05-27T14:00:00Z,49.52,-114.0,11.0,8.0,270,5,,9.0,30.059055,1017.5,,TRUE,,,,,,,,SCT,7000,SCT,8400,,,,,VFR,,,,,,,,,,,,METAR,1190.0
CZFM 271400Z 32002KT 35SM SKC 09/03 A3032 RMK SLP268,CZFM,2015-05-27T14:00:00Z,67.4,-134.87,9.0,3.0,320,2,,35.0,30.318897,1026.8,,,,,,,,,,SKC,,,,,,,,VFR,,,,,,,,,,,,METAR,43.0
CYCY 271400Z 00000KT 20SM -SG OVC008 RMK SF8 WND ESTD,CYCY,2015-05-27T14:00:00Z,70.47,-68.52,,,0,0,,20.0,,,,,,,,,,,-SG,OVC,800,,,,,,,IFR,,,,,,,,,,,,METAR,26.0
CYED 271400Z 22006KT 10SM BKN140 BKN260 15/09 A2997 RMK AC5CI1 DA2830FT HZ OVR CITY SLP151,CYED,2015-05-27T14:00:00Z,53.67,-113.47,15.0,9.0,220,6,,10.0,29.970472,1015.1,,,,,,,,,,BKN,14000,BKN,26000,,,,,VFR,,,,,,,,,,,,METAR,688.0
CYLJ 271400Z VRB02KT 15SM FEW100 FEW250 09/04 A3004 RMK AC1CI2 AC TR SLP183,CYLJ,2015-05-27T14:00:00Z,54.12,-108.52,9.0,4.0,0,2,,15.0,30.041338,1018.3,,,,,,,,,,FEW,10000,FEW,25000,,,,,VFR,,,,,,,,,,,,METAR,480.0
CYIO 271400Z AUTO 17002KT 9SM CLR M05/M07 A3005 RMK SLP181,CYIO,2015-05-27T14:00:00Z,72.67,-77.97,-5.0,-7.0,170,2,,9.0,30.050198,1018.1,,TRUE,,,,,,,,CLR,,,,,,,,VFR,,,,,,,,,,,,METAR,57.0
CYEK 271400Z 36015KT 12SM BKN020 BKN040 RMK SC5SC2 ALL HWOS DATA MISSING WND ESTD,CYEK,2015-05-27T14:00:00Z,61.1,-94.07,,,360,15,,12.0,,,,,,,,,,,,BKN,2000,BKN,4000,,,,,MVFR,,,,,,,,,,,,METAR,10.0
CYOD 271400Z 13004KT 15SM SKC 11/04 A3003 RMK SLP179,CYOD,2015-05-27T14:00:00Z,54.4,-110.28,11.0,4.0,130,4,,15.0,30.029528,1017.9,,,,,,,,,,SKC,,,,,,,,VFR,,,,,,,,,,,,METAR,544.0
CYMJ 271400Z 07007KT 12SM FEW130 BKN290 13/08 A2999 RMK AC1CI5 FU SLP159,CYMJ,2015-05-27T14:00:00Z,50.32,-105.53,13.0,8.0,70,7,,12.0,29.991142,1015.9,,,,,,,,,,FEW,13000,BKN,29000,,,,,VFR,,,,,,,,,,,,METAR,577.0
CYLT 271400Z 34008KT 5SM -SN OVC013 M09/M10 A3026 RMK ST8 SLP251,CYLT,2015-05-27T14:00:00Z,82.52,-62.27,-9.0,-10.0,340,8,,5.0,30.259842,1025.1,,,,,,,,,-SN,OVC,1300,,,,,,,MVFR,,,,,,,,,,,,METAR,31.0
CYPE 271400Z CCA 00000KT 15SM FEW070 BKN090 12/06 A2993 RMK AC2AC5 SLP143,CYPE,2015-05-27T14:00:00Z,56.22,-117.45,12.0,6.0,0,0,,15.0,29.929134,1014.3,,,,,,,,,,FEW,7000,BKN,9000,,,,,VFR,,,,,,,,,,,,METAR,571.0
CYQV 271400Z AUTO 06009KT 9SM OVC014 09/05 A3005 RMK SLP187,CYQV,2015-05-27T14:00:00Z,51.27,-102.47,9.0,5.0,60,9,,9.0,30.050198,1018.7,,TRUE,,,,,,,,OVC,1400,,,,,,,MVFR,,,,,,,,,,,,METAR,498.0
CYTH 271400Z 27005KT 220V280 15SM FEW210 08/M04 A3011 RMK CI1 SLP208,CYTH,2015-05-27T14:00:00Z,55.78,-97.87,8.0,-4.0,270,5,,15.0,30.109253,1020.8,,,,,,,,,,FEW,21000,,,,,,,VFR,,,,,,,,,,,,METAR,218.0
CYSM 271400Z 26003KT 200V280 15SM BKN050 BKN100 08/01 A3001 RMK SC7AC1 AC TR SLP169,CYSM,2015-05-27T14:00:00Z,60.03,-111.97,8.0,1.0,260,3,,15.0,30.008858,1016.9,,,,,,,,,,BKN,5000,BKN,10000,,,,,VFR,,,,,,,,,,,,METAR,203.0
CYSF 271400Z AUTO 08010G15KT 9SM SCT080 05/M03 A3004 RMK SLP185,CYSF,2015-05-27T14:00:00Z,59.25,-105.82,5.0,-3.0,80,10,15,9.0,30.041338,1018.5,,TRUE,,,,,,,,SCT,8000,,,,,,,VFR,,,,,,,,,,,,METAR,250.0
CYXE 271400Z 09006KT 15SM FEW140 BKN300 09/06 A3006 RMK AC2CI5 FU SLP187,CYXE,2015-05-27T14:00:00Z,52.17,-106.7,9.0,6.0,90,6,,15.0,30.059055,1018.7,,,,,,,,,,FEW,14000,BKN,30000,,,,,VFR,,,,,,,,,,,,METAR,504.0
CYXC 271400Z 31006KT 25SM FEW015 SCT065 BKN110 12/08 A3005 RMK SF1SC2AC4 SLP175 DENSITY ALT 3200FT,CYXC,2015-05-27T14:00:00Z,49.6,-115.77,12.0,8.0,310,6,,25.0,30.050198,1017.5,,,,,,,,,,FEW,1500,SCT,6500,BKN,11000,,,VFR,,,,,,,,,,,,METAR,939.0
CYUA 271400Z AUTO 07005KT 9SM CLR 03/ A3032 RMK SLP273,CYUA,2015-05-27T14:00:00Z,68.95,-137.28,3.0,,70,5,,9.0,30.318897,1027.3,,TRUE,,,,,,,,CLR,,,,,,,,VFR,,,,,,,,,,,,METAR,38.0
CYRV 271400Z AUTO 00000KT 9SM CLR 09/08 A3005 RMK SLP179,CYRV,2015-05-27T14:00:00Z,50.97,-118.17,9.0,8.0,0,0,,9.0,30.050198,1017.9,,TRUE,,,,,,,,CLR,,,,,,,,VFR,,,,,,,,,,,,METAR,443.0
CYQZ 271400Z AUTO VRB02KT 9SM OVC140 11/10 A3000 RMK SLP162,CYQZ,2015-05-27T14:00:00Z,53.02,-122.52,11.0,10.0,0,2,,9.0,30.0,1016.2,,TRUE,,,,,,,,OVC,14000,,,,,,,VFR,,,,,,,,,,,,METAR,545.0
CYPR 271400Z AUTO 22003KT 180V290 9SM OVC007 11/10 A3015 RMK SLP210,CYPR,2015-05-27T14:00:00Z,54.28,-130.42,11.0,10.0,220,3,,9.0,30.15059,1021.0,,TRUE,,,,,,,,OVC,700,,,,,,,IFR,,,,,,,,,,,,METAR,34.0
CYIV 271400Z 02005KT 350V050 15SM FEW250 05/M03 A3010 RMK CI1 SLP204,CYIV,2015-05-27T14:00:00Z,53.85,-94.65,5.0,-3.0,20,5,,15.0,30.100393,1020.4,,,,,,,,,,FEW,25000,,,,,,,VFR,,,,,,,,,,,,METAR,237.0
CYHE 271400Z AUTO 09003KT 9SM OVC048 15/14 A3006 RMK SLP178,CYHE,2015-05-27T14:00:00Z,49.37,-121.5,15.0,14.0,90,3,,9.0,30.059055,1017.8,,TRUE,,,,,,,,OVC,4800,,,,,,,VFR,,,,,,,,,,,,METAR,39.0
CYFO 271400Z 16006KT 130V190 15SM FEW080 SCT300 08/04 A3012 RMK AC1CI2 SLP211,CYFO,2015-05-27T14:00:00Z,54.67,-101.67,8.0,4.0,160,6,,15.0,30.121063,1021.1,,,,,,,,,,FEW,8000,SCT,30000,,,,,VFR,,,,,,,,,,,,METAR,304.0
CYEV 271400Z 09008KT 15SM SKC 07/M01 A3034 RMK SLP277,CYEV,2015-05-27T14:00:00Z,68.32,-133.5,7.0,-1.0,90,8,,15.0,30.339567,1027.7,,,,,,,,,,SKC,,,,,,,,VFR,,,,,,,,,,,,METAR,68.0
CYDQ 271400Z AUTO 17004KT 9SM SCT110 OVC150 12/10 A2993 RMK SLP141 DENSITY ALT 2300FT,CYDQ,2015-05-27T14:00:00Z,55.75,-120.17,12.0,10.0,170,4,,9.0,29.929134,1014.1,,TRUE,,,,,,,,SCT,11000,OVC,15000,,,,,VFR,,,,,,,,,,,,METAR,655.0
CYDC 271400Z VRB02KT 15SM FEW014 BKN040 11/09 A3008 RMK ST1SC5 SLP182,CYDC,2015-05-27T14:00:00Z,49.47,-120.52,11.0,9.0,0,2,,15.0,30.079725,1018.2,,,,,,,,,,FEW,1400,BKN,4000,,,,,VFR,,,,,,,,,,,,METAR,700.0
CYDB 271400Z 03003KT 260V040 6SM -RA BR FEW004 BKN020 OVC035 07/06 A3004 RMK SF1SC6SC1 /R016 AFT 00Z/ CLIMAT 20.0/7.0/15.6 MM SLP193,CYDB,2015-05-27T14:00:00Z,61.37,-139.05,7.0,6.0,30,3,,6.0,30.041338,1019.3,,,,,,,,,-RA BR,FEW,400,BKN,2000,OVC,3500,,,MVFR,,,,,,,,,,,,METAR,801.0
CYCQ 271400Z 23006KT 35SM SCT050TCU BKN100 OVC220 12/08 A2995 RMK TCU3AC2CI3 VIRGA E ACSL W-NW DIST FU ALQDS SLP148 DENSITY ALT 2100FT,CYCQ,2015-05-27T14:00:00Z,55.7,-121.62,12.0,8.0,230,6,,35.0,29.949802,1014.8,,,,,,,,,,SCT,5000,BKN,10000,OVC,22000,,,VFR,,,,,,,,,,,,METAR,609.0
CYCP 271400Z 00000KT 15SM FEW160 SCT300 08/06 A3005 RMK AC1CI3 SLP179,CYCP,2015-05-27T14:00:00Z,52.13,-119.28,8.0,6.0,0,0,,15.0,30.050198,1017.9,,,,,,,,,,FEW,16000,SCT,30000,,,,,VFR,,,,,,,,,,,,METAR,683.0
CYBV 271400Z 05008G15KT 020V080 15SM FEW015 FEW220 07/M01 A3006 RMK SC1CS1 SLP189,CYBV,2015-05-27T14:00:00Z,52.35,-97.03,7.0,-1.0,50,8,15,15.0,30.059055,1018.9,,,,,,,,,,FEW,1500,FEW,22000,,,,,VFR,,,,,,,,,,,,METAR,222.0
CYBL 271400Z 30006KT 20SM FEW015 SCT250 11/09 A3008 RMK SC1CI3 SLP187,CYBL,2015-05-27T14:00:00Z,49.95,-125.27,11.0,9.0,300,6,,20.0,30.079725,1018.7,,,,,,,,,,FEW,1500,SCT,25000,,,,,VFR,,,,,,,,,,,,METAR,106.0
CYAZ 271400Z 15008KT 1SM -DZ BR OVC005 11/11 A3007 RMK FG6ST2 SLP181,CYAZ,2015-05-27T14:00:00Z,49.08,-125.77,11.0,11.0,150,8,,1.0,30.070866,1018.1,,,,,,,,,-DZ BR,OVC,500,,,,,,,IFR,,,,,,,,,,,,METAR,24.0
CZST 271400Z 00000KT 15SM OVC018 12/10 A3011 RMK SC8 SLP195,CZST,2015-05-27T14:00:00Z,55.93,-129.98,12.0,10.0,0,0,,15.0,30.109253,1019.5,,,,,,,,,,OVC,1800,,,,,,,MVFR,,,,,,,,,,,,METAR,7.0
CZCP 271400Z AUTO 09013KT 9SM OVC011 M03/ A3052 RMK SLP343,CZCP,2015-05-27T14:00:00Z,70.17,-124.72,-3.0,,90,13,,9.0,30.519686,1034.3,,TRUE,,,,,,,,OVC,1100,,,,,,,MVFR,,,,,,,,,,,,METAR,93.0
CZBF 271400Z 08009KT 15SM FEW020 SCT140 BKN210 BKN230 19/13 A3006 RMK SC1AC3CC2CS2 SC TR SLP178 DENSITY ALT 500FT,CZBF,2015-05-27T14:00:00Z,47.62,-65.75,19.0,13.0,80,9,,15.0,30.059055,1017.8,,,,,,,,,,FEW,2000,SCT,14000,BKN,21000,BKN,23000,VFR,,,,,,,,,,,,METAR,59.0
CWZZ 271400Z AUTO 33002KT M00/ A2991 RMK SLP162,CWZZ,2015-05-27T14:00:00Z,58.32,-62.57,0.0,,330,2,,,29.911417,1016.2,,TRUE,,,,,,,,,,,,,,,,,,,,,,,,,,,,METAR,483.0
CWYK 271400Z AUTO ///// M03/ A2989 RMK SLP168,CWYK,2015-05-27T14:00:00Z,57.12,-61.47,-3.0,,,,,,29.890747,1016.8,,TRUE,,,,,,,,,,,,,,,,,,,,,,,,,,,,METAR,834.0
CWVH 271400Z AUTO 10009KT M00/ A3035 RMK SLP295,CWVH,2015-05-27T14:00:00Z,68.9,-133.93,0.0,,100,9,,,30.351377,1029.5,,TRUE,,,,,,,,,,,,,,,,,,,,,,,,,,,,METAR,261.0
CWUP 271400Z AUTO ///// M04/ A2988 RMK SLP149,CWUP,2015-05-27T14:00:00Z,68.47,-66.82,-4.0,,,,,,29.878937,1014.9,,TRUE,,,,,,,,,,,,,,,,,,,,,,,,,,,,METAR,390.0
CWSW 271400Z 09004KT 15SM FEW010 BKN060 BKN090 09/07 A3007 RMK SF1SC6AC1 SF TR SLP190 DENSITY ALT 3800FT,CWSW,2015-05-27T14:00:00Z,49.75,-114.87,9.0,7.0,90,4,,15.0,30.070866,1019.0,,,,,,,,,,FEW,1000,BKN,6000,BKN,9000,,,VFR,,,,,,,,,,,,METAR,1138.0
CWRX 271400Z AUTO 08008KT M02/ A2993,CWRX,2015-05-27T14:00:00Z,69.07,-79.02,-2.0,,80,8,,,29.929134,,,TRUE,,,,,,,,,,,,,,,,,,,,,,,,,,,,METAR,41.0
CWPX 271400Z AUTO 35024KT M10/ A3034 RMK SLP298,CWPX,2015-05-27T14:00:00Z,69.02,-107.82,-10.0,,350,24,,,30.339567,1029.8,,TRUE,,,,,,,,,,,,,,,,,,,,,,,,,,,,METAR,165.0
CWOB 271400Z AUTO 27004KT M03/ A2971 RMK SLP103,CWOB,2015-05-27T14:00:00Z,63.32,-64.15,-3.0,,270,4,,,29.71063,1010.3,,TRUE,,,,,,,,,,,,,,,,,,,,,,,,,,,,METAR,367.0
CWLY 271400Z AUTO 00000KT 1/8SM FG BKN001 BKN010 11/10 A3005 RMK SLP179,CWLY,2015-05-27T14:00:00Z,50.22,-121.58,11.0,10.0,0,0,,0.13,30.050198,1017.9,,TRUE,,,,,,,FG,BKN,100,BKN,1000,,,,,LIFR,,,,,,,,,,,,METAR,229.0
CWLX 271400Z AUTO 09015KT M01/ A2991 RMK SLP143,CWLX,2015-05-27T14:00:00Z,68.9,-75.15,-1.0,,90,15,,,29.911417,1014.3,,TRUE,,,,,,,,,,,,,,,,,,,,,,,,,,,,METAR,162.0
CWLI 271400Z AUTO 08017G24KT M02/ A3043 RMK SLP317,CWLI,2015-05-27T14:00:00Z,69.58,-130.9,-2.0,,80,17,24,,30.431103,1031.7,,TRUE,,,,,,,,,,,,,,,,,,,,,,,,,,,,METAR,102.0
CWKW 271400Z AUTO ///// M05/ A2985 RMK SLP148,CWKW,2015-05-27T14:00:00Z,59.97,-64.17,-5.0,,,,,,29.84941,1014.8,,TRUE,,,,,,,,,,,,,,,,,,,,,,,,,,,,METAR,551.0
CWKM 271400Z AUTO 09025KT 01/ A3026 RMK SLP252,CWKM,2015-05-27T14:00:00Z,69.6,-140.17,1.0,,90,25,,,30.259842,1025.2,,TRUE,,,,,,,,,,,,,,,,,,,,,,,,,,,,METAR,13.0
CWIL 271400Z AUTO 32013KT M08/ A3024 RMK SLP251,CWIL,2015-05-27T14:00:00Z,68.32,-100.07,-8.0,,320,13,,,30.239174,1025.1,,TRUE,,,,,,,,,,,,,,,,,,,,,,,,,,,,METAR,36.0
CWCA 271400Z 01008KT 15SM FEW070 SCT250 05/M03 A3010 RMK AC1CI3 AC TR SLP194,CWCA,2015-05-27T14:00:00Z,53.7,-57.02,5.0,-3.0,10,8,,15.0,30.100393,1019.4,,,,,,,,,,FEW,7000,SCT,25000,,,,,VFR,,,,,,,,,,,,METAR,14.0
CWAE 271400Z 00000KT 15SM OVC035 13/11 A3008 RMK SC8 WND ESTD SLP181 DENSITY ALT 2200FT,CWAE,2015-05-27T14:00:00Z,50.13,-122.95,13.0,11.0,0,0,,15.0,30.079725,1018.1,,,,,,,,,,OVC,3500,,,,,,,VFR,,,,,,,,,,,,METAR,658.0
CYZG 271400Z 00000KT 5SM -SN BR BKN020 OVC080 M05/M06 A2985 RMK SC6AS2 CIG RAG SLP129,CYZG,2015-05-27T14:00:00Z,62.17,-75.67,-5.0,-6.0,0,0,,5.0,29.84941,1012.9,,,,,,,,,-SN BR,BKN,2000,OVC,8000,,,,,MVFR,,,,,,,,,,,,METAR,226.0
CYWK 271400Z 18015KT 160V230 15SM BKN150 BKN240 17/07 A2993 RMK AC5CI2 SLP146 DENSITY ALT 2400FT,CYWK,2015-05-27T14:00:00Z,52.92,-66.87,17.0,7.0,180,15,,15.0,29.929134,1014.6,,,,,,,,,,BKN,15000,BKN,24000,,,,,VFR,,,,,,,,,,,,METAR,551.0
CYUY 271400Z 22012KT 12SM FEW008 OVC011 18/17 A2972 RMK CF1SC8 CF TR SLP068 DENSITY ALT 1800FT,CYUY,2015-05-27T14:00:00Z,48.2,-78.82,18.0,17.0,220,12,,12.0,29.719488,1006.8,,,,,,,,,,FEW,800,OVC,1100,,,,,MVFR,,,,,,,,,,,,METAR,301.0
CYSK 271400Z 36017KT 15SM BKN010 BKN020 M04/M06 A2989 RMK SF5SC2 SLP124,CYSK,2015-05-27T14:00:00Z,56.53,-79.25,-4.0,-6.0,360,17,,15.0,29.890747,1012.4,,,,,,,,,,BKN,1000,BKN,2000,,,,,MVFR,,,,,,,,,,,,METAR,26.0
CYQI 271400Z 23014G21KT 6SM BR OVC008 14/12 A3023 RMK SF8 SLP237,CYQI,2015-05-27T14:00:00Z,43.83,-66.08,14.0,12.0,230,14,21,6.0,30.230314,1023.7,,,,,,,,,BR,OVC,800,,,,,,,IFR,,,,,,,,,,,,METAR,43.0
CYPH 271400Z AUTO 34007KT 330V040 9SM OVC011 M03/M05 A2990 RMK SLP126,CYPH,2015-05-27T14:00:00Z,58.45,-78.08,-3.0,-5.0,340,7,,9.0,29.899607,1012.6,,TRUE,,,,,,,,OVC,1100,,,,,,,MVFR,,,,,,,,,,,,METAR,3.0
CYOY 271400Z AUTO 11008KT 080V140 6SM OVC004 OVC036 18/16 A2997 RMK SLP150,CYOY,2015-05-27T14:00:00Z,46.88,-71.5,18.0,16.0,110,8,,6.0,29.970472,1015.0,,TRUE,,,,,,,,OVC,400,OVC,3600,,,,,LIFR,,,,,,,,,,,,METAR,168.0
CYMU 271400Z 00000KT 15SM FEW007 BKN020 OVC070 02/M00 A2978 RMK ST0SC6AC1 SLP092,CYMU,2015-05-27T14:00:00Z,56.52,-76.52,2.0,0.0,0,0,,15.0,29.778543,1009.2,,,,,,,,,,FEW,700,BKN,2000,OVC,7000,,,MVFR,,,,,,,,,,,,METAR,71.0
CYMT 271400Z 15010KT 130V200 14SM OVC005 15/14 A2972 RMK ST8 CIG VRB 3-7 SLP072 DENSITY ALT 1700FT,CYMT,2015-05-27T14:00:00Z,49.77,-74.52,15.0,14.0,150,10,,14.0,29.719488,1007.2,,,,,,,,,,OVC,500,,,,,,,IFR,,,,,,,,,,,,METAR,387.0
CYMH 271400Z AUTO 08010KT 9SM CLR 17/03 A3003 RMK SLP169 DENSITY ALT 100FT,CYMH,2015-05-27T14:00:00Z,52.28,-55.85,17.0,3.0,80,10,,9.0,30.029528,1016.9,,TRUE,,,,,,,,CLR,,,,,,,,VFR,,,,,,,,,,,,METAR,11.0
CYLA 271400Z 14009KT 15SM BKN024 00/M04 A2995 RMK SC7 SLP144,CYLA,2015-05-27T14:00:00Z,59.28,-69.58,0.0,-4.0,140,9,,15.0,29.949802,1014.4,,,,,,,,,,BKN,2400,,,,,,,MVFR,,,,,,,,,,,,METAR,35.0
CYKQ 271400Z 28005KT 12SM -RA FEW009 BKN030 BKN050 OVC110 15/15 A2963 RMK CF2SC3SC2AC1 SLP033 DENSITY ALT 400FT,CYKQ,2015-05-27T14:00:00Z,51.47,-78.75,15.0,15.0,280,5,,12.0,29.630905,1003.3,,,,,,,,,-RA,FEW,900,BKN,3000,BKN,5000,OVC,11000,MVFR,,,,,,,,,,,,METAR,23.0
CYKG 271400Z 00000KT 15SM FEW030 SCT200 M03/M09 A2989 RMK SC2CI2 SLP135,CYKG,2015-05-27T14:00:00Z,61.57,-71.92,-3.0,-9.0,0,0,,15.0,29.890747,1013.5,,,,,,,,,,FEW,3000,SCT,20000,,,,,VFR,,,,,,,,,,,,METAR,151.0
CYBX 271400Z 22007KT 1 1/2SM BR OVC003 08/07 A3004 RMK FG3ST5 SLP175,CYBX,2015-05-27T14:00:00Z,51.45,-57.17,8.0,7.0,220,7,,1.5,30.041338,1017.5,,,,,,,,,BR,OVC,300,,,,,,,LIFR,,,,,,,,,,,,METAR,35.0
CYAS 271400Z 26003KT 15SM BKN014 M01/M05 A2993 RMK SC7 SLP146,CYAS,2015-05-27T14:00:00Z,60.02,-70.0,-1.0,-5.0,260,3,,15.0,29.929134,1014.6,,,,,,,,,,BKN,1400,,,,,,,MVFR,,,,,,,,,,,,METAR,117.0
CYAD 271400Z 22004KT 15SM SCT059 BKN110 OVC210 17/03 A2964 RMK SC4AC2CI1 SLP044,CYAD,2015-05-27T14:00:00Z,53.57,-76.2,17.0,3.0,220,4,,15.0,29.639763,1004.4,,,,,,,,,,SCT,5900,BKN,11000,OVC,21000,,,VFR,,,,,,,,,,,,METAR,233.0
CZSJ 271400Z AUTO 01004KT 300V040 9SM CLR 05/M02 A3003 RMK SLP181,CZSJ,2015-05-27T14:00:00Z,53.07,-93.35,5.0,-2.0,10,4,,9.0,30.029528,1018.1,,TRUE,,,,,,,,CLR,,,,,,,,VFR,,,,,,,,,,,,METAR,290.0
CZMD 271400Z AUTO 03009KT 340V050 9SM CLR 04/M04 A3003 RMK SLP181,CZMD,2015-05-27T14:00:00Z,53.43,-91.77,4.0,-4.0,30,9,,9.0,30.029528,1018.1,,TRUE,,,,,,,,CLR,,,,,,,,VFR,,,,,,,,,,,,METAR,278.0
CYYU 271400Z 36005KT 6SM -DZ BR BKN007 OVC015 16/16 A2966 RMK ST5SC3 SLP046 DENSITY ALT 1300FT,CYYU,2015-05-27T14:00:00Z,49.42,-82.47,16.0,16.0,360,5,,6.0,29.660433,1004.6,,,,,,,,,-DZ BR,BKN,700,OVC,1500,,,,,IFR,,,,,,,,,,,,METAR,227.0
CYYH 271400Z 34008KT 15SM FEW015 FEW040 SCT090 BKN210 M06/M09 A3014 RMK SC1SC1AC2CI1 SLP209,CYYH,2015-05-27T14:00:00Z,69.53,-93.57,-6.0,-9.0,340,8,,15.0,30.138779,1020.9,,,,,,,,,,FEW,1500,FEW,4000,SCT,9000,BKN,21000,VFR,,,,,,,,,,,,METAR,28.0
CYYB 271400Z 22011G20KT 15SM BKN020 BKN034 19/16 A2985 RMK SC6SC1 SLP107 DENSITY ALT 2000FT,CYYB,2015-05-27T14:00:00Z,46.35,-79.42,19.0,16.0,220,11,20,15.0,29.84941,1010.7,,,,,,,,,,BKN,2000,BKN,3400,,,,,MVFR,,,,,,,,,,,,METAR,371.0
CYXU 271400Z 19013G18KT 15SM SCT016 BKN230 22/18 A2999 RMK CF3CI2 SLP153 DENSITY ALT 1800FT,CYXU,2015-05-27T14:00:00Z,43.02,-81.15,22.0,18.0,190,13,18,15.0,29.991142,1015.3,,,,,,,,,,SCT,1600,BKN,23000,,,,,VFR,,,,,,,,,,,,METAR,278.0
CYXL 271400Z 36007KT 330V090 15SM SCT250 13/07 A2985 RMK CI4 SLP114 DENSITY ALT 1300FT,CYXL,2015-05-27T14:00:00Z,50.12,-91.9,13.0,7.0,360,7,,15.0,29.84941,1011.4,,,,,,,,,,SCT,25000,,,,,,,VFR,,,,,,,,,,,,METAR,390.0
CYVQ 271400Z 12014KT 30SM FEW250 04/M03 A3037 RMK CI1 SLP287,CYVQ,2015-05-27T14:00:00Z,65.27,-126.78,4.0,-3.0,120,14,,30.0,30.369095,1028.7,,,,,,,,,,FEW,25000,,,,,,,VFR,,,,,,,,,,,,METAR,74.0
CYVO 271400Z 21008KT 13SM BKN019 OVC030 19/17 A2975 RMK CF7SC1 SLP078 DENSITY ALT 2000FT,CYVO,2015-05-27T14:00:00Z,48.07,-77.77,19.0,17.0,210,8,,13.0,29.749016,1007.8,,,,,,,,,,BKN,1900,OVC,3000,,,,,MVFR,,,,,,,,,,,,METAR,337.0
CYSP 271400Z 00000KT 12SM FEW016 SCT040 BKN090 OVC140 14/13 A2971 RMK SC2SC2AC3AC1 SLP068 DENSITY ALT 1400FT,CYSP,2015-05-27T14:00:00Z,48.75,-86.35,14.0,13.0,0,0,,12.0,29.71063,1006.8,,,,,,,,,,FEW,1600,SCT,4000,BKN,9000,OVC,14000,VFR,,,,,,,,,,,,METAR,315.0
CYSN 271400Z 22019G24KT 15SM FEW020 OVC250 23/18 A3000 RMK SC2CI6 SLP159 DENSITY ALT 1200FT,CYSN,2015-05-27T14:00:00Z,43.2,-79.17,23.0,18.0,220,19,24,15.0,30.0,1015.9,,,,,,,,,,FEW,2000,OVC,25000,,,,,VFR,,,,,,,,,,,,METAR,98.0
CYSC 271400Z AUTO 21009KT 9SM CLR 26/19 A3002 RMK SLP163 DENSITY ALT 2000FT,CYSC,2015-05-27T14:00:00Z,45.43,-71.68,26.0,19.0,210,9,,9.0,30.02067,1016.3,,TRUE,,,,,,,,CLR,,,,,,,,VFR,,,,,,,,,,,,METAR,241.0
CYSB 271400Z 20014KT 10SM SCT009 OVC017 18/15 A2980 RMK SF4SC4 SLP091 DENSITY ALT 1800FT,CYSB,2015-05-27T14:00:00Z,46.63,-80.8,18.0,15.0,200,14,,10.0,29.799213,1009.1,,,,,,,,,,SCT,900,OVC,1700,,,,,MVFR,,,,,,,,,,,,METAR,348.0
CYRQ 271400Z AUTO 20014KT 9SM FEW042 25/20 A2993 RMK SLP135 DENSITY ALT 1300FT,CYRQ,2015-05-27T14:00:00Z,46.35,-72.68,25.0,20.0,200,14,,9.0,29.929134,1013.5,,TRUE,,,,,,,,FEW,4200,,,,,,,VFR,,,,,,,,,,,,METAR,61.0
CYRB 271400Z 35009KT 15SM SKC M09/M12 A3015 RMK SLP217,CYRB,2015-05-27T14:00:00Z,74.72,-94.97,-9.0,-12.0,350,9,,15.0,30.15059,1021.7,,,,,,,,,,SKC,,,,,,,,VFR,,,,,,,,,,,,METAR,67.0
CYQK 271400Z 02007KT 360V060 15SM SCT090 14/08 A2989 RMK AC3 SLP126 DENSITY ALT 1500FT,CYQK,2015-05-27T14:00:00Z,49.77,-94.37,14.0,8.0,20,7,,15.0,29.890747,1012.6,,,,,,,,,,SCT,9000,,,,,,,VFR,,,,,,,,,,,,METAR,411.0
CYQA 271400Z AUTO 22009G18KT 180V250 9SM FEW027 24/17 A2992 RMK SLP129 DENSITY ALT 2100FT,CYQA,2015-05-27T14:00:00Z,44.97,-79.28,24.0,17.0,220,9,18,9.0,29.920275,1012.9,,TRUE,,,,,,,,FEW,2700,,,,,,,VFR,,,,,,,,,,,,METAR,282.0
CYPO 271400Z AUTO 36008G16KT 9SM OVC013 M04/M07 A3002 RMK SLP170,CYPO,2015-05-27T14:00:00Z,54.98,-85.43,-4.0,-7.0,360,8,16,9.0,30.02067,1017.0,,TRUE,,,,,,,,OVC,1300,,,,,,,MVFR,,,,,,,,,,,,METAR,53.0
CYPL 271400Z 36009KT 300V050 15SM OVC015 04/01 A2991 RMK SC8 SLP136,CYPL,2015-05-27T14:00:00Z,51.47,-90.2,4.0,1.0,360,9,,15.0,29.911417,1013.6,,,,,,,,,,OVC,1500,,,,,,,MVFR,,,,,,,,,,,,METAR,373.0
CYOO 271400Z AUTO 21011G16KT 9SM CLR 21/17 A2997 RMK SLP148 DENSITY ALT 1100FT,CYOO,2015-05-27T14:00:00Z,43.92,-78.9,21.0,17.0,210,11,16,9.0,29.970472,1014.8,,TRUE,,,,,,,,CLR,,,,,,,,VFR,,,,,,,,,,,,METAR,139.0
CYLD 271400Z 21008KT 190V250 12SM -RA OVC010 16/14 A2968 RMK SC8 CIG RAG BR SLP055 DENSITY ALT 2100FT,CYLD,2015-05-27T14:00:00Z,47.82,-83.33,16.0,14.0,210,8,,12.0,29.681103,1005.5,,,,,,,,,-RA,OVC,1000,,,,,,,MVFR,,,,,,,,,,,,METAR,447.0
CYKP 271400Z AUTO 01015G20KT 9SM OVC011 04/01 A2982 RMK SLP103,CYKP,2015-05-27T14:00:00Z,51.67,-85.9,4.0,1.0,10,15,20,9.0,29.819881,1010.3,,TRUE,,,,,,,,OVC,1100,,,,,,,MVFR,,,,,,,,,,,,METAR,179.0
CYKL 271400Z AUTO 23009KT 130V250 9SM CLR 17/05 A2982 RMK SLP113 DENSITY ALT 2400FT,CYKL,2015-05-27T14:00:00Z,54.78,-66.82,17.0,5.0,230,9,,9.0,29.819881,1011.3,,TRUE,,,,,,,,CLR,,,,,,,,VFR,,,,,,,,,,,,METAR,521.0
CYKF 271400Z AUTO 22011G21KT 9SM FEW018 23/17 A2998 RMK SLP149 DENSITY ALT 2100FT,CYKF,2015-05-27T14:00:00Z,43.47,-80.38,23.0,17.0,220,11,21,9.0,29.97933,1014.9,,TRUE,,,,,,,,FEW,1800,,,,,,,VFR,,,,,,,,,,,,METAR,317.0
CYHM 271400Z 24017G22KT 15SM SCT017 BKN022 BKN034 22/18 A3000 RMK CU3SC2SC1 SLP157 DENSITY ALT 1600FT,CYHM,2015-05-27T14:00:00Z,43.17,-79.93,22.0,18.0,240,17,22,15.0,30.0,1015.7,,,,,,,,,,SCT,1700,BKN,2200,BKN,3400,,,MVFR,,,,,,,,,,,,METAR,238.0
CYGQ 271400Z 33009KT 15SM BKN045 OVC100 16/12 A2973 RMK SC6AC2 SLP072 DENSITY ALT 1600FT,CYGQ,2015-05-27T14:00:00Z,49.77,-86.92,16.0,12.0,330,9,,15.0,29.731298,1007.2,,,,,,,,,,BKN,4500,OVC,10000,,,,,VFR,,,,,,,,,,,,METAR,351.0
CYGK 271400Z 19012KT 130V200 8SM FEW030 BKN078 OVC100 16/16 A2999 RMK SC1AC5AC2 OCNL -SHRA SLP157 DENSITY ALT 400FT,CYGK,2015-05-27T14:00:00Z,44.22,-76.58,16.0,16.0,190,12,,8.0,29.991142,1015.7,,,,,,,,,,FEW,3000,BKN,7800,OVC,10000,,,VFR,,,,,,,,,,,,METAR,93.0
CYFR 271400Z 03009G19KT 15SM FEW120 FEW280 05/M02 A3013 RMK AC1CI1 AC TR /0/ SLP210,CYFR,2015-05-27T14:00:00Z,61.17,-113.67,5.0,-2.0,30,9,19,15.0,30.129921,1021.0,,,,,,,,,,FEW,12000,FEW,28000,,,,,VFR,,,,,,,,,,,,METAR,164.0
CYER 271400Z AUTO 34008KT 300V020 9SM OVC018 M02/M06 A3007 RMK SLP185,CYER,2015-05-27T14:00:00Z,56.02,-87.68,-2.0,-6.0,340,8,,9.0,30.070866,1018.5,,TRUE,,,,,,,,OVC,1800,,,,,,,MVFR,,,,,,,,,,,,METAR,16.0
CYCK 271400Z AUTO 22017G22KT 9SM CLR 21/18 A3000 RMK SLP158 DENSITY ALT 1300FT,CYCK,2015-05-27T14:00:00Z,42.3,-82.08,21.0,18.0,220,17,22,9.0,30.0,1015.8,,TRUE,,,,,,,,CLR,,,,,,,,VFR,,,,,,,,,,,,METAR,198.0
CYBN 271400Z AUTO 22014G21KT 9SM FEW030 FEW070 24/17 A2994 RMK SLP136,CYBN,2015-05-27T14:00:00Z,44.27,-79.92,24.0,17.0,220,14,21,9.0,29.940945,1013.6,,TRUE,,,,,,,,FEW,3000,FEW,7000,,,,,VFR,,,,,,,,,,,,METAR,223.0
CYBC 271400Z AUTO 05004KT 020V100 9SM SCT006 12/10 A3002 RMK PRESFR SLP166,CYBC,2015-05-27T14:00:00Z,49.12,-68.2,12.0,10.0,50,4,,9.0,30.02067,1016.6,,TRUE,,,,,,,,SCT,600,,,,,,,VFR,,,,,,,,,,,,METAR,22.0
CYAT 271400Z AUTO 36011G19KT 7SM OVC008 02/00 A2981 RMK SLP096,CYAT,2015-05-27T14:00:00Z,52.93,-82.43,2.0,0.0,360,11,19,7.0,29.811024,1009.6,,TRUE,,,,,,,,OVC,800,,,,,,,IFR,,,,,,,,,,,,METAR,9.0
CYKZ 271400Z CCA 24008G15KT 14SM SCT025 BKN230 24/16 A2997 RMK SC4CS1 TCU ASOCTD SLP145 DENSITY ALT 1800FT,CYKZ,2015-05-27T14:00:00Z,43.87,-79.37,24.0,16.0,240,8,15,14.0,29.970472,1014.5,,,,,,,,,,SCT,2500,BKN,23000,,,,,VFR,,,,,,,,,,,,METAR,198.0
CYZU 271400Z 30005KT 15SM SCT230 10/07 A2998 RMK CI3 SLP157,CYZU,2015-05-27T14:00:00Z,54.15,-115.78,10.0,7.0,300,5,,15.0,29.97933,1015.7,,,,,,,,,,SCT,23000,,,,,,,VFR,,,,,,,,,,,,METAR,785.0
CYXH 271400Z 12002KT 30SM BKN100 OVC260 15/09 A2998 RMK AC6CI2 SLP150 DENSITY ALT 2800FT,CYXH,2015-05-27T14:00:00Z,50.02,-110.72,15.0,9.0,120,2,,30.0,29.97933,1015.0,,,,,,,,,,BKN,10000,OVC,26000,,,,,VFR,,,,,,,,,,,,METAR,716.0
CYVT 271400Z 17003KT 15SM FEW120 BKN250 10/03 A3002 RMK AC1CS5 AC TR SLP177,CYVT,2015-05-27T14:00:00Z,55.82,-108.42,10.0,3.0,170,3,,15.0,30.02067,1017.7,,,,,,,,,,FEW,12000,BKN,25000,,,,,VFR,,,,,,,,,,,,METAR,434.0
CYUX 271400Z 35010KT 15SM FEW015 SCT070 M05/M07 A2997 RMK CF1AC2 SLP150,CYUX,2015-05-27T14:00:00Z,68.77,-81.25,-5.0,-7.0,350,10,,15.0,29.970472,1015.0,,,,,,,,,,FEW,1500,SCT,7000,,,,,VFR,,,,,,,,,,,,METAR,8.0
CYUB 271400Z 09015KT 15SM FEW220 M00/M03 A3040 RMK CI1 SLP297,CYUB,2015-05-27T14:00:00Z,69.45,-133.02,0.0,-3.0,90,15,,15.0,30.398623,1029.7,,,,,,,,,,FEW,22000,,,,,,,VFR,,,,,,,,,,,,METAR,5.0
CYXS 271400Z AUTO 18003KT 160V230 9SM CLR 13/09 A2998 RMK SLP153 DENSITY ALT 2400FT,CYXS,2015-05-27T14:00:00Z,53.9,-122.68,13.0,9.0,180,3,,9.0,29.97933,1015.3,,TRUE,,,,,,,,CLR,,,,,,,,VFR,,,,,,,,,,,,METAR,691.0
CYZP 271400Z AUTO 27012KT 9SM CLR 12/08 A3019 RMK SLP222,CYZP,2015-05-27T14:00:00Z,53.25,-131.82,12.0,8.0,270,12,,9.0,30.188976,1022.2,,TRUE,,,,,,,,CLR,,,,,,,,VFR,,,,,,,,,,,,METAR,6.0
CYZT 271400Z 25005KT 10SM OVC011 10/09 A3013 RMK ST8 SLP202,CYZT,2015-05-27T14:00:00Z,50.67,-127.37,10.0,9.0,250,5,,10.0,30.129921,1020.2,,,,,,,,,,OVC,1100,,,,,,,MVFR,,,,,,,,,,,,METAR,22.0
CYBB 271400Z 25009KT 12SM FEW010 OVC018 M06/M07 A3010 RMK ST2SC6 SLP195,CYBB,2015-05-27T14:00:00Z,68.52,-89.82,-6.0,-7.0,250,9,,12.0,30.100393,1019.5,,,,,,,,,,FEW,1000,OVC,1800,,,,,MVFR,,,,,,,,,,,,METAR,15.0
CYCB 271400Z 32011KT 15SM BKN015 M08/M11 A3036 RMK SC6 SLP285,CYCB,2015-05-27T14:00:00Z,69.08,-105.12,-8.0,-11.0,320,11,,15.0,30.360237,1028.5,,,,,,,,,,BKN,1500,,,,,,,MVFR,,,,,,,,,,,,METAR,27.0
CYCO 271400Z 04007KT 15SM FEW020 M01/M07 A3050 RMK SC2 SLP332,CYCO,2015-05-27T14:00:00Z,67.82,-115.15,-1.0,-7.0,40,7,,15.0,30.499016,1033.2,,,,,,,,,,FEW,2000,,,,,,,VFR,,,,,,,,,,,,METAR,22.0
CYCS 271400Z 35010KT 10SM OVC040 M06/M10 A3012 RMK SC8 SLP201,CYCS,2015-05-27T14:00:00Z,63.35,-90.72,-6.0,-10.0,350,10,,10.0,30.121063,1020.1,,,,,,,,,,OVC,4000,,,,,,,VFR,,,,,,,,,,,,METAR,11.0
CYFS 271400Z 12003KT 070V150 15SM SCT080 BKN210 09/M01 A3021 RMK AC3CI2 SLP235,CYFS,2015-05-27T14:00:00Z,61.75,-121.22,9.0,-1.0,120,3,,15.0,30.209646,1023.5,,,,,,,,,,SCT,8000,BKN,21000,,,,,VFR,,,,,,,,,,,,METAR,169.0
CYGH 271400Z 07007KT 25SM SCT250 04/M02 A3035 RMK CI4 SLP282,CYGH,2015-05-27T14:00:00Z,66.27,-128.62,4.0,-2.0,70,7,,25.0,30.351377,1028.2,,,,,,,,,,SCT,25000,,,,,,,VFR,,,,,,,,,,,,METAR,66.0
CYGT 271400Z 36013KT 15SM FEW050 SCT140 M04/M08 A2996 RMK SC1AC3 SLP152,CYGT,2015-05-27T14:00:00Z,69.37,-81.82,-4.0,-8.0,360,13,,15.0,29.958662,1015.2,,,,,,,,,,FEW,5000,SCT,14000,,,,,VFR,,,,,,,,,,,,METAR,51.0
CYHI 271400Z 02004KT 350V050 15SM BKN030 M01/M07 A3053 RMK SC5 -1.1/-1.5 SLP340,CYHI,2015-05-27T14:00:00Z,70.77,-117.78,-1.0,-7.0,20,4,,15.0,30.528543,1034.0,,,,,,,,,,BKN,3000,,,,,,,MVFR,,,,,,,,,,,,METAR,36.0
TLPL 271400Z 09012KT 9999 FEW030 29/22 Q1015 NOSIG,TLPL,2015-05-27T14:00:00Z,13.75,-60.95,29.0,22.0,90,12,,6.21,29.970472,,,,,,TRUE,,,,,FEW,3000,,,,,,,VFR,,,,,,,,,,,,METAR,3.0
VTUV 271400Z 00000KT 9999 SCT022 BKN300 31/23 Q1007 A2974 INFO O RWY 18,VTUV,2015-05-27T14:00:00Z,16.12,103.78,31.0,23.0,0,0,,6.21,29.734253,,,,,,,,,,,SCT,2200,BKN,30000,,,,,VFR,,,,,,,,,,,,METAR,138.0
VTUU 271400Z 18004KT 8000 FEW025 BKN300 31/22 Q1006 A2973 NOSIG,VTUU,2015-05-27T14:00:00Z,15.25,104.87,31.0,22.0,180,4,,4.97,29.704725,,,,,,TRUE,,,,,FEW,2500,BKN,30000,,,,,MVFR,,,,,,,,,,,,METAR,127.0
VTUD 271400Z 31003KT 9999 FEW035 SCT150 BKN280 25/24 Q1007 A2975 INFO T RWY30,VTUD,2015-05-27T14:00:00Z,17.37,102.78,25.0,24.0,310,3,,6.21,29.734253,,,,,,,,,,,FEW,3500,SCT,15000,BKN,28000,,,VFR,,,,,,,,,,,,METAR,182.0
VTPP 271400Z 00000KT 9999 FEW020CB SCT025 BKN300 30/23 Q1005,VTPP,2015-05-27T14:00:00Z,16.78,100.28,30.0,23.0,0,0,,6.21,29.675198,,,,,,,,,,,FEW,2000,SCT,2500,BKN,30000,,,VFR,,,,,,,,,,,,METAR,44.0
FMEP 271400Z AUTO 12010KT 9999 BKN036/// 24/16 Q1019,FMEP,2015-05-27T14:00:00Z,-21.32,55.42,24.0,16.0,120,10,,6.21,30.088583,,,TRUE,,,,,,,,,,,,,,,,,,,,,,,,,,,,METAR,53.0
FMEE 271400Z AUTO 10007KT 9999 BKN062 24/16 Q1018,FMEE,2015-05-27T14:00:00Z,-20.87,55.52,24.0,16.0,100,7,,6.21,30.059055,,,TRUE,,,,,,,,BKN,6200,,,,,,,VFR,,,,,,,,,,,,METAR,25.0
CYZS 271400Z 34007KT 15SM FEW015 BKN090 BKN210 M06/M11 A2998 RMK SC2AC3CI1 SLP159,CYZS,2015-05-27T14:00:00Z,64.2,-83.37,-6.0,-11.0,340,7,,15.0,29.97933,1015.9,,,,,,,,,,FEW,1500,BKN,9000,BKN,21000,,,VFR,,,,,,,,,,,,METAR,64.0
CYWY 271400Z 30005KT 15SM FEW290 06/M01 A3029 RMK CI1 19.6/2.7/0/0 SLP262,CYWY,2015-05-27T14:00:00Z,63.22,-123.42,6.0,-1.0,300,5,,15.0,30.28937,1026.2,,,,,,,,,,FEW,29000,,,,,,,VFR,,,,,,,,,,,,METAR,150.0
CYWJ 271400Z 09012G18KT 40SM SKC 01/M06 A3038 RMK SLP302,CYWJ,2015-05-27T14:00:00Z,65.22,-123.43,1.0,-6.0,90,12,18,40.0,30.380905,1030.2,,,,,,,,,,SKC,,,,,,,,VFR,,,,,,,,,,,,METAR,176.0
CYWE 271400Z AUTO 06008KT 9SM OVC023 M03/M09 A3032 RMK SLP294,CYWE,2015-05-27T14:00:00Z,64.18,-114.08,-3.0,-9.0,60,8,,9.0,30.318897,1029.4,,TRUE,,,,,,,,OVC,2300,,,,,,,MVFR,,,,,,,,,,,,METAR,371.0
CYVM 271400Z 01010KT 1 1/4SM -SN OVC023 M01/M03 A2995 RMK SN6SC2 SLP141,CYVM,2015-05-27T14:00:00Z,67.53,-64.02,-1.0,-3.0,10,10,,1.25,29.949802,1014.1,,,,,,,,,-SN,OVC,2300,,,,,,,IFR,,,,,,,,,,,,METAR,6.0
CYUT 271400Z 34012G19KT 25SM FEW025 SCT220 M06/M10 A3006 RMK SC1CS2 SLP183,CYUT,2015-05-27T14:00:00Z,66.52,-86.25,-6.0,-10.0,340,12,19,25.0,30.059055,1018.3,,,,,,,,,,FEW,2500,SCT,22000,,,,,VFR,,,,,,,,,,,,METAR,24.0
CYTE 271400Z 31002KT 15SM -SN OVC025 M06/M09 A2992 RMK SC8 SLP138,CYTE,2015-05-27T14:00:00Z,64.22,-76.52,-6.0,-9.0,310,2,,15.0,29.920275,1013.8,,,,,,,,,-SN,OVC,2500,,,,,,,MVFR,,,,,,,,,,,,METAR,47.0
CYSY 271400Z 02010KT 10SM BKN010 M01/M04 A3053 RMK SC7 SLP348,CYSY,2015-05-27T14:00:00Z,72.0,-125.27,-1.0,-4.0,20,10,,10.0,30.528543,1034.8,,,,,,,,,,BKN,1000,,,,,,,MVFR,,,,,,,,,,,,METAR,86.0
CYRT 271400Z 01010KT 15SM SCT015 OVC040 M04/M09 A3012 RMK SC4SC4 SLP202,CYRT,2015-05-27T14:00:00Z,62.82,-92.12,-4.0,-9.0,10,10,,15.0,30.121063,1020.2,,,,,,,,,,SCT,1500,OVC,4000,,,,,VFR,,,,,,,,,,,,METAR,32.0
CYRA 271400Z 03010KT 15SM BKN030 00/M07 A3037 RMK SC6 10.3/-0.3/0/NIL SLP297,CYRA,2015-05-27T14:00:00Z,64.12,-117.32,0.0,-7.0,30,10,,15.0,30.369095,,,,,,,,,,,BKN,3000,,,,,,,MVFR,,,,,,,,,,,,METAR,213.0
CYOA 271400Z 03012KT 15SM -SN BKN015 M05/M08 A3029 RMK SC7 SLP295,CYOA,2015-05-27T14:00:00Z,64.7,-110.62,-5.0,-8.0,30,12,,15.0,30.28937,1029.5,,,,,,,,,-SN,BKN,1500,,,,,,,MVFR,,,,,,,,,,,,METAR,469.0
CYLC 271400Z VRB03KT 15SM FEW015 BKN050 OVC100 M03/M08 A2992 RMK SC2SC5AC1 SLP135,CYLC,2015-05-27T14:00:00Z,62.85,-69.87,-3.0,-8.0,0,3,,15.0,29.920275,1013.5,,,,,,,,,,FEW,1500,BKN,5000,OVC,10000,,,VFR,,,,,,,,,,,,METAR,53.0
CYKD 271400Z 12003KT 090V160 15SM SKC 09/02 A3033 RMK SLP271,CYKD,2015-05-27T14:00:00Z,68.22,-135.0,9.0,2.0,120,3,,15.0,30.33071,1027.1,,,,,,,,,,SKC,,,,,,,,VFR,,,,,,,,,,,,METAR,7.0
CYJF 271400Z 05009KT 7SM -RA FEW040 BKN080 OVC120 09/07 A3014 RMK SC2AC4AS2 23.9/9.3/6.4/0 SLP210,CYJF,2015-05-27T14:00:00Z,60.22,-123.47,9.0,7.0,50,9,,7.0,30.138779,1021.0,,,,,,,,,-RA,FEW,4000,BKN,8000,OVC,12000,,,VFR,,,,,,,,,,,,METAR,215.0
CYHY 271400Z 06011G17KT 360V080 15SM FEW030 SCT070 BKN110 BKN230 02/M02 A3017 RMK SC1AC2AS2CS2 SLP226,CYHY,2015-05-27T14:00:00Z,60.82,-115.77,2.0,-2.0,60,11,17,15.0,30.171259,1022.6,,,,,,,,,,FEW,3000,SCT,7000,BKN,11000,BKN,23000,VFR,,,,,,,,,,,,METAR,166.0
CYHK 271400Z 33014KT 15SM BKN028 M06/M07 A3016 RMK SC7 SLP217,CYHK,2015-05-27T14:00:00Z,68.62,-95.83,-6.0,-7.0,330,14,,15.0,30.159449,1021.7,,,,,,,,,,BKN,2800,,,,,,,MVFR,,,,,,,,,,,,METAR,46.0
UNEE 271400Z 28002MPS 9999 SCT030CB 12/09 Q1014 R23/CLRD60 NOSIG RMK QFE738,UNEE,2015-05-27T14:00:00Z,55.27,86.08,12.0,9.0,280,4,,6.21,29.940945,,,,,,TRUE,,,,,SCT,3000,,,,,,,VFR,,,,,,,,,,,,SPECI,260.0
UNBB 271400Z 25003MPS 9999 SCT040CB 15/07 Q1016 R24/CLRD66 NOSIG RMK QFE740,UNBB,2015-05-27T14:00:00Z,53.37,83.53,15.0,7.0,250,6,,6.21,30.0,,,,,,TRUE,,,,,SCT,4000,,,,,,,VFR,,,,,,,,,,,,SPECI,255.0
UNAA 271400Z 23004MPS CAVOK 13/08 Q1016 R20/090065 NOSIG RMK QFE739,UNAA,2015-05-27T14:00:00Z,53.75,91.4,13.0,8.0,230,8,,6.21,30.0,,,,,,TRUE,,,,,CAVOK,,,,,,,,VFR,,,,,,,,,,,,SPECI,245.0
USSS 271400Z 32003MPS CAVOK 23/09 Q1015 R26R/010060 R26L/010070 NOSIG RMK QFE741,USSS,2015-05-27T14:00:00Z,56.75,60.82,23.0,9.0,320,6,,6.21,29.970472,,,,,,TRUE,,,,,CAVOK,,,,,,,,VFR,,,,,,,,,,,,SPECI,233.0
USRR 271400Z 17002MPS 150V210 7000 SCT022CB BKN080 11/08 Q1009 R25/250160 TEMPO TSRA RMK QFE751,USRR,2015-05-27T14:00:00Z,61.33,73.42,11.0,8.0,170,4,,4.35,29.793306,,,,,,,,,,,SCT,2200,BKN,8000,,,,,MVFR,,,,,,,,,,,,SPECI,44.0
CWQP 271400Z AUTO 22013KT 12/11 RMK AO1 PK WND 23019/1323 SLP161 T01180108 53008,CWQP,2015-05-27T14:00:00Z,43.83,-77.15,11.8,10.8,220,13,,,,1016.1,,TRUE,TRUE,,,,,,,,,,,,,,,,0.8,,,,,,,,,,,METAR,79.0
CWQO 271400Z AUTO 02006KT 09/08 RMK AO1 T00870082,CWQO,2015-05-27T14:00:00Z,48.42,-68.9,8.7,8.2,20,6,,,,,,TRUE,TRUE,,,,,,,,,,,,,,,,,,,,,,,,,,,METAR,1.0
CWQK 271400Z AUTO 26020KT 10/ RMK AO1 PK WND 26026/1300 SLP177 T0097 53007,CWQK,2015-05-27T14:00:00Z,48.3,-123.53,9.7,,260,20,,,,1017.7,,TRUE,TRUE,,,,,,,,,,,,,,,,0.7,,,,,,,,,,,METAR,5.0
CWQH 271400Z AUTO 23008KT 25/21 RMK AO1 T02530208 50012,CWQH,2015-05-27T14:00:00Z,45.37,-71.82,25.3,20.8,230,8,,,,,,TRUE,TRUE,,,,,,,,,,,,,,,,1.2,,,,,,,,,,,METAR,181.0
CXKE 271400Z AUTO 23009G15KT 22/18 RMK AO1 PK WND 20018/1333 SLP144 T02230179 52005,CXKE,2015-05-27T14:00:00Z,45.0,-75.63,22.3,17.9,230,9,15,,,1014.4,,TRUE,TRUE,,,,,,,,,,,,,,,,0.5,,,,,,,,,,,METAR,99.0
CXKA 271400Z AUTO 33004KT 17/ RMK AO1 SOG 12 1003 SLP030 T0167 50002,CXKA,2015-05-27T14:00:00Z,49.4,-82.45,16.7,,330,4,,,,1003.0,,TRUE,TRUE,,,,,,,,,,,,,,,,0.2,,,,,,,,,,,METAR,218.0
CXHM 271400Z AUTO 23008G17KT 24/17 RMK AO1 PK WND 20017/1353 SLP141 T02380169 51009,CXHM,2015-05-27T14:00:00Z,43.28,-79.9,23.8,16.9,230,8,17,,,1014.1,,TRUE,TRUE,,,,,,,,,,,,,,,,0.9,,,,,,,,,,,METAR,107.0
CWZS 271400Z AUTO 15004KT 16/13 RMK AO1 SLP166 T01620127 58012,CWZS,2015-05-27T14:00:00Z,48.47,-67.43,16.2,12.7,150,4,,,,1016.6,,TRUE,TRUE,,,,,,,,,,,,,,,,-1.2,,,,,,,,,,,METAR,166.0
CWZO 271400Z AUTO 00000KT RMK AO1,CWZO,2015-05-27T14:00:00Z,48.55,-123.23,,,0,0,,,,,,TRUE,TRUE,,,,,,,,,,,,,,,,,,,,,,,,,,,METAR,1.0
CWZA 271400Z AUTO 00000KT 15/14 RMK AO1 SLP178 T01510140 52006,CWZA,2015-05-27T14:00:00Z,49.25,-121.77,15.1,14.0,0,0,,,,1017.8,,TRUE,TRUE,,,,,,,,,,,,,,,,0.6,,,,,,,,,,,METAR,15.0
CWYY 271400Z AUTO 32001KT 14/12 RMK AO1 SLP167 T01350116 51005,CWYY,2015-05-27T14:00:00Z,49.03,-119.43,13.5,11.6,320,1,,,,1016.7,,TRUE,TRUE,,,,,,,,,,,,,,,,0.5,,,,,,,,,,,METAR,283.0
CWYJ 271400Z AUTO 00000KT 10/10 RMK AO1 SLP179 T01020099 53009,CWYJ,2015-05-27T14:00:00Z,48.45,-123.3,10.2,9.9,0,0,,,,1017.9,,TRUE,TRUE,,,,,,,,,,,,,,,,0.9,,,,,,,,,,,METAR,39.0
CXZU 271400Z AUTO 11/07 RMK AO1 SLP152 T01110074 58003,CXZU,2015-05-27T14:00:00Z,54.15,-115.78,11.1,7.4,,,,,,1015.2,,TRUE,TRUE,,,,,,,,,,,,,,,,-0.3,,,,,,,,,,,METAR,785.0
CXWN 271400Z AUTO 36007KT 11/06 RMK AO1 SLP153 T01120059 51021,CXWN,2015-05-27T14:00:00Z,49.88,-97.13,11.2,5.9,360,7,,,,1015.3,,TRUE,TRUE,,,,,,,,,,,,,,,,2.1,,,,,,,,,,,METAR,230.0
CXSH 271400Z AUTO 20006KT 23/19 RMK AO1 8014 SLP134 T02340191 50002,CXSH,2015-05-27T14:00:00Z,46.58,-72.73,23.4,19.1,200,6,,,,1013.4,,TRUE,TRUE,,,,,,,,,,,,,,,,0.2,,,,,,,,,,,METAR,110.0
CXOX 271400Z AUTO 15005KT 08/04 RMK AO1 SLP200 T00840039 51007,CXOX,2015-05-27T14:00:00Z,55.15,-105.27,8.4,3.9,150,5,,,,1020.0,,TRUE,TRUE,,,,,,,,,,,,,,,,0.7,,,,,,,,,,,METAR,379.0
CXNM 271400Z AUTO 27014G20KT 19/14 RMK AO1 PK WND 25020/1337 T01890141,CXNM,2015-05-27T14:00:00Z,46.82,-60.67,18.9,14.1,270,14,20,,,,,TRUE,TRUE,,,,,,,,,,,,,,,,,,,,,,,,,,,METAR,439.0
CXMI 271400Z AUTO 22006KT 14/ RMK AO1 SLP223 T0138 50005,CXMI,2015-05-27T14:00:00Z,44.6,-63.53,13.8,,220,6,,,,1022.3,,TRUE,TRUE,,,,,,,,,,,,,,,,0.5,,,,,,,,,,,METAR,15.0
CXMD 271400Z AUTO 36008G15KT 11/06 RMK AO1 SOG 02 1019 SLP156 T01140063,CXMD,2015-05-27T14:00:00Z,49.22,-98.08,11.4,6.3,360,8,15,,,1015.6,,TRUE,TRUE,,,,,,,,,,,,,,,,,,,,,,,,,,,METAR,301.0
CXIB 271400Z AUTO 22004KT 26/14 RMK AO1 SLP180 T02610142 50006,CXIB,2015-05-27T14:00:00Z,46.67,-60.38,26.1,14.2,220,4,,,,1018.0,,TRUE,TRUE,,,,,,,,,,,,,,,,0.6,,,,,,,,,,,METAR,8.0
CXGH 271400Z AUTO 33018KT 08/05 RMK AO1 PK WND 33023/1309 T00830049,CXGH,2015-05-27T14:00:00Z,50.63,-97.0,8.3,4.9,330,18,,,,,,TRUE,TRUE,,,,,,,,,,,,,,,,,,,,,,,,,,,METAR,217.0
CXEC 271400Z AUTO 21006KT 15/09 RMK AO1 SLP155 T01470089 50002,CXEC,2015-05-27T14:00:00Z,53.57,-113.52,14.7,8.9,210,6,,,,1015.5,,TRUE,TRUE,,,,,,,,,,,,,,,,0.2,,,,,,,,,,,METAR,671.0
CXEA 271400Z AUTO 03008KT 10/05 RMK AO1 SLP137 T01010051 52025,CXEA,2015-05-27T14:00:00Z,50.63,-93.22,10.1,5.1,30,8,,,,1013.7,,TRUE,TRUE,,,,,,,,,,,,,,,,2.5,,,,,,,,,,,METAR,355.0
CXDW 271400Z AUTO 01014KT 11/06 RMK AO1 PK WND 00018/1337 T01060060,CXDW,2015-05-27T14:00:00Z,49.4,-98.32,10.6,6.0,10,14,,,,,,TRUE,TRUE,,,,,,,,,,,,,,,,,,,,,,,,,,,METAR,341.0
CWSD 271400Z AUTO 23010KT 20/15 RMK AO1 SLP192 T01980151 53004,CWSD,2015-05-27T14:00:00Z,46.42,-63.85,19.8,15.1,230,10,,,,1019.2,,TRUE,TRUE,,,,,,,,,,,,,,,,0.4,,,,,,,,,,,METAR,24.0
CWRZ 271400Z AUTO 25008KT 07/ RMK AO1 SLP178 T0072 51012,CWRZ,2015-05-27T14:00:00Z,48.42,-64.32,7.2,,250,8,,,,1017.8,,TRUE,TRUE,,,,,,,,,,,,,,,,1.2,,,,,,,,,,,METAR,16.0
CWRY 271400Z AUTO 30008KT 11/10 RMK AO1 SLP164 T01050097 53004,CWRY,2015-05-27T14:00:00Z,49.12,-112.03,10.5,9.7,300,8,,,,1016.4,,TRUE,TRUE,,,,,,,,,,,,,,,,0.4,,,,,,,,,,,METAR,1050.0
CWRT 271400Z AUTO 32003KT 09/08 RMK AO1 T00920081,CWRT,2015-05-27T14:00:00Z,49.62,-114.47,9.2,8.1,320,3,,,,,,TRUE,TRUE,,,,,,,,,,,,,,,,,,,,,,,,,,,METAR,1303.0
CWRK 271400Z AUTO 22005KT 21/17 RMK AO1 SLP135 T02120171 51004,CWRK,2015-05-27T14:00:00Z,45.07,-77.87,21.2,17.1,220,5,,,,1013.5,,TRUE,TRUE,,,,,,,,,,,,,,,,0.4,,,,,,,,,,,METAR,331.0
CWRJ 271400Z AUTO 08012KT 13/07 RMK AO1 SLP161 T01270066 51005,CWRJ,2015-05-27T14:00:00Z,51.57,-107.92,12.7,6.6,80,12,,,,1016.1,,TRUE,TRUE,,,,,,,,,,,,,,,,0.5,,,,,,,,,,,METAR,586.0
CWQV 271400Z AUTO 08016KT 16/12 RMK AO1 PK WND 08019/1343 T01590116,CWQV,2015-05-27T14:00:00Z,48.27,-70.12,15.9,11.6,80,16,,,,,,TRUE,TRUE,,,,,,,,,,,,,,,,,,,,,,,,,,,METAR,1.0
CWQR 271400Z AUTO 25004KT 08/ RMK AO1 T0078,CWQR,2015-05-27T14:00:00Z,50.22,-64.22,7.8,,250,4,,,,,,TRUE,TRUE,,,,,,,,,,,,,,,,,,,,,,,,,,,METAR,9.0
CWSK 271400Z AUTO 00000KT 15/13 RMK AO1 SOG 06 3008 SLP176 T01480132,CWSK,2015-05-27T14:00:00Z,49.78,-123.17,14.8,13.2,0,0,,,,1017.6,,TRUE,TRUE,,,,,,,,,,,,,,,,,,,,,,,,,,,METAR,60.0
CWSG 271400Z AUTO 03003KT 11/10 RMK AO1 SLP175 T01090098 53001,CWSG,2015-05-27T14:00:00Z,49.12,-66.65,10.9,9.8,30,3,,,,1017.5,,TRUE,TRUE,,,,,,,,,,,,,,,,0.1,,,,,,,,,,,METAR,5.0
CWSL 271400Z AUTO 35001KT 14/12 RMK AO1 SLP169 T01390119 51009,CWSL,2015-05-27T14:00:00Z,50.7,-119.27,13.9,11.9,350,1,,,,1016.9,,TRUE,TRUE,,,,,,,,,,,,,,,,0.9,,,,,,,,,,,METAR,351.0
CWST 271400Z AUTO 28001KT 13/13 RMK AO1 3PAST HR 6011 SLP156 P0001 T01320129 50003,CWST,2015-05-27T14:00:00Z,47.35,-70.02,13.2,12.9,280,1,,,,1015.6,,TRUE,TRUE,,,,,,,,,,,,,,,,0.3,,,,,0.01,,,,,,METAR,31.0
CWSP 271400Z AUTO 29013KT 09/09 RMK AO1 PK WND 29017/1349 SLP184 T00850085 52008,CWSP,2015-05-27T14:00:00Z,48.38,-123.92,8.5,8.5,290,13,,,,1018.4,,TRUE,TRUE,,,,,,,,,,,,,,,,0.8,,,,,,,,,,,METAR,21.0
CWBU 271400Z AUTO 12006KT 10/03 RMK AO1 SLP201 T00970033 51005,CWBU,2015-05-27T14:00:00Z,53.33,-104.02,9.7,3.3,120,6,,,,1020.1,,TRUE,TRUE,,,,,,,,,,,,,,,,0.5,,,,,,,,,,,SPECI,373.0
CWIK 271400Z AUTO 09008KT 09/06 RMK AO1 SLP173 T00870063 52015,CWIK,2015-05-27T14:00:00Z,50.37,-102.58,8.7,6.3,90,8,,,,1017.3,,TRUE,TRUE,,,,,,,,,,,,,,,,1.5,,,,,,,,,,,SPECI,602.0
VTBS 271400Z 18012KT 9999 FEW020 SCT300 31/24 Q1008 NOSIG,VTBS,2015-05-27T14:00:00Z,13.68,100.75,31.0,24.0,180,12,,6.21,29.763779,,,,,,TRUE,,,,,FEW,2000,SCT,30000,,,,,VFR,,,,,,,,,,,,METAR,2.0
CWAQ 271400Z AUTO 11001KT 18/09 RMK AO1 SLP125 T01760086 53006,CWAQ,2015-05-27T14:00:00Z,49.05,-105.48,17.6,8.6,110,1,,,,1012.5,,TRUE,TRUE,,,,,,,,,,,,,,,,0.6,,,,,,,,,,,METAR,756.0
CWAF 271400Z AUTO 10/ RMK AO1 T0097,CWAF,2015-05-27T14:00:00Z,48.07,-69.53,9.7,,,,,,,,,TRUE,TRUE,,,,,,,,,,,,,,,,,,,,,,,,,,,METAR,5.0
VDSR 271400Z VRB03KT 9000 SCT017 29/27 Q1007,VDSR,2015-05-27T14:00:00Z,13.42,103.83,29.0,27.0,0,3,,5.59,29.734253,,,,,,,,,,,SCT,1700,,,,,,,VFR,,,,,,,,,,,,METAR,15.0
VDPP 271400Z 02002KT 9000 NSC 29/24 Q1007,VDPP,2015-05-27T14:00:00Z,11.55,104.83,29.0,24.0,20,2,,5.59,29.734253,,,,,,,,,,,,,,,,,,,,,,,,,,,,,,,METAR,10.0
VYYY 271400Z 21004KT 7000 BKN018 FEW022CB BKN100 28/25 Q1008,VYYY,2015-05-27T14:00:00Z,16.9,96.13,28.0,25.0,210,4,,4.35,29.763779,,,,,,,,,,,BKN,1800,FEW,2200,BKN,10000,,,MVFR,,,,,,,,,,,,METAR,33.0
VTSS 271400Z 00000KT 7000 FEW020 SCT028 BKN120 24/24 Q1010 A2985 NOSIG,VTSS,2015-05-27T14:00:00Z,6.92,100.38,24.0,24.0,0,0,,4.35,29.822834,,,,,,TRUE,,,,,FEW,2000,SCT,2800,BKN,12000,,,MVFR,,,,,,,,,,,,METAR,35.0
VTBU 271400Z 20010KT 9000 FEW020 BKN300 30/23 Q1008 A2978,VTBU,2015-05-27T14:00:00Z,12.68,101.0,30.0,23.0,200,10,,5.59,29.763779,,,,,,,,,,,FEW,2000,BKN,30000,,,,,VFR,,,,,,,,,,,,METAR,5.0
VTBD 271400Z 19007KT 160V230 9999 FEW020 BKN300 31/25 Q1007 NOSIG,VTBD,2015-05-27T14:00:00Z,13.92,100.6,31.0,25.0,190,7,,6.21,29.734253,,,,,,TRUE,,,,,FEW,2000,BKN,30000,,,,,VFR,,,,,,,,,,,,METAR,3.0
CWAV 271400Z AUTO 00000KT 10/06 RMK AO1 SLP174 T00950058 58004,CWAV,2015-05-27T14:00:00Z,51.77,-114.67,9.5,5.8,0,0,,,,1017.4,,TRUE,TRUE,,,,,,,,,,,,,,,,-0.4,,,,,,,,,,,METAR,1114.0
CWBT 271400Z AUTO 23004KT 11/09 RMK AO1 SLP185 T01060092 51013,CWBT,2015-05-27T14:00:00Z,50.27,-64.23,10.6,9.2,230,4,,,,1018.5,,TRUE,TRUE,,,,,,,,,,,,,,,,1.3,,,,,,,,,,,METAR,11.0
CWBS 271400Z AUTO 20010KT 22/19 RMK AO1 T02210193,CWBS,2015-05-27T14:00:00Z,46.18,-72.92,22.1,19.3,200,10,,,,,,TRUE,TRUE,,,,,,,,,,,,,,,,,,,,,,,,,,,METAR,16.0
CWCF 271400Z AUTO 04009KT 07/01 RMK AO1 SLP186 T00720005 51018,CWCF,2015-05-27T14:00:00Z,52.35,-97.03,7.2,0.5,40,9,,,,1018.6,,TRUE,TRUE,,,,,,,,,,,,,,,,1.8,,,,,,,,,,,METAR,222.0
CWBZ 271400Z AUTO 23012G19KT 27/20 RMK AO1 PK WND 23022/1340 SLP140 T02740198 58002,CWBZ,2015-05-27T14:00:00Z,45.12,-74.27,27.4,19.8,230,12,19,,,1014.0,,TRUE,TRUE,,,,,,,,,,,,,,,,-0.2,,,,,,,,,,,METAR,49.0
SLCA 271400Z 00000KT 9999 BKN013 OVC070 17/16 Q1023,SLCA,2015-05-27T14:00:00Z,-20.0,-63.53,17.0,16.0,0,0,,6.21,30.206694,,,,,,,,,,,BKN,1300,OVC,7000,,,,,MVFR,,,,,,,,,,,,METAR,798.0
SLMG 271400Z 12004KT 9999 FEW015 SCT080 29/25 Q1015,SLMG,2015-05-27T14:00:00Z,-13.27,-64.07,29.0,25.0,120,4,,6.21,29.970472,,,,,,,,,,,FEW,1500,SCT,8000,,,,,VFR,,,,,,,,,,,,METAR,141.0
SLJO 271400Z 00000KT 9999 FEW017 28/25 Q1014,SLJO,2015-05-27T14:00:00Z,-13.07,-64.67,28.0,25.0,0,0,,6.21,29.940945,,,,,,,,,,,FEW,1700,,,,,,,VFR,,,,,,,,,,,,METAR,140.0
SLJE 271400Z 18006KT 9999 OVC010 23/19 Q1020,SLJE,2015-05-27T14:00:00Z,-17.82,-60.75,23.0,19.0,180,6,,6.21,30.11811,,,,,,,,,,,OVC,1000,,,,,,,MVFR,,,,,,,,,,,,METAR,284.0
SLCP 271400Z 18004KT 9999 FEW012 BKN070 24/23 Q1019,SLCP,2015-05-27T14:00:00Z,-16.15,-62.02,24.0,23.0,180,4,,6.21,30.088583,,,,,,,,,,,FEW,1200,BKN,7000,,,,,VFR,,,,,,,,,,,,METAR,497.0
SLRI 271400Z 00000KT 9999 FEW012 FEW020CB BKN080 27/24 Q1015,SLRI,2015-05-27T14:00:00Z,-11.02,-66.08,27.0,24.0,0,0,,6.21,29.970472,,,,,,,,,,,FEW,1200,FEW,2000,BKN,8000,,,VFR,,,,,,,,,,,,METAR,135.0
SLRB 271400Z 18004KT 9999 OVC015 21/20 Q1021,SLRB,2015-05-27T14:00:00Z,-18.32,-59.75,21.0,20.0,180,4,,6.21,30.147638,,,,,,,,,,,OVC,1500,,,,,,,MVFR,,,,,,,,,,,,METAR,284.0
SLPO 271400Z 24005KT 9999 NSC 07/M02 Q1039,SLPO,2015-05-27T14:00:00Z,-19.52,-65.72,7.0,-2.0,240,5,,6.21,30.679134,,,,,,,,,,,,,,,,,,,,,,,,,,,,,,,METAR,3934.0
SLOR 271400Z 00000KT 0100 FG VV/// M00/M00 Q1037,SLOR,2015-05-27T14:00:00Z,-17.97,-67.08,0.0,0.0,0,0,,0.06,30.620079,,,,,,,,,,FG,OVX,0,,,,,,,LIFR,,,,,,,,,,,,METAR,3702.0
SLRY 271400Z 00000KT 9999 FEW017 BKN070 26/24 Q1015,SLRY,2015-05-27T14:00:00Z,-14.3,-67.37,26.0,24.0,0,0,,6.21,29.970472,,,,,,,,,,,FEW,1700,BKN,7000,,,,,VFR,,,,,,,,,,,,METAR,280.0
SLRQ 271400Z 00000KT 9999 SCT016 FEW017CB BKN070 25/25 Q1014,SLRQ,2015-05-27T14:00:00Z,-14.42,-67.5,25.0,25.0,0,0,,6.21,29.940945,,,,,,,,,,,SCT,1600,FEW,1700,BKN,7000,,,VFR,,,,,,,,,,,,METAR,203.0
SLYA 271400Z 18008KT 2000 -DZ BKN005 OVC070 17/17 Q1023,SLYA,2015-05-27T14:00:00Z,-21.97,-63.65,17.0,17.0,180,8,,1.24,30.206694,,,,,,,,,,-DZ,BKN,500,OVC,7000,,,,,IFR,,,,,,,,,,,,METAR,645.0
SLVM 271400Z 00000KT 9999 BKN013 20/16 Q1021,SLVM,2015-05-27T14:00:00Z,-21.25,-63.4,20.0,16.0,0,0,,6.21,30.147638,,,,,,,,,,,BKN,1300,,,,,,,MVFR,,,,,,,,,,,,METAR,400.0
SLSI 271400Z 18006KT 9999 SCT017 BKN070 25/23 Q1017,SLSI,2015-05-27T14:00:00Z,-16.37,-60.95,25.0,23.0,180,6,,6.21,30.029528,,,,,,,,,,,SCT,1700,BKN,7000,,,,,VFR,,,,,,,,,,,,METAR,413.0
SLSA 271400Z 00000KT 9999 FEW017 SCT080 29/24 Q1014,SLSA,2015-05-27T14:00:00Z,-13.77,-65.43,29.0,24.0,0,0,,6.21,29.940945,,,,,,,,,,,FEW,1700,SCT,8000,,,,,VFR,,,,,,,,,,,,METAR,144.0
SBBI 271400Z 32004KT 9999 BKN012 20/18 Q1018,SBBI,2015-05-27T14:00:00Z,-25.4,-49.23,20.0,18.0,320,4,,6.21,30.059055,,,,,,,,,,,BKN,1200,,,,,,,MVFR,,,,,,,,,,,,METAR,923.0
SBBH 271400Z 36005KT 9999 FEW030 25/14 Q1020,SBBH,2015-05-27T14:00:00Z,-19.85,-43.95,25.0,14.0,360,5,,6.21,30.11811,,,,,,,,,,,FEW,3000,,,,,,,VFR,,,,,,,,,,,,METAR,785.0
SBGU 271400Z 00000KT 5000 -TSRA BKN003 OVC015 FEW030CB 17/17 Q1017,SBGU,2015-05-27T14:00:00Z,-25.38,-51.52,17.0,17.0,0,0,,3.11,30.029528,,,,,,,,,,-TSRA,BKN,300,OVC,1500,FEW,3000,,,LIFR,,,,,,,,,,,,METAR,1065.0
SBFS 271400Z /////KT 9999 SCT017 ///// Q////,SBFS,2015-05-27T14:00:00Z,-22.02,-41.07,,,,,,6.21,,,,,,,,,,,,SCT,1700,,,,,,,VFR,,,,,,,,,,,,METAR,3.0
SBES 271400Z 06013KT 9999 FEW011 25/20 Q1016,SBES,2015-05-27T14:00:00Z,-22.82,-42.1,25.0,20.0,60,13,,6.21,30.0,,,,,,,,,,,FEW,1100,,,,,,,VFR,,,,,,,,,,,,METAR,11.0
SBDN 271400Z 02010KT CAVOK 26/19 Q1016,SBDN,2015-05-27T14:00:00Z,-22.18,-51.43,26.0,19.0,20,10,,6.21,30.0,,,,,,,,,,,CAVOK,,,,,,,,VFR,,,,,,,,,,,,METAR,435.0
SBCO 271400Z 13019KT 2500 RA BR SCT003 BKN006 OVC015 17/17 Q1013,SBCO,2015-05-27T14:00:00Z,-29.95,-51.15,17.0,17.0,130,19,,1.55,29.911417,,,,,,,,,,RA BR,SCT,300,BKN,600,OVC,1500,,,IFR,,,,,,,,,,,,METAR,47.0
SBBU 271400Z 36009KT CAVOK 27/19 Q1017,SBBU,2015-05-27T14:00:00Z,-22.32,-49.07,27.0,19.0,360,9,,6.21,30.029528,,,,,,,,,,,CAVOK,,,,,,,,VFR,,,,,,,,,,,,METAR,590.0
SBBQ 271400Z 03006KT 9999 BKN015 21/14 Q1023,SBBQ,2015-05-27T14:00:00Z,-21.25,-43.77,21.0,14.0,30,6,,6.21,30.206694,,,,,,,,,,,BKN,1500,,,,,,,MVFR,,,,,,,,,,,,METAR,1171.0
SBGW 271400Z 07006KT 040V120 CAVOK 25/17 Q1017,SBGW,2015-05-27T14:00:00Z,-22.77,-45.2,25.0,17.0,70,6,,6.21,30.029528,,,,,,,,,,,CAVOK,,,,,,,,VFR,,,,,,,,,,,,METAR,533.0
SBIP 271400Z 09003KT 9999 SCT020 BKN030 23/18 Q1019,SBIP,2015-05-27T14:00:00Z,-19.47,-42.48,23.0,18.0,90,3,,6.21,30.088583,,,,,,,,,,,SCT,2000,BKN,3000,,,,,MVFR,,,,,,,,,,,,METAR,239.0
SBJF 271400Z 01012KT 9999 BKN015 21/17 Q1021,SBJF,2015-05-27T14:00:00Z,-21.77,-43.38,21.0,17.0,10,12,,6.21,30.147638,,,,,,,,,,,BKN,1500,,,,,,,MVFR,,,,,,,,,,,,METAR,939.0
SBLS 271400Z 04006KT 9999 SCT030 25/14 Q1021,SBLS,2015-05-27T14:00:00Z,-19.67,-43.88,25.0,14.0,40,6,,6.21,30.147638,,,,,,,,,,,SCT,3000,,,,,,,VFR,,,,,,,,,,,,METAR,852.0
SBJR 271400Z 18003KT 5000 HZ NSC 29/23 Q1015,SBJR,2015-05-27T14:00:00Z,-22.97,-43.37,29.0,23.0,180,3,,3.11,29.970472,,,,,,,,,,HZ,,,,,,,,,,,,,,,,,,,,,SPECI,3.0
SBME 271400Z 06011KT CAVOK 30/20 Q1016,SBME,2015-05-27T14:00:00Z,-22.35,-41.77,30.0,20.0,60,11,,6.21,30.0,,,,,,,,,,,CAVOK,,,,,,,,VFR,,,,,,,,,,,,METAR,2.0
SBPR 271400Z 05006KT 9999 SCT025 25/15 Q1021,SBPR,2015-05-27T14:00:00Z,-19.9,-43.98,25.0,15.0,50,6,,6.21,30.147638,,,,,,,,,,,SCT,2500,,,,,,,VFR,,,,,,,,,,,,METAR,927.0
SBPC 271400Z 09002KT CAVOK 24/16 Q1022,SBPC,2015-05-27T14:00:00Z,-21.85,-46.57,24.0,16.0,90,2,,6.21,30.177166,,,,,,,,,,,CAVOK,,,,,,,,VFR,,,,,,,,,,,,METAR,1260.0
SBMT 271400Z 32004KT CAVOK 24/16 Q1018,SBMT,2015-05-27T14:00:00Z,-23.52,-46.62,24.0,16.0,320,4,,6.21,30.059055,,,,,,,,,,,CAVOK,,,,,,,,VFR,,,,,,,,,,,,METAR,722.0
SBMK 271400Z 09006KT 9999 FEW030 28/15 Q1019,SBMK,2015-05-27T14:00:00Z,-16.7,-43.82,28.0,15.0,90,6,,6.21,30.088583,,,,,,,,,,,FEW,3000,,,,,,,VFR,,,,,,,,,,,,METAR,646.0
SBSC 271400Z 01014KT CAVOK 28/16 Q1015,SBSC,2015-05-27T14:00:00Z,-22.92,-43.72,28.0,16.0,10,14,,6.21,29.970472,,,,,,,,,,,CAVOK,,,,,,,,VFR,,,,,,,,,,,,METAR,3.0
SBSR 271400Z 03009KT CAVOK 26/14 Q1019,SBSR,2015-05-27T14:00:00Z,-20.8,-49.4,26.0,14.0,30,9,,6.21,30.088583,,,,,,,,,,,CAVOK,,,,,,,,VFR,,,,,,,,,,,,METAR,543.0
SBJU 271400Z 13006KT 9999 SCT020 32/21 Q1017,SBJU,2015-05-27T14:00:00Z,-7.22,-39.27,32.0,21.0,130,6,,6.21,30.029528,,,,,,,,,,,SCT,2000,,,,,,,VFR,,,,,,,,,,,,METAR,409.0
SBIL 271400Z 32002KT 9999 SCT030 29/24 Q1018,SBIL,2015-05-27T14:00:00Z,-14.8,-39.02,29.0,24.0,320,2,,6.21,30.059055,,,,,,,,,,,SCT,3000,,,,,,,VFR,,,,,,,,,,,,METAR,5.0
SBYS 271400Z 01008KT CAVOK 28/17 Q1018,SBYS,2015-05-27T14:00:00Z,-21.97,-47.32,28.0,17.0,10,8,,6.21,30.059055,,,,,,,,,,,CAVOK,,,,,,,,VFR,,,,,,,,,,,,METAR,598.0
SBUR 271400Z 03009KT CAVOK 26/13 Q1019,SBUR,2015-05-27T14:00:00Z,-19.77,-47.97,26.0,13.0,30,9,,6.21,30.088583,,,,,,,,,,,CAVOK,,,,,,,,VFR,,,,,,,,,,,,METAR,807.0
SBUL 271400Z 02011KT CAVOK 24/14 Q1021,SBUL,2015-05-27T14:00:00Z,-18.87,-48.22,24.0,14.0,20,11,,6.21,30.147638,,,,,,,,,,,CAVOK,,,,,,,,VFR,,,,,,,,,,,,METAR,922.0
SBTA 271400Z 05010KT CAVOK 25/19 Q1017,SBTA,2015-05-27T14:00:00Z,-23.03,-45.5,25.0,19.0,50,10,,6.21,30.029528,,,,,,,,,,,CAVOK,,,,,,,,VFR,,,,,,,,,,,,METAR,586.0
SBST 271400Z 10003KT 9000 SCT040 ///// Q1013,SBST,2015-05-27T14:00:00Z,-23.92,-46.28,,,100,3,,5.59,29.911417,,,,,,,,,,,SCT,4000,,,,,,,VFR,,,,,,,,,,,,SPECI,3.0
SBKG 271400Z 09013KT 9999 BKN025 28/19 Q1017,SBKG,2015-05-27T14:00:00Z,-7.27,-35.87,28.0,19.0,90,13,,6.21,30.029528,,,,,,,,,,,BKN,2500,,,,,,,MVFR,,,,,,,,,,,,METAR,560.0
SBLE 271400Z 11007KT 9999 BKN040 BKN080 27/20 Q1020,SBLE,2015-05-27T14:00:00Z,-12.48,-41.28,27.0,20.0,110,7,,6.21,30.11811,,,,,,,,,,,BKN,4000,BKN,8000,,,,,VFR,,,,,,,,,,,,METAR,511.0
SBLP 271400Z 06012KT 9999 SCT030 31/19 Q1017,SBLP,2015-05-27T14:00:00Z,-13.27,-43.42,31.0,19.0,60,12,,6.21,30.029528,,,,,,,,,,,SCT,3000,,,,,,,VFR,,,,,,,,,,,,METAR,440.0
SBQV 271400Z 09010KT 9999 FEW020 25/15 Q1022,SBQV,2015-05-27T14:00:00Z,-14.87,-40.87,25.0,15.0,90,10,,6.21,30.177166,,,,,,,,,,,FEW,2000,,,,,,,VFR,,,,,,,,,,,,METAR,893.0
SBMS 271400Z 10008KT 9999 FEW030 35/19 Q1013,SBMS,2015-05-27T14:00:00Z,-5.2,-37.37,35.0,19.0,100,8,,6.21,29.911417,,,,,,,,,,,FEW,3000,,,,,,,VFR,,,,,,,,,,,,METAR,18.0
SBTC 271400Z 12004KT 9999 FEW020 30/23 Q1017,SBTC,2015-05-27T14:00:00Z,-15.35,-38.98,30.0,23.0,120,4,,6.21,30.029528,,,,,,,,,,,FEW,2000,,,,,,,VFR,,,,,,,,,,,,METAR,6.0
SBAA 271400Z 08007KT 9999 SCT030 SCT100 36/24 Q1014,SBAA,2015-05-27T14:00:00Z,-8.35,-49.3,36.0,24.0,80,7,,6.21,29.940945,,,,,,,,,,,SCT,3000,SCT,10000,,,,,VFR,,,,,,,,,,,,METAR,199.0
SBUF 271400Z 12009KT 9999 FEW020 32/// Q1016,SBUF,2015-05-27T14:00:00Z,-9.4,-38.25,,,120,9,,6.21,30.0,,,,,,,,,,,FEW,2000,,,,,,,VFR,,,,,,,,,,,,SPECI,252.0
SBAT 271400Z 00000KT CAVOK 34/23 Q1015,SBAT,2015-05-27T14:00:00Z,-9.87,-56.1,34.0,23.0,0,0,,6.21,29.970472,,,,,,,,,,,CAVOK,,,,,,,,VFR,,,,,,,,,,,,METAR,288.0
SBCC 271400Z 10008KT 9999 SCT030 29/20 Q1016,SBCC,2015-05-27T14:00:00Z,-9.32,-54.95,29.0,20.0,100,8,,6.21,30.0,,,,,,,,,,,SCT,3000,,,,,,,VFR,,,,,,,,,,,,METAR,536.0
SBCI 271400Z 33003KT 9999 FEW015 BKN020 BKN080 32/24 Q1015,SBCI,2015-05-27T14:00:00Z,-7.32,-47.47,32.0,24.0,330,3,,6.21,29.970472,,,,,,,,,,,FEW,1500,BKN,2000,BKN,8000,,,MVFR,,,,,,,,,,,,METAR,183.0
DAOY 271400Z /////KT 9999 BKN026TCU 22/05 Q1021,DAOY,2015-05-27T14:00:00Z,33.72,1.08,22.0,5.0,,,,6.21,30.147638,,,,,,,,,,,BKN,2600,,,,,,,MVFR,,,,,,,,,,,,METAR,1347.0
FVHA 271400Z 06005KT 360V160 CAVOK 23/08 Q1023 NOSIG,FVHA,2015-05-27T14:00:00Z,-17.92,31.12,23.0,8.0,60,5,,6.21,30.206694,,,,,,TRUE,,,,,CAVOK,,,,,,,,VFR,,,,,,,,,,,,METAR,1503.0
WBKK 271400Z 11005KT 9999 FEW014 SCT140 BKN270 27/24 Q1011 NOSIG,WBKK,2015-05-27T14:00:00Z,5.92,116.03,27.0,24.0,110,5,,6.21,29.852362,,,,,,TRUE,,,,,FEW,1400,SCT,14000,BKN,27000,,,VFR,,,,,,,,,,,,METAR,3.0
WBGG 271400Z 34002KT 9999 SCT020 BKN150 28/25 Q1011 NOSIG,WBGG,2015-05-27T14:00:00Z,1.47,110.35,28.0,25.0,340,2,,6.21,29.852362,,,,,,TRUE,,,,,SCT,2000,BKN,15000,,,,,VFR,,,,,,,,,,,,METAR,27.0
DAOB 271400Z 33006KT 9999 SCT023 24/09 Q1019,DAOB,2015-05-27T14:00:00Z,35.33,1.47,24.0,9.0,330,6,,6.21,30.088583,,,,,,,,,,,SCT,2300,,,,,,,VFR,,,,,,,,,,,,METAR,989.0
WMKK 271400Z 05003KT 9000 -RA FEW017CB SCT140 BKN260 26/24 Q1010 TEMPO 7000 -RA,WMKK,2015-05-27T14:00:00Z,2.75,101.72,26.0,24.0,50,3,,5.59,29.822834,,,,,,,,,,-RA,FEW,1700,SCT,14000,BKN,26000,,,VFR,,,,,,,,,,,,METAR,22.0
WMKJ 271400Z 00000KT 9999 FEW017CB SCT140 BKN280 26/25 Q1011,WMKJ,2015-05-27T14:00:00Z,1.62,103.67,26.0,25.0,0,0,,6.21,29.852362,,,,,,,,,,,FEW,1700,SCT,14000,BKN,28000,,,VFR,,,,,,,,,,,,METAR,40.0
CWDC 271400Z AUTO 13002KT 08/M02 RMK AO1 SLP174 T00791018 58007,CWDC,2015-05-27T14:00:00Z,59.57,-108.47,7.9,-1.8,130,2,,,,1017.4,,TRUE,TRUE,,,,,,,,,,,,,,,,-0.7,,,,,,,,,,,METAR,318.0
CWLB 271400Z AUTO 16005KT 12/03 RMK AO1 SLP159 T01190031 58005,CWLB,2015-05-27T14:00:00Z,54.77,-112.02,11.9,3.1,160,5,,,,1015.9,,TRUE,TRUE,,,,,,,,,,,,,,,,-0.5,,,,,,,,,,,METAR,567.0
CWCT 271400Z AUTO 15004KT 13/07 RMK AO1 SLP161 T01250073 51003,CWCT,2015-05-27T14:00:00Z,52.07,-111.47,12.5,7.3,150,4,,,,1016.1,,TRUE,TRUE,,,,,,,,,,,,,,,,0.3,,,,,,,,,,,METAR,791.0
SARC 271400Z 17007KT 150V230 5000 DZ BKN004 OVC006 16/15 Q1017,SARC,2015-05-27T14:00:00Z,-27.43,-58.77,16.0,15.0,170,7,,3.11,30.029528,,,,,,,,,,DZ,BKN,400,OVC,600,,,,,LIFR,,,,,,,,,,,,METAR,62.0
WMKN 271400Z 23005KT 9999 FEW017CB BKN300 27/23 Q1011,WMKN,2015-05-27T14:00:00Z,5.37,103.08,27.0,23.0,230,5,,6.21,29.852362,,,,,,,,,,,FEW,1700,BKN,30000,,,,,VFR,,,,,,,,,,,,METAR,6.0
WMKM 271400Z 03005KT 010V070 9999 -RA FEW017CB SCT028 BKN260 26/24 Q1011,WMKM,2015-05-27T14:00:00Z,2.27,102.25,26.0,24.0,30,5,,6.21,29.852362,,,,,,,,,,-RA,FEW,1700,SCT,2800,BKN,26000,,,VFR,,,,,,,,,,,,METAR,9.0
WMKL 271400Z 06003KT 9999 FEW025 SCT140 BKN270 26/23 Q1010,WMKL,2015-05-27T14:00:00Z,6.32,99.72,26.0,23.0,60,3,,6.21,29.822834,,,,,,,,,,,FEW,2500,SCT,14000,BKN,27000,,,VFR,,,,,,,,,,,,METAR,7.0
WMKI 271400Z 34001KT 9000 FEW030 BKN140 27/24 Q1011,WMKI,2015-05-27T14:00:00Z,4.57,101.08,27.0,24.0,340,1,,5.59,29.852362,,,,,,,,,,,FEW,3000,BKN,14000,,,,,VFR,,,,,,,,,,,,METAR,39.0
WMKD 271400Z 19004KT 9999 TS FEW017CB BKN280 28/26 Q1011 NOSIG,WMKD,2015-05-27T14:00:00Z,3.77,103.22,28.0,26.0,190,4,,6.21,29.852362,,,,,,TRUE,,,,TS,FEW,1700,BKN,28000,,,,,VFR,,,,,,,,,,,,METAR,16.0
WMKC 271400Z 13001KT 7000 -TSRA FEW005 FEW016CB SCT020 OVC220 25/23 Q1011,WMKC,2015-05-27T14:00:00Z,6.17,102.27,25.0,23.0,130,1,,4.35,29.852362,,,,,,,,,,-TSRA,FEW,500,FEW,1600,SCT,2000,OVC,22000,MVFR,,,,,,,,,,,,METAR,5.0
WMKB 271400Z 06001KT 8000 FEW024 SCT140 BKN270 29/26 Q1010 NOSIG,WMKB,2015-05-27T14:00:00Z,5.47,100.37,29.0,26.0,60,1,,4.97,29.822834,,,,,,TRUE,,,,,FEW,2400,SCT,14000,BKN,27000,,,MVFR,,,,,,,,,,,,METAR,4.0
WMKA 271400Z 01002KT 9999 FEW030 SCT140 BKN280 27/25 Q1010,WMKA,2015-05-27T14:00:00Z,6.2,100.4,27.0,25.0,10,2,,6.21,29.822834,,,,,,,,,,,FEW,3000,SCT,14000,BKN,28000,,,VFR,,,,,,,,,,,,METAR,5.0
WMBA 271400Z 08004KT 9999 FEW030 SCT140 BKN260 27/24 Q1010,WMBA,2015-05-27T14:00:00Z,4.22,100.7,27.0,24.0,80,4,,6.21,29.822834,,,,,,,,,,,FEW,3000,SCT,14000,BKN,26000,,,VFR,,,,,,,,,,,,METAR,8.0
WBKW 271400Z 34004KT 9999 FEW017 BKN300 27/26 Q1011,WBKW,2015-05-27T14:00:00Z,4.32,118.12,27.0,26.0,340,4,,6.21,29.852362,,,,,,,,,,,FEW,1700,BKN,30000,,,,,VFR,,,,,,,,,,,,METAR,20.0
WBKT 271400Z 00000KT 9999 FEW015 BKN280 27/25 Q1011,WBKT,2015-05-27T14:00:00Z,6.92,116.82,27.0,25.0,0,0,,6.21,29.852362,,,,,,,,,,,FEW,1500,BKN,28000,,,,,VFR,,,,,,,,,,,,METAR,5.0
WBKS 271400Z 23004KT 9999 FEW016 BKN280 29/26 Q1011,WBKS,2015-05-27T14:00:00Z,5.9,118.07,29.0,26.0,230,4,,6.21,29.852362,,,,,,,,,,,FEW,1600,BKN,28000,,,,,VFR,,,,,,,,,,,,METAR,13.0
WBKL 271400Z 18001KT 9999 FEW010 FEW014CB SCT140 BKN290 27/24 Q1011,WBKL,2015-05-27T14:00:00Z,5.28,115.25,27.0,24.0,180,1,,6.21,29.852362,,,,,,,,,,,FEW,1000,FEW,1400,SCT,14000,BKN,29000,VFR,,,,,,,,,,,,METAR,30.0
WBGY 271400Z 12001KT 9999 SCT020 BKN150 25/24 Q1012,WBGY,2015-05-27T14:00:00Z,1.22,111.43,25.0,24.0,120,1,,6.21,29.88189,,,,,,,,,,,SCT,2000,BKN,15000,,,,,VFR,,,,,,,,,,,,METAR,34.0
WBGS 271400Z 11005KT 9999 SCT018 BKN150 24/24 Q1012,WBGS,2015-05-27T14:00:00Z,2.27,111.98,24.0,24.0,110,5,,6.21,29.88189,,,,,,,,,,,SCT,1800,BKN,15000,,,,,VFR,,,,,,,,,,,,METAR,8.0
WBGR 271400Z 15003KT 9999 FEW016 BKN150 25/24 Q1012,WBGR,2015-05-27T14:00:00Z,4.32,113.97,25.0,24.0,150,3,,6.21,29.88189,,,,,,,,,,,FEW,1600,BKN,15000,,,,,VFR,,,,,,,,,,,,METAR,18.0
WBGB 271400Z 12003KT 9999 FEW016 BKN150 26/25 Q1012,WBGB,2015-05-27T14:00:00Z,3.12,113.02,26.0,25.0,120,3,,6.21,29.88189,,,,,,,,,,,FEW,1600,BKN,15000,,,,,VFR,,,,,,,,,,,,METAR,5.0
WBSB 271400Z 16004KT 9999 FEW005 BKN140 25/24 Q1012 NOSIG,WBSB,2015-05-27T14:00:00Z,4.92,114.92,25.0,24.0,160,4,,6.21,29.88189,,,,,,TRUE,,,,,FEW,500,BKN,14000,,,,,VFR,,,,,,,,,,,,METAR,15.0
WMSA 271400Z 12002KT 9000 FEW025 SCT140 BKN270 27/24 Q1011,WMSA,2015-05-27T14:00:00Z,3.13,101.55,27.0,24.0,120,2,,5.59,29.852362,,,,,,,,,,,FEW,2500,SCT,14000,BKN,27000,,,VFR,,,,,,,,,,,,METAR,27.0
WMKP 271400Z 33001KT 7000 FEW017CB SCT140 BKN270 28/26 Q1010 NOSIG,WMKP,2015-05-27T14:00:00Z,5.28,100.27,28.0,26.0,330,1,,4.35,29.822834,,,,,,TRUE,,,,,FEW,1700,SCT,14000,BKN,27000,,,MVFR,,,,,,,,,,,,METAR,4.0
CWOY 271400Z AUTO 11010KT 08/05 RMK AO1 SLP182 T00770048 50006,CWOY,2015-05-27T14:00:00Z,51.77,-104.2,7.7,4.8,110,10,,,,1018.2,,TRUE,TRUE,,,,,,,,,,,,,,,,0.6,,,,,,,,,,,METAR,560.0
CWEH 271400Z AUTO 31004KT 14/07 RMK AO1 SLP140 T01400073 51011,CWEH,2015-05-27T14:00:00Z,49.42,-108.97,14.0,7.3,310,4,,,,1014.0,,TRUE,TRUE,,,,,,,,,,,,,,,,1.1,,,,,,,,,,,METAR,1078.0
CWEQ 271400Z AUTO 07009KT 09/02 RMK AO1 SLP200 T00870022 51013,CWEQ,2015-05-27T14:00:00Z,52.12,-101.22,8.7,2.2,70,9,,,,1020.0,,TRUE,TRUE,,,,,,,,,,,,,,,,1.3,,,,,,,,,,,METAR,335.0
CWJD 271400Z AUTO 07006KT 06/M01 RMK AO1 SLP214 T00641007 51016,CWJD,2015-05-27T14:00:00Z,53.17,-99.27,6.4,-0.7,70,6,,,,1021.4,,TRUE,TRUE,,,,,,,,,,,,,,,,1.6,,,,,,,,,,,METAR,223.0
CWLP 271400Z AUTO 26005KT 10/09 RMK AO1 SLP198 T01000093 53001,CWLP,2015-05-27T14:00:00Z,50.93,-127.63,10.0,9.3,260,5,,,,1019.8,,TRUE,TRUE,,,,,,,,,,,,,,,,0.1,,,,,,,,,,,METAR,17.0
CWRO 271400Z AUTO 29023G28KT 10/08 RMK AO1 PK WND 29030/1346 SLP216 T01020084 53003,CWRO,2015-05-27T14:00:00Z,54.17,-131.67,10.2,8.4,290,23,28,,,1021.6,,TRUE,TRUE,,,,,,,,,,,,,,,,0.3,,,,,,,,,,,METAR,7.0
CWZG 271400Z AUTO 21004KT 06/04 RMK AO1 SLP201 T00550044 58003,CWZG,2015-05-27T14:00:00Z,51.2,-115.53,5.5,4.4,210,4,,,,1020.1,,TRUE,TRUE,,,,,,,,,,,,,,,,-0.3,,,,,,,,,,,METAR,1397.0
CWVT 271400Z AUTO 16003KT 10/03 RMK AO1 8001 SLP189 T00970032 50005,CWVT,2015-05-27T14:00:00Z,55.82,-108.42,9.7,3.2,160,3,,,,1018.9,,TRUE,TRUE,,,,,,,,,,,,,,,,0.5,,,,,,,,,,,METAR,434.0
CWRM 271400Z AUTO 28001KT 09/07 RMK AO1 8005 SLP171 T00880068 50002,CWRM,2015-05-27T14:00:00Z,52.42,-114.92,8.8,6.8,280,1,,,,1017.1,,TRUE,TRUE,,,,,,,,,,,,,,,,0.2,,,,,,,,,,,METAR,988.0
CERM 271400Z AUTO 16004KT 22/17 RMK AO1 SLP164 T02160167 58012,CERM,2015-05-27T14:00:00Z,47.42,-68.32,21.6,16.7,160,4,,,,1016.4,,TRUE,TRUE,,,,,,,,,,,,,,,,-1.2,,,,,,,,,,,METAR,154.0
CWZW 271400Z AUTO 04002KT 07/06 RMK AO1 SOG 12 1008 SLP186 T00650055,CWZW,2015-05-27T14:00:00Z,60.17,-132.73,6.5,5.5,40,2,,,,1018.6,,TRUE,TRUE,,,,,,,,,,,,,,,,,,,,,,,,,,,METAR,705.0
CZCR 271400Z AUTO 01006KT 17/12 RMK AO1 SLP176 T01740115 58002,CZCR,2015-05-27T14:00:00Z,47.97,-66.32,17.4,11.5,10,6,,,,1017.6,,TRUE,TRUE,,,,,,,,,,,,,,,,-0.2,,,,,,,,,,,METAR,38.0
CWXI 271400Z AUTO 08/07 RMK AO1 SLP172 T00810066 51013,CWXI,2015-05-27T14:00:00Z,51.02,-57.1,8.1,6.6,,,,,,1017.2,,TRUE,TRUE,,,,,,,,,,,,,,,,1.3,,,,,,,,,,,METAR,6.0
CWBK 271400Z AUTO 06003KT 15/12 RMK AO1 SLP197 T01540124 50009,CWBK,2015-05-27T14:00:00Z,45.77,-62.67,15.4,12.4,60,3,,,,1019.7,,TRUE,TRUE,,,,,,,,,,,,,,,,0.9,,,,,,,,,,,METAR,2.0
CWVP 271400Z AUTO 35006KT 11/06 RMK AO1 7PAST HR 0004 SLP142 P0007 T01120064 50055,CWVP,2015-05-27T14:00:00Z,49.63,-109.52,11.2,6.4,350,6,,,,1014.2,,TRUE,TRUE,,,,,,,,,,,,,,,,5.5,,,,,0.07,,,,,,METAR,1271.0
CWVN 271400Z AUTO 34006KT 15/09 RMK AO1 SLP137 T01530086 51004,CWVN,2015-05-27T14:00:00Z,49.07,-107.57,15.3,8.6,340,6,,,,1013.7,,TRUE,TRUE,,,,,,,,,,,,,,,,0.4,,,,,,,,,,,METAR,785.0
CWVI 271400Z AUTO 14005KT 14/06 RMK AO1 SLP145 T01430059 58003,CWVI,2015-05-27T14:00:00Z,53.52,-112.1,14.3,5.9,140,5,,,,1014.5,,TRUE,TRUE,,,,,,,,,,,,,,,,-0.3,,,,,,,,,,,METAR,639.0
CWVF 271400Z AUTO 09002KT 14/12 RMK AO1 T01390115,CWVF,2015-05-27T14:00:00Z,49.1,-123.3,13.9,11.5,90,2,,,,,,TRUE,TRUE,,,,,,,,,,,,,,,,,,,,,,,,,,,METAR,1.0
CWUX 271400Z AUTO 06006KT 17/12 RMK AO1 SLP120 T01660120 58027,CWUX,2015-05-27T14:00:00Z,48.3,-70.93,16.6,12.0,60,6,,,,1012.0,,TRUE,TRUE,,,,,,,,,,,,,,,,-2.7,,,,,,,,,,,METAR,135.0
CWUS 271400Z AUTO 32001KT 12/09 RMK AO1 SLP169 T01240094 52007,CWUS,2015-05-27T14:00:00Z,49.57,-119.65,12.4,9.4,320,1,,,,1016.9,,TRUE,TRUE,,,,,,,,,,,,,,,,0.7,,,,,,,,,,,METAR,454.0
CWTY 271400Z AUTO 21010KT 22/19 RMK AO1 SLP131 T02180188 58013,CWTY,2015-05-27T14:00:00Z,46.35,-72.52,21.8,18.8,210,10,,,,1013.1,,TRUE,TRUE,,,,,,,,,,,,,,,,-1.3,,,,,,,,,,,METAR,6.0
CWTT 271400Z AUTO 20003KT 21/18 RMK AO1 T02120175,CWTT,2015-05-27T14:00:00Z,45.27,-72.17,21.2,17.5,200,3,,,,,,TRUE,TRUE,,,,,,,,,,,,,,,,,,,,,,,,,,,METAR,209.0
CWTN 271400Z AUTO 10003KT 13/12 RMK AO1 SLP158 T01310122 58008,CWTN,2015-05-27T14:00:00Z,47.07,-70.78,13.1,12.2,100,3,,,,1015.8,,TRUE,TRUE,,,,,,,,,,,,,,,,-0.8,,,,,,,,,,,METAR,6.0
CWTG 271400Z AUTO 26006KT 08/08 RMK AO1 SLP172 T00820075 58003,CWTG,2015-05-27T14:00:00Z,49.32,-67.37,8.2,7.5,260,6,,,,1017.2,,TRUE,TRUE,,,,,,,,,,,,,,,,-0.3,,,,,,,,,,,METAR,5.0
CWTA 271400Z AUTO 18004KT 26/19 RMK AO1 SLP139 T02600189 56007,CWTA,2015-05-27T14:00:00Z,45.5,-73.58,26.0,18.9,180,4,,,,1013.9,,TRUE,TRUE,,,,,,,,,,,,,,,,-0.7,,,,,,,,,,,METAR,63.0
CWMQ 271400Z AUTO 25008KT 15/08 RMK AO1 SLP151 T01500077 51013,CWMQ,2015-05-27T14:00:00Z,49.9,-109.47,15.0,7.7,250,8,,,,1015.1,,TRUE,TRUE,,,,,,,,,,,,,,,,1.3,,,,,,,,,,,METAR,767.0
CWMM 271400Z AUTO 19001KT 15/12 RMK AO1 SLP180 T01540116 53008,CWMM,2015-05-27T14:00:00Z,49.22,-122.68,15.4,11.6,190,1,,,,1018.0,,TRUE,TRUE,,,,,,,,,,,,,,,,0.8,,,,,,,,,,,METAR,5.0
CWMJ 271400Z AUTO 18006KT 21/18 RMK AO1 SLP123 T02080181 50001,CWMJ,2015-05-27T14:00:00Z,46.27,-76.0,20.8,18.1,180,6,,,,1012.3,,TRUE,TRUE,,,,,,,,,,,,,,,,0.1,,,,,,,,,,,METAR,200.0
CWLM 271400Z AUTO 10001KT 11/11 RMK AO1 SLP181 T01120106 53009,CWLM,2015-05-27T14:00:00Z,48.42,-123.32,11.2,10.6,100,1,,,,1018.1,,TRUE,TRUE,,,,,,,,,,,,,,,,0.9,,,,,,,,,,,METAR,70.0
CWLE 271400Z AUTO 06010KT 12/08 RMK AO1 SLP157 T01230076 50004,CWLE,2015-05-27T14:00:00Z,50.95,-107.15,12.3,7.6,60,10,,,,1015.7,,TRUE,TRUE,,,,,,,,,,,,,,,,0.4,,,,,,,,,,,METAR,665.0
CWLC 271400Z AUTO 27012KT 11/10 RMK AO1 T01110097,CWLC,2015-05-27T14:00:00Z,54.3,-130.62,11.1,9.7,270,12,,,,,,TRUE,TRUE,,,,,,,,,,,,,,,,,,,,,,,,,,,METAR,27.0
CWKX 271400Z AUTO 00000KT 08/06 RMK AO1 SLP188 T00770064 57003,CWKX,2015-05-27T14:00:00Z,58.43,-130.02,7.7,6.4,0,0,,,,1018.8,,TRUE,TRUE,,,,,,,,,,,,,,,,-0.3,,,,,,,,,,,METAR,793.0
CWKH 271400Z AUTO 14/11 RMK AO1 SLP169 T01390107 53008,CWKH,2015-05-27T14:00:00Z,48.57,-123.55,13.9,10.7,,,,,,1016.9,,TRUE,TRUE,,,,,,,,,,,,,,,,0.8,,,,,,,,,,,METAR,366.0
CWKG 271400Z AUTO 18008KT 19/15 RMK AO1 SLP230 T01900150 51006,CWKG,2015-05-27T14:00:00Z,44.43,-65.2,19.0,15.0,180,8,,,,1023.0,,TRUE,TRUE,,,,,,,,,,,,,,,,0.6,,,,,,,,,,,METAR,165.0
CWJX 271400Z AUTO 08008KT 15/07 RMK AO1 SLP148 T01500066 50012,CWJX,2015-05-27T14:00:00Z,50.88,-109.5,15.0,6.6,80,8,,,,1014.8,,TRUE,TRUE,,,,,,,,,,,,,,,,1.2,,,,,,,,,,,METAR,672.0
CWJV 271400Z AUTO 11005KT 12/10 RMK AO1 SLP165 T01240099 53007,CWJV,2015-05-27T14:00:00Z,50.22,-119.18,12.4,9.9,110,5,,,,1016.5,,TRUE,TRUE,,,,,,,,,,,,,,,,0.7,,,,,,,,,,,METAR,556.0
CWJT 271400Z AUTO 20004KT 21/19 RMK AO1 SLP133 T02120190 56007,CWJT,2015-05-27T14:00:00Z,46.07,-74.57,21.2,19.0,200,4,,,,1013.3,,TRUE,TRUE,,,,,,,,,,,,,,,,-0.7,,,,,,,,,,,METAR,239.0
CWJR 271400Z AUTO 18001KT 15/11 RMK AO1 SLP171 T01480110 52008,CWJR,2015-05-27T14:00:00Z,49.07,-116.5,14.8,11.0,180,1,,,,1017.1,,TRUE,TRUE,,,,,,,,,,,,,,,,0.8,,,,,,,,,,,METAR,646.0
CWJO 271400Z AUTO 08005KT 18/14 RMK AO1 SLP123 T01830139 58029,CWJO,2015-05-27T14:00:00Z,48.43,-71.15,18.3,13.9,80,5,,,,1012.3,,TRUE,TRUE,,,,,,,,,,,,,,,,-2.9,,,,,,,,,,,METAR,133.0
CWJI 271400Z AUTO 09014KT 14/09 RMK AO1 PK WND 08018/1340 SLP139 T01410089 53004,CWJI,2015-05-27T14:00:00Z,49.72,-105.92,14.1,8.9,90,14,,,,1013.9,,TRUE,TRUE,,,,,,,,,,,,,,,,0.4,,,,,,,,,,,METAR,724.0
CWJH 271400Z AUTO 17001KT 07/M01 RMK AO1 SLP206 T00701008 50001,CWJH,2015-05-27T14:00:00Z,56.32,-103.27,7.0,-0.8,170,1,,,,1020.6,,TRUE,TRUE,,,,,,,,,,,,,,,,0.1,,,,,,,,,,,METAR,344.0
CWJB 271400Z AUTO 07007KT 15/15 RMK AO1 T01510149,CWJB,2015-05-27T14:00:00Z,46.78,-71.27,15.1,14.9,70,7,,,,,,TRUE,TRUE,,,,,,,,,,,,,,,,,,,,,,,,,,,METAR,91.0
CWIZ 271400Z AUTO 18014G19KT 25/20 RMK AO1 PK WND 18023/1331 T02510196,CWIZ,2015-05-27T14:00:00Z,45.28,-73.33,25.1,19.6,180,14,19,,,,,TRUE,TRUE,,,,,,,,,,,,,,,,,,,,,,,,,,,METAR,45.0
CWIW 271400Z AUTO 07013KT 09/06 RMK AO1 PK WND 08017/1333 SLP176 T00930055 50008,CWIW,2015-05-27T14:00:00Z,51.67,-105.4,9.3,5.5,70,13,,,,1017.6,,TRUE,TRUE,,,,,,,,,,,,,,,,0.8,,,,,,,,,,,METAR,526.0
CWIT 271400Z AUTO 16002KT 27/21 RMK AO1 SLP143 T02660212 58006,CWIT,2015-05-27T14:00:00Z,45.17,-73.67,26.6,21.2,160,2,,,,1014.3,,TRUE,TRUE,,,,,,,,,,,,,,,,-0.6,,,,,,,,,,,METAR,52.0
CWIS 271400Z AUTO 22006KT 16/16 RMK AO1 SLP163 T01600158 58008,CWIS,2015-05-27T14:00:00Z,47.28,-70.63,16.0,15.8,220,6,,,,1016.3,,TRUE,TRUE,,,,,,,,,,,,,,,,-0.8,,,,,,,,,,,METAR,719.0
CWIP 271400Z AUTO 18008KT 09/ RMK AO1 T0090,CWIP,2015-05-27T14:00:00Z,50.17,-66.43,9.0,,180,8,,,,,,TRUE,TRUE,,,,,,,,,,,,,,,,,,,,,,,,,,,METAR,25.0
CWII 271400Z AUTO 01009G17KT 10/05 RMK AO1 PK WND 35018/1305 T00990051,CWII,2015-05-27T14:00:00Z,50.7,-96.57,9.9,5.1,10,9,17,,,,,TRUE,TRUE,,,,,,,,,,,,,,,,,,,,,,,,,,,METAR,220.0
CWIG 271400Z AUTO 36006KT RMK AO1,CWIG,2015-05-27T14:00:00Z,47.07,-70.53,,,360,6,,,,,,TRUE,TRUE,,,,,,,,,,,,,,,,,,,,,,,,,,,METAR,18.0
CWHV 271400Z AUTO 15005KT 24/18 RMK AO1 SLP159 T02400183 58010,CWHV,2015-05-27T14:00:00Z,46.2,-70.77,24.0,18.3,150,5,,,,1015.9,,TRUE,TRUE,,,,,,,,,,,,,,,,-1.0,,,,,,,,,,,METAR,229.0
CWHT 271400Z AUTO 28003KT 06/05 RMK AO1 0PAST HR SOG 01 1017 SLP193 P0004 T00640048 50010,CWHT,2015-05-27T14:00:00Z,60.77,-137.58,6.4,4.8,280,3,,,,1019.3,,TRUE,TRUE,,,,,,,,,,,,,,,,1.0,,,,,0.04,,,,,,METAR,599.0
CWHQ 271400Z AUTO 13006KT 21/19 RMK AO1 T02090186,CWHQ,2015-05-27T14:00:00Z,46.68,-71.97,20.9,18.6,130,6,,,,,,TRUE,TRUE,,,,,,,,,,,,,,,,,,,,,,,,,,,METAR,55.0
CWHM 271400Z AUTO 21013G21KT 25/20 RMK AO1 PK WND 22021/1353 T02480201,CWHM,2015-05-27T14:00:00Z,45.72,-73.37,24.8,20.1,210,13,21,,,,,TRUE,TRUE,,,,,,,,,,,,,,,,,,,,,,,,,,,METAR,192.0
CWHL 271400Z AUTO 22004KT 10/09 RMK AO1 SLP208 T01040094 53002,CWHL,2015-05-27T14:00:00Z,54.17,-130.35,10.4,9.4,220,4,,,,1020.8,,TRUE,TRUE,,,,,,,,,,,,,,,,0.2,,,,,,,,,,,METAR,5.0
CWGY 271400Z AUTO 09006KT 13/08 RMK AO1 SLP167 T01280080 51009,CWGY,2015-05-27T14:00:00Z,51.67,-110.2,12.8,8.0,90,6,,,,1016.7,,TRUE,TRUE,,,,,,,,,,,,,,,,0.9,,,,,,,,,,,METAR,707.0
CWGT 271400Z AUTO 31011KT 15/11 RMK AO1 SLP180 T01540113 53009,CWGT,2015-05-27T14:00:00Z,49.48,-124.43,15.4,11.3,310,11,,,,1018.0,,TRUE,TRUE,,,,,,,,,,,,,,,,0.9,,,,,,,,,,,METAR,5.0
CWGR 271400Z AUTO 28011KT 12/12 RMK AO1 SLP180 T01240120 53009,CWGR,2015-05-27T14:00:00Z,47.42,-61.8,12.4,12.0,280,11,,,,1018.0,,TRUE,TRUE,,,,,,,,,,,,,,,,0.9,,,,,,,,,,,METAR,60.0
CWWB 271400Z AUTO 21011G17KT 22/16 RMK AO1 PK WND 21019/1334 SLP148 T02240160 51010,CWWB,2015-05-27T14:00:00Z,43.3,-79.78,22.4,16.0,210,11,17,,,1014.8,,TRUE,TRUE,,,,,,,,,,,,,,,,1.0,,,,,,,,,,,METAR,76.0
CWNZ 271400Z AUTO 35003KT 15/14 RMK AO1 SLP053 T01470138 51008,CWNZ,2015-05-27T14:00:00Z,49.75,-84.17,14.7,13.8,350,3,,,,1005.3,,TRUE,TRUE,,,,,,,,,,,,,,,,0.8,,,,,,,,,,,METAR,256.0
CWDV 271400Z AUTO 31003KT 16/11 RMK AO1 SLP087 T01580112 53011,CWDV,2015-05-27T14:00:00Z,49.02,-90.47,15.8,11.2,310,3,,,,1008.7,,TRUE,TRUE,,,,,,,,,,,,,,,,1.1,,,,,,,,,,,METAR,489.0
CWDQ 271400Z AUTO 18010KT 23/19 RMK AO1 0PAST HR 7023 SLP120 P0008 T02320194 50020,CWDQ,2015-05-27T14:00:00Z,47.42,-72.78,23.2,19.4,180,10,,,,1012.0,,TRUE,TRUE,,,,,,,,,,,,,,,,2.0,,,,,0.08,,,,,,METAR,169.0
CWWZ 271400Z AUTO 21007KT 21/16 RMK AO1 SLP157 T02120158 51013,CWWZ,2015-05-27T14:00:00Z,43.25,-79.22,21.2,15.8,210,7,,,,1015.7,,TRUE,TRUE,,,,,,,,,,,,,,,,1.3,,,,,,,,,,,METAR,79.0
CWPO 271400Z AUTO 01010KT 09/06 RMK AO1 SLP170 T00930061 52016,CWPO,2015-05-27T14:00:00Z,49.2,-98.9,9.3,6.1,10,10,,,,1017.0,,TRUE,TRUE,,,,,,,,,,,,,,,,1.6,,,,,,,,,,,METAR,470.0
CWLS 271400Z AUTO 21011G17KT 22/17 RMK AO1 PK WND 20019/1301 SLP136 T02170172 50002,CWLS,2015-05-27T14:00:00Z,43.97,-80.75,21.7,17.2,210,11,17,,,1013.6,,TRUE,TRUE,,,,,,,,,,,,,,,,0.2,,,,,,,,,,,METAR,415.0
CWBE 271400Z AUTO 19003KT 11/10 RMK AO1 SLP105 T01130104 51004,CWBE,2015-05-27T14:00:00Z,45.98,-81.48,11.3,10.4,190,3,,,,1010.5,,TRUE,TRUE,,,,,,,,,,,,,,,,0.4,,,,,,,,,,,METAR,196.0
CWAJ 271400Z AUTO 19011KT 15/14 RMK AO1 SLP161 T01480139 51008,CWAJ,2015-05-27T14:00:00Z,42.25,-81.9,14.8,13.9,190,11,,,,1016.1,,TRUE,TRUE,,,,,,,,,,,,,,,,0.8,,,,,,,,,,,METAR,178.0
CZEL 271400Z AUTO 22015G22KT 21/17 RMK AO1 PK WND 20022/1352 SLP146 T02120167 50006,CZEL,2015-05-27T14:00:00Z,43.65,-80.42,21.2,16.7,220,15,22,,,1014.6,,TRUE,TRUE,,,,,,,,,,,,,,,,0.6,,,,,,,,,,,METAR,376.0
CXZC 271400Z AUTO 36005KT 18/13 RMK AO1 8002 SLP037 T01840131 50003,CXZC,2015-05-27T14:00:00Z,51.3,-80.62,18.4,13.1,360,5,,,,1003.7,,TRUE,TRUE,,,,,,,,,,,,,,,,0.3,,,,,,,,,,,METAR,9.0
CXBI 271400Z AUTO 25008G17KT 23/16 RMK AO1 PK WND 24017/1351 SLP135 T02340159 50004,CXBI,2015-05-27T14:00:00Z,44.48,-79.55,23.4,15.9,250,8,17,,,1013.5,,TRUE,TRUE,,,,,,,,,,,,,,,,0.4,,,,,,,,,,,METAR,289.0
CZSP 271400Z AUTO 23007KT 23/15 RMK AO1 SLP197 T02290154 51006,CZSP,2015-05-27T14:00:00Z,46.45,-62.58,22.9,15.4,230,7,,,,1019.7,,TRUE,TRUE,,,,,,,,,,,,,,,,0.6,,,,,,,,,,,METAR,30.0
CWVU 271400Z AUTO 15011G16KT 09/09 RMK AO1 PK WND 18019/1332 SLP239 T00940086 51007,CWVU,2015-05-27T14:00:00Z,44.28,-66.33,9.4,8.6,150,11,16,,,1023.9,,TRUE,TRUE,,,,,,,,,,,,,,,,0.7,,,,,,,,,,,METAR,16.0
CWVQ 271400Z AUTO 23008G16KT 26/20 RMK AO1 SLP141 T02570197 56006,CWVQ,2015-05-27T14:00:00Z,45.42,-73.92,25.7,19.7,230,8,16,,,1014.1,,TRUE,TRUE,,,,,,,,,,,,,,,,-0.6,,,,,,,,,,,METAR,39.0
UNNT 271400Z 29003MPS CAVOK 15/05 Q1015 R25/090070 R34/090070 NOSIG RMK QFE751/1002,UNNT,2015-05-27T14:00:00Z,55.02,82.63,15.0,5.0,290,6,,6.21,29.970472,,,,,,TRUE,,,,,CAVOK,,,,,,,,VFR,,,,,,,,,,,,SPECI,111.0
UNKL 271400Z 25005MPS 9999 SCT040CB 13/03 Q1013 R29/CLRD65 NOSIG RMK QFE734,UNKL,2015-05-27T14:00:00Z,56.17,92.48,13.0,3.0,250,10,,6.21,29.911417,,,,,,TRUE,,,,,SCT,4000,,,,,,,VFR,,,,,,,,,,,,SPECI,276.0
SBGM 271400Z /////KT 9999 BKN020 BKN023 26/23 Q1014,SBGM,2015-05-27T14:00:00Z,-10.78,-65.28,26.0,23.0,,,,6.21,29.940945,,,,,,,,,,,BKN,2000,BKN,2300,,,,,MVFR,,,,,,,,,,,,METAR,146.0
SBEK 271400Z 28003KT 9999 SCT010 30/25 Q1014,SBEK,2015-05-27T14:00:00Z,-6.23,-57.78,30.0,25.0,280,3,,6.21,29.940945,,,,,,,,,,,SCT,1000,,,,,,,VFR,,,,,,,,,,,,METAR,98.0
SBIH 271400Z 08002KT 9999 SCT018 31/25 Q1013,SBIH,2015-05-27T14:00:00Z,-4.25,-56.0,31.0,25.0,80,2,,6.21,29.911417,,,,,,,,,,,SCT,1800,,,,,,,VFR,,,,,,,,,,,,METAR,34.0
SBIZ 271400Z 10010KT 9999 FEW016 BKN023 31/24 Q1014,SBIZ,2015-05-27T14:00:00Z,-5.52,-47.45,31.0,24.0,100,10,,6.21,29.940945,,,,,,,,,,,FEW,1600,BKN,2300,,,,,MVFR,,,,,,,,,,,,METAR,123.0
SBLB 271400Z /////KT CAVOK ///// Q//// W///S2,SBLB,2015-05-27T14:00:00Z,-22.1,-39.92,,,,,,6.21,,,,,,,,,,,,CAVOK,,,,,,,,VFR,,,,,,,,,,,,SPECI,10.0
SBMY 271400Z 00000KT 9999 SCT015 BKN100 29/25 Q1015,SBMY,2015-05-27T14:00:00Z,-5.82,-61.28,29.0,25.0,0,0,,6.21,29.970472,,,,,,,,,,,SCT,1500,BKN,10000,,,,,VFR,,,,,,,,,,,,METAR,49.0
SBMD 271400Z 10004KT 9999 BKN015 BKN100 ///// Q1016,SBMD,2015-05-27T14:00:00Z,-0.87,-52.6,,,100,4,,6.21,30.0,,,,,,,,,,,BKN,1500,BKN,10000,,,,,MVFR,,,,,,,,,,,,METAR,206.0
SBOI 271400Z 12005KT 9999 SCT020 SCT100 28/23 Q1014,SBOI,2015-05-27T14:00:00Z,3.85,-51.82,28.0,23.0,120,5,,6.21,29.940945,,,,,,,,,,,SCT,2000,SCT,10000,,,,,VFR,,,,,,,,,,,,METAR,39.0
SBTK 271400Z 16002KT 9999 SCT015 BKN100 26/24 Q1015,SBTK,2015-05-27T14:00:00Z,-8.17,-70.77,26.0,24.0,160,2,,6.21,29.970472,,,,,,,,,,,SCT,1500,BKN,10000,,,,,VFR,,,,,,,,,,,,METAR,188.0
SBTU 271400Z /////KT 9999 BKN020 FEW025TCU ///// Q1016,SBTU,2015-05-27T14:00:00Z,-3.78,-49.72,,,,,,6.21,30.0,,,,,,,,,,,BKN,2000,FEW,2500,,,,,MVFR,,,,,,,,,,,,SPECI,40.0
SBUA 271400Z 35001KT 9999 SCT015 BKN100 33/24 Q1014,SBUA,2015-05-27T14:00:00Z,-0.15,-66.98,33.0,24.0,350,1,,6.21,29.940945,,,,,,,,,,,SCT,1500,BKN,10000,,,,,VFR,,,,,,,,,,,,METAR,79.0
SBIC 271400Z 05003KT 9999 FEW015 29/26 Q1014,SBIC,2015-05-27T14:00:00Z,-3.12,-58.47,29.0,26.0,50,3,,6.21,29.940945,,,,,,,,,,,FEW,1500,,,,,,,VFR,,,,,,,,,,,,METAR,43.0
SBHT 271400Z 07005KT 9999 BKN015 BKN080 26/25 Q1015,SBHT,2015-05-27T14:00:00Z,-3.25,-52.27,26.0,25.0,70,5,,6.21,29.970472,,,,,,,,,,,BKN,1500,BKN,8000,,,,,MVFR,,,,,,,,,,,,METAR,74.0
SBAN 271400Z 05013KT CAVOK 26/12 Q1022,SBAN,2015-05-27T14:00:00Z,-16.22,-48.97,26.0,12.0,50,13,,6.21,30.177166,,,,,,,,,,,CAVOK,,,,,,,,VFR,,,,,,,,,,,,METAR,1137.0
SBYA 271400Z 15004KT 2000 RA BKN007 OVC080 23/23 Q1014,SBYA,2015-05-27T14:00:00Z,0.62,-69.2,23.0,23.0,150,4,,1.24,29.940945,,,,,,,,,,RA,BKN,700,OVC,8000,,,,,IFR,,,,,,,,,,,,METAR,105.0
SBVH 271400Z 08005KT CAVOK 29/20 Q1018,SBVH,2015-05-27T14:00:00Z,-12.72,-60.12,29.0,20.0,80,5,,6.21,30.059055,,,,,,,,,,,CAVOK,,,,,,,,VFR,,,,,,,,,,,,METAR,652.0
SBPN 271400Z 05009KT CAVOK 32/19 Q1013,SBPN,2015-05-27T14:00:00Z,-10.72,-48.38,32.0,19.0,50,9,,6.21,29.911417,,,,,,,,,,,CAVOK,,,,,,,,VFR,,,,,,,,,,,,METAR,265.0
SBPJ 271400Z 08004KT 9999 FEW040 33/19 Q1014,SBPJ,2015-05-27T14:00:00Z,-10.28,-48.37,33.0,19.0,80,4,,6.21,29.940945,,,,,,,,,,,FEW,4000,,,,,,,VFR,,,,,,,,,,,,METAR,236.0
SBBW 271400Z 24004KT CAVOK 29/18 Q1018,SBBW,2015-05-27T14:00:00Z,-15.87,-52.37,29.0,18.0,240,4,,6.21,30.059055,,,,,,,,,,,CAVOK,,,,,,,,VFR,,,,,,,,,,,,METAR,350.0
SBCM 271400Z 10009KT 4500 -RA BR BKN006 BKN012 OVC030 19/19 Q1014,SBCM,2015-05-27T14:00:00Z,-28.72,-49.42,19.0,19.0,100,9,,2.8,29.940945,,,,,,,,,,-RA BR,BKN,600,BKN,1200,OVC,3000,,,IFR,,,,,,,,,,,,METAR,28.0
SBCH 271400Z 01006KT 7000 -RA SCT006 SCT030 OVC090 18/16 Q1014,SBCH,2015-05-27T14:00:00Z,-27.13,-52.67,18.0,16.0,10,6,,4.35,29.940945,,,,,,,,,,-RA,SCT,600,SCT,3000,OVC,9000,,,MVFR,,,,,,,,,,,,METAR,650.0
SBCA 271400Z 29008KT 9999 FEW003 SCT040 FEW050TCU 18/16 Q1016,SBCA,2015-05-27T14:00:00Z,-25.0,-53.5,18.0,16.0,290,8,,6.21,30.0,,,,,,,,,,,FEW,300,SCT,4000,FEW,5000,,,VFR,,,,,,,,,,,,METAR,754.0
SBCX 271400Z 12004KT 7000 -RA BKN005 BKN009 14/14 Q1014,SBCX,2015-05-27T14:00:00Z,-29.2,-51.18,14.0,14.0,120,4,,4.35,29.940945,,,,,,,,,,-RA,BKN,500,BKN,900,,,,,IFR,,,,,,,,,,,,METAR,754.0
SBSM 271400Z 12018KT 4000 -RA BR OVC007 17/16 Q1011,SBSM,2015-05-27T14:00:00Z,-29.72,-53.7,17.0,16.0,120,18,,2.49,29.852362,,,,,,,,,,-RA BR,OVC,700,,,,,,,IFR,,,,,,,,,,,,METAR,85.0
SBPF 271400Z 05012KT 5000 -RA BR BKN004 OVC010 17/15 Q1013,SBPF,2015-05-27T14:00:00Z,-28.25,-52.33,17.0,15.0,50,12,,3.11,29.911417,,,,,,,,,,-RA BR,BKN,400,OVC,1000,,,,,LIFR,,,,,,,,,,,,METAR,684.0
SBMG 271400Z 36013G23KT 9999 SCT045 23/20 Q1015,SBMG,2015-05-27T14:00:00Z,-23.48,-52.02,23.0,20.0,360,13,23,6.21,29.970472,,,,,,,,,,,SCT,4500,,,,,,,VFR,,,,,,,,,,,,METAR,542.0
SBJV 271400Z 24005KT 3000 BR SCT002 BKN004 BKN010 22/22 Q1014,SBJV,2015-05-27T14:00:00Z,-26.22,-48.8,22.0,22.0,240,5,,1.86,29.940945,,,,,,,,,,BR,SCT,200,BKN,400,BKN,1000,,,LIFR,,,,,,,,,,,,METAR,4.0
LTBU 271359Z 07009KT 9999 TS FEW020CB SCT025TCU BKN090 16/15 Q1006 RETSRA RMK RWY23 07005KT 040V100,LTBU,2015-05-27T13:59:00Z,41.12,27.92,16.0,15.0,70,9,,6.21,29.704725,,,,,,,,,,TS,FEW,2000,SCT,2500,BKN,9000,,,VFR,,,,,,,,,,,,SPECI,173.0
KEND 271359Z 19006KT 10SM SCT120 BKN250 21/19 A3007 RMK AO2A SLP176,KEND,2015-05-27T13:59:00Z,36.32,-97.92,21.0,19.0,190,6,,10.0,30.070866,1017.6,,,TRUE,,,,,,,SCT,12000,BKN,25000,,,,,VFR,,,,,,,,,,,,METAR,398.0
KNGU 271359Z 21009G15KT 10SM FEW035 SCT300 29/20 A3025 RMK AO2 SLP242 T02890200,KNGU,2015-05-27T13:59:00Z,36.92,-76.27,28.9,20.0,210,9,15,10.0,30.250984,1024.2,,,TRUE,,,,,,,FEW,3500,SCT,30000,,,,,VFR,,,,,,,,,,,,METAR,5.0
PABR 271359Z 02004KT 1 3/4SM -SN BR OVC008 M02/M03 A3030 RMK SNB57 P0000 T10221028 VIA AUTODIAL,PABR,2015-05-27T13:59:00Z,71.28,-156.8,-2.2,-2.8,20,4,,1.75,30.301182,,,,,,,,,,-SN BR,OVC,800,,,,,,,IFR,,,,,,0.0050,,,,,,METAR,7.0
KPAE 271359Z VRB03KT 10SM SCT001 OVC037 12/11 A3007 RMK AO2 T01220111,KPAE,2015-05-27T13:59:00Z,47.92,-122.28,12.2,11.1,0,3,,10.0,30.070866,,,,TRUE,,,,,,,SCT,100,OVC,3700,,,,,VFR,,,,,,,,,,,,METAR,180.0
KMNZ 271359Z AUTO 16010KT 10SM CLR 23/21 A3008 RMK AO2,KMNZ,2015-05-27T13:59:00Z,31.67,-98.15,23.0,21.0,160,10,,10.0,30.079725,,,TRUE,TRUE,,,,,,,CLR,,,,,,,,VFR,,,,,,,,,,,,METAR,396.0
KFRI 271359Z AUTO 00000KT 10SM CLR 19/15 A3009 RMK AO2 SLP181 T01850145,KFRI,2015-05-27T13:59:00Z,39.03,-96.77,18.5,14.5,0,0,,10.0,30.088583,1018.1,,TRUE,TRUE,,,,,,,CLR,,,,,,,,VFR,,,,,,,,,,,,METAR,325.0
ROTM 271358Z 13010KT 9000 -SHRA BR FEW015 BKN020 OVC060 24/23 A2980 RMK SLP075 P0010 T02390228,ROTM,2015-05-27T13:58:00Z,26.27,127.75,23.9,22.8,130,10,,5.59,29.799213,1007.5,,,,,,,,,-SHRA BR,FEW,1500,BKN,2000,OVC,6000,,,MVFR,,,,,,0.1,,,,,,METAR,75.0
KTTS 271358Z AUTO 11010KT 10SM FEW036 SCT060 28/19 A3020 RMK AO2 SLP231 T02820186,KTTS,2015-05-27T13:58:00Z,28.62,-80.72,28.2,18.6,110,10,,10.0,30.200787,1023.1,,TRUE,TRUE,,,,,,,FEW,3600,SCT,6000,,,,,VFR,,,,,,,,,,,,METAR,3.0
KTIK 271358Z AUTO 20006KT 10SM CLR 21/20 A3007 RMK AO2 SLP180 T02070196,KTIK,2015-05-27T13:58:00Z,35.42,-97.37,20.7,19.6,200,6,,10.0,30.070866,1018.0,,TRUE,TRUE,,,,,,,CLR,,,,,,,,VFR,,,,,,,,,,,,METAR,394.0
KPSM 271358Z 21008KT 10SM BKN250 26/18 A3010 RMK AO2A SLP196 T02630184,KPSM,2015-05-27T13:58:00Z,43.07,-70.82,26.3,18.4,210,8,,10.0,30.100393,1019.6,,,TRUE,,,,,,,BKN,25000,,,,,,,VFR,,,,,,,,,,,,METAR,31.0
KPAM 271358Z AUTO 10007KT 10SM CLR 26/22 A3017 RMK AO2 SLP220,KPAM,2015-05-27T13:58:00Z,30.07,-85.57,26.0,22.0,100,7,,10.0,30.171259,1022.0,,TRUE,TRUE,,,,,,,CLR,,,,,,,,VFR,,,,,,,,,,,,METAR,5.0
KOZR 271358Z AUTO 07005KT 10SM SCT007 24/21 A3019 RMK AO2 SLP224 T02420214,KOZR,2015-05-27T13:58:00Z,31.28,-85.72,24.2,21.4,70,5,,10.0,30.188976,1022.4,,TRUE,TRUE,,,,,,,SCT,700,,,,,,,VFR,,,,,,,,,,,,METAR,93.0
KHST 271358Z AUTO 07010KT 10SM CLR 29/21 A3011 RMK AO2 SLP199 T02860207,KHST,2015-05-27T13:58:00Z,25.47,-80.37,28.6,20.7,70,10,,10.0,30.109253,1019.9,,TRUE,TRUE,,,,,,,CLR,,,,,,,,VFR,,,,,,,,,,,,METAR,2.0
KHRT 271358Z AUTO 10006KT 10SM CLR 27/22 A3014 RMK AO2 SLP208 T02730223 $,KHRT,2015-05-27T13:58:00Z,30.42,-86.67,27.3,22.3,100,6,,10.0,30.138779,1020.8,,TRUE,TRUE,TRUE,,,,,,CLR,,,,,,,,VFR,,,,,,,,,,,,METAR,12.0
KHOP 271358Z AUTO 20008KT 10SM SCT027 24/20 A3014 RMK AO2 SLP204 T02360203,KHOP,2015-05-27T13:58:00Z,36.67,-87.5,23.6,20.3,200,8,,10.0,30.138779,1020.4,,TRUE,TRUE,,,,,,,SCT,2700,,,,,,,VFR,,,,,,,,,,,,METAR,174.0
KHIF 271358Z 12009KT 10SM FEW040 BKN100 12/08 A3008 RMK AO2A SLP152 T01160079,KHIF,2015-05-27T13:58:00Z,41.12,-111.97,11.6,7.9,120,9,,10.0,30.079725,1015.2,,,TRUE,,,,,,,FEW,4000,BKN,10000,,,,,VFR,,,,,,,,,,,,SPECI,1459.0
KFAF 271358Z AUTO 21007KT 170V270 7SM CLR 26/21 A3022 RMK AO2 SLP237 T02580206 $,KFAF,2015-05-27T13:58:00Z,37.12,-76.62,25.8,20.6,210,7,,7.0,30.221457,1023.7,,TRUE,TRUE,TRUE,,,,,,CLR,,,,,,,,VFR,,,,,,,,,,,,METAR,4.0
KDOV 271358Z AUTO 22011G19KT 10SM SCT018 26/22 A3016 RMK AO2 SLP216 T02600223 VISNO RWY19 CHINO RWY19 $,KDOV,2015-05-27T13:58:00Z,39.12,-75.47,26.0,22.3,220,11,19,10.0,30.159449,1021.6,,TRUE,TRUE,TRUE,,,,,,SCT,1800,,,,,,,VFR,,,,,,,,,,,,METAR,9.0
KDLF 271358Z AUTO 13010KT 10SM BKN010 BKN015 25/25 A3000 RMK AO2 BKN010 V OVC SLP146 T02510246,KDLF,2015-05-27T13:58:00Z,29.37,-100.77,25.1,24.6,130,10,,10.0,30.0,1014.6,,TRUE,TRUE,,,,,,,BKN,1000,BKN,1500,,,,,MVFR,,,,,,,,,,,,METAR,330.0
KCOF 271358Z AUTO 12010KT 10SM FEW036 27/19 A3019 RMK AO2 SLP228 T02740187,KCOF,2015-05-27T13:58:00Z,28.23,-80.6,27.4,18.7,120,10,,10.0,30.188976,1022.8,,TRUE,TRUE,,,,,,,FEW,3600,,,,,,,VFR,,,,,,,,,,,,METAR,3.0
KRCA 271358Z AUTO 18007KT 10SM FEW080 OVC140 15/12 A2999 RMK AO2 SLP147 T01480119 $,KRCA,2015-05-27T13:58:00Z,44.13,-103.08,14.8,11.9,180,7,,10.0,29.991142,1014.7,,TRUE,TRUE,TRUE,,,,,,FEW,8000,OVC,14000,,,,,VFR,,,,,,,,,,,,METAR,999.0
KOFF 271358Z AUTO 30005KT 10SM CLR 18/13 A3004 RMK AO2 SLP173 T01780132 $,KOFF,2015-05-27T13:58:00Z,41.12,-95.92,17.8,13.2,300,5,,10.0,30.041338,1017.3,,TRUE,TRUE,TRUE,,,,,,CLR,,,,,,,,VFR,,,,,,,,,,,,METAR,319.0
KGUS 271358Z AUTO 24016G20KT 10SM SCT055 23/18 A3001 RMK AO2 SLP161 T02310178,KGUS,2015-05-27T13:58:00Z,40.63,-86.15,23.1,17.8,240,16,20,10.0,30.008858,1016.1,,TRUE,TRUE,,,,,,,SCT,5500,,,,,,,VFR,,,,,,,,,,,,METAR,247.0
KFBG 271358Z AUTO 23007KT 10SM FEW015 26/21 A3026 RMK AO2 SLP248 T02570206 $,KFBG,2015-05-27T13:58:00Z,35.12,-78.92,25.7,20.6,230,7,,10.0,30.259842,1024.8,,TRUE,TRUE,TRUE,,,,,,FEW,1500,,,,,,,VFR,,,,,,,,,,,,METAR,74.0
KCEF 271358Z AUTO 17012KT 10SM CLR 24/18 A3013 RMK AO2 SLP208 T02430178,KCEF,2015-05-27T13:58:00Z,42.2,-72.52,24.3,17.8,170,12,,10.0,30.129921,1020.8,,TRUE,TRUE,,,,,,,CLR,,,,,,,,VFR,,,,,,,,,,,,METAR,75.0
KBAD 271358Z AUTO 11003KT 10SM CLR 20/20 A3007 RMK AO2 SLP184 T02040195,KBAD,2015-05-27T13:58:00Z,32.5,-93.67,20.4,19.5,110,3,,10.0,30.070866,1018.4,,TRUE,TRUE,,,,,,,CLR,,,,,,,,VFR,,,,,,,,,,,,METAR,51.0
ETOU 271358Z AUTO 25002KT 9999 OVC055 15/03 A3023 RMK AO2 SLP241 T01450030 $,ETOU,2015-05-27T13:58:00Z,50.03,8.32,14.5,3.0,250,2,,6.21,30.230314,1024.1,,TRUE,TRUE,TRUE,,,,,,OVC,5500,,,,,,,VFR,,,,,,,,,,,,METAR,141.0
ETAR 271358Z AUTO 28006KT 9999 OVC049 14/02 A3023 RMK AO2 SLP243 T01360021 $,ETAR,2015-05-27T13:58:00Z,49.42,7.58,13.6,2.1,280,6,,6.21,30.230314,1024.3,,TRUE,TRUE,TRUE,,,,,,OVC,4900,,,,,,,VFR,,,,,,,,,,,,METAR,238.0
BGTL 271358Z AUTO 29005KT 9999 CLR 00/M03 A2989 RMK AO2 SLP107 T10051032 $,BGTL,2015-05-27T13:58:00Z,76.53,-68.7,-0.5,-3.2,290,5,,6.21,29.890747,1010.7,,TRUE,TRUE,TRUE,,,,,,CLR,,,,,,,,VFR,,,,,,,,,,,,METAR,77.0
KWRI 271358Z AUTO 24013KT 10SM OVC014 25/21 A3016 RMK AO2 SLP212 T02480208,KWRI,2015-05-27T13:58:00Z,40.02,-74.58,24.8,20.8,240,13,,10.0,30.159449,1021.2,,TRUE,TRUE,,,,,,,OVC,1400,,,,,,,MVFR,,,,,,,,,,,,METAR,41.0
KRDR 271358Z AUTO 02009KT 10SM CLR 15/08 A2995 RMK AO2 SLP146 T01460077,KRDR,2015-05-27T13:58:00Z,47.97,-97.4,14.6,7.7,20,9,,10.0,29.949802,1014.6,,TRUE,TRUE,,,,,,,CLR,,,,,,,,VFR,,,,,,,,,,,,SPECI,278.0
KGTB 271358Z AUTO 23014KT 10SM BKN033 BKN044 24/20 A3001 RMK AO2 SLP159 T02420196,KGTB,2015-05-27T13:58:00Z,44.07,-75.72,24.2,19.6,230,14,,10.0,30.008858,1015.9,,TRUE,TRUE,,,,,,,BKN,3300,BKN,4400,,,,,VFR,,,,,,,,,,,,METAR,207.0
KSVN 271358Z AUTO 14006KT 10SM SCT030 27/21 A3024 RMK AO2 SLP243 T02710206,KSVN,2015-05-27T13:58:00Z,32.02,-81.15,27.1,20.6,140,6,,10.0,30.239174,1024.3,,TRUE,TRUE,,,,,,,SCT,3000,,,,,,,VFR,,,,,,,,,,,,SPECI,13.0
KMIB 271358Z AUTO 00000KT 10SM CLR 20/13 A2995 RMK AO2 SLP143 T01990128 $,KMIB,2015-05-27T13:58:00Z,48.42,-101.33,19.9,12.8,0,0,,10.0,29.949802,1014.3,,TRUE,TRUE,TRUE,,,,,,CLR,,,,,,,,VFR,,,,,,,,,,,,SPECI,508.0
KLRF 271358Z AUTO 14003KT 10SM CLR 23/20 A3011 RMK AO2 SLP197 T02270197 VISNO RWY07 CHINO RWY07,KLRF,2015-05-27T13:58:00Z,34.92,-92.15,22.7,19.7,140,3,,10.0,30.109253,1019.7,,TRUE,TRUE,,,,,,,CLR,,,,,,,,VFR,,,,,,,,,,,,METAR,95.0
KFSI 271358Z AUTO 16005KT 10SM SCT027 21/17 A3005 RMK AO2 SLP170 T02060172,KFSI,2015-05-27T13:58:00Z,34.65,-98.4,20.6,17.2,160,5,,10.0,30.050198,1017.0,,TRUE,TRUE,,,,,,,SCT,2700,,,,,,,VFR,,,,,,,,,,,,SPECI,362.0
RKSG 271358Z AUTO 28002KT 10SM OVC210 21/13 A2980 RMK AO2 SLP094 T02070131 $,RKSG,2015-05-27T13:58:00Z,36.97,127.02,20.7,13.1,280,2,,10.0,29.799213,1009.4,,TRUE,TRUE,TRUE,,,,,,OVC,21000,,,,,,,VFR,,,,,,,,,,,,METAR,16.0
RKJK 271358Z AUTO 06002KT 10SM CLR 19/13 A2980 RMK AO2 SLP095 T01940131 VISNO RWY18 CHINO RWY18 $,RKJK,2015-05-27T13:58:00Z,35.9,126.62,19.4,13.1,60,2,,10.0,29.799213,1009.5,,TRUE,TRUE,TRUE,,,,,,CLR,,,,,,,,VFR,,,,,,,,,,,,METAR,9.0
PAEI 271358Z AUTO VRB04KT 10SM FEW170 09/07 A3012 RMK AO2 SLP203 T00940068 $,PAEI,2015-05-27T13:58:00Z,64.67,-147.1,9.4,6.8,0,4,,10.0,30.121063,1020.3,,TRUE,TRUE,TRUE,,,,,,FEW,17000,,,,,,,VFR,,,,,,,,,,,,METAR,167.0
KXMR 271358Z AUTO 12009KT 10SM CLR 28/19 A3019 RMK AO2 SLP226 T02760191,KXMR,2015-05-27T13:58:00Z,28.47,-80.57,27.6,19.1,120,9,,10.0,30.188976,1022.6,,TRUE,TRUE,,,,,,,CLR,,,,,,,,VFR,,,,,,,,,,,,SPECI,3.0
KVBG 271358Z AUTO 35006KT 10SM OVC011 12/09 A3003 RMK AO2 SLP172 T01170091 TSNO,KVBG,2015-05-27T13:58:00Z,34.73,-120.58,11.7,9.1,350,6,,10.0,30.029528,1017.2,,TRUE,TRUE,,,TRUE,,,,OVC,1100,,,,,,,MVFR,,,,,,,,,,,,SPECI,112.0
KVAD 271358Z AUTO 12005KT 10SM FEW013 SCT200 26/22 A3022 RMK AO2 SLP234 T02600216 $,KVAD,2015-05-27T13:58:00Z,30.97,-83.2,26.0,21.6,120,5,,10.0,30.221457,1023.4,,TRUE,TRUE,TRUE,,,,,,FEW,1300,SCT,20000,,,,,VFR,,,,,,,,,,,,METAR,71.0
KSLI 271358Z 27003KT 10SM OVC023 17/13 A2998 RMK AO2A SLP155 T01670125,KSLI,2015-05-27T13:58:00Z,33.77,-118.03,16.7,12.5,270,3,,10.0,29.97933,1015.5,,,TRUE,,,,,,,OVC,2300,,,,,,,MVFR,,,,,,,,,,,,SPECI,11.0
KLFI 271358Z AUTO 20013KT 9SM CLR 26/21 A3022 RMK AO2 SLP240 T02620209 $,KLFI,2015-05-27T13:58:00Z,37.07,-76.37,26.2,20.9,200,13,,9.0,30.221457,1024.0,,TRUE,TRUE,TRUE,,,,,,CLR,,,,,,,,VFR,,,,,,,,,,,,METAR,3.0
KIAB 271358Z AUTO 07006KT 10SM CLR 20/16 A3007 RMK AO2 SLP177 T01970159,KIAB,2015-05-27T13:58:00Z,37.62,-97.27,19.7,15.9,70,6,,10.0,30.070866,1017.7,,TRUE,TRUE,,,,,,,CLR,,,,,,,,VFR,,,,,,,,,,,,SPECI,418.0
KGRF 271358Z AUTO 30003KT 10SM BKN006 BKN044 11/11 A3007 RMK AO2 CIG 006V044 BKN006 V SCT SLP186 T01100109,KGRF,2015-05-27T13:58:00Z,47.07,-122.57,11.0,10.9,300,3,,10.0,30.070866,1018.6,,TRUE,TRUE,,,,,,,BKN,600,BKN,4400,,,,,IFR,,,,,,,,,,,,SPECI,92.0
KFHU 271358Z AUTO 02002KT 10SM CLR 16/M03 A3011 RMK AO2 SLP130 T01641032 $,KFHU,2015-05-27T13:58:00Z,31.58,-110.35,16.4,-3.2,20,2,,10.0,30.109253,1013.0,,TRUE,TRUE,TRUE,,,,,,CLR,,,,,,,,VFR,,,,,,,,,,,,SPECI,1438.0
KFCS 271358Z AUTO VRB01KT 10SM CLR 12/08 A3014 RMK AO2 SLP180 T01190077 $,KFCS,2015-05-27T13:58:00Z,38.67,-104.77,11.9,7.7,0,1,,10.0,30.138779,1018.0,,TRUE,TRUE,TRUE,,,,,,CLR,,,,,,,,VFR,,,,,,,,,,,,SPECI,1789.0
KBKF 271358Z 23005KT 10SM FEW110 SCT220 14/05 A3010 RMK AO2A SLP140 T01410053,KBKF,2015-05-27T13:58:00Z,39.72,-104.75,14.1,5.3,230,5,,10.0,30.100393,1014.0,,,TRUE,,,,,,,FEW,11000,SCT,22000,,,,,VFR,,,,,,,,,,,,SPECI,1726.0
KBIX 271358Z AUTO 15006KT 10SM CLR 28/24 A3014 RMK AO2 SLP209 T02770236,KBIX,2015-05-27T13:58:00Z,30.42,-88.92,27.7,23.6,150,6,,10.0,30.138779,1020.9,,TRUE,TRUE,,,,,,,CLR,,,,,,,,VFR,,,,,,,,,,,,METAR,10.0
KBAB 271358Z AUTO 14007KT 10SM CLR 13/11 A2996 RMK AO2 SLP148 T01300108 $,KBAB,2015-05-27T13:58:00Z,39.12,-121.42,13.0,10.8,140,7,,10.0,29.958662,1014.8,,TRUE,TRUE,TRUE,,,,,,CLR,,,,,,,,VFR,,,,,,,,,,,,SPECI,34.0
PWAK 271358Z AUTO 05006KT 9999 FEW020 26/24 A2994 RMK AO2 SLP145 T02600238 $,PWAK,2015-05-27T13:58:00Z,19.28,166.65,26.0,23.8,50,6,,6.21,29.940945,1014.5,,TRUE,TRUE,TRUE,,,,,,FEW,2000,,,,,,,VFR,,,,,,,,,,,,METAR,4.0
PHHI 271358Z AUTO 29005KT 10SM SCT060 18/15 A2992 RMK AO2 SLP124 T01810152 $,PHHI,2015-05-27T13:58:00Z,21.48,-158.05,18.1,15.2,290,5,,10.0,29.920275,1012.4,,TRUE,TRUE,TRUE,,,,,,SCT,6000,,,,,,,VFR,,,,,,,,,,,,METAR,255.0
PGUA 271358Z AUTO 09009KT 10SM SCT011 SCT019 BKN032 26/24 A2986 RMK AO2 RAE00 SLP102 P0000 T02600240 402940226 VISNO RWY24L CHINO RWY24L $,PGUA,2015-05-27T13:58:00Z,13.57,144.92,26.0,24.0,90,9,,10.0,29.861221,1010.2,,TRUE,TRUE,TRUE,,,,,,SCT,1100,SCT,1900,BKN,3200,,,VFR,,,,29.4,22.6,0.0050,,,,,,METAR,187.0
KTCM 271358Z AUTO 29005KT 10SM OVC043 11/11 A3007 RMK AO2 SLP186 T01080108 $,KTCM,2015-05-27T13:58:00Z,47.12,-122.47,10.8,10.8,290,5,,10.0,30.070866,1018.6,,TRUE,TRUE,TRUE,,,,,,OVC,4300,,,,,,,VFR,,,,,,,,,,,,SPECI,98.0
KSUU 271358Z AUTO 25015KT 10SM OVC008 12/10 A2995 RMK AO2 OVC V BKN SLP149 T01220100 $,KSUU,2015-05-27T13:58:00Z,38.27,-121.92,12.2,10.0,250,15,,10.0,29.949802,1014.9,,TRUE,TRUE,TRUE,,,,,,OVC,800,,,,,,,IFR,,,,,,,,,,,,SPECI,19.0
KSKA 271358Z AUTO 09002KT 10SM CLR 11/10 A3001 RMK AO2 SLP164 T01090104,KSKA,2015-05-27T13:58:00Z,47.62,-117.65,10.9,10.4,90,2,,10.0,30.008858,1016.4,,TRUE,TRUE,,,,,,,CLR,,,,,,,,VFR,,,,,,,,,,,,SPECI,750.0
KINS 271358Z AUTO 25002KT 10SM CLR 18/M01 A2998 RMK AO2 SLP111 T01751011 $,KINS,2015-05-27T13:58:00Z,36.58,-115.67,17.5,-1.1,250,2,,10.0,29.97933,1011.1,,TRUE,TRUE,TRUE,,,,,,CLR,,,,,,,,VFR,,,,,,,,,,,,SPECI,955.0
KBIF 271358Z AUTO 00000KT 10SM CLR 18/M03 A3007 RMK AO2 SLP124 T01811032 $,KBIF,2015-05-27T13:58:00Z,31.85,-106.38,18.1,-3.2,0,0,,10.0,30.070866,1012.4,,TRUE,TRUE,TRUE,,,,,,CLR,,,,,,,,VFR,,,,,,,,,,,,METAR,1203.0
KMUO 271358Z AUTO 02009KT 10SM CLR 14/08 A3000 RMK AO2 SLP144 T01440079 $,KMUO,2015-05-27T13:58:00Z,43.03,-115.87,14.4,7.9,20,9,,10.0,30.0,1014.4,,TRUE,TRUE,TRUE,,,,,,CLR,,,,,,,,VFR,,,,,,,,,,,,SPECI,913.0
KLUF 271358Z AUTO 32004KT 10SM CLR 21/05 A2990 RMK AO2 SLP113 T02120054 $,KLUF,2015-05-27T13:58:00Z,33.52,-112.37,21.2,5.4,320,4,,10.0,29.899607,1011.3,,TRUE,TRUE,TRUE,,,,,,CLR,,,,,,,,VFR,,,,,,,,,,,,SPECI,332.0
KGXF 271358Z AUTO 05003KT 10SM CLR 22/03 A2990 RMK AO2 SLP113 T02240026,KGXF,2015-05-27T13:58:00Z,32.87,-112.72,22.4,2.6,50,3,,10.0,29.899607,1011.3,,TRUE,TRUE,,,,,,,CLR,,,,,,,,VFR,,,,,,,,,,,,SPECI,262.0
KDMA 271358Z AUTO VRB02KT 10SM CLR 18/M01 A2999 RMK AO2 SLP116 T01801007 $,KDMA,2015-05-27T13:58:00Z,32.17,-110.87,18.0,-0.7,0,2,,10.0,29.991142,1011.6,,TRUE,TRUE,TRUE,,,,,,CLR,,,,,,,,VFR,,,,,,,,,,,,SPECI,824.0
KCVS 271358Z AUTO 17003KT 10SM CLR 20/14 A3012 RMK AO2 SLP145 T02010141 $,KCVS,2015-05-27T13:58:00Z,34.37,-103.32,20.1,14.1,170,3,,10.0,30.121063,1014.5,,TRUE,TRUE,TRUE,,,,,,CLR,,,,,,,,VFR,,,,,,,,,,,,SPECI,1309.0
KLSV 271358Z AUTO 07009KT 10SM CLR 23/04 A2991 RMK AO2 SLP107 T02270035 $,KLSV,2015-05-27T13:58:00Z,36.22,-115.02,22.7,3.5,70,9,,10.0,29.911417,1010.7,,TRUE,TRUE,TRUE,,,,,,CLR,,,,,,,,VFR,,,,,,,,,,,,SPECI,570.0
KHMN 271358Z AUTO 30005KT 10SM CLR 19/00 A3008 RMK AO2 SLP122 T01921001 $,KHMN,2015-05-27T13:58:00Z,32.85,-106.08,19.2,-0.1,300,5,,10.0,30.079725,1012.2,,TRUE,TRUE,TRUE,,,,,,CLR,,,,,,,,VFR,,,,,,,,,,,,SPECI,1248.0
KAFF 271358Z AUTO 18002KT 10SM CLR 10/08 A3017 RMK AO2 SLP161 T01040078,KAFF,2015-05-27T13:58:00Z,38.97,-104.82,10.4,7.8,180,2,,10.0,30.171259,1016.1,,TRUE,TRUE,,,,,,,CLR,,,,,,,,VFR,,,,,,,,,,,,SPECI,2003.0
PFSH 271358Z AUTO 18010KT 10SM FEW070 BKN080 10/06 A3015 RMK AO2 SLP223 T01000061,PFSH,2015-05-27T13:58:00Z,64.37,-161.22,10.0,6.1,180,10,,10.0,30.15059,1022.3,,TRUE,TRUE,,,,,,,FEW,7000,BKN,8000,,,,,VFR,,,,,,,,,,,,METAR,7.0
PFNO 271358Z AUTO 06006KT 10SM CLR 08/07 A3013 RMK AO2 SLP206 T00830072,PFNO,2015-05-27T13:58:00Z,66.82,-161.02,8.3,7.2,60,6,,10.0,30.129921,1020.6,,TRUE,TRUE,,,,,,,CLR,,,,,,,,VFR,,,,,,,,,,,,METAR,17.0
PFEL 271358Z AUTO 21004KT 10SM SCT070 OVC090 09/07 A3012 RMK AO2 SLP205 T00940067,PFEL,2015-05-27T13:58:00Z,64.62,-162.27,9.4,6.7,210,4,,10.0,30.121063,1020.5,,TRUE,TRUE,,,,,,,SCT,7000,OVC,9000,,,,,VFR,,,,,,,,,,,,METAR,49.0
KSGJ 271358Z AUTO 11006KT 10SM CLR 27/21 A3024 RMK AO2 SLP239 T02720206,KSGJ,2015-05-27T13:58:00Z,29.97,-81.32,27.2,20.6,110,6,,10.0,30.239174,1023.9,,TRUE,TRUE,,,,,,,CLR,,,,,,,,VFR,,,,,,,,,,,,METAR,3.0
KORD 271358Z 25012G20KT 10SM BKN024 19/14 A2994 RMK AO2 T01940144,KORD,2015-05-27T13:58:00Z,41.98,-87.93,19.4,14.4,250,12,20,10.0,29.940945,,,,TRUE,,,,,,,BKN,2400,,,,,,,MVFR,,,,,,,,,,,,METAR,200.0
KMRH 271358Z AUTO 17009KT 10SM BKN041 26/19 A3029 RMK AO2 SLP256 T02560194 TSNO,KMRH,2015-05-27T13:58:00Z,34.73,-76.65,25.6,19.4,170,9,,10.0,30.28937,1025.6,,TRUE,TRUE,,,TRUE,,,,BKN,4100,,,,,,,VFR,,,,,,,,,,,,METAR,3.0
KMEI 271358Z 16007KT 10SM OVC007 23/22 A3019 RMK AO2 SLP219 T02330217,KMEI,2015-05-27T13:58:00Z,32.33,-88.75,23.3,21.7,160,7,,10.0,30.188976,1021.9,,,TRUE,,,,,,,OVC,700,,,,,,,IFR,,,,,,,,,,,,METAR,89.0
KGOV 271358Z AUTO 23015G19KT 10SM BKN024 BKN032 20/14 A2982 RMK AO2,KGOV,2015-05-27T13:58:00Z,44.68,-84.73,20.0,14.0,230,15,19,10.0,29.819881,,,TRUE,TRUE,,,,,,,BKN,2400,BKN,3200,,,,,MVFR,,,,,,,,,,,,METAR,353.0
KBAZ 271358Z 05008KT 6SM BR OVC006 23/21 A3005 RMK AO2 LTG DSNT NE CIG 004V009 T02280211,KBAZ,2015-05-27T13:58:00Z,29.72,-98.05,22.8,21.1,50,8,,6.0,30.050198,,,,TRUE,,,,,,BR,OVC,600,,,,,,,IFR,,,,,,,,,,,,METAR,195.0
KSKF 271358Z AUTO 15009KT 8SM BKN010 OVC017 26/24 A3002 RMK AO2 BKN V OVC SLP158 T02560244 $,KSKF,2015-05-27T13:58:00Z,29.37,-98.57,25.6,24.4,150,9,,8.0,30.02067,1015.8,,TRUE,TRUE,TRUE,,,,,,BKN,1000,OVC,1700,,,,,MVFR,,,,,,,,,,,,METAR,210.0
KMXF 271358Z AUTO 00000KT 10SM SCT037 23/20 A3021 RMK AO2 SLP232 T02310198,KMXF,2015-05-27T13:58:00Z,32.37,-86.37,23.1,19.8,0,0,,10.0,30.209646,1023.2,,TRUE,TRUE,,,,,,,SCT,3700,,,,,,,VFR,,,,,,,,,,,,METAR,51.0
KMCF 271358Z AUTO 11007KT 10SM FEW025 27/22 A3019 RMK AO2 SLP226 T02690223,KMCF,2015-05-27T13:58:00Z,27.85,-82.52,26.9,22.3,110,7,,10.0,30.188976,1022.6,,TRUE,TRUE,,,,,,,FEW,2500,,,,,,,VFR,,,,,,,,,,,,METAR,4.0
KLHW 271358Z AUTO 11008KT 10SM SCT023 27/19 A3024 RMK AO2 SLP243 T02730193,KLHW,2015-05-27T13:58:00Z,31.87,-81.57,27.3,19.3,110,8,,10.0,30.239174,1024.3,,TRUE,TRUE,,,,,,,SCT,2300,,,,,,,VFR,,,,,,,,,,,,METAR,14.0
KHLR 271358Z AUTO 14009KT 10SM BKN025 20/18 A3007 RMK AO2 SLP174 T02020184,KHLR,2015-05-27T13:58:00Z,31.13,-97.72,20.2,18.4,140,9,,10.0,30.070866,1017.4,,TRUE,TRUE,,,,,,,BKN,2500,,,,,,,MVFR,,,,,,,,,,,,METAR,283.0
KDYS 271358Z AUTO 19013G21KT 10SM OVC010 23/18 A3003 RMK AO2 SLP132 T02280184 PWINO $,KDYS,2015-05-27T13:58:00Z,32.42,-99.83,22.8,18.4,190,13,21,10.0,30.029528,1013.2,,TRUE,TRUE,TRUE,,,,TRUE,,OVC,1000,,,,,,,MVFR,,,,,,,,,,,,METAR,545.0
KDAA 271358Z AUTO 16005KT 10SM BKN016 BKN023 25/20 A3017 RMK AO2 CIG 016V022 BKN016 V SCT SLP219 T02460204,KDAA,2015-05-27T13:58:00Z,38.72,-77.17,24.6,20.4,160,5,,10.0,30.171259,1021.9,,TRUE,TRUE,,,,,,,BKN,1600,BKN,2300,,,,,MVFR,,,,,,,,,,,,METAR,21.0
K0J4 271358Z AUTO 09003KT 10SM FEW006 23/21 A3019 RMK AO2 SLP221 T02330206,K0J4,2015-05-27T13:58:00Z,31.05,-86.32,23.3,20.6,90,3,,10.0,30.188976,1022.1,,TRUE,TRUE,,,,,,,FEW,600,,,,,,,VFR,,,,,,,,,,,,SPECI,96.0
K1J0 271358Z AUTO 00000KT 10SM BKN009 24/22 A3020 RMK AO2 SLP184 T02390217,K1J0,2015-05-27T13:58:00Z,30.85,-85.6,23.9,21.7,0,0,,10.0,30.200787,1018.4,,TRUE,TRUE,,,,,,,BKN,900,,,,,,,IFR,,,,,,,,,,,,SPECI,26.0
RJTY 271358Z AUTO 05007KT 10SM FEW028 BKN034 21/15 A2996 RMK AO2 SLP143 T02050150,RJTY,2015-05-27T13:58:00Z,35.75,139.33,20.5,15.0,50,7,,10.0,29.958662,1014.3,,TRUE,TRUE,,,,,,,FEW,2800,BKN,3400,,,,,VFR,,,,,,,,,,,,METAR,139.0
PFKT 271358Z AUTO 11008KT 10SM 08/06 A3006 RMK AO2 SLP180 T00780056 $,PFKT,2015-05-27T13:58:00Z,65.33,-166.47,7.8,5.6,110,8,,10.0,30.059055,1018.0,,TRUE,TRUE,TRUE,,,,,,,,,,,,,,,,,,,,,,,,,,METAR,9.0
PAWM 271358Z AUTO 18008KT 10SM SCT070 OVC090 08/07 A3009 RMK AO2 SLP202 T00830067,PAWM,2015-05-27T13:58:00Z,64.68,-163.42,8.3,6.7,180,8,,10.0,30.088583,1020.2,,TRUE,TRUE,,,,,,,SCT,7000,OVC,9000,,,,,VFR,,,,,,,,,,,,METAR,82.0
PATE 271358Z AUTO 12005KT 10SM FEW075 OVC100 09/07 A3005 RMK AO2 SLP187 T00940067,PATE,2015-05-27T13:58:00Z,65.23,-166.33,9.4,6.7,120,5,,10.0,30.050198,1018.7,,TRUE,TRUE,,,,,,,FEW,7500,OVC,10000,,,,,VFR,,,,,,,,,,,,METAR,90.0
PAIW 271358Z AUTO 00000KT 10SM OVC085 07/04 A3004 RMK AO2 SLP172 T00670044,PAIW,2015-05-27T13:58:00Z,65.62,-168.1,6.7,4.4,0,0,,10.0,30.041338,1017.2,,TRUE,TRUE,,,,,,,OVC,8500,,,,,,,VFR,,,,,,,,,,,,METAR,7.0
PAGA 271358Z AUTO 00000KT 10SM BKN100 08/06 A3018 RMK AO2 SLP225 T00830061 PNO $,PAGA,2015-05-27T13:58:00Z,64.73,-156.93,8.3,6.1,0,0,,10.0,30.180119,1022.5,,TRUE,TRUE,TRUE,,,,,,BKN,10000,,,,,,,VFR,,,,,,,,,,,,METAR,46.0
PHNY 271358Z AUTO 05006KT 10SM CLR 17/16 A2997 RMK AO2 SLP132 T01670161,PHNY,2015-05-27T13:58:00Z,20.77,-156.93,16.7,16.1,50,6,,10.0,29.970472,1013.2,,TRUE,TRUE,,,,,,,CLR,,,,,,,,VFR,,,,,,,,,,,,METAR,399.0
PAED 271358Z 00000KT 10SM BKN050 06/03 A3029 RMK AO2A SLP254 T00620026,PAED,2015-05-27T13:58:00Z,61.25,-149.8,6.2,2.6,0,0,,10.0,30.28937,1025.4,,,TRUE,,,,,,,BKN,5000,,,,,,,VFR,,,,,,,,,,,,METAR,59.0
MHSC 271358Z 34005KT 9999 FEW080 SCT150 25/17 A3005 RMK AO2A SLP132 T02550170,MHSC,2015-05-27T13:58:00Z,14.37,-87.62,25.5,17.0,340,5,,6.21,30.050198,1013.2,,,TRUE,,,,,,,FEW,8000,SCT,15000,,,,,VFR,,,,,,,,,,,,METAR,626.0
KTBN 271358Z 21005KT 10SM SCT150 19/19 A3010 RMK SLP180 T01940194,KTBN,2015-05-27T13:58:00Z,37.72,-92.12,19.4,19.4,210,5,,10.0,30.100393,1018.0,,,,,,,,,,SCT,15000,,,,,,,VFR,,,,,,,,,,,,METAR,353.0
KMGE 271358Z VRB01KT 7SM BKN009 OVC025 20/19 A3026 RMK AO2A SLP242 T02020189 $,KMGE,2015-05-27T13:58:00Z,33.92,-84.52,20.2,18.9,0,1,,7.0,30.259842,1024.2,,,TRUE,TRUE,,,,,,BKN,900,OVC,2500,,,,,IFR,,,,,,,,,,,,METAR,326.0
KHUA 271358Z VRB02KT 10SM OVC011 22/19 A3020 RMK AO2A SLP223 T02160193,KHUA,2015-05-27T13:58:00Z,34.68,-86.68,21.6,19.3,0,2,,10.0,30.200787,1022.3,,,TRUE,,,,,,,OVC,1100,,,,,,,MVFR,,,,,,,,,,,,METAR,209.0
KEDW 271358Z 21006KT 70SM BKN250 15/07 A2993 RMK AO2A SLP119 T01470066,KEDW,2015-05-27T13:58:00Z,34.88,-117.87,14.7,6.6,210,6,,70.0,29.929134,1011.9,,,TRUE,,,,,,,BKN,25000,,,,,,,VFR,,,,,,,,,,,,METAR,702.0
KMMT 271358Z 22005KT 10SM SCT011 BKN020 BKN120 BKN250 25/21 A3027 RMK AO2A SLP251 T02470214,KMMT,2015-05-27T13:58:00Z,33.92,-80.78,24.7,21.4,220,5,,10.0,30.268702,1025.1,,,TRUE,,,,,,,SCT,1100,BKN,2000,BKN,12000,BKN,25000,MVFR,,,,,,,,,,,,METAR,77.0
KCUL 271358Z AUTO 23007KT 10SM SCT120 22/16 A3010 RMK AO2 LTG DSNT SW,KCUL,2015-05-27T13:58:00Z,38.08,-88.12,22.0,16.0,230,7,,10.0,30.100393,,,TRUE,TRUE,,,,,,,SCT,12000,,,,,,,VFR,,,,,,,,,,,,METAR,118.0
KBKT 271358Z AUTO 22009G20KT 10SM SCT024 26/21 A3023 RMK AO2,KBKT,2015-05-27T13:58:00Z,37.07,-77.95,26.0,21.0,220,9,20,10.0,30.230314,,,TRUE,TRUE,,,,,,,SCT,2400,,,,,,,VFR,,,,,,,,,,,,METAR,134.0
KLVL 271358Z AUTO 18006KT 10SM BKN016 24/21 A3024 RMK AO2,KLVL,2015-05-27T13:58:00Z,36.78,-77.8,24.0,21.0,180,6,,10.0,30.239174,,,TRUE,TRUE,,,,,,,BKN,1600,,,,,,,MVFR,,,,,,,,,,,,METAR,100.0
ETIK 271358Z AUTO 01008KT 9999 FEW045 OVC060 14/03 A3022 RMK AO2 SLP236 T01370033,ETIK,2015-05-27T13:58:00Z,49.47,10.37,13.7,3.3,10,8,,6.21,30.221457,1023.6,,TRUE,TRUE,,,,,,,FEW,4500,OVC,6000,,,,,VFR,,,,,,,,,,,,METAR,325.0
ETIH 271358Z AUTO 33006KT 9999 OVC049 12/03 A3020 RMK AO2 SLP231,ETIH,2015-05-27T13:58:00Z,49.22,11.82,12.0,3.0,330,6,,6.21,30.200787,1023.1,,TRUE,TRUE,,,,,,,OVC,4900,,,,,,,VFR,,,,,,,,,,,,METAR,442.0
KQGX 271358Z AUTO 29013KT 9999 CLR 37/14 A2973 RMK AO2 SLP069 T03680139 $,KQGX,2015-05-27T13:58:00Z,100.65,-1000.65,36.8,13.9,290,13,,6.21,29.731298,1006.9,,TRUE,TRUE,TRUE,,,,,,CLR,,,,,,,,VFR,,,,,,,,,,,,METAR,999.0
KQIR 271358Z 34011KT 9999 CLR 41/01 A2970 RMK AO2A SLP058 T04140013,KQIR,2015-05-27T13:58:00Z,100.65,-1000.65,41.4,1.3,340,11,,6.21,29.698818,1005.8,,,TRUE,,,,,,,CLR,,,,,,,,VFR,,,,,,,,,,,,METAR,999.0
KQSA 271358Z 01009KT 9999 BKN170 27/00 A2987 RMK AO2A SLP027 T02661004 VISNO RWY21 CHINO RWY21 $,KQSA,2015-05-27T13:58:00Z,100.65,-1000.65,26.6,-0.4,10,9,,6.21,29.870079,1002.7,,,TRUE,TRUE,,,,,,BKN,17000,,,,,,,VFR,,,,,,,,,,,,METAR,999.0
RKSO 271358Z 00000KT 7SM SCT200 20/09 A2980 RMK AO2A SLP094 T01970086 $,RKSO,2015-05-27T13:58:00Z,37.07,127.02,19.7,8.6,0,0,,7.0,29.799213,1009.4,,,TRUE,TRUE,,,,,,SCT,20000,,,,,,,VFR,,,,,,,,,,,,METAR,12.0
KVOK 271358Z 29007KT 10SM BKN015 BKN060 17/14 A2995 RMK AO2A BKN V SCT SLPNO WND DATA/ALSTG ESTMD,KVOK,2015-05-27T13:58:00Z,43.92,-90.27,17.0,14.0,290,7,,10.0,29.949802,,,,TRUE,,,,,,,BKN,1500,BKN,6000,,,,,MVFR,,,,,,,,,,,,METAR,277.0
KSZL 271358Z 28004KT 10SM CLR 21/15 A3008 RMK AO2A SLP183 T02120147 $,KSZL,2015-05-27T13:58:00Z,38.72,-93.53,21.2,14.7,280,4,,10.0,30.079725,1018.3,,,TRUE,TRUE,,,,,,CLR,,,,,,,,VFR,,,,,,,,,,,,METAR,265.0
KFFO 271358Z 22011KT 10SM SCT024 SCT250 22/18 A3011 RMK AO2A SLP195 T02190179,KFFO,2015-05-27T13:58:00Z,39.82,-84.03,21.9,17.9,220,11,,10.0,30.109253,1019.5,,,TRUE,,,,,,,SCT,2400,SCT,25000,,,,,VFR,,,,,,,,,,,,METAR,251.0
KSSC 271358Z 23007KT 10SM FEW018 SCT020 BKN200 26/21 A3025 RMK AO2A CIG LWR NE SLP243 T02630210 $,KSSC,2015-05-27T13:58:00Z,33.97,-80.47,26.3,21.0,230,7,,10.0,30.250984,1024.3,,,TRUE,TRUE,,,,,,FEW,1800,SCT,2000,BKN,20000,,,VFR,,,,,,,,,,,,METAR,74.0
LIYW 271358Z AUTO VRB04KT 9999 FEW055 SCT065 20/09 A2999 RMK AO2 TSE1259 SLP157 T02030091,LIYW,2015-05-27T13:58:00Z,46.02,12.62,20.3,9.1,0,4,,6.21,29.991142,1015.7,,TRUE,TRUE,,,,,,,FEW,5500,SCT,6500,,,,,VFR,,,,,,,,,,,,METAR,126.0
EGUN 271358Z 24008KT 210V280 9999 FEW044 17/07 A3012 RMK AO2A SLP203 T01710071 VISNO RWY11 CHINO RWY11 .,EGUN,2015-05-27T13:58:00Z,52.37,0.47,17.1,7.1,240,8,,6.21,30.121063,1020.3,,,TRUE,,,,,,,FEW,4400,,,,,,,VFR,,,,,,,,,,,,METAR,10.0
EGUL 271358Z 23009KT 9999 CLR 17/06 A3012 RMK AO2A SLP203 T01740061,EGUL,2015-05-27T13:58:00Z,52.42,0.57,17.4,6.1,230,9,,6.21,30.121063,1020.3,,,TRUE,,,,,,,CLR,,,,,,,,VFR,,,,,,,,,,,,METAR,10.0
KOLV 271358Z 20010KT 8SM TS SCT050 BKN065 24/21 A3016 RMK OCNL LTG ICCCCG TSB58 TS SE-SW MOV ENE,KOLV,2015-05-27T13:58:00Z,34.98,-89.78,24.0,21.0,200,10,,8.0,30.159449,,,,,,,,,,TS,SCT,5000,BKN,6500,,,,,VFR,,,,,,,,,,,,METAR,122.0
PAGH 271357Z AUTO 11008KT 10SM CLR 08/07 A3016 RMK AO2 SLP243 T00830067,PAGH,2015-05-27T13:57:00Z,66.88,-157.17,8.3,6.7,110,8,,10.0,30.159449,1024.3,,TRUE,TRUE,,,,,,,CLR,,,,,,,,VFR,,,,,,,,,,,,SPECI,60.0
MMGM 271357Z RTD 00000KT 10SM SKC 23/08 A2986 RMK HZY RTS,MMGM,2015-05-27T13:57:00Z,27.95,-110.92,23.0,8.0,0,0,,10.0,29.861221,,,,,,,,,,,SKC,,,,,,,,VFR,,,,,,,,,,,,METAR,20.0
PHNG 271357Z 14003KT SCT065 21/19 A2990 RMK AO2 SLP120 T02110189 $,PHNG,2015-05-27T13:57:00Z,21.43,-157.77,21.1,18.9,140,3,,,29.899607,1012.0,,,TRUE,TRUE,,,,,,SCT,6500,,,,,,,,,,,,,,,,,,,METAR,3.0
KNSI 271357Z 30012KT 10SM OVC013 13/09 A3001 RMK AO2 SLP157 T01280094 $,KNSI,2015-05-27T13:57:00Z,33.22,-119.45,12.8,9.4,300,12,,10.0,30.008858,1015.7,,,TRUE,TRUE,,,,,,OVC,1300,,,,,,,MVFR,,,,,,,,,,,,METAR,154.0
KRND 271357Z 13009KT 4SM BR OVC009 25/25 A3004 RMK SLP165 T02520246,KRND,2015-05-27T13:57:00Z,29.52,-98.27,25.2,24.6,130,9,,4.0,30.041338,1016.5,,,,,,,,,BR,OVC,900,,,,,,,IFR,,,,,,,,,,,,METAR,232.0
KNYL 271357Z 28003KT 10SM SCT160 BKN250 21/06 A2986 RMK AO2 SLP109 T02110061,KNYL,2015-05-27T13:57:00Z,32.63,-114.62,21.1,6.1,280,3,,10.0,29.861221,1010.9,,,TRUE,,,,,,,SCT,16000,BKN,25000,,,,,VFR,,,,,,,,,,,,METAR,65.0
KFLG 271357Z 00000KT 10SM CLR 11/03 A3021 RMK AO2 SLP148 T01060028,KFLG,2015-05-27T13:57:00Z,35.13,-111.67,10.6,2.8,0,0,,10.0,30.209646,1014.8,,,TRUE,,,,,,,CLR,,,,,,,,VFR,,,,,,,,,,,,SPECI,2134.0
KROG 271357Z 35007KT 10SM CLR 21/17 A3012 RMK AO2 SLP190 T02110172,KROG,2015-05-27T13:57:00Z,36.37,-94.08,21.1,17.2,350,7,,10.0,30.121063,1019.0,,,TRUE,,,,,,,CLR,,,,,,,,VFR,,,,,,,,,,,,SPECI,415.0
KJST 271357Z AUTO 21006KT 3SM RA BR SCT008 BKN047 OVC100 18/17 A3021 RMK AO2 P0001 T01780167,KJST,2015-05-27T13:57:00Z,40.32,-78.83,17.8,16.7,210,6,,3.0,30.209646,,,TRUE,TRUE,,,,,,RA BR,SCT,800,BKN,4700,OVC,10000,,,MVFR,,,,,,0.01,,,,,,SPECI,694.0
KADS 271357Z AUTO 12004KT 10SM CLR 23/17 A3011 RMK AO2,KADS,2015-05-27T13:57:00Z,32.97,-96.82,23.0,17.0,120,4,,10.0,30.109253,,,TRUE,TRUE,,,,,,,CLR,,,,,,,,VFR,,,,,,,,,,,,METAR,196.0
KSLR 271357Z AUTO 27004KT 10SM CLR 21/17 A3010 RMK AO2,KSLR,2015-05-27T13:57:00Z,33.17,-95.62,21.0,17.0,270,4,,10.0,30.100393,,,TRUE,TRUE,,,,,,,CLR,,,,,,,,VFR,,,,,,,,,,,,METAR,149.0
KFEW 271356Z AUTO 29010KT 10SM CLR 13/07 A3006 RMK AO2 SLP127 T01320067 $,KFEW,2015-05-27T13:56:00Z,41.13,-104.87,13.2,6.7,290,10,,10.0,30.059055,1012.7,,TRUE,TRUE,TRUE,,,,,,CLR,,,,,,,,VFR,,,,,,,,,,,,METAR,1878.0
KQRH 271356Z AUTO 06009KT 9999 CLR 33/24 A2971 RMK AO2 LTG DSNT S SLP054 T03330239,KQRH,2015-05-27T13:56:00Z,100.65,-1000.65,33.3,23.9,60,9,,6.21,29.71063,1005.4,,TRUE,TRUE,,,,,,,CLR,,,,,,,,VFR,,,,,,,,,,,,METAR,999.0
KQBL 271356Z AUTO 14003KT 10SM CLR 28/24 A3017 RMK AO2 SLP222 T02750235,KQBL,2015-05-27T13:56:00Z,100.65,-1000.65,27.5,23.5,140,3,,10.0,30.171259,1022.2,,TRUE,TRUE,,,,,,,CLR,,,,,,,,VFR,,,,,,,,,,,,METAR,999.0
KMHS 271356Z AUTO 00000KT 10SM CLR 09/07 A3004 RMK AO2 SLP176 T00890067,KMHS,2015-05-27T13:56:00Z,41.32,-122.32,8.9,6.7,0,0,,10.0,30.041338,1017.6,,TRUE,TRUE,,,,,,,CLR,,,,,,,,VFR,,,,,,,,,,,,SPECI,1078.0
KRDM 271356Z 16003KT 10SM CLR 09/06 A3005 RMK AO2 SLP164 T00890056,KRDM,2015-05-27T13:56:00Z,44.25,-121.15,8.9,5.6,160,3,,10.0,30.050198,1016.4,,,TRUE,,,,,,,CLR,,,,,,,,VFR,,,,,,,,,,,,SPECI,938.0
KOWB 271356Z 20008KT 10SM FEW013 24/20 A3012 RMK AO2 T02380200 SLP198,KOWB,2015-05-27T13:56:00Z,37.72,-87.17,23.8,20.0,200,8,,10.0,30.121063,1019.8,,,TRUE,,,,,,,FEW,1300,,,,,,,VFR,,,,,,,,,,,,SPECI,124.0
KOFK 271356Z AUTO 30005KT 10SM CLR 18/12 A3005 RMK AO2 SLP170 T01830117,KOFK,2015-05-27T13:56:00Z,41.98,-97.43,18.3,11.7,300,5,,10.0,30.050198,1017.0,,TRUE,TRUE,,,,,,,CLR,,,,,,,,VFR,,,,,,,,,,,,SPECI,470.0
KNUQ 271356Z AUTO 00000KT 10SM OVC022 14/09 A3002 RMK AO2 SLP166 T01440089 TSNO,KNUQ,2015-05-27T13:56:00Z,37.4,-122.05,14.4,8.9,0,0,,10.0,30.02067,1016.6,,TRUE,TRUE,,,TRUE,,,,OVC,2200,,,,,,,MVFR,,,,,,,,,,,,SPECI,12.0
KMTW 271356Z AUTO 28011KT 10SM OVC019 17/14 A2985 RMK AO2 SLP873 T01720139,KMTW,2015-05-27T13:56:00Z,44.12,-87.67,17.2,13.9,280,11,,10.0,29.84941,987.3,,TRUE,TRUE,,,,,,,OVC,1900,,,,,,,MVFR,,,,,,,,,,,,SPECI,198.0
KMQY 271356Z 17006KT 10SM BKN014 23/21 A3020 RMK AO2 T02270205 SLP232,KMQY,2015-05-27T13:56:00Z,36.02,-86.52,22.7,20.5,170,6,,10.0,30.200787,1023.2,,,TRUE,,,,,,,BKN,1400,,,,,,,MVFR,,,,,,,,,,,,SPECI,166.0
KMDT 271356Z 20009G16KT 10SM SCT018 SCT110 BKN250 27/21 A3013 RMK AO2 SLP202 T02670206,KMDT,2015-05-27T13:56:00Z,40.2,-76.77,26.7,20.6,200,9,16,10.0,30.129921,1020.2,,,TRUE,,,,,,,SCT,1800,SCT,11000,BKN,25000,,,VFR,,,,,,,,,,,,SPECI,95.0
KLWS 271356Z 00000KT 10SM CLR 13/10 A3001 RMK AO2 SLP161 T01330100,KLWS,2015-05-27T13:56:00Z,46.37,-117.02,13.3,10.0,0,0,,10.0,30.008858,1016.1,,,TRUE,,,,,,,CLR,,,,,,,,VFR,,,,,,,,,,,,SPECI,438.0
KLRD 271356Z 14013G19KT 7SM CLR 28/23 A2999 RMK AO2 T02770233 SLP142,KLRD,2015-05-27T13:56:00Z,27.55,-99.47,27.7,23.3,140,13,19,7.0,29.991142,1014.2,,,TRUE,,,,,,,CLR,,,,,,,,VFR,,,,,,,,,,,,SPECI,155.0
KLNR 271356Z AUTO 30010KT 10SM FEW018 BKN024 OVC070 16/14 A2994 RMK AO2 RAB11E21 SLP132 P0000 T01610139,KLNR,2015-05-27T13:56:00Z,43.22,-90.18,16.1,13.9,300,10,,10.0,29.940945,1013.2,,TRUE,TRUE,,,,,,,FEW,1800,BKN,2400,OVC,7000,,,MVFR,,,,,,0.0050,,,,,,SPECI,217.0
TJSJ 271356Z 01008KT 10SM SCT028 28/23 A3001 RMK AO2 SLP160 T02830228,TJSJ,2015-05-27T13:56:00Z,18.43,-66.02,28.3,22.8,10,8,,10.0,30.008858,1016.0,,,TRUE,,,,,,,SCT,2800,,,,,,,VFR,,,,,,,,,,,,METAR,21.0
PFWS 271356Z AUTO 16018G23KT 10SM OVC055 07/03 A3025 RMK AO2 SLP250 T00670033,PFWS,2015-05-27T13:56:00Z,58.7,-157.0,6.7,3.3,160,18,23,10.0,30.250984,1025.0,,TRUE,TRUE,,,,,,,OVC,5500,,,,,,,VFR,,,,,,,,,,,,SPECI,49.0
PAHX 271356Z AUTO 14005KT 10SM BKN090 BKN110 08/03 A3016 RMK AO2 SLP217 T00830033,PAHX,2015-05-27T13:56:00Z,62.7,-159.57,8.3,3.3,140,5,,10.0,30.159449,1021.7,,TRUE,TRUE,,,,,,,BKN,9000,BKN,11000,,,,,VFR,,,,,,,,,,,,SPECI,24.0
KY50 271356Z AUTO 32011KT 10SM SCT015 SCT021 OVC027 16/14 A2991 RMK AO2 TSNO T01610138 SLP124,KY50,2015-05-27T13:56:00Z,44.03,-89.3,16.1,13.8,320,11,,10.0,29.911417,1012.4,,TRUE,TRUE,,,TRUE,,,,SCT,1500,SCT,2100,OVC,2700,,,MVFR,,,,,,,,,,,,SPECI,262.0
KWJF 271356Z AUTO 00000KT 10SM CLR 17/08 A2996 RMK AO2 SLP133 T01670078,KWJF,2015-05-27T13:56:00Z,34.72,-118.22,16.7,7.8,0,0,,10.0,29.958662,1013.3,,TRUE,TRUE,,,,,,,CLR,,,,,,,,VFR,,,,,,,,,,,,SPECI,715.0
KVPZ 271356Z AUTO 24015KT 10SM BKN020 BKN095 22/17 A2998 RMK AO2 SLP148 T02170167 TSNO,KVPZ,2015-05-27T13:56:00Z,41.45,-87.0,21.7,16.7,240,15,,10.0,29.97933,1014.8,,TRUE,TRUE,,,TRUE,,,,BKN,2000,BKN,9500,,,,,MVFR,,,,,,,,,,,,SPECI,231.0
KUKI 271356Z AUTO 00000KT 10SM OVC006 12/10 A3000 RMK AO2 SLP151 T01170100,KUKI,2015-05-27T13:56:00Z,39.12,-123.2,11.7,10.0,0,0,,10.0,30.0,1015.1,,TRUE,TRUE,,,,,,,OVC,600,,,,,,,IFR,,,,,,,,,,,,SPECI,187.0
KUCP 271356Z AUTO 22007KT SCT015 SCT026 BKN037 22/19 A3013 RMK AO2 T02220188 SLP212 $,KUCP,2015-05-27T13:56:00Z,41.03,-80.42,22.2,18.8,220,7,,,30.129921,1021.2,,TRUE,TRUE,TRUE,,,,,,SCT,1500,SCT,2600,BKN,3700,,,,,,,,,,,,,,,SPECI,327.0
KTPH 271356Z AUTO 36007KT 10SM CLR 14/05 A3008 RMK AO2 SLP124 T01440050,KTPH,2015-05-27T13:56:00Z,38.05,-117.08,14.4,5.0,360,7,,10.0,30.079725,1012.4,,TRUE,TRUE,,,,,,,CLR,,,,,,,,VFR,,,,,,,,,,,,SPECI,1652.0
KSLE 271356Z 00000KT 10SM CLR 12/10 A3005 RMK AO2 SLP177 T01170100,KSLE,2015-05-27T13:56:00Z,44.9,-123.0,11.7,10.0,0,0,,10.0,30.050198,1017.7,,,TRUE,,,,,,,CLR,,,,,,,,VFR,,,,,,,,,,,,SPECI,59.0
KSHV 271356Z 09004KT 10SM FEW010 SCT160 OVC280 21/19 A3006 RMK AO2 SLP175 T02060194 $,KSHV,2015-05-27T13:56:00Z,32.45,-93.83,20.6,19.4,90,4,,10.0,30.059055,1017.5,,,TRUE,TRUE,,,,,,FEW,1000,SCT,16000,OVC,28000,,,VFR,,,,,,,,,,,,SPECI,83.0
KSGH 271356Z AUTO 23009KT 5SM HZ BKN017 BKN025 22/19 A3014 RMK AO2 T02220194 SLP199,KSGH,2015-05-27T13:56:00Z,39.83,-83.83,22.2,19.4,230,9,,5.0,30.138779,1019.9,,TRUE,TRUE,,,,,,HZ,BKN,1700,BKN,2500,,,,,MVFR,,,,,,,,,,,,METAR,321.0
KSFO 271356Z 27009KT 10SM FEW008 OVC015 12/09 A3002 RMK AO2 SLP165 T01220089,KSFO,2015-05-27T13:56:00Z,37.62,-122.37,12.2,8.9,270,9,,10.0,30.02067,1016.5,,,TRUE,,,,,,,FEW,800,OVC,1500,,,,,MVFR,,,,,,,,,,,,SPECI,3.0
KSBP 271356Z 30010KT 10SM OVC014 12/09 A3003 RMK AO2 SLP168 T01220089 $,KSBP,2015-05-27T13:56:00Z,35.23,-120.63,12.2,8.9,300,10,,10.0,30.029528,1016.8,,,TRUE,TRUE,,,,,,OVC,1400,,,,,,,MVFR,,,,,,,,,,,,SPECI,59.0
KLAS 271356Z 21005KT 10SM BKN250 23/01 A2990 RMK AO2 SLP099 T02280006,KLAS,2015-05-27T13:56:00Z,36.07,-115.17,22.8,0.6,210,5,,10.0,29.899607,1009.9,,,TRUE,,,,,,,BKN,25000,,,,,,,VFR,,,,,,,,,,,,SPECI,636.0
KJXN 271356Z 23015G22KT 10SM FEW026 22/16 A2997 RMK AO2 SLP143 T02220161,KJXN,2015-05-27T13:56:00Z,42.27,-84.47,22.2,16.1,230,15,22,10.0,29.970472,1014.3,,,TRUE,,,,,,,FEW,2600,,,,,,,VFR,,,,,,,,,,,,SPECI,305.0
KJMS 271356Z AUTO 30007KT 10SM CLR 19/12 A2994 RMK AO2 SLP136 T01890117,KJMS,2015-05-27T13:56:00Z,46.93,-98.67,18.9,11.7,300,7,,10.0,29.940945,1013.6,,TRUE,TRUE,,,,,,,CLR,,,,,,,,VFR,,,,,,,,,,,,SPECI,455.0
KJAX 271356Z 10006KT 10SM SCT029 BKN250 26/19 A3023 RMK AO2 SLP237 T02610189,KJAX,2015-05-27T13:56:00Z,30.5,-81.68,26.1,18.9,100,6,,10.0,30.230314,1023.7,,,TRUE,,,,,,,SCT,2900,BKN,25000,,,,,VFR,,,,,,,,,,,,SPECI,10.0
KITH 271356Z 23010KT 10SM BKN034 26/18 A3010 RMK AO2 T02610177 SLP184,KITH,2015-05-27T13:56:00Z,42.47,-76.45,26.1,17.7,230,10,,10.0,30.100393,1018.4,,,TRUE,,,,,,,BKN,3400,,,,,,,VFR,,,,,,,,,,,,SPECI,335.0
KISP 271356Z 21010KT 10SM OVC008 19/16 A3020 RMK AO2 SLP224 T01940161,KISP,2015-05-27T13:56:00Z,40.8,-73.1,19.4,16.1,210,10,,10.0,30.200787,1022.4,,,TRUE,,,,,,,OVC,800,,,,,,,IFR,,,,,,,,,,,,SPECI,43.0
KINW 271356Z AUTO 12008KT 10SM CLR 13/02 A3013 RMK AO2 SLP146 T01330022,KINW,2015-05-27T13:56:00Z,35.03,-110.72,13.3,2.2,120,8,,10.0,30.129921,1014.6,,TRUE,TRUE,,,,,,,CLR,,,,,,,,VFR,,,,,,,,,,,,SPECI,1490.0
KIGX 271356Z AUTO VRB04KT 10SM FEW027 25/18 A3027 RMK AO2 SLP241 T02500183 TSNO,KIGX,2015-05-27T13:56:00Z,35.93,-79.07,25.0,18.3,0,4,,10.0,30.268702,1024.1,,TRUE,TRUE,,,TRUE,,,,FEW,2700,,,,,,,VFR,,,,,,,,,,,,SPECI,155.0
KHYA 271356Z 19014G21KT 10SM OVC016 19/16 A3022 RMK AO2 SLP234 T01890156,KHYA,2015-05-27T13:56:00Z,41.67,-70.27,18.9,15.6,190,14,21,10.0,30.221457,1023.4,,,TRUE,,,,,,,OVC,1600,,,,,,,MVFR,,,,,,,,,,,,SPECI,22.0
KHWV 271356Z AUTO 20011KT 10SM OVC007 19/16 A3022 RMK AO2 SLP231 T01940161 TSNO,KHWV,2015-05-27T13:56:00Z,40.82,-72.87,19.4,16.1,200,11,,10.0,30.221457,1023.1,,TRUE,TRUE,,,TRUE,,,,OVC,700,,,,,,,IFR,,,,,,,,,,,,SPECI,21.0
KHPN 271356Z VRB05KT 8SM BKN013 23/19 A3017 RMK AO2 SLP213 T02330189,KHPN,2015-05-27T13:56:00Z,41.07,-73.7,23.3,18.9,0,5,,8.0,30.171259,1021.3,,,TRUE,,,,,,,BKN,1300,,,,,,,MVFR,,,,,,,,,,,,SPECI,121.0
PPIT 271356Z AUTO 16017KT 10SM BKN037 OVC044 08/06 A3010 RMK AO2 SLP191 T00830056,PPIT,2015-05-27T13:56:00Z,60.9,-162.43,8.3,5.6,160,17,,10.0,30.100393,1019.1,,TRUE,TRUE,,,,,,,BKN,3700,OVC,4400,,,,,VFR,,,,,,,,,,,,SPECI,4.0
PFKW 271356Z AUTO 15006KT 10SM OVC055 08/05 A3012 RMK AO2 SLP201 T00780050 $,PFKW,2015-05-27T13:56:00Z,60.8,-161.43,7.8,5.0,150,6,,10.0,30.121063,1020.1,,TRUE,TRUE,TRUE,,,,,,OVC,5500,,,,,,,VFR,,,,,,,,,,,,SPECI,8.0
PFCL 271356Z AUTO 15010KT 10SM BKN035 OVC045 07/05 A3022 RMK AO2 SLP235 T00720050,PFCL,2015-05-27T13:56:00Z,58.83,-158.53,7.2,5.0,150,10,,10.0,30.221457,1023.5,,TRUE,TRUE,,,,,,,BKN,3500,OVC,4500,,,,,VFR,,,,,,,,,,,,SPECI,24.0
PAVC 271356Z AUTO 11003KT -RA BKN006 OVC011 06/06 A3007 RMK AO2 TSNO T00610055 CIG 003V010 RAB08 P0001 SLP183 $,PAVC,2015-05-27T13:56:00Z,55.12,-162.27,6.1,5.5,110,3,,,30.070866,1018.3,,TRUE,TRUE,TRUE,,TRUE,,,-RA,BKN,600,OVC,1100,,,,,,,,,,,0.01,,,,,,METAR,47.0
PATQ 271356Z AUTO 05006KT 1/4SM FZFG OVC006 M02/M02 A3029 RMK AO2 TSNO T10161016 SLP262 $,PATQ,2015-05-27T13:56:00Z,70.47,-157.43,-1.6,-1.6,50,6,,0.25,30.28937,1026.2,,TRUE,TRUE,TRUE,,TRUE,,,FZFG,OVC,600,,,,,,,LIFR,,,,,,,,,,,,SPECI,29.0
PARY 271356Z AUTO 00000KT 10SM CLR 11/06 A3017 RMK AO2 TSNO T01050055 SLP221 $,PARY,2015-05-27T13:56:00Z,64.73,-155.47,10.5,5.5,0,0,,10.0,30.171259,1022.1,,TRUE,TRUE,TRUE,,TRUE,,,,CLR,,,,,,,,VFR,,,,,,,,,,,,SPECI,199.0
PARS 271356Z AUTO 00000KT 10SM -RA BKN050 08/07 A3013 RMK AO2 TSNO T00770066 BKN V OVC RAB46 P0000 SLP210 $,PARS,2015-05-27T13:56:00Z,61.77,-161.32,7.7,6.6,0,0,,10.0,30.129921,1021.0,,TRUE,TRUE,TRUE,,TRUE,,,-RA,BKN,5000,,,,,,,VFR,,,,,,0.0050,,,,,,SPECI,16.0
PAQH 271356Z AUTO 11012KT 10SM -RA BKN031 OVC037 07/05 A3011 RMK AO2 RAB48 SLP197 P0000 T00670050,PAQH,2015-05-27T13:56:00Z,59.75,-161.85,6.7,5.0,110,12,,10.0,30.109253,1019.7,,TRUE,TRUE,,,,,,-RA,BKN,3100,OVC,3700,,,,,VFR,,,,,,0.0050,,,,,,SPECI,13.0
PAOU 271356Z AUTO 00000KT 10SM FEW032 BKN043 08/08 A3008 RMK AO2 TSNO T00830083 BKN V SCT SLP189 $,PAOU,2015-05-27T13:56:00Z,56.0,-161.17,8.3,8.3,0,0,,10.0,30.079725,1018.9,,TRUE,TRUE,TRUE,,TRUE,,,,FEW,3200,BKN,4300,,,,,VFR,,,,,,,,,,,,SPECI,4.0
PAOO 271356Z AUTO 16018KT 6SM BR OVC008 06/06 A3002 RMK AO2 TSNO T00550055 CIG 006V011 RAB33E37 P0001 SLP168 $,PAOO,2015-05-27T13:56:00Z,60.53,-165.12,5.5,5.5,160,18,,6.0,30.02067,1016.8,,TRUE,TRUE,TRUE,,TRUE,,,BR,OVC,800,,,,,,,IFR,,,,,,0.01,,,,,,SPECI,18.0
PAOH 271356Z AUTO 00000KT 10SM BKN039 09/09 A3014 RMK AO2 TSNO T00940094 RAE09 P0000 SLP208 $,PAOH,2015-05-27T13:56:00Z,58.1,-135.45,9.4,9.4,0,0,,10.0,30.138779,1020.8,,TRUE,TRUE,TRUE,,TRUE,,,,BKN,3900,,,,,,,VFR,,,,,,0.0050,,,,,,SPECI,9.0
PANA 271356Z AUTO 16010G16KT 10SM BKN032 OVC047 08/04 A3011 RMK AO2 SLP196 T00830044,PANA,2015-05-27T13:56:00Z,60.68,-161.98,8.3,4.4,160,10,16,10.0,30.109253,1019.6,,TRUE,TRUE,,,,,,,BKN,3200,OVC,4700,,,,,VFR,,,,,,,,,,,,SPECI,5.0
PAMK 271356Z AUTO 00000KT 10SM -RA FEW048 07/03 A3012 RMK AO2 TSNO T00720027 RAB44 P0000 SLP204 $,PAMK,2015-05-27T13:56:00Z,63.48,-162.12,7.2,2.7,0,0,,10.0,30.121063,1020.4,,TRUE,TRUE,TRUE,,TRUE,,,-RA,FEW,4800,,,,,,,VFR,,,,,,0.0050,,,,,,SPECI,28.0
PALG 271356Z AUTO 09005KT 10SM OVC085 08/02 A3014 RMK AO2 TSNO T00830016 SLP210 $,PALG,2015-05-27T13:56:00Z,61.53,-160.33,8.3,1.6,90,5,,10.0,30.138779,1021.0,,TRUE,TRUE,TRUE,,TRUE,,,,OVC,8500,,,,,,,VFR,,,,,,,,,,,,SPECI,17.0
PAKI 271356Z AUTO 15016KT 4SM BR OVC006 06/05 A3004 RMK AO2 TSNO T00550050 SLP175 $,PAKI,2015-05-27T13:56:00Z,59.93,-164.03,5.5,5.0,150,16,,4.0,30.041338,1017.5,,TRUE,TRUE,TRUE,,TRUE,,,BR,OVC,600,,,,,,,IFR,,,,,,,,,,,,SPECI,4.0
PAIG 271356Z AUTO 11003KT 10SM CLR 03/02 A3026 RMK AO2 TSNO T00330022 SLP252 $,PAIG,2015-05-27T13:56:00Z,59.32,-155.9,3.3,2.2,110,3,,10.0,30.259842,1025.2,,TRUE,TRUE,TRUE,,TRUE,,,,CLR,,,,,,,,VFR,,,,,,,,,,,,SPECI,28.0
PAHC 271356Z AUTO 00000KT 10SM FEW080 09/02 A3015 RMK AO2 TSNO T00940022 SLP213 $,PAHC,2015-05-27T13:56:00Z,62.18,-159.78,9.4,2.2,0,0,,10.0,30.15059,1021.3,,TRUE,TRUE,TRUE,,TRUE,,,,FEW,8000,,,,,,,VFR,,,,,,,,,,,,SPECI,21.0
PAGN 271356Z AUTO 00000KT 10SM SCT039 BKN048 11/06 A3015 RMK AO2 TSNO T01110055 BKN V SCT SLP212 $,PAGN,2015-05-27T13:56:00Z,57.5,-134.58,11.1,5.5,0,0,,10.0,30.15059,1021.2,,TRUE,TRUE,TRUE,,TRUE,,,,SCT,3900,BKN,4800,,,,,VFR,,,,,,,,,,,,SPECI,2.0
PAFS 271356Z AUTO 00000KT 7SM CLR 06/03 A3022 RMK AO2 TSNO T00550027 SLP241 $,PAFS,2015-05-27T13:56:00Z,63.02,-154.35,5.5,2.7,0,0,,7.0,30.221457,1024.1,,TRUE,TRUE,TRUE,,TRUE,,,,CLR,,,,,,,,VFR,,,,,,,,,,,,SPECI,126.0
PADU 271356Z 00000KT 10SM SCT034 OVC050 06/02 A3002 RMK AO2 SLP171 RH T00610017,PADU,2015-05-27T13:56:00Z,53.9,-166.53,6.1,1.7,0,0,,10.0,30.02067,1017.1,,,TRUE,,,,,,,SCT,3400,OVC,5000,,,,,VFR,,,,,,,,,,,,SPECI,4.0
PADM 271356Z AUTO 12004KT 10SM BKN041 OVC049 08/04 A3017 RMK AO2 TSNO T00770044 SLP203 $,PADM,2015-05-27T13:56:00Z,61.87,-162.03,7.7,4.4,120,4,,10.0,30.171259,1020.3,,TRUE,TRUE,TRUE,,TRUE,,,,BKN,4100,OVC,4900,,,,,VFR,,,,,,,,,,,,SPECI,31.0
PACM 271356Z AUTO 16017G24KT 6SM BR BKN011 OVC018 07/07 A3002 RMK AO2 TSNO T00720066 CIG 003V015 RAE51 P0000 PK WND 16026/1343 SLP162 $,PACM,2015-05-27T13:56:00Z,61.85,-165.57,7.2,6.6,160,17,24,6.0,30.02067,1016.2,,TRUE,TRUE,TRUE,,TRUE,,,BR,BKN,1100,OVC,1800,,,,,MVFR,,,,,,0.0050,,,,,,SPECI,4.0
KCXY 271356Z 17007KT 10SM SCT021 SCT110 26/20 A3013 RMK AO2 SLP203 T02610200,KCXY,2015-05-27T13:56:00Z,40.22,-76.85,26.1,20.0,170,7,,10.0,30.129921,1020.3,,,TRUE,,,,,,,SCT,2100,SCT,11000,,,,,VFR,,,,,,,,,,,,SPECI,106.0
KCTB 271356Z AUTO 33012KT 8SM SCT060 OVC095 11/09 A3003 RMK AO2 SLP158 T01110089,KCTB,2015-05-27T13:56:00Z,48.6,-112.37,11.1,8.9,330,12,,8.0,30.029528,1015.8,,TRUE,TRUE,,,,,,,SCT,6000,OVC,9500,,,,,VFR,,,,,,,,,,,,SPECI,1175.0
KCHS 271356Z 18006KT 10SM FEW035 SCT250 28/19 A3027 RMK AO2 SLP251 MDT CU N T02780194,KCHS,2015-05-27T13:56:00Z,32.9,-80.03,27.8,19.4,180,6,,10.0,30.268702,1025.1,,,TRUE,,,,,,,FEW,3500,SCT,25000,,,,,VFR,,,,,,,,,,,,METAR,13.0
KCEC 271356Z AUTO 32005KT 10SM OVC007 11/09 A3005 RMK AO2 SLP177 T01060094,KCEC,2015-05-27T13:56:00Z,41.77,-124.22,10.6,9.4,320,5,,10.0,30.050198,1017.7,,TRUE,TRUE,,,,,,,OVC,700,,,,,,,IFR,,,,,,,,,,,,SPECI,17.0
KCAE 271356Z 19003KT 10SM SCT013 BKN041 BKN200 24/20 A3026 RMK AO2 SLP244 T02440200,KCAE,2015-05-27T13:56:00Z,33.93,-81.12,24.4,20.0,190,3,,10.0,30.259842,1024.4,,,TRUE,,,,,,,SCT,1300,BKN,4100,BKN,20000,,,VFR,,,,,,,,,,,,SPECI,70.0
KBOK 271356Z AUTO 00000KT 1 1/2SM BR OVC002 10/10 A3005 RMK AO2 T01000100 SLP178,KBOK,2015-05-27T13:56:00Z,42.07,-124.28,10.0,10.0,0,0,,1.5,30.050198,1017.8,,TRUE,TRUE,,,,,,BR,OVC,200,,,,,,,LIFR,,,,,,,,,,,,SPECI,140.0
KBMI 271356Z 25011KT 10SM BKN012 BKN016 OVC026 20/18 A3003 RMK AO2 T02000183 BKN V OVC SLP161,KBMI,2015-05-27T13:56:00Z,40.47,-88.92,20.0,18.3,250,11,,10.0,30.029528,1016.1,,,TRUE,,,,,,,BKN,1200,BKN,1600,OVC,2600,,,MVFR,,,,,,,,,,,,SPECI,267.0
KBJJ 271356Z AUTO 22012G18KT 10SM SCT017 BKN024 BKN031 21/17 A3010 RMK AO2 SLP189 T02110172 TSNO,KBJJ,2015-05-27T13:56:00Z,40.87,-81.88,21.1,17.2,220,12,18,10.0,30.100393,1018.9,,TRUE,TRUE,,,TRUE,,,,SCT,1700,BKN,2400,BKN,3100,,,MVFR,,,,,,,,,,,,SPECI,343.0
KBIH 271356Z AUTO 36003KT 10SM CLR 14/06 A3002 RMK AO2 SLP122 T01440061,KBIH,2015-05-27T13:56:00Z,37.37,-118.35,14.4,6.1,360,3,,10.0,30.02067,1012.2,,TRUE,TRUE,,,,,,,CLR,,,,,,,,VFR,,,,,,,,,,,,SPECI,1253.0
KBED 271356Z 17010KT 10SM CLR 26/18 A3013 RMK AO2 SLP213 T02560178,KBED,2015-05-27T13:56:00Z,42.47,-71.3,25.6,17.8,170,10,,10.0,30.129921,1021.3,,,TRUE,,,,,,,CLR,,,,,,,,VFR,,,,,,,,,,,,SPECI,50.0
KART 271356Z AUTO 22012G21KT 10SM -RA BKN036 BKN043 OVC055 24/18 A3000 RMK AO2 RAB46 SLP154 P0000 T02390183,KART,2015-05-27T13:56:00Z,43.98,-76.03,23.9,18.3,220,12,21,10.0,30.0,1015.4,,TRUE,TRUE,,,,,,-RA,BKN,3600,BKN,4300,OVC,5500,,,VFR,,,,,,0.0050,,,,,,SPECI,100.0
KAND 271356Z AUTO VRB03KT 10SM CLR 22/18 A3027 RMK AO2 SLP242 T02220178,KAND,2015-05-27T13:56:00Z,34.5,-82.72,22.2,17.8,0,3,,10.0,30.268702,1024.2,,TRUE,TRUE,,,,,,,CLR,,,,,,,,VFR,,,,,,,,,,,,SPECI,239.0
KAJO 271356Z AUTO 00000KT 10SM OVC017 16/12 A2999 RMK AO2 T01550116 SLP151 $,KAJO,2015-05-27T13:56:00Z,33.9,-117.6,15.5,11.6,0,0,,10.0,29.991142,1015.1,,TRUE,TRUE,TRUE,,,,,,OVC,1700,,,,,,,MVFR,,,,,,,,,,,,SPECI,163.0
KADF 271356Z AUTO 00000KT 9SM FEW005 22/22 A3012 RMK AO2 T02220222 SLP211,KADF,2015-05-27T13:56:00Z,34.1,-93.07,22.2,22.2,0,0,,9.0,30.121063,1021.1,,TRUE,TRUE,,,,,,,FEW,500,,,,,,,VFR,,,,,,,,,,,,SPECI,56.0
K1M4 271356Z AUTO 15005KT 10SM SCT012 22/21 A3023 RMK AO2 T02220205 SLP246,K1M4,2015-05-27T13:56:00Z,34.28,-87.6,22.2,20.5,150,5,,10.0,30.230314,1024.6,,TRUE,TRUE,,,,,,,SCT,1200,,,,,,,VFR,,,,,,,,,,,,SPECI,284.0
PMDY 271356Z AUTO 00000KT 8SM CLR A3012 RMK AO2 PWINO TSNO SLPNO $,PMDY,2015-05-27T13:56:00Z,28.22,-177.37,,,0,0,,8.0,30.121063,,,TRUE,TRUE,TRUE,,TRUE,,TRUE,,CLR,,,,,,,,VFR,,,,,,,,,,,,METAR,4.0
KGON 271356Z 20005KT 10SM OVC014 18/15 A3021 RMK AO2 SLP228 T01780150,KGON,2015-05-27T13:56:00Z,41.33,-72.05,17.8,15.0,200,5,,10.0,30.209646,1022.8,,,TRUE,,,,,,,OVC,1400,,,,,,,MVFR,,,,,,,,,,,,SPECI,3.0
KFSD 271356Z 31005KT 10SM CLR 21/12 A3000 RMK AO2 SLP153 T02060122,KFSD,2015-05-27T13:56:00Z,43.58,-96.75,20.6,12.2,310,5,,10.0,30.0,1015.3,,,TRUE,,,,,,,CLR,,,,,,,,VFR,,,,,,,,,,,,SPECI,436.0
KELZ 271356Z AUTO 20009G15KT 10SM SCT018 20/16 A3014 RMK AO2 SLP197 T02000161,KELZ,2015-05-27T13:56:00Z,42.1,-77.98,20.0,16.1,200,9,15,10.0,30.138779,1019.7,,TRUE,TRUE,,,,,,,SCT,1800,,,,,,,VFR,,,,,,,,,,,,SPECI,646.0
KEKQ 271356Z AUTO 21007KT 10SM SCT017 OVC035 22/19 A3025 RMK AO2 PWINO T02160194 SLP239,KEKQ,2015-05-27T13:56:00Z,36.85,-84.85,21.6,19.4,210,7,,10.0,30.250984,1023.9,,TRUE,TRUE,,,,,TRUE,,SCT,1700,OVC,3500,,,,,VFR,,,,,,,,,,,,SPECI,294.0
KEKO 271356Z AUTO 09005KT 10SM BKN100 10/08 A3008 RMK AO2 SLP153 T01000078,KEKO,2015-05-27T13:56:00Z,40.82,-115.78,10.0,7.8,90,5,,10.0,30.079725,1015.3,,TRUE,TRUE,,,,,,,BKN,10000,,,,,,,VFR,,,,,,,,,,,,SPECI,1547.0
KEED 271356Z AUTO 34003KT 10SM CLR 25/03 A2988 RMK AO2 SLP086 T02500028 $,KEED,2015-05-27T13:56:00Z,34.77,-114.62,25.0,2.8,340,3,,10.0,29.878937,1008.6,,TRUE,TRUE,TRUE,,,,,,CLR,,,,,,,,VFR,,,,,,,,,,,,SPECI,302.0
KDUG 271356Z AUTO 00000KT 10SM CLR 13/M04 A3010 RMK AO2 SLP135 T01331044,KDUG,2015-05-27T13:56:00Z,31.47,-109.58,13.3,-4.4,0,0,,10.0,30.100393,1013.5,,TRUE,TRUE,,,,,,,CLR,,,,,,,,VFR,,,,,,,,,,,,SPECI,1265.0
KDIJ 271356Z AUTO 00000KT 10SM BKN046 08/07 A3012 RMK AO2 T00830066 BKN V OVC SLP155,KDIJ,2015-05-27T13:56:00Z,43.75,-111.1,8.3,6.6,0,0,,10.0,30.121063,1015.5,,TRUE,TRUE,,,,,,,BKN,4600,,,,,,,VFR,,,,,,,,,,,,SPECI,1899.0
KDAY 271356Z 21012KT 10SM BKN016 23/18 A3011 RMK AO2 SLP191 T02280183,KDAY,2015-05-27T13:56:00Z,39.9,-84.22,22.8,18.3,210,12,,10.0,30.109253,1019.1,,,TRUE,,,,,,,BKN,1600,,,,,,,MVFR,,,,,,,,,,,,SPECI,305.0
KHFF 271356Z AUTO 25008KT 10SM FEW016 BKN040 26/19 A3030 RMK AO2 SLP260 P0016 T02590192 TSNO $,KHFF,2015-05-27T13:56:00Z,35.02,-79.5,25.9,19.2,250,8,,10.0,30.301182,1026.0,,TRUE,TRUE,TRUE,,TRUE,,,,FEW,1600,BKN,4000,,,,,VFR,,,,,,0.16,,,,,,SPECI,115.0
MUGM 271356Z VRB04KT 9999 FEW030 FEW280 31/19 A3002 RMK SLP165 T03060189,MUGM,2015-05-27T13:56:00Z,19.9,-75.2,30.6,18.9,0,4,,6.21,30.02067,1016.5,,,,,,,,,,FEW,3000,FEW,28000,,,,,VFR,,,,,,,,,,,,METAR,17.0
KTDR 271356Z AUTO 09006KT 10SM CLR 26/23 A3017 RMK AO2 SLP220 T02560232 TSNO $,KTDR,2015-05-27T13:56:00Z,30.05,-85.52,25.6,23.2,90,6,,10.0,30.171259,1022.0,,TRUE,TRUE,TRUE,,TRUE,,,,CLR,,,,,,,,VFR,,,,,,,,,,,,SPECI,5.0
KSXS 271356Z AUTO 09004KT 10SM FEW210 24/21 A3021 RMK AO2 SLP229 T02370211,KSXS,2015-05-27T13:56:00Z,31.37,-85.85,23.7,21.1,90,4,,10.0,30.209646,1022.9,,TRUE,TRUE,,,,,,,FEW,21000,,,,,,,VFR,,,,,,,,,,,,SPECI,122.0
K2DP 271356Z AUTO 17012G19KT 10SM SCT024 BKN038 25/19 A3028 RMK AO2 SLPNO T02520191 $,K2DP,2015-05-27T13:56:00Z,35.68,-75.9,25.2,19.1,170,12,19,10.0,30.280512,,,TRUE,TRUE,TRUE,,,,,,SCT,2400,BKN,3800,,,,,VFR,,,,,,,,,,,,SPECI,3.0
KABH 271356Z AUTO 22008KT 10SM CLR A3015 RMK AO2 SLPNO $,KABH,2015-05-27T13:56:00Z,38.75,-104.3,,,220,8,,10.0,30.15059,,,TRUE,TRUE,TRUE,,,,,,CLR,,,,,,,,VFR,,,,,,,,,,,,SPECI,1840.0
KH78 271356Z 12012KT 20SM FEW020 27/24 A3012 RMK SEAS 4-5,KH78,2015-05-27T13:56:00Z,28.18,-88.48,27.0,24.0,120,12,,20.0,30.121063,,,,,,,,,,,FEW,2000,,,,,,,VFR,,,,,,,,,,,,SPECI,43.0
KNXF 271356Z AUTO 30003KT 6SM HZ OVC024 17/13 A2997 RMK AO2 SLP236 T01670133 $,KNXF,2015-05-27T13:56:00Z,33.28,-117.45,16.7,13.3,300,3,,6.0,29.970472,1023.6,,TRUE,TRUE,TRUE,,,,,HZ,OVC,2400,,,,,,,MVFR,,,,,,,,,,,,SPECI,27.0
KMEH 271356Z AUTO 00000KT 10SM SCT047 04/03 A3006 RMK AO2 SLP175 T00440028,KMEH,2015-05-27T13:56:00Z,45.52,-118.42,4.4,2.8,0,0,,10.0,30.059055,1017.5,,TRUE,TRUE,,,,,,,SCT,4700,,,,,,,VFR,,,,,,,,,,,,SPECI,1136.0
KGNR 271356Z AUTO 18003KT 21/16 A3008 RMK AO1 SLP183 T02060161,KGNR,2015-05-27T13:56:00Z,45.47,-69.55,20.6,16.1,180,3,,,30.079725,1018.3,,TRUE,TRUE,,,,,,,,,,,,,,,,,,,,,,,,,,,SPECI,427.0
KWMC 271356Z AUTO 16003KT 10SM OVC095 11/08 A3004 RMK AO2 SLP144 T01060078 TSNO,KWMC,2015-05-27T13:56:00Z,40.9,-117.8,10.6,7.8,160,3,,10.0,30.041338,1014.4,,TRUE,TRUE,,,TRUE,,,,OVC,9500,,,,,,,VFR,,,,,,,,,,,,METAR,1310.0
PASY 271356Z AUTO 21020KT OVC013 04/04 A2958 RMK AO2 SLP017 T00440044 TSNO $,PASY,2015-05-27T13:56:00Z,52.72,174.12,4.4,4.4,210,20,,,29.58071,1001.7,,TRUE,TRUE,TRUE,,TRUE,,,,OVC,1300,,,,,,,,,,,,,,,,,,,METAR,31.0
PHBK 271356Z AUTO 09004KT 10SM CLR A2992 RMK AO2 SLP135,PHBK,2015-05-27T13:56:00Z,22.03,-159.78,,,90,4,,10.0,29.920275,1013.5,,TRUE,TRUE,,,,,,,CLR,,,,,,,,VFR,,,,,,,,,,,,METAR,8.0
KP60 271356Z AUTO 00000KT 04/03 A3017 RMK AO1 SLP183 T00440028,KP60,2015-05-27T13:56:00Z,44.55,-110.42,4.4,2.8,0,0,,,30.171259,1018.3,,TRUE,TRUE,,,,,,,,,,,,,,,,,,,,,,,,,,,SPECI,2388.0
KSPD 271356Z AUTO 20013KT 17/12 A3012 RMK AO1 SLP152 T01720117,KSPD,2015-05-27T13:56:00Z,37.28,-102.62,17.2,11.7,200,13,,,30.121063,1015.2,,TRUE,TRUE,,,,,,,,,,,,,,,,,,,,,,,,,,,SPECI,1335.0
KNID 271356Z 00000KT 10SM FEW250 17/06 A2993 RMK AO2 SLP118 T01720061 $,KNID,2015-05-27T13:56:00Z,35.67,-117.67,17.2,6.1,0,0,,10.0,29.929134,1011.8,,,TRUE,TRUE,,,,,,FEW,25000,,,,,,,VFR,,,,,,,,,,,,METAR,696.0
KNLC 271356Z 31007KT 10SM CLR 14/08 A2997 RMK AO2 SLP146 T01390078,KNLC,2015-05-27T13:56:00Z,36.32,-119.95,13.9,7.8,310,7,,10.0,29.970472,1014.6,,,TRUE,,,,,,,CLR,,,,,,,,VFR,,,,,,,,,,,,METAR,72.0
KNTD 271356Z 00000KT 9SM OVC018 16/13 A3000 RMK AO2 SLP159 T01610128 $,KNTD,2015-05-27T13:56:00Z,34.12,-119.12,16.1,12.8,0,0,,9.0,30.0,1015.9,,,TRUE,TRUE,,,,,,OVC,1800,,,,,,,MVFR,,,,,,,,,,,,METAR,4.0
KNJK 271356Z 18003KT 10SM FEW100 BKN250 21/13 A2986 RMK AO2 SLP126 T02060128,KNJK,2015-05-27T13:56:00Z,32.82,-115.67,20.6,12.8,180,3,,10.0,29.861221,1012.6,,,TRUE,,,,,,,FEW,10000,BKN,25000,,,,,VFR,,,,,,,,,,,,SPECI,-13.0
KQDG 271356Z AUTO 12006KT 9999 FEW110 FEW120 BKN150 11/11 A2997 RMK AO2 SLP151 T01120107 $,KQDG,2015-05-27T13:56:00Z,,,11.2,10.7,120,6,,6.21,29.970472,1015.1,,TRUE,TRUE,TRUE,,,,,,FEW,11000,FEW,12000,BKN,15000,,,VFR,,,,,,,,,,,,METAR,
PHSF 271356Z AUTO 28003KT 9SM CLR 10/08 A3020 RMK AO2 SLP116 T01010081 $,PHSF,2015-05-27T13:56:00Z,19.77,-155.55,10.1,8.1,280,3,,9.0,30.200787,1011.6,,TRUE,TRUE,TRUE,,,,,,CLR,,,,,,,,VFR,,,,,,,,,,,,METAR,1887.0
KM63 271356Z AUTO 20003KT 10SM CLR 21/M02 A3007 RMK AO2 LTG DSNT SW SLP114 T02131025,KM63,2015-05-27T13:56:00Z,32.05,-106.15,21.3,-2.5,200,3,,10.0,30.070866,1011.4,,TRUE,TRUE,,,,,,,CLR,,,,,,,,VFR,,,,,,,,,,,,METAR,1283.0
KGFA 271356Z AUTO 24010KT 10SM SCT028 BKN044 BKN055 BKN080 11/10 A3003 RMK AO2 SLP174 T01130096 TSNO $,KGFA,2015-05-27T13:56:00Z,47.5,-111.17,11.3,9.6,240,10,,10.0,30.029528,1017.4,,TRUE,TRUE,TRUE,,TRUE,,,,SCT,2800,BKN,4400,BKN,5500,BKN,8000,VFR,,,,,,,,,,,,SPECI,1075.0
KCWN 271356Z AUTO 10002KT 10SM CLR 11/07 A2987 RMK AO2 SLP062 T01080073 $,KCWN,2015-05-27T13:56:00Z,38.75,-104.85,10.8,7.3,100,2,,10.0,29.870079,1006.2,,TRUE,TRUE,TRUE,,,,,,CLR,,,,,,,,VFR,,,,,,,,,,,,SPECI,2040.0
K1YT 271356Z AUTO 34004KT 10SM CLR 13/08 A3002 RMK AO2 SLPNO T01320080 $,K1YT,2015-05-27T13:56:00Z,46.67,-120.45,13.2,8.0,340,4,,10.0,30.02067,,,TRUE,TRUE,TRUE,,,,,,CLR,,,,,,,,VFR,,,,,,,,,,,,METAR,438.0
K1QW 271356Z AUTO 27010KT M /// /// M 12/07 A3001 RMK AO2 SLP161 T01230073 $,K1QW,2015-05-27T13:56:00Z,46.8,-120.17,12.3,7.3,270,10,,,30.008858,1016.1,,TRUE,TRUE,TRUE,,,,,,,,,,,,,,,,,,,,,,,,,,SPECI,928.0
KNRS 271356Z 33005KT 10SM OVC017 16/13 A2998 RMK AO2 SLP151 T01610128 PNO,KNRS,2015-05-27T13:56:00Z,32.57,-117.12,16.1,12.8,330,5,,10.0,29.97933,1015.1,,,TRUE,,,,,,,OVC,1700,,,,,,,MVFR,,,,,,,,,,,,SPECI,7.0
KALK 271356Z AUTO 29004KT 10SM CLR 14/M03 A3012 RMK AO2 SLP117 T01441028,KALK,2015-05-27T13:56:00Z,31.6,-110.43,14.4,-2.8,290,4,,10.0,30.121063,1011.7,,TRUE,TRUE,,,,,,,CLR,,,,,,,,VFR,,,,,,,,,,,,SPECI,1453.0
KNCA 271356Z AUTO 20007KT 10SM FEW023 BKN041 OVC060 26/20 A3027 RMK AO2 RAB03E14 SLP253 P0000 T02610200,KNCA,2015-05-27T13:56:00Z,34.72,-77.45,26.1,20.0,200,7,,10.0,30.268702,1025.3,,TRUE,TRUE,,,,,,,FEW,2300,BKN,4100,OVC,6000,,,VFR,,,,,,0.0050,,,,,,SPECI,8.0
KNUW 271356Z 26005KT 1SM BR OVC005 12/11 A3012 RMK AO2 SFC VIS 4 SLP197 T01170106 $,KNUW,2015-05-27T13:56:00Z,48.35,-122.65,11.7,10.6,260,5,,1.0,30.121063,1019.7,,,TRUE,TRUE,,,,,BR,OVC,500,,,,,,,IFR,,,,,,,,,,,,SPECI,14.0
KSXT 271356Z AUTO 01007KT 10SM CLR 09/06 A3005 RMK AO2 SLP149 T00940056,KSXT,2015-05-27T13:56:00Z,42.6,-123.37,9.4,5.6,10,7,,10.0,30.050198,1014.9,,TRUE,TRUE,,,,,,,CLR,,,,,,,,VFR,,,,,,,,,,,,SPECI,1170.0
KNXP 271356Z AUTO 26007KT 10SM CLR 19/03 A3000 RMK AO2 SLP127 T01890033,KNXP,2015-05-27T13:56:00Z,34.28,-116.17,18.9,3.3,260,7,,10.0,30.0,1012.7,,TRUE,TRUE,,,,,,,CLR,,,,,,,,VFR,,,,,,,,,,,,SPECI,626.0
KNTU 271356Z 23012KT 10SM SCT022 BKN250 28/21 A3024 RMK AO2 SLP242 T02780206,KNTU,2015-05-27T13:56:00Z,36.82,-76.02,27.8,20.6,230,12,,10.0,30.239174,1024.2,,,TRUE,,,,,,,SCT,2200,BKN,25000,,,,,VFR,,,,,,,,,,,,SPECI,7.0
KNFL 271356Z 18003KT 10SM FEW070 FEW100 15/05 A3003 RMK AO2 SLP139 T01500050,KNFL,2015-05-27T13:56:00Z,39.42,-118.7,15.0,5.0,180,3,,10.0,30.029528,1013.9,,,TRUE,,,,,,,FEW,7000,FEW,10000,,,,,VFR,,,,,,,,,,,,SPECI,1199.0
KDIK 271356Z AUTO 16008KT 10SM CLR 17/10 A2994 RMK AO2 SLP129 T01720100 $,KDIK,2015-05-27T13:56:00Z,46.8,-102.8,17.2,10.0,160,8,,10.0,29.940945,1012.9,,TRUE,TRUE,TRUE,,,,,,CLR,,,,,,,,VFR,,,,,,,,,,,,SPECI,788.0
KHND 271356Z 15005KT 10SM CLR 21/04 A2996 RMK AO2 SLP122 T02110044,KHND,2015-05-27T13:56:00Z,35.98,-115.13,21.1,4.4,150,5,,10.0,29.958662,1012.2,,,TRUE,,,,,,,CLR,,,,,,,,VFR,,,,,,,,,,,,SPECI,749.0
KNBC 271356Z 15004KT 10SM CLR 28/20 A3027 RMK AO2 SLP249 T02830200 $,KNBC,2015-05-27T13:56:00Z,32.47,-80.72,28.3,20.0,150,4,,10.0,30.268702,1024.9,,,TRUE,TRUE,,,,,,CLR,,,,,,,,VFR,,,,,,,,,,,,METAR,12.0
KD07 271356Z AUTO 18009KT 17/09 A2998 RMK AO1 SLP143 T01720094,KD07,2015-05-27T13:56:00Z,45.03,-102.02,17.2,9.4,180,9,,,29.97933,1014.3,,TRUE,TRUE,,,,,,,,,,,,,,,,,,,,,,,,,,,SPECI,784.0
KNDZ 271356Z 16003KT 10SM FEW020 SCT250 27/22 A3016 RMK AO2 SLP198 T02670222 $,KNDZ,2015-05-27T13:56:00Z,30.7,-87.02,26.7,22.2,160,3,,10.0,30.159449,1019.8,,,TRUE,TRUE,,,,,,FEW,2000,SCT,25000,,,,,VFR,,,,,,,,,,,,METAR,54.0
K79J 271356Z AUTO 13005KT 10SM CLR 26/21 A3018 RMK AO2 SLP216 T02610211 $,K79J,2015-05-27T13:56:00Z,31.32,-86.4,26.1,21.1,130,5,,10.0,30.180119,1021.6,,TRUE,TRUE,TRUE,,,,,,CLR,,,,,,,,VFR,,,,,,,,,,,,METAR,94.0
KNSE 271356Z 15005KT 10SM FEW020 SCT250 26/22 A3016 RMK AO2 SLP198 TCU DSNT SW T02560222 $,KNSE,2015-05-27T13:56:00Z,30.73,-87.02,25.6,22.2,150,5,,10.0,30.159449,1019.8,,,TRUE,TRUE,,,,,,FEW,2000,SCT,25000,,,,,VFR,,,,,,,,,,,,METAR,61.0
KNPA 271356Z 13010KT 10SM BKN016 BKN250 27/23 A3015 RMK AO2 SLP210 T2 SET T02720233 $,KNPA,2015-05-27T13:56:00Z,30.35,-87.32,27.2,23.3,130,10,,10.0,30.15059,1021.0,,,TRUE,TRUE,,,,,,BKN,1600,BKN,25000,,,,,MVFR,,,,,,,,,,,,METAR,9.0
KPRN 271356Z AUTO 00000KT 10SM BKN032 24/21 A3019 RMK AO2 SLP220 T02440206,KPRN,2015-05-27T13:56:00Z,31.85,-86.62,24.4,20.6,0,0,,10.0,30.188976,1022.0,,TRUE,TRUE,,,,,,,BKN,3200,,,,,,,VFR,,,,,,,,,,,,SPECI,138.0
KNOG 271356Z AUTO 18010KT 9SM BKN011 27/24 A3002 RMK AO2 SLP144 T02720244 TSNO $,KNOG,2015-05-27T13:56:00Z,27.9,-98.05,27.2,24.4,180,10,,9.0,30.02067,1014.4,,TRUE,TRUE,TRUE,,TRUE,,,,BKN,1100,,,,,,,MVFR,,,,,,,,,,,,SPECI,78.0
KNGP 271356Z 14015KT 9SM FEW011 BKN015 28/24 A3002 RMK AO2 SLP165 T02780244,KNGP,2015-05-27T13:56:00Z,27.68,-97.27,27.8,24.4,140,15,,9.0,30.02067,1016.5,,,TRUE,,,,,,,FEW,1100,BKN,1500,,,,,MVFR,,,,,,,,,,,,SPECI,6.0
KNBT 271356Z AUTO 17008KT 10SM BKN040 A3028 RMK AO2 SLP259 PNO $,KNBT,2015-05-27T13:56:00Z,35.02,-76.47,,,170,8,,10.0,30.280512,1025.9,,TRUE,TRUE,TRUE,,,,,,BKN,4000,,,,,,,VFR,,,,,,,,,,,,SPECI,5.0
KNYG 271356Z 17007KT 10SM SCT020 BKN200 25/21 A3017 RMK AO2 SLP217 T02500211,KNYG,2015-05-27T13:56:00Z,38.5,-77.28,25.0,21.1,170,7,,10.0,30.171259,1021.7,,,TRUE,,,,,,,SCT,2000,BKN,20000,,,,,VFR,,,,,,,,,,,,SPECI,4.0
KGNA 271356Z AUTO 25009KT 08/05 A2975 RMK AO1 SLP076 T00780050,KGNA,2015-05-27T13:56:00Z,47.75,-90.35,7.8,5.0,250,9,,,29.749016,1007.6,,TRUE,TRUE,,,,,,,,,,,,,,,,,,,,,,,,,,,SPECI,185.0
KSRC 271356Z AUTO VRB03KT 10SM OVC026 23/20 A3014 RMK AO2 SLP210 P0001 T02280200 TSNO,KSRC,2015-05-27T13:56:00Z,35.22,-91.73,22.8,20.0,0,3,,10.0,30.138779,1021.0,,TRUE,TRUE,,,TRUE,,,,OVC,2600,,,,,,,MVFR,,,,,,0.01,,,,,,SPECI,80.0
KISO 271356Z 21007KT 180V240 10SM SCT021 SCT029 SCT037 27/21 A3027 RMK AO2,KISO,2015-05-27T13:56:00Z,35.32,-77.62,27.0,21.0,210,7,,10.0,30.268702,,,,TRUE,,,,,,,SCT,2100,SCT,2900,SCT,3700,,,VFR,,,,,,,,,,,,METAR,29.0
PANW 271356Z AUTO 16005KT 10SM BKN055 OVC085 06/03 A3026 RMK AO2 TSNO T00550033 SLP226 $,PANW,2015-05-27T13:56:00Z,59.45,-157.37,5.5,3.3,160,5,,10.0,30.259842,1022.6,,TRUE,TRUE,TRUE,,TRUE,,,,BKN,5500,OVC,8500,,,,,VFR,,,,,,,,,,,,METAR,92.0
K2WX 271356Z AUTO 17003KT 15/11 A2991 RMK AO1 SLP116 T01500106,K2WX,2015-05-27T13:56:00Z,45.6,-103.55,15.0,10.6,170,3,,,29.911417,1011.6,,TRUE,TRUE,,,,,,,,,,,,,,,,,,,,,,,,,,,METAR,915.0
PAFB 271356Z AUTO 00000KT 10SM CLR 12/08 A3012 RMK SLP200 T01220078 $ VIA AUTODIAL,PAFB,2015-05-27T13:56:00Z,64.83,-147.62,12.2,7.8,0,0,,10.0,30.121063,1020.0,,TRUE,,TRUE,,,,,,CLR,,,,,,,,VFR,,,,,,,,,,,,METAR,137.0
K8D3 271356Z AUTO 34014KT 22/11 A2993 RMK AO1 SLP122 T02170106,K8D3,2015-05-27T13:56:00Z,45.67,-96.98,21.7,10.6,340,14,,,29.929134,1012.2,,TRUE,TRUE,,,,,,,,,,,,,,,,,,,,,,,,,,,METAR,354.0
KNUC 271356Z 29009KT 10SM OVC015 15/11 A3002 RMK SLP159 FIRST T01500111,KNUC,2015-05-27T13:56:00Z,33.02,-118.57,15.0,11.1,290,9,,10.0,30.02067,1015.9,,,,,,,,,,OVC,1500,,,,,,,MVFR,,,,,,,,,,,,METAR,55.0
KP28 271356Z AUTO 12005KT 18/17 A3007 RMK AO1 SLP169 T01830167,KP28,2015-05-27T13:56:00Z,37.28,-98.55,18.3,16.7,120,5,,,30.070866,1016.9,,TRUE,TRUE,,,,,,,,,,,,,,,,,,,,,,,,,,,METAR,469.0
KP53 271356Z AUTO 33011KT 09/08 A2974 RMK AO1 SLP074 P0003 T00890078,KP53,2015-05-27T13:56:00Z,46.42,-86.65,8.9,7.8,330,11,,,29.740158,1007.4,,TRUE,TRUE,,,,,,,,,,,,,,,,,,,,,0.03,,,,,,METAR,187.0
TXKF 271355Z 05018KT 9999 SCT018 BKN050 BKN300 24/19 Q1024 ,TXKF,2015-05-27T13:55:00Z,32.37,-64.68,24.0,19.0,50,18,,6.21,30.236221,,,,,,,,,,,SCT,1800,BKN,5000,BKN,30000,,,VFR,,,,,,,,,,,,METAR,6.0
FJDG 271355Z 15005KT 9999 FEW020 SCT250 28/26 A2983 RMK SLP098 T02830256,FJDG,2015-05-27T13:55:00Z,-7.32,72.42,28.3,25.6,150,5,,6.21,29.828741,1009.8,,,,,,,,,,FEW,2000,SCT,25000,,,,,VFR,,,,,,,,,,,,METAR,3.0
PTKK 271355Z 00000KT 15SM FEW014 BKN280 26/25 A2982 RMK SLP100 T02620246,PTKK,2015-05-27T13:55:00Z,7.47,151.85,26.2,24.6,0,0,,15.0,29.819881,1010.0,,,,,,,,,,FEW,1400,BKN,28000,,,,,VFR,,,,,,,,,,,,METAR,2.0
EHKD 271355Z AUTO 26010KT 9999 FEW011 BKN310 14/10 Q1021 BLU 24012KT 9999 FEW013 SCT050,EHKD,2015-05-27T13:55:00Z,52.92,4.77,14.0,10.0,260,10,,6.21,30.147638,,,TRUE,,,,,,,,FEW,1100,BKN,31000,FEW,1300,SCT,5000,VFR,,,,,,,,,,,,METAR,14.0
KDWX 271355Z AUTO 21004KT 10SM BKN036 OVC045 10/07 A3020 RMK AO2 T01020069,KDWX,2015-05-27T13:55:00Z,41.03,-107.5,10.2,6.9,210,4,,10.0,30.200787,,,TRUE,TRUE,,,,,,,BKN,3600,OVC,4500,,,,,VFR,,,,,,,,,,,,SPECI,1996.0
KDUB 271355Z AUTO 35012G17KT 10SM CLR 08/02 A3010 RMK AO2,KDUB,2015-05-27T13:55:00Z,43.55,-109.68,8.0,2.0,350,12,17,10.0,30.100393,,,TRUE,TRUE,,,,,,,CLR,,,,,,,,VFR,,,,,,,,,,,,SPECI,2224.0
KDPL 271355Z AUTO 24006KT 10SM SCT020 SCT028 BKN034 26/21 A3028 RMK AO2 T02550206,KDPL,2015-05-27T13:55:00Z,35.0,-77.97,25.5,20.6,240,6,,10.0,30.280512,,,TRUE,TRUE,,,,,,,SCT,2000,SCT,2800,BKN,3400,,,VFR,,,,,,,,,,,,SPECI,42.0
KDLP 271355Z AUTO VRB06KT 10SM CLR 26/24 A3014 RMK A01,KDLP,2015-05-27T13:55:00Z,29.12,-89.55,26.0,24.0,0,6,,10.0,30.138779,,,TRUE,TRUE,,,,,,,CLR,,,,,,,,VFR,,,,,,,,,,,,SPECI,36.0
KDLL 271355Z AUTO 30008KT 10SM BKN011 BKN016 OVC021 15/14 A2992 RMK AO2 P0001 T01530136,KDLL,2015-05-27T13:55:00Z,43.52,-89.77,15.3,13.6,300,8,,10.0,29.920275,,,TRUE,TRUE,,,,,,,BKN,1100,BKN,1600,OVC,2100,,,MVFR,,,,,,0.01,,,,,,SPECI,299.0
KDKB 271355Z AUTO 25014KT 10SM OVC012 17/15 A2997 RMK AO2 T01690147,KDKB,2015-05-27T13:55:00Z,41.93,-88.7,16.9,14.7,250,14,,10.0,29.970472,,,TRUE,TRUE,,,,,,,OVC,1200,,,,,,,MVFR,,,,,,,,,,,,SPECI,279.0
KDEH 271355Z AUTO 31004KT 9SM SCT013 17/14 A2997 RMK AO2,KDEH,2015-05-27T13:55:00Z,43.27,-91.72,17.0,14.0,310,4,,9.0,29.970472,,,TRUE,TRUE,,,,,,,SCT,1300,,,,,,,VFR,,,,,,,,,,,,SPECI,353.0
KDCY 271355Z AUTO 23006KT 10SM CLR 23/17 A3008 RMK AO2 T02250169,KDCY,2015-05-27T13:55:00Z,38.7,-87.13,22.5,16.9,230,6,,10.0,30.079725,,,TRUE,TRUE,,,,,,,CLR,,,,,,,,VFR,,,,,,,,,,,,SPECI,144.0
KDBN 271355Z AUTO 18003KT 10SM OVC010 22/20 A3028 RMK AO2,KDBN,2015-05-27T13:55:00Z,32.57,-82.98,22.0,20.0,180,3,,10.0,30.280512,,,TRUE,TRUE,,,,,,,OVC,1000,,,,,,,MVFR,,,,,,,,,,,,SPECI,94.0
KCVW 271355Z AUTO 01011G18KT 5SM BR FEW035 SCT050 BKN060 21/19 A3018 RMK A01,KCVW,2015-05-27T13:55:00Z,29.78,-93.3,21.0,19.0,10,11,18,5.0,30.180119,,,TRUE,TRUE,,,,,,BR,FEW,3500,SCT,5000,BKN,6000,,,MVFR,,,,,,,,,,,,SPECI,1.0
KCUH 271355Z AUTO 17005KT OVC006 21/21 A3007 RMK AO2 PWINO,KCUH,2015-05-27T13:55:00Z,35.95,-96.77,21.0,21.0,170,5,,,30.070866,,,TRUE,TRUE,,,,,TRUE,,OVC,600,,,,,,,,,,,,,,,,,,,SPECI,279.0
KCTZ 271355Z AUTO 22004KT 10SM SCT021 SCT027 SCT037 26/22 A3028 RMK AO2 T02570221,KCTZ,2015-05-27T13:55:00Z,34.98,-78.37,25.7,22.1,220,4,,10.0,30.280512,,,TRUE,TRUE,,,,,,,SCT,2100,SCT,2700,SCT,3700,,,VFR,,,,,,,,,,,,SPECI,45.0
KCSQ 271355Z AUTO 28006KT 10SM CLR 18/15 A3005 RMK AO2,KCSQ,2015-05-27T13:55:00Z,41.02,-94.37,18.0,15.0,280,6,,10.0,30.050198,,,TRUE,TRUE,,,,,,,CLR,,,,,,,,VFR,,,,,,,,,,,,SPECI,394.0
KCPT 271355Z AUTO 16007KT 10SM CLR 21/19 A3009 RMK AO2 TSNO,KCPT,2015-05-27T13:55:00Z,32.35,-97.43,21.0,19.0,160,7,,10.0,30.088583,,,TRUE,TRUE,,,TRUE,,,,CLR,,,,,,,,VFR,,,,,,,,,,,,SPECI,260.0
KCPC 271355Z AUTO 21006KT 10SM SCT016 SCT048 OVC065 26/21 A3027 RMK AO2 T02600210,KCPC,2015-05-27T13:55:00Z,34.28,-78.72,26.0,21.0,210,6,,10.0,30.268702,,,TRUE,TRUE,,,,,,,SCT,1600,SCT,4800,OVC,6500,,,VFR,,,,,,,,,,,,SPECI,29.0
KCOM 271355Z AUTO 17008KT 10SM OVC007 23/20 A3006 RMK AO2 T02280204,KCOM,2015-05-27T13:55:00Z,31.83,-99.4,22.8,20.4,170,8,,10.0,30.059055,,,TRUE,TRUE,,,,,,,OVC,700,,,,,,,IFR,,,,,,,,,,,,SPECI,517.0
KCNC 271355Z AUTO 32007KT 10SM CLR 18/15 A3003 RMK AO2,KCNC,2015-05-27T13:55:00Z,41.02,-93.37,18.0,15.0,320,7,,10.0,30.029528,,,TRUE,TRUE,,,,,,,CLR,,,,,,,,VFR,,,,,,,,,,,,SPECI,320.0
KCIN 271355Z AUTO 26009KT 10SM CLR 18/14 A3003 RMK AO2,KCIN,2015-05-27T13:55:00Z,42.03,-94.77,18.0,14.0,260,9,,10.0,30.029528,,,TRUE,TRUE,,,,,,,CLR,,,,,,,,VFR,,,,,,,,,,,,SPECI,375.0
KCFD 271355Z AUTO 14006KT 10SM BKN005 20/20 A3010 RMK AO2 LTG DSNT S P0001 T02030198,KCFD,2015-05-27T13:55:00Z,30.72,-96.33,20.3,19.8,140,6,,10.0,30.100393,,,TRUE,TRUE,,,,,,,BKN,500,,,,,,,IFR,,,,,,0.01,,,,,,SPECI,112.0
KCBF 271355Z AUTO 29004KT 10SM CLR 17/16 A3006 RMK AO2,KCBF,2015-05-27T13:55:00Z,41.27,-95.77,17.0,16.0,290,4,,10.0,30.059055,,,TRUE,TRUE,,,,,,,CLR,,,,,,,,VFR,,,,,,,,,,,,SPECI,382.0
KCAV 271355Z AUTO 28007KT 10SM CLR 18/ A3000 RMK AO2,KCAV,2015-05-27T13:55:00Z,42.75,-93.77,18.0,,280,7,,10.0,30.0,,,TRUE,TRUE,,,,,,,CLR,,,,,,,,VFR,,,,,,,,,,,,SPECI,354.0
KC35 271355Z AUTO 31009KT 10SM SCT011 BKN014 OVC021 15/14 A2992 RMK AO2 T01520140,KC35,2015-05-27T13:55:00Z,43.53,-89.98,15.2,14.0,310,9,,10.0,29.920275,,,TRUE,TRUE,,,,,,,SCT,1100,BKN,1400,OVC,2100,,,MVFR,,,,,,,,,,,,SPECI,276.0
KBYY 271355Z AUTO 06015G22KT 10SM SCT007 BKN015 OVC023 22/20 A3010 RMK AO2 T02330222,KBYY,2015-05-27T13:55:00Z,28.97,-95.87,22.0,20.0,60,15,22,10.0,30.100393,,,TRUE,TRUE,,,,,,,SCT,700,BKN,1500,OVC,2300,,,MVFR,,,,,,,,,,,,SPECI,14.0
KBVS 271355Z AUTO 00000KT 10SM OVC047 11/11 A3008 RMK A01,KBVS,2015-05-27T13:55:00Z,48.47,-122.42,11.0,11.0,0,0,,10.0,30.079725,,,TRUE,TRUE,,,,,,,OVC,4700,,,,,,,VFR,,,,,,,,,,,,SPECI,43.0
KBVN 271355Z AUTO 00000KT 10SM CLR 17/11 A3007 RMK AO2 T01670108,KBVN,2015-05-27T13:55:00Z,41.73,-98.05,16.7,10.8,0,0,,10.0,30.070866,,,TRUE,TRUE,,,,,,,CLR,,,,,,,,VFR,,,,,,,,,,,,SPECI,551.0
KBUU 271355Z AUTO 24009G14KT 2SM +RA OVC013 16/15 A2992 RMK AO2 P0021 T01570149,KBUU,2015-05-27T13:55:00Z,42.68,-88.3,15.7,14.9,240,9,14,2.0,29.920275,,,TRUE,TRUE,,,,,,+RA,OVC,1300,,,,,,,IFR,,,,,,0.21,,,,,,SPECI,237.0
KBQX 271355Z AUTO 10005KT 5SM HZ CLR 28/25 A3009 RMK A01,KBQX,2015-05-27T13:55:00Z,28.5,-95.72,28.0,25.0,100,5,,5.0,30.088583,,,TRUE,TRUE,,,,,,HZ,CLR,,,,,,,,MVFR,,,,,,,,,,,,SPECI,34.0
KBNW 271355Z AUTO 27007KT 240V300 10SM 18/14 A3001 RMK AO2,KBNW,2015-05-27T13:55:00Z,42.03,-93.83,18.0,14.0,270,7,,10.0,30.008858,,,TRUE,TRUE,,,,,,,,,,,,,,,,,,,,,,,,,,,SPECI,354.0
KBMT 271355Z AUTO 10004KT 7SM TSRA SCT055 BKN070 OVC090 19/18 A3015 RMK AO2 LTG DSNT E THRU SW T01880182,KBMT,2015-05-27T13:55:00Z,30.07,-94.22,18.8,18.2,100,4,,7.0,30.15059,,,TRUE,TRUE,,,,,,TSRA,SCT,5500,BKN,7000,OVC,9000,,,VFR,,,,,,,,,,,,SPECI,10.0
KBMC 271355Z AUTO 00000KT 10SM BKN095 12/09 A3008 RMK AO1 T01150094,KBMC,2015-05-27T13:55:00Z,41.55,-112.07,11.5,9.4,0,0,,10.0,30.079725,,,TRUE,TRUE,,,,,,,BKN,9500,,,,,,,VFR,,,,,,,,,,,,SPECI,1288.0
KBKD 271355Z AUTO 19009KT 10SM CLR 24/19 A3005 RMK AO2 T02360186,KBKD,2015-05-27T13:55:00Z,32.72,-98.88,23.6,18.6,190,9,,10.0,30.050198,,,TRUE,TRUE,,,,,,,CLR,,,,,,,,VFR,,,,,,,,,,,,SPECI,392.0
KBIE 271355Z AUTO 00000KT 10SM CLR 18/12 A3008 RMK AO2 T01760121,KBIE,2015-05-27T13:55:00Z,40.28,-96.75,17.6,12.1,0,0,,10.0,30.079725,,,TRUE,TRUE,,,,,,,CLR,,,,,,,,VFR,,,,,,,,,,,,SPECI,403.0
KQSN 271355Z AUTO VRB05KT 9999 FEW045 BKN150 25/M07 A2996 RMK AO2 SLP053 T02501073,KQSN,2015-05-27T13:55:00Z,100.65,-1000.65,25.0,-7.3,0,5,,6.21,29.958662,1005.3,,TRUE,TRUE,,,,,,,FEW,4500,BKN,15000,,,,,VFR,,,,,,,,,,,,METAR,999.0
KQFQ 271355Z AUTO 32002KT 10SM CLR 16/04 A2981 RMK AO2 SHRAB1241E1258 SLP091 T01640041 $,KQFQ,2015-05-27T13:55:00Z,100.65,-1000.65,16.4,4.1,320,2,,10.0,29.811024,1009.1,,TRUE,TRUE,TRUE,,,,,,CLR,,,,,,,,VFR,,,,,,,,,,,,METAR,999.0
KQFA 271355Z AUTO 00000KT 9999 CLR 16/07 A2985 RMK AO2 SLP105 T01620071 $,KQFA,2015-05-27T13:55:00Z,100.65,-1000.65,16.2,7.1,0,0,,6.21,29.84941,1010.5,,TRUE,TRUE,TRUE,,,,,,CLR,,,,,,,,VFR,,,,,,,,,,,,METAR,999.0
KPRO 271355Z AUTO 29005KT 10SM CLR 18/14 A3003 RMK AO2 T01820138,KPRO,2015-05-27T13:55:00Z,41.83,-94.17,18.2,13.8,290,5,,10.0,30.029528,,,TRUE,TRUE,,,,,,,CLR,,,,,,,,VFR,,,,,,,,,,,,SPECI,308.0
KPPQ 271355Z AUTO 24007G14KT 10SM SCT014 21/17 A3005 RMK AO2 T02060172,KPPQ,2015-05-27T13:55:00Z,39.63,-90.78,20.6,17.2,240,7,14,10.0,30.050198,,,TRUE,TRUE,,,,,,,SCT,1400,,,,,,,VFR,,,,,,,,,,,,SPECI,216.0
KPPO 271355Z AUTO 25011G19KT 10SM SCT020 BKN095 BKN120 22/17 A2998 RMK AO2 T02200174,KPPO,2015-05-27T13:55:00Z,41.57,-86.73,22.0,17.4,250,11,19,10.0,29.97933,,,TRUE,TRUE,,,,,,,SCT,2000,BKN,9500,BKN,12000,,,VFR,,,,,,,,,,,,SPECI,248.0
KPMV 271355Z AUTO 28007KT 10SM CLR 19/11 A3005 RMK AO2 T01930111,KPMV,2015-05-27T13:55:00Z,40.95,-95.92,19.3,11.1,280,7,,10.0,30.050198,,,TRUE,TRUE,,,,,,,CLR,,,,,,,,VFR,,,,,,,,,,,,SPECI,367.0
KPBH 271355Z AUTO 23007KT 10SM BKN005 BKN009 OVC060 13/12 A2989 RMK AO2 T01340124,KPBH,2015-05-27T13:55:00Z,45.7,-90.4,13.4,12.4,230,7,,10.0,29.890747,,,TRUE,TRUE,,,,,,,BKN,500,BKN,900,OVC,6000,,,IFR,,,,,,,,,,,,SPECI,449.0
KOXI 271355Z AUTO 23011KT 10SM SCT017 BKN085 BKN100 21/17 A2998 RMK AO1,KOXI,2015-05-27T13:55:00Z,41.33,-86.67,21.0,17.0,230,11,,10.0,29.97933,,,TRUE,TRUE,,,,,,,SCT,1700,BKN,8500,BKN,10000,,,VFR,,,,,,,,,,,,SPECI,209.0
KOPN 271355Z AUTO 00000KT 10SM BKN005 OVC031 22/22 A3027 RMK AO2,KOPN,2015-05-27T13:55:00Z,32.95,-84.27,22.0,22.0,0,0,,10.0,30.268702,,,TRUE,TRUE,,,,,,,BKN,500,OVC,3100,,,,,IFR,,,,,,,,,,,,SPECI,243.0
KONX 271355Z AUTO 18008KT 150V230 10SM SCT020 26/19 A3027 RMK AO2 T02610190,KONX,2015-05-27T13:55:00Z,36.4,-76.02,26.1,19.0,180,8,,10.0,30.268702,,,TRUE,TRUE,,,,,,,SCT,2000,,,,,,,VFR,,,,,,,,,,,,SPECI,5.0
KOLE 271355Z AUTO 23008KT 10SM SCT017 BKN032 OVC045 19/15 A3013 RMK AO2,KOLE,2015-05-27T13:55:00Z,42.23,-78.37,19.0,15.0,230,8,,10.0,30.129921,,,TRUE,TRUE,,,,,,,SCT,1700,BKN,3200,OVC,4500,,,VFR,,,,,,,,,,,,SPECI,651.0
KOCQ 271355Z AUTO 30005KT 5SM BKN008 OVC013 14/14 A2982 RMK AO1 P0003 T01410141,KOCQ,2015-05-27T13:55:00Z,44.87,-87.92,14.1,14.1,300,5,,5.0,29.819881,,,TRUE,TRUE,,,,,,,BKN,800,OVC,1300,,,,,IFR,,,,,,0.03,,,,,,SPECI,183.0
KMWO 271355Z AUTO 24008KT 10SM BKN020 24/18 A3013 RMK AO2 T02360183,KMWO,2015-05-27T13:55:00Z,39.53,-84.4,23.6,18.3,240,8,,10.0,30.129921,,,TRUE,TRUE,,,,,,,BKN,2000,,,,,,,MVFR,,,,,,,,,,,,SPECI,198.0
EHQE 271355Z AUTO 25009KT 9999 ///////// 11/08 Q1021,EHQE,2015-05-27T13:55:00Z,52.92,4.15,11.0,8.0,250,9,,6.21,30.147638,,,TRUE,,,,,,,,,,,,,,,,,,,,,,,,,,,,METAR,50.0
EHPG 271355Z AUTO 21005KT 180V250 9999 NSC 11/08 Q1021,EHPG,2015-05-27T13:55:00Z,52.37,3.35,11.0,8.0,210,5,,6.21,30.147638,,,TRUE,,,,,,,,,,,,,,,,,,,,,,,,,,,,METAR,50.0
EHMG 271355Z AUTO 24016KT 9999 FEW007/// 11/09 Q1020,EHMG,2015-05-27T13:55:00Z,53.62,4.97,11.0,9.0,240,16,,6.21,30.11811,,,TRUE,,,,,,,,,,,,,,,,,,,,,,,,,,,,METAR,50.0
EHMA 271355Z AUTO 28013KT 9999 FEW032/// 13/08 Q1020,EHMA,2015-05-27T13:55:00Z,53.5,5.95,13.0,8.0,280,13,,6.21,30.11811,,,TRUE,,,,,,,,,,,,,,,,,,,,,,,,,,,,METAR,50.0
EHKV 271355Z AUTO 27016KT 9999 NSC 12/08 Q1021,EHKV,2015-05-27T13:55:00Z,53.27,3.63,12.0,8.0,270,16,,6.21,30.147638,,,TRUE,,,,,,,,,,,,,,,,,,,,,,,,,,,,METAR,50.0
EHJA 271355Z AUTO 25011KT 9999 FEW011/// BKN014/// 10/06 Q1020,EHJA,2015-05-27T13:55:00Z,53.82,2.95,10.0,6.0,250,11,,6.21,30.11811,,,TRUE,,,,,,,,,,,,,,,,,,,,,,,,,,,,METAR,50.0
EHFZ 271355Z AUTO 30007KT 9999 FEW007/// BKN011/// BKN013/// 12/11 Q1019,EHFZ,2015-05-27T13:55:00Z,54.12,4.02,12.0,11.0,300,7,,6.21,30.088583,,,TRUE,,,,,,,,,,,,,,,,,,,,,,,,,,,,METAR,50.0
EHFD 271355Z AUTO 16006KT 150V210 9999 FEW006/// BKN040/// 12/09 Q1019,EHFD,2015-05-27T13:55:00Z,54.85,4.7,12.0,9.0,160,6,,6.21,30.088583,,,TRUE,,,,,,,,,,,,,,,,,,,,,,,,,,,,METAR,50.0
EHDV 271355Z AUTO 27008KT 9999 FEW012/// SCT015/// 10/07 Q1020,EHDV,2015-05-27T13:55:00Z,54.32,2.93,10.0,7.0,270,8,,6.21,30.11811,,,TRUE,,,,,,,,,,,,,,,,,,,,,,,,,,,,METAR,50.0
EHAK 271355Z AUTO 23012KT 9999 FEW009/// 10/07 Q1019,EHAK,2015-05-27T13:55:00Z,55.42,3.82,10.0,7.0,230,12,,6.21,30.088583,,,TRUE,,,,,,,,,,,,,,,,,,,,,,,,,,,,METAR,50.0
OPLA 271355Z 27003KT 7000 NSC 39/04 Q1002 NOSIG A29.59,OPLA,2015-05-27T13:55:00Z,31.52,74.4,39.0,4.0,270,3,,4.35,29.586615,,,,,,TRUE,,,,,,,,,,,,,,,,,,,,,,,,,METAR,217.0
KRNV 271355Z AUTO 00000KT 10SM -TSRA SCT041 BKN070 OVC090 20/20 A3011 RMK AO2 LTG DSNT W THRU NE T02010201,KRNV,2015-05-27T13:55:00Z,33.77,-90.75,20.1,20.1,0,0,,10.0,30.109253,,,TRUE,TRUE,,,,,,-TSRA,SCT,4100,BKN,7000,OVC,9000,,,VFR,,,,,,,,,,,,SPECI,41.0
KPTT 271355Z AUTO 11007KT 10SM CLR 18/12 A3009 RMK AO2,KPTT,2015-05-27T13:55:00Z,37.7,-98.75,18.0,12.0,110,7,,10.0,30.088583,,,TRUE,TRUE,,,,,,,CLR,,,,,,,,VFR,,,,,,,,,,,,SPECI,595.0
KONP 271355Z AUTO 01003KT 4SM BR OVC004 11/10 A3011 RMK AO2,KONP,2015-05-27T13:55:00Z,44.57,-124.03,11.0,10.0,10,3,,4.0,30.109253,,,TRUE,TRUE,,,,,,BR,OVC,400,,,,,,,LIFR,,,,,,,,,,,,SPECI,48.0
KMTV 271355Z AUTO 20004KT 10SM SCT011 22/20 A3028 RMK AO2 T02150201,KMTV,2015-05-27T13:55:00Z,36.63,-80.02,21.5,20.1,200,4,,10.0,30.280512,,,TRUE,TRUE,,,,,,,SCT,1100,,,,,,,VFR,,,,,,,,,,,,SPECI,287.0
KMRJ 271355Z AUTO 28013G17KT 10SM BKN010 OVC015 16/15 A2995 RMK AO2,KMRJ,2015-05-27T13:55:00Z,42.88,-90.23,16.0,15.0,280,13,17,10.0,29.949802,,,TRUE,TRUE,,,,,,,BKN,1000,OVC,1500,,,,,MVFR,,,,,,,,,,,,SPECI,359.0
KMQI 271355Z AUTO 19011KT 10SM OVC038 24/19 A3029 RMK AO2 T02380188,KMQI,2015-05-27T13:55:00Z,35.92,-75.7,23.8,18.8,190,11,,10.0,30.28937,,,TRUE,TRUE,,,,,,,OVC,3800,,,,,,,VFR,,,,,,,,,,,,SPECI,4.0
KMGR 271355Z AUTO 14005KT 10SM CLR 24/21 A3023 RMK AO2,KMGR,2015-05-27T13:55:00Z,31.08,-83.8,24.0,21.0,140,5,,10.0,30.230314,,,TRUE,TRUE,,,,,,,CLR,,,,,,,,VFR,,,,,,,,,,,,SPECI,90.0
KMDQ 271355Z AUTO 00000KT 7SM OVC011 21/17 A3022 RMK AO2,KMDQ,2015-05-27T13:55:00Z,34.87,-86.55,21.0,17.0,0,0,,7.0,30.221457,,,TRUE,TRUE,,,,,,,OVC,1100,,,,,,,MVFR,,,,,,,,,,,,SPECI,230.0
KM30 271355Z AUTO 20003KT 10SM SCT025 SCT031 23/21 A3011 RMK AO2 LTG DSNT N T02310213,KM30,2015-05-27T13:55:00Z,37.18,-88.75,23.1,21.3,200,3,,10.0,30.109253,,,TRUE,TRUE,,,,,,,SCT,2500,SCT,3100,,,,,VFR,,,,,,,,,,,,SPECI,117.0
KLZZ 271355Z AUTO 14005KT 2 1/2SM -RA OVC016 24/21 A3007 RMK AO2 VIS 1/2V5 T02380210,KLZZ,2015-05-27T13:55:00Z,31.1,-98.2,23.8,21.0,140,5,,2.5,30.070866,,,TRUE,TRUE,,,,,,-RA,OVC,1600,,,,,,,IFR,,,,,,,,,,,,SPECI,371.0
KLXN 271355Z AUTO 06003KT 10SM SCT060 16/14 A3009 RMK AO2 T01620135,KLXN,2015-05-27T13:55:00Z,40.78,-99.77,16.2,13.5,60,3,,10.0,30.088583,,,TRUE,TRUE,,,,,,,SCT,6000,,,,,,,VFR,,,,,,,,,,,,SPECI,734.0
KLUD 271355Z AUTO 15007KT 10SM CLR 21/14 A3009 RMK AO2 T02080140,KLUD,2015-05-27T13:55:00Z,33.25,-97.58,20.8,14.0,150,7,,10.0,30.088583,,,TRUE,TRUE,,,,,,,CLR,,,,,,,,VFR,,,,,,,,,,,,SPECI,319.0
KLSB 271355Z AUTO 00000KT 10SM CLR 17/M04 A3009 RMK AO2,KLSB,2015-05-27T13:55:00Z,32.33,-108.7,17.0,-4.0,0,0,,10.0,30.088583,,,TRUE,TRUE,,,,,,,CLR,,,,,,,,VFR,,,,,,,,,,,,SPECI,1307.0
KUVA 271355Z AUTO 13006KT 5SM BR BKN009 BKN016 25/23 A3003 RMK AO2 T02500233,KUVA,2015-05-27T13:55:00Z,29.22,-99.75,25.0,23.3,130,6,,5.0,30.029528,,,TRUE,TRUE,,,,,,BR,BKN,900,BKN,1600,,,,,IFR,,,,,,,,,,,,SPECI,287.0
KTYQ 271355Z AUTO 22012G17KT 10SM SCT120 24/16 A3007 RMK AO2 T02350163,KTYQ,2015-05-27T13:55:00Z,40.03,-86.25,23.5,16.3,220,12,17,10.0,30.070866,,,TRUE,TRUE,,,,,,,SCT,12000,,,,,,,VFR,,,,,,,,,,,,SPECI,281.0
KTNB 271355Z AUTO 00000KT 10SM CLR 19/13 A3032 RMK AO2 T01910127,KTNB,2015-05-27T13:55:00Z,36.2,-81.65,19.1,12.7,0,0,,10.0,30.318897,,,TRUE,TRUE,,,,,,,CLR,,,,,,,,VFR,,,,,,,,,,,,SPECI,911.0
KSOW 271355Z AUTO 00000KT 10SM CLR 14/00 A3020 RMK AO2,KSOW,2015-05-27T13:55:00Z,34.27,-110.0,14.0,0.0,0,0,,10.0,30.200787,,,TRUE,TRUE,,,,,,,CLR,,,,,,,,VFR,,,,,,,,,,,,SPECI,1954.0
KSAA 271355Z AUTO 14005KT 10SM BKN035 OVC042 07/06 A3018 RMK AO2,KSAA,2015-05-27T13:55:00Z,41.45,-106.83,7.0,6.0,140,5,,10.0,30.180119,,,TRUE,TRUE,,,,,,,BKN,3500,OVC,4200,,,,,VFR,,,,,,,,,,,,SPECI,2138.0
KLNP 271355Z AUTO 24009KT 10SM SCT016 BKN022 BKN026 21/14 A3030 RMK AO2,KLNP,2015-05-27T13:55:00Z,36.97,-82.52,21.0,14.0,240,9,,10.0,30.301182,,,TRUE,TRUE,,,,,,,SCT,1600,BKN,2200,BKN,2600,,,MVFR,,,,,,,,,,,,SPECI,817.0
KLNN 271355Z AUTO 23009G17KT 10SM CLR A3004 RMK AO1,KLNN,2015-05-27T13:55:00Z,41.67,-81.37,,,230,9,17,10.0,30.041338,,,TRUE,TRUE,,,,,,,CLR,,,,,,,,VFR,,,,,,,,,,,,SPECI,191.0
KLHM 271355Z AUTO 13009KT 10SM CLR 12/09 A2996 RMK AO1,KLHM,2015-05-27T13:55:00Z,38.92,-121.35,12.0,9.0,130,9,,10.0,29.958662,,,TRUE,TRUE,,,,,,,CLR,,,,,,,,VFR,,,,,,,,,,,,SPECI,37.0
KJYL 271355Z AUTO 00000KT 10SM BKN012 BKN017 OVC031 26/23 A3028 RMK AO2 T02630231,KJYL,2015-05-27T13:55:00Z,32.65,-81.6,26.3,23.1,0,0,,10.0,30.280512,,,TRUE,TRUE,,,,,,,BKN,1200,BKN,1700,OVC,3100,,,MVFR,,,,,,,,,,,,SPECI,57.0
KJXI 271355Z AUTO 05003KT 10SM CLR 20/18 A3009 RMK AO2 T01980181,KJXI,2015-05-27T13:55:00Z,32.7,-94.95,19.8,18.1,50,3,,10.0,30.088583,,,TRUE,TRUE,,,,,,,CLR,,,,,,,,VFR,,,,,,,,,,,,SPECI,127.0
KJSV 271355Z AUTO 10003KT 10SM CLR 21/18 A3009 RMK AO2,KJSV,2015-05-27T13:55:00Z,35.43,-94.8,21.0,18.0,100,3,,10.0,30.088583,,,TRUE,TRUE,,,,,,,CLR,,,,,,,,VFR,,,,,,,,,,,,SPECI,161.0
KJNX 271355Z AUTO 21007KT 10SM BKN016 OVC024 25/22 A3026 RMK AO2,KJNX,2015-05-27T13:55:00Z,35.53,-78.38,25.0,22.0,210,7,,10.0,30.259842,,,TRUE,TRUE,,,,,,,BKN,1600,OVC,2400,,,,,MVFR,,,,,,,,,,,,SPECI,50.0
KJHN 271355Z AUTO 22005KT 10SM 18/12 A3009 RMK AO2 T01830117,KJHN,2015-05-27T13:55:00Z,37.58,-101.73,18.3,11.7,220,5,,10.0,30.088583,,,TRUE,TRUE,,,,,,,,,,,,,,,,,,,,,,,,,,,METAR,1013.0
KIZA 271355Z AUTO 00000KT 10SM OVC011 11/08 A3002 RMK AO2,KIZA,2015-05-27T13:55:00Z,34.6,-120.07,11.0,8.0,0,0,,10.0,30.02067,,,TRUE,TRUE,,,,,,,OVC,1100,,,,,,,MVFR,,,,,,,,,,,,SPECI,205.0
KI39 271355Z AUTO 24005G14KT 10SM BKN012 OVC025 22/18 A3021 RMK AO2,KI39,2015-05-27T13:55:00Z,37.63,-84.33,22.0,18.0,240,5,14,10.0,30.209646,,,TRUE,TRUE,,,,,,,BKN,1200,OVC,2500,,,,,MVFR,,,,,,,,,,,,SPECI,306.0
KHZE 271355Z AUTO 00000KT 10SM CLR 17/09 A2996 RMK AO2,KHZE,2015-05-27T13:55:00Z,47.28,-101.58,17.0,9.0,0,0,,10.0,29.958662,,,TRUE,TRUE,,,,,,,CLR,,,,,,,,VFR,,,,,,,,,,,,SPECI,553.0
KHQU 271355Z AUTO 27003KT 10SM SCT012 SCT017 24/21 A3031 RMK AO1 T02360214,KHQU,2015-05-27T13:55:00Z,33.53,-82.52,23.6,21.4,270,3,,10.0,30.31004,,,TRUE,TRUE,,,,,,,SCT,1200,SCT,1700,,,,,VFR,,,,,,,,,,,,SPECI,152.0
KHOE 271355Z AUTO 15004KT 10SM SCT011 SCT100 27/23 A3024 RMK AO2,KHOE,2015-05-27T13:55:00Z,31.05,-82.78,27.0,23.0,150,4,,10.0,30.239174,,,TRUE,TRUE,,,,,,,SCT,1100,SCT,10000,,,,,VFR,,,,,,,,,,,,SPECI,57.0
KHHF 271355Z AUTO 07004KT 10SM CLR 19/17 A3007 RMK AO2 T01870166,KHHF,2015-05-27T13:55:00Z,35.9,-100.4,18.7,16.6,70,4,,10.0,30.070866,,,TRUE,TRUE,,,,,,,CLR,,,,,,,,VFR,,,,,,,,,,,,SPECI,712.0
KHBI 271355Z AUTO 22008KT 10SM CLR 23/19 A3029 RMK AO2 T02320186,KHBI,2015-05-27T13:55:00Z,35.65,-79.9,23.2,18.6,220,8,,10.0,30.28937,,,TRUE,TRUE,,,,,,,CLR,,,,,,,,VFR,,,,,,,,,,,,SPECI,205.0
KCZL 271355Z AUTO 18004KT 10SM SCT009 SCT013 OVC026 21/16 A3024 RMK AO2 T02070162,KCZL,2015-05-27T13:55:00Z,,,20.7,16.2,180,4,,10.0,30.239174,,,TRUE,TRUE,,,,,,,SCT,900,SCT,1300,OVC,2600,,,MVFR,,,,,,,,,,,,SPECI,
KCXU 271355Z AUTO 15004KT 10SM SCT008 BKN075 25/23 A3023 RMK AO2 T02460226,KCXU,2015-05-27T13:55:00Z,,,24.6,22.6,150,4,,10.0,30.230314,,,TRUE,TRUE,,,,,,,SCT,800,BKN,7500,,,,,VFR,,,,,,,,,,,,SPECI,
KCWV 271355Z AUTO 14003KT 10SM BKN015 BKN024 26/22 A3026 RMK AO2,KCWV,2015-05-27T13:55:00Z,32.2,-81.87,26.0,22.0,140,3,,10.0,30.259842,,,TRUE,TRUE,,,,,,,BKN,1500,BKN,2400,,,,,MVFR,,,,,,,,,,,,SPECI,33.0
KCPK 271355Z AUTO 20008KT 10SM BKN020 27/22 A3025 RMK AO2,KCPK,2015-05-27T13:55:00Z,36.67,-76.32,27.0,22.0,200,8,,10.0,30.250984,,,TRUE,TRUE,,,,,,,BKN,2000,,,,,,,MVFR,,,,,,,,,,,,SPECI,6.0
KCLW 271355Z AUTO 11008KT 10SM CLR 26/20 A3018 RMK AO2,KCLW,2015-05-27T13:55:00Z,27.98,-82.75,26.0,20.0,110,8,,10.0,30.180119,,,TRUE,TRUE,,,,,,,CLR,,,,,,,,VFR,,,,,,,,,,,,SPECI,22.0
KCIR 271355Z AUTO 30012G34KT 10SM -RA SCT011 BKN018 BKN024 21/20 A3015 RMK AO2 LTG DSNT N T02130197,KCIR,2015-05-27T13:55:00Z,37.07,-89.22,21.3,19.7,300,12,34,10.0,30.15059,,,TRUE,TRUE,,,,,,-RA,SCT,1100,BKN,1800,BKN,2400,,,MVFR,,,,,,,,,,,,SPECI,98.0
KCHK 271355Z AUTO 14003KT 10SM SCT027 20/18 A3008 RMK AO2,KCHK,2015-05-27T13:55:00Z,35.1,-97.97,20.0,18.0,140,3,,10.0,30.079725,,,TRUE,TRUE,,,,,,,SCT,2700,,,,,,,VFR,,,,,,,,,,,,SPECI,351.0
KCCO 271355Z AUTO 00000KT 10SM BKN008 OVC022 21/20 A3026 RMK AO2 T02130202,KCCO,2015-05-27T13:55:00Z,33.32,-84.77,21.3,20.2,0,0,,10.0,30.259842,,,TRUE,TRUE,,,,,,,BKN,800,OVC,2200,,,,,IFR,,,,,,,,,,,,SPECI,296.0
KC29 271355Z AUTO 29010KT 5SM BKN011 OVC019 17/15 A2992 RMK AO1 T01700150,KC29,2015-05-27T13:55:00Z,43.12,-89.53,17.0,15.0,290,10,,5.0,29.920275,,,TRUE,TRUE,,,,,,,BKN,1100,OVC,1900,,,,,MVFR,,,,,,,,,,,,SPECI,283.0
KBXK 271355Z AUTO 00000KT 10SM CLR 22/03 A2992 RMK AO1,KBXK,2015-05-27T13:55:00Z,33.42,-112.68,22.0,3.0,0,0,,10.0,29.920275,,,TRUE,TRUE,,,,,,,CLR,,,,,,,,VFR,,,,,,,,,,,,SPECI,315.0
KBTA 271355Z AUTO 29005KT 10SM CLR 17/12 A3005 RMK AO2 T01710117,KBTA,2015-05-27T13:55:00Z,41.42,-96.12,17.1,11.7,290,5,,10.0,30.050198,,,TRUE,TRUE,,,,,,,CLR,,,,,,,,VFR,,,,,,,,,,,,SPECI,396.0
KBKS 271355Z AUTO 14013KT 7SM SCT013 SCT023 SCT055 27/24 A2999 RMK AO1 T02740239,KBKS,2015-05-27T13:55:00Z,27.2,-98.12,27.4,23.9,140,13,,7.0,29.991142,,,TRUE,TRUE,,,,,,,SCT,1300,SCT,2300,SCT,5500,,,VFR,,,,,,,,,,,,SPECI,34.0
KBHC 271355Z AUTO 18004KT 10SM BKN012 BKN018 26/22 A3025 RMK AO2,KBHC,2015-05-27T13:55:00Z,31.72,-82.4,26.0,22.0,180,4,,10.0,30.250984,,,TRUE,TRUE,,,,,,,BKN,1200,BKN,1800,,,,,MVFR,,,,,,,,,,,,SPECI,61.0
KANW 271355Z AUTO 22007KT 10SM CLR 19/11 A3007 RMK AO2 T01850110,KANW,2015-05-27T13:55:00Z,42.57,-100.0,18.5,11.0,220,7,,10.0,30.070866,,,TRUE,TRUE,,,,,,,CLR,,,,,,,,VFR,,,,,,,,,,,,SPECI,789.0
KAJR 271355Z AUTO 31003KT 10SM SCT007 OVC024 20/18 A3028 RMK AO2 T01960180,KAJR,2015-05-27T13:55:00Z,,,19.6,18.0,310,3,,10.0,30.280512,,,TRUE,TRUE,,,,,,,SCT,700,OVC,2400,,,,,MVFR,,,,,,,,,,,,SPECI,
K9V9 271355Z AUTO 25004KT 10SM CLR 17/11 A3003 RMK AO2 T01660105,K9V9,2015-05-27T13:55:00Z,43.77,-99.32,16.6,10.5,250,4,,10.0,30.029528,,,TRUE,TRUE,,,,,,,CLR,,,,,,,,VFR,,,,,,,,,,,,SPECI,519.0
K82V 271355Z AUTO 00000KT 10SM OVC120 12/10 A3008 RMK AO2,K82V,2015-05-27T13:55:00Z,41.15,-104.13,12.0,10.0,0,0,,10.0,30.079725,,,TRUE,TRUE,,,,,,,OVC,12000,,,,,,,VFR,,,,,,,,,,,,SPECI,1570.0
K82C 271355Z AUTO 30010KT 7SM BKN012 OVC060 16/14 A2993 RMK AO2 T01610143,K82C,2015-05-27T13:55:00Z,43.83,-90.13,16.1,14.3,300,10,,7.0,29.929134,,,TRUE,TRUE,,,,,,,BKN,1200,OVC,6000,,,,,MVFR,,,,,,,,,,,,METAR,276.0
K6A1 271355Z AUTO 10003KT 1/2SM FG 23/23 A3026 RMK AO2 T02260226,K6A1,2015-05-27T13:55:00Z,32.57,-84.25,22.6,22.6,100,3,,0.5,30.259842,,,TRUE,TRUE,,,,,,FG,,,,,,,,,,,,,,,,,,,,,SPECI,203.0
K36U 271355Z AUTO 00000KT M1/4SM FG OVC001 06/05 A3014 RMK AO2,K36U,2015-05-27T13:55:00Z,40.48,-111.43,6.0,5.0,0,0,,0.25,30.138779,,,TRUE,TRUE,,,,,,FG,OVC,100,,,,,,,LIFR,,,,,,,,,,,,SPECI,1718.0
K2D5 271355Z AUTO 32006KT 10SM 18/13 A2996 RMK AO2,K2D5,2015-05-27T13:55:00Z,46.17,-98.08,18.0,13.0,320,6,,10.0,29.958662,,,TRUE,TRUE,,,,,,,,,,,,,,,,,,,,,,,,,,,SPECI,407.0
K2C8 271355Z AUTO 36014KT 10SM FEW110 13/07 A2997 RMK AO2,K2C8,2015-05-27T13:55:00Z,48.78,-97.63,13.0,7.0,360,14,,10.0,29.970472,,,TRUE,TRUE,,,,,,,FEW,11000,,,,,,,VFR,,,,,,,,,,,,SPECI,272.0
K1II 271355Z AUTO 23006KT 10SM CLR 22/17 A3010 RMK AO2,K1II,2015-05-27T13:55:00Z,39.33,-86.03,22.0,17.0,230,6,,10.0,30.100393,,,TRUE,TRUE,,,,,,,CLR,,,,,,,,VFR,,,,,,,,,,,,SPECI,214.0
K19A 271355Z AUTO 00000KT 10SM OVC011 21/19 A3027 RMK AO2,K19A,2015-05-27T13:55:00Z,34.18,-83.57,21.0,19.0,0,0,,10.0,30.268702,,,TRUE,TRUE,,,,,,,OVC,1100,,,,,,,MVFR,,,,,,,,,,,,SPECI,290.0
K06D 271355Z AUTO 02011KT 10SM CLR 11/05 A3000 RMK AO2,K06D,2015-05-27T13:55:00Z,48.88,-99.62,11.0,5.0,20,11,,10.0,30.0,,,TRUE,TRUE,,,,,,,CLR,,,,,,,,VFR,,,,,,,,,,,,SPECI,556.0
KGNT 271355Z AUTO 00000KT 10SM CLR 11/02 A3024 RMK AO2 T01110018,KGNT,2015-05-27T13:55:00Z,35.17,-107.9,11.1,1.8,0,0,,10.0,30.239174,,,TRUE,TRUE,,,,,,,CLR,,,,,,,,VFR,,,,,,,,,,,,SPECI,1987.0
KGLE 271355Z AUTO 00000KT 10SM CLR 21/15 A3011 RMK AO2 T02080154,KGLE,2015-05-27T13:55:00Z,33.65,-97.2,20.8,15.4,0,0,,10.0,30.109253,,,TRUE,TRUE,,,,,,,CLR,,,,,,,,VFR,,,,,,,,,,,,SPECI,256.0
KGGP 271355Z AUTO 22015G18KT 10SM SCT021 SCT080 22/16 A3003 RMK AO2,KGGP,2015-05-27T13:55:00Z,40.72,-86.37,22.0,16.0,220,15,18,10.0,30.029528,,,TRUE,TRUE,,,,,,,SCT,2100,SCT,8000,,,,,VFR,,,,,,,,,,,,SPECI,225.0
KGEU 271355Z 28004KT 20SM SCT180 BKN250 23/06 A2992,KGEU,2015-05-27T13:55:00Z,33.53,-112.3,23.0,6.0,280,4,,20.0,29.920275,,,,,,,,,,,SCT,18000,BKN,25000,,,,,VFR,,,,,,,,,,,,METAR,325.0
KFWZ 271355Z AUTO 10SM CLR 06/03 A3009 RMK AO2,KFWZ,2015-05-27T13:55:00Z,42.52,-108.78,6.0,3.0,,,,10.0,30.088583,,,TRUE,TRUE,,,,,,,CLR,,,,,,,,VFR,,,,,,,,,,,,SPECI,2588.0
KFGX 271355Z AUTO 23011G15KT 10SM BKN014 BKN022 OVC047 23/20 A3019 RMK AO2 T02250196,KFGX,2015-05-27T13:55:00Z,38.55,-83.75,22.5,19.6,230,11,15,10.0,30.188976,,,TRUE,TRUE,,,,,,,BKN,1400,BKN,2200,OVC,4700,,,MVFR,,,,,,,,,,,,SPECI,278.0
KFET 271355Z AUTO 28004KT 10SM CLR 18/13 A3006 RMK AO2 T01830128,KFET,2015-05-27T13:55:00Z,41.45,-96.52,18.3,12.8,280,4,,10.0,30.059055,,,TRUE,TRUE,,,,,,,CLR,,,,,,,,VFR,,,,,,,,,,,,SPECI,367.0
KF70 271355Z AUTO 00000KT 7SM OVC010 15/12 A2998 RMK AO1,KF70,2015-05-27T13:55:00Z,33.57,-117.13,15.0,12.0,0,0,,7.0,29.97933,,,TRUE,TRUE,,,,,,,OVC,1000,,,,,,,MVFR,,,,,,,,,,,,SPECI,412.0
KF44 271355Z AUTO 18005KT 10SM CLR 19/17 A3007 RMK AO2,KF44,2015-05-27T13:55:00Z,32.17,-95.83,19.0,17.0,180,5,,10.0,30.070866,,,TRUE,TRUE,,,,,,,CLR,,,,,,,,VFR,,,,,,,,,,,,SPECI,135.0
KEZS 271355Z AUTO 28007KT 7SM -RA SCT011 BKN039 OVC045 15/13 A2986 RMK AO2 P0005 T01470134,KEZS,2015-05-27T13:55:00Z,44.78,-88.57,14.7,13.4,280,7,,7.0,29.861221,,,TRUE,TRUE,,,,,,-RA,SCT,1100,BKN,3900,OVC,4500,,,VFR,,,,,,0.05,,,,,,SPECI,248.0
KERV 271355Z AUTO 16006KT 5SM BR BKN012 OVC017 25/23 A3007 RMK AO2 T02470230,KERV,2015-05-27T13:55:00Z,29.98,-99.08,24.7,23.0,160,6,,5.0,30.070866,,,TRUE,TRUE,,,,,,BR,BKN,1200,OVC,1700,,,,,MVFR,,,,,,,,,,,,SPECI,510.0
KEQA 271355Z AUTO 09009KT 10SM CLR 21/16 A3007 RMK AO2,KEQA,2015-05-27T13:55:00Z,37.78,-96.82,21.0,16.0,90,9,,10.0,30.070866,,,TRUE,TRUE,,,,,,,CLR,,,,,,,,VFR,,,,,,,,,,,,SPECI,420.0
KEHO 271355Z AUTO 22005KT 10SM SCT007 BKN011 OVC015 20/18 A3028 RMK AO2 T02000180,KEHO,2015-05-27T13:55:00Z,35.25,-81.6,20.0,18.0,220,5,,10.0,30.280512,,,TRUE,TRUE,,,,,,,SCT,700,BKN,1100,OVC,1500,,,MVFR,,,,,,,,,,,,SPECI,258.0
KDUX 271355Z AUTO 18004KT 10SM CLR 19/14 A3010 RMK AO2 T01870141,KDUX,2015-05-27T13:55:00Z,35.85,-102.02,18.7,14.1,180,4,,10.0,30.100393,,,TRUE,TRUE,,,,,,,CLR,,,,,,,,VFR,,,,,,,,,,,,SPECI,1129.0
KDQH 271355Z AUTO 13006KT 10SM BKN010 26/22 A3026 RMK AO2,KDQH,2015-05-27T13:55:00Z,31.48,-82.87,26.0,22.0,130,6,,10.0,30.259842,,,TRUE,TRUE,,,,,,,BKN,1000,,,,,,,MVFR,,,,,,,,,,,,SPECI,78.0
KDNV 271355Z AUTO 24009KT 10SM BKN017 OVC110 22/19 A3000 RMK AO2 T02200185,KDNV,2015-05-27T13:55:00Z,40.2,-87.6,22.0,18.5,240,9,,10.0,30.0,,,TRUE,TRUE,,,,,,,BKN,1700,OVC,11000,,,,,MVFR,,,,,,,,,,,,SPECI,212.0
KVPS 271355Z 13007KT 10SM FEW020 SCT250 27/22 A3016 RMK AO2A SLP215 T02650222 $,KVPS,2015-05-27T13:55:00Z,30.47,-86.52,26.5,22.2,130,7,,10.0,30.159449,1021.5,,,TRUE,TRUE,,,,,,FEW,2000,SCT,25000,,,,,VFR,,,,,,,,,,,,SPECI,26.0
PKMR 271355Z 12012KT 5SM SHRA SCT014TCU BKN050 OVC120 27/25 A2984 RMK SHRAB46 TCU ALQDS SLP107 T02730247,PKMR,2015-05-27T13:55:00Z,7.08,171.38,27.3,24.7,120,12,,5.0,29.840551,1010.7,,,,,,,,,SHRA,SCT,1400,BKN,5000,OVC,12000,,,MVFR,,,,,,,,,,,,METAR,4.0
KADM 271355Z 00000KT 10SM SKC 21/18 A3007 RMK RWY 35 / ATIS S,KADM,2015-05-27T13:55:00Z,34.28,-97.02,21.0,18.0,0,0,,10.0,30.070866,,,,,,,,,,,SKC,,,,,,,,VFR,,,,,,,,,,,,SPECI,232.0
K9L2 271355Z AUTO 17005KT 10SM CLR 14/06 A2994 RMK AO2 SLP126 T01390061 TSNO $,K9L2,2015-05-27T13:55:00Z,34.97,-117.87,13.9,6.1,170,5,,10.0,29.940945,1012.6,,TRUE,TRUE,TRUE,,TRUE,,,,CLR,,,,,,,,VFR,,,,,,,,,,,,SPECI,701.0
LIVT 271355Z 10003KT 9999 SCT040 21/04 Q1014 RMK SCT QUK 2 QUL 0 VIS MAR 20 KM VIS MIN 9999,LIVT,2015-05-27T13:55:00Z,45.68,13.75,21.0,4.0,100,3,,6.21,29.940945,,,,,,,,,,,SCT,4000,,,,,,,VFR,,,,,,,,,,,,METAR,20.0
LIVR 271355Z 29015KT 9999 SCT040 08/M05 Q1016 RMK SCT MON LIB VIS MIN 9999,LIVR,2015-05-27T13:55:00Z,46.28,11.77,8.0,-5.0,290,15,,6.21,30.0,,,,,,,,,,,SCT,4000,,,,,,,VFR,,,,,,,,,,,,METAR,2006.0
LIVO 271355Z 10003KT 9999 BKN035 16/01 Q1017 RMK BKN VIS MIN 9999,LIVO,2015-05-27T13:55:00Z,46.5,13.57,16.0,1.0,100,3,,6.21,30.029528,,,,,,,,,,,BKN,3500,,,,,,,VFR,,,,,,,,,,,,METAR,778.0
LIVM 271355Z 23003KT CAVOK 20/15 Q1015 RMK FEW FEW060 QUK 2 QUL 1 N VIS MAR 20 KM VIS MIN 9999,LIVM,2015-05-27T13:55:00Z,44.45,12.3,20.0,15.0,230,3,,6.21,29.970472,,,,,,,,,,,CAVOK,,,,,,,,VFR,,,,,,,,,,,,METAR,6.0
LIVF 271355Z 15003KT 4000 -RA BR SCT004TCU BKN008 12/10 Q1015 RMK OVC MON INVIS VAL FOSCHIA VIS MIN 4000,LIVF,2015-05-27T13:55:00Z,43.52,12.72,12.0,10.0,150,3,,2.49,29.970472,,,,,,,,,,-RA BR,SCT,400,BKN,800,,,,,IFR,,,,,,,,,,,,METAR,574.0
LIVE 271355Z /////KT 9999 FEW025 12/01 Q1018 RMK FEW VIS MIN 9999,LIVE,2015-05-27T13:55:00Z,46.85,10.5,12.0,1.0,,,,6.21,30.059055,,,,,,,,,,,FEW,2500,,,,,,,VFR,,,,,,,,,,,,METAR,1800.0
LIVD 271355Z 27012KT 9999 FEW040 13/M02 Q1019 RMK FEW VIS MIN 9999,LIVD,2015-05-27T13:55:00Z,46.72,12.22,13.0,-2.0,270,12,,6.21,30.088583,,,,,,,,,,,FEW,4000,,,,,,,VFR,,,,,,,,,,,,METAR,1226.0
LIRT 271355Z 36011KT 9999 FEW001 FEW010CB 12/07 Q1013 RMK BKN MON SE S SW CIME INC VAL NIL VIS MIN 9999,LIRT,2015-05-27T13:55:00Z,41.03,15.22,12.0,7.0,360,11,,6.21,29.911417,,,,,,,,,,,FEW,100,FEW,1000,,,,,VFR,,,,,,,,,,,,METAR,1093.0
LIRK 271355Z AUTO 11008KT //// ///// Q////,LIRK,2015-05-27T13:55:00Z,42.47,12.97,,,110,8,,,,,,TRUE,,,,,,,,,,,,,,,,,,,,,,,,,,,,METAR,1875.0
LIRE 271355Z 27006KT 9999 FEW020 FEW025CB BKN060 21/12 Q1012 RMK BKN VIS MIN 9999 WIND THR31 /////KT BLU,LIRE,2015-05-27T13:55:00Z,41.63,12.42,21.0,12.0,270,6,,6.21,29.88189,,,,,,,,,,,FEW,2000,FEW,2500,BKN,6000,,,VFR,,,,,,,,,,,,METAR,12.0
LIED 271355Z 34007KT 9999 FEW015 FEW020CB SCT030 25/15 Q1012 RMK BKN VIS MIN 9999 WIND THR35 01006KT WIND THR17 30007KT BLU,LIED,2015-05-27T13:55:00Z,39.35,8.97,25.0,15.0,340,7,,6.21,29.88189,,,,,,,,,,,FEW,1500,FEW,2000,SCT,3000,,,VFR,,,,,,,,,,,,METAR,28.0
LICF 271355Z 33008KT 9999 FEW015TCU 21/13 Q1010 RMK BKN SCT200 QUK 3 QUL 1 NW VIS MAR 16 KM MON E CIME INC NC MON W CIME INC VAR RAPID VIS MIN 9999,LICF,2015-05-27T13:55:00Z,38.2,15.55,21.0,13.0,330,8,,6.21,29.822834,,,,,,,,,,,FEW,1500,,,,,,,VFR,,,,,,,,,,,,METAR,51.0
LIBY 271355Z 31007KT 9999 SCT025 19/13 Q1007 RMK BKN SCT090 QUK 2 QUL 1 N VIS MAR 20 KM VIS MIN 9999,LIBY,2015-05-27T13:55:00Z,39.82,18.35,19.0,13.0,310,7,,6.21,29.734253,,,,,,,,,,,SCT,2500,,,,,,,VFR,,,,,,,,,,,,METAR,112.0
LIMY 271355Z 04004KT CAVOK 21/08 Q1016 RMK SKC VAL NIL VIS MIN 9999,LIMY,2015-05-27T13:55:00Z,44.25,7.78,21.0,8.0,40,4,,6.21,30.0,,,,,,,,,,,CAVOK,,,,,,,,VFR,,,,,,,,,,,,METAR,1742.0
LIMV 271355Z /////KT 9999 FEW015 19/03 Q1015 RMK FEW MON LIB VAL NIL VIS MIN 9999,LIMV,2015-05-27T13:55:00Z,44.55,8.92,19.0,3.0,,,,6.21,29.970472,,,,,,,,,,,FEW,1500,,,,,,,VFR,,,,,,,,,,,,METAR,475.0
LIMU 271355Z 10005KT 9999 FEW030 23/05 Q1014 RMK FEW QUK 2 QUL 1 SE VIS MAR 45 KM VIS MIN 9999,LIMU,2015-05-27T13:55:00Z,43.95,8.17,23.0,5.0,100,5,,6.21,29.940945,,,,,,,,,,,FEW,3000,,,,,,,VFR,,,,,,,,,,,,METAR,221.0
LIMT 271355Z 36003KT 9999 FEW025 12/M02 Q1016 RMK FEW MON LIB VAL NIL VIS MIN 9999,LIMT,2015-05-27T13:55:00Z,44.47,9.92,12.0,-2.0,360,3,,6.21,30.0,,,,,,,,,,,FEW,2500,,,,,,,VFR,,,,,,,,,,,,METAR,1040.0
LIMH 271355Z /////KT 9999 FEW030 M06/M09 Q1021 RMK FEW MON LIB VAL NIL VIS MIN 9999,LIMH,2015-05-27T13:55:00Z,45.93,7.7,-6.0,-9.0,,,,6.21,30.147638,,,,,,,,,,,FEW,3000,,,,,,,VFR,,,,,,,,,,,,METAR,3488.0
KCNW 271355Z 15006KT 10SM SKC 22/18 A3009,KCNW,2015-05-27T13:55:00Z,31.63,-97.07,22.0,18.0,150,6,,10.0,30.088583,,,,,,,,,,,SKC,,,,,,,,VFR,,,,,,,,,,,,METAR,156.0
K4A6 271355Z AUTO 18003KT 10SM OVC017 22/19 A3023 RMK AO2,K4A6,2015-05-27T13:55:00Z,34.68,-86.0,22.0,19.0,180,3,,10.0,30.230314,,,TRUE,TRUE,,,,,,,OVC,1700,,,,,,,MVFR,,,,,,,,,,,,METAR,198.0
KO22 271355Z AUTO 00000KT 10SM CLR 14/12 A2997 RMK AO1,KO22,2015-05-27T13:55:00Z,38.03,-120.42,14.0,12.0,0,0,,10.0,29.970472,,,TRUE,TRUE,,,,,,,CLR,,,,,,,,VFR,,,,,,,,,,,,METAR,646.0
KEWK 271355Z AUTO 06005KT 10SM CLR 20/12 A3010 RMK AO1,KEWK,2015-05-27T13:55:00Z,38.03,-97.27,20.0,12.0,60,5,,10.0,30.100393,,,TRUE,TRUE,,,,,,,CLR,,,,,,,,VFR,,,,,,,,,,,,SPECI,467.0
KMTC 271355Z 21011KT 12SM FEW025 FEW220 24/18 A2994 RMK SLP143 T02410175,KMTC,2015-05-27T13:55:00Z,42.62,-82.82,24.1,17.5,210,11,,12.0,29.940945,1014.3,,,,,,,,,,FEW,2500,FEW,22000,,,,,VFR,,,,,,,,,,,,SPECI,177.0
KNKX 271355Z 30004KT 9SM BKN007 17/13 A2997 RMK AO2 SLP145 T01670128,KNKX,2015-05-27T13:55:00Z,32.87,-117.13,16.7,12.8,300,4,,9.0,29.970472,1014.5,,,TRUE,,,,,,,BKN,700,,,,,,,IFR,,,,,,,,,,,,SPECI,146.0
KSQL 271355Z AUTO 00000KT 10SM SCT021 12/09 A3003 RMK AO2,KSQL,2015-05-27T13:55:00Z,37.52,-122.25,12.0,9.0,0,0,,10.0,30.029528,,,TRUE,TRUE,,,,,,,SCT,2100,,,,,,,VFR,,,,,,,,,,,,METAR,1.0
KGPI 271355Z 00000KT 10SM FEW070 BKN110 10/08 A3002 RMK AO2 SLP160 T01000078,KGPI,2015-05-27T13:55:00Z,48.32,-114.25,10.0,7.8,0,0,,10.0,30.02067,1016.0,,,TRUE,,,,,,,FEW,7000,BKN,11000,,,,,VFR,,,,,,,,,,,,SPECI,908.0
PAIM 271355Z AUTO VRB01KT 10SM CLR 10/05 A3016 RMK AO2 SLP207 T01010049,PAIM,2015-05-27T13:55:00Z,66.0,-153.7,10.1,4.9,0,1,,10.0,30.159449,1020.7,,TRUE,TRUE,,,,,,,CLR,,,,,,,,VFR,,,,,,,,,,,,METAR,389.0
PASV 271355Z AUTO 28001KT 10SM CLR 03/01 A3023 RMK AO2 SLP243 T00340006,PASV,2015-05-27T13:55:00Z,61.1,-155.57,3.4,0.6,280,1,,10.0,30.230314,1024.3,,TRUE,TRUE,,,,,,,CLR,,,,,,,,VFR,,,,,,,,,,,,METAR,484.0
PATL 271355Z AUTO 25003KT 10SM BKN140 08/02 A3023 RMK AO2 SLP239 T00800019,PATL,2015-05-27T13:55:00Z,62.9,-155.97,8.0,1.9,250,3,,10.0,30.230314,1023.9,,TRUE,TRUE,,,,,,,BKN,14000,,,,,,,VFR,,,,,,,,,,,,METAR,294.0
RJOI 271355Z 31003KT 9999 BKN230 22/15 A2983 RMK SLP101 T02170150,RJOI,2015-05-27T13:55:00Z,34.13,132.22,21.7,15.0,310,3,,6.21,29.828741,1010.1,,,,,,,,,,BKN,23000,,,,,,,VFR,,,,,,,,,,,,METAR,2.0
KNBG 271355Z COR 14007KT 8SM FEW015 SCT030 BKN130 OVC250 27/23 A3015 RMK AO2 SLP208 T02720228 $,KNBG,2015-05-27T13:55:00Z,29.82,-90.02,27.2,22.8,140,7,,8.0,30.15059,1020.8,TRUE,,TRUE,TRUE,,,,,,FEW,1500,SCT,3000,BKN,13000,OVC,25000,VFR,,,,,,,,,,,,METAR,1.0
KQSF 271355Z AUTO 08006KT 9999 CLR 25/M07 A3003 RMK AO2 SLP085 T02491071 $,KQSF,2015-05-27T13:55:00Z,100.65,-1000.65,24.9,-7.1,80,6,,6.21,30.029528,1008.5,,TRUE,TRUE,TRUE,,,,,,CLR,,,,,,,,VFR,,,,,,,,,,,,METAR,999.0
KQQY 271355Z AUTO VRB01KT 9999 FEW070 SCT110 28/22 A3003 RMK AO2 SLP147 T02770224 $,KQQY,2015-05-27T13:55:00Z,100.65,-1000.65,27.7,22.4,0,1,,6.21,30.029528,1014.7,,TRUE,TRUE,TRUE,,,,,,FEW,7000,SCT,11000,,,,,VFR,,,,,,,,,,,,METAR,999.0
KQMH 271355Z AUTO VRB04KT 9999 FEW160 24/M07 A3000 RMK AO2 SLP079 T02431068 $,KQMH,2015-05-27T13:55:00Z,,,24.3,-6.8,0,4,,6.21,30.0,1007.9,,TRUE,TRUE,TRUE,,,,,,FEW,16000,,,,,,,VFR,,,,,,,,,,,,METAR,
KQFG 271355Z AUTO 11005KT 9999 CLR 34/M01 A2974 RMK AO2 SLP032 T03441012,KQFG,2015-05-27T13:55:00Z,100.65,-1000.65,34.4,-1.2,110,5,,6.21,29.740158,1003.2,,TRUE,TRUE,,,,,,,CLR,,,,,,,,VFR,,,,,,,,,,,,METAR,999.0
KQCL 271355Z AUTO 08006KT 9999 CLR 30/M05 A2989 RMK AO2 SLP062 T02951046 $,KQCL,2015-05-27T13:55:00Z,100.65,-1000.65,29.5,-4.6,80,6,,6.21,29.890747,1006.2,,TRUE,TRUE,TRUE,,,,,,CLR,,,,,,,,VFR,,,,,,,,,,,,METAR,999.0
KQAY 271355Z AUTO 07002KT 9999 CLR 41/04 A2970 RMK AO2 SLP054 T04100040,KQAY,2015-05-27T13:55:00Z,100.65,-1000.65,41.0,4.0,70,2,,6.21,29.698818,1005.4,,TRUE,TRUE,,,,,,,CLR,,,,,,,,VFR,,,,,,,,,,,,METAR,999.0
KQAJ 271355Z AUTO 34020G26KT 9999 CLR 42/M05 A2973 RMK AO2 SLP056 T04241051,KQAJ,2015-05-27T13:55:00Z,100.65,-1000.65,42.4,-5.1,340,20,26,6.21,29.731298,1005.6,,TRUE,TRUE,,,,,,,CLR,,,,,,,,VFR,,,,,,,,,,,,METAR,999.0
EHRD 271355Z AUTO 26011KT 220V290 9999 FEW028 17/10 Q1021 NOSIG,EHRD,2015-05-27T13:55:00Z,51.95,4.45,17.0,10.0,260,11,,6.21,30.147638,,,TRUE,,,TRUE,,,,,FEW,2800,,,,,,,VFR,,,,,,,,,,,,METAR,-5.0
EHGG 271355Z AUTO 18005KT 130V210 9999 NSC 15/08 Q1020 NOSIG,EHGG,2015-05-27T13:55:00Z,53.12,6.57,15.0,8.0,180,5,,6.21,30.11811,,,TRUE,,,TRUE,,,,,,,,,,,,,,,,,,,,,,,,,METAR,4.0
EHBK 271355Z AUTO 21006KT 120V290 9999 NSC 17/04 Q1022 NOSIG,EHBK,2015-05-27T13:55:00Z,50.92,5.77,17.0,4.0,210,6,,6.21,30.177166,,,TRUE,,,TRUE,,,,,,,,,,,,,,,,,,,,,,,,,METAR,116.0
EHAM 271355Z 27014KT 240V320 9999 FEW023 17/09 Q1021 NOSIG,EHAM,2015-05-27T13:55:00Z,52.32,4.78,17.0,9.0,270,14,,6.21,30.147638,,,,,,TRUE,,,,,FEW,2300,,,,,,,VFR,,,,,,,,,,,,METAR,9.0
KANJ 271355Z AUTO 21009KT 10SM OVC006 14/13 A2969 RMK AO2 RAE15 SLP050 P0001 T01440133,KANJ,2015-05-27T13:55:00Z,46.47,-84.37,14.4,13.3,210,9,,10.0,29.68996,1005.0,,TRUE,TRUE,,,,,,,OVC,600,,,,,,,IFR,,,,,,0.01,,,,,,SPECI,218.0
KAAT 271355Z AUTO 01003KT 10SM CLR 09/07 A3007 RMK AO2 SLP160 T00940067,KAAT,2015-05-27T13:55:00Z,41.48,-120.57,9.4,6.7,10,3,,10.0,30.070866,1016.0,,TRUE,TRUE,,,,,,,CLR,,,,,,,,VFR,,,,,,,,,,,,SPECI,1331.0
KCAO 271355Z AUTO 16006KT 10SM CLR 16/12 A3015 RMK AO2 SLP161 T01610122,KCAO,2015-05-27T13:55:00Z,36.45,-103.15,16.1,12.2,160,6,,10.0,30.15059,1016.1,,TRUE,TRUE,,,,,,,CLR,,,,,,,,VFR,,,,,,,,,,,,SPECI,1514.0
KAST 271355Z AUTO 23004KT 4SM BR OVC005 12/11 A3009 RMK AO2 SLP187 T01170106,KAST,2015-05-27T13:55:00Z,46.15,-123.88,11.7,10.6,230,4,,4.0,30.088583,1018.7,,TRUE,TRUE,,,,,,BR,OVC,500,,,,,,,IFR,,,,,,,,,,,,SPECI,3.0
KDLH 271355Z 31007KT 10SM CLR 20/11 A2984 RMK AO2 SLP106 T02000111,KDLH,2015-05-27T13:55:00Z,46.85,-92.2,20.0,11.1,310,7,,10.0,29.840551,1010.6,,,TRUE,,,,,,,CLR,,,,,,,,VFR,,,,,,,,,,,,SPECI,435.0
KCNK 271355Z AUTO 00000KT 10SM CLR 20/14 A3009 RMK AO2 SLP179 T02000139,KCNK,2015-05-27T13:55:00Z,39.55,-97.65,20.0,13.9,0,0,,10.0,30.088583,1017.9,,TRUE,TRUE,,,,,,,CLR,,,,,,,,VFR,,,,,,,,,,,,SPECI,447.0
KCMA 271355Z 30003KT 10SM OVC015 15/12 A2999 RMK AO2 SLP165 T01500117,KCMA,2015-05-27T13:55:00Z,34.22,-119.1,15.0,11.7,300,3,,10.0,29.991142,1016.5,,,TRUE,,,,,,,OVC,1500,,,,,,,MVFR,,,,,,,,,,,,SPECI,23.0
KCIC 271355Z VRB05KT 40SM FEW100 15/10 A2999,KCIC,2015-05-27T13:55:00Z,39.78,-121.83,15.0,10.0,0,5,,40.0,29.991142,,,,,,,,,,,FEW,10000,,,,,,,VFR,,,,,,,,,,,,METAR,73.0
KEAT 271355Z AUTO 29004KT 10SM CLR 16/09 A3001 RMK AO2 SLP157 T01610089,KEAT,2015-05-27T13:55:00Z,47.4,-120.2,16.1,8.9,290,4,,10.0,30.008858,1015.7,,TRUE,TRUE,,,,,,,CLR,,,,,,,,VFR,,,,,,,,,,,,SPECI,377.0
KSCK 271355Z 33004KT 10SM CLR 13/10 A2997 RMK AO2 SLP148 T01330100 $,KSCK,2015-05-27T13:55:00Z,37.88,-121.22,13.3,10.0,330,4,,10.0,29.970472,1014.8,,,TRUE,TRUE,,,,,,CLR,,,,,,,,VFR,,,,,,,,,,,,SPECI,10.0
KIRK 271355Z AUTO 29005KT 10SM CLR 19/15 A3006 RMK AO2 SLP179 T01940150,KIRK,2015-05-27T13:55:00Z,40.1,-92.55,19.4,15.0,290,5,,10.0,30.059055,1017.9,,TRUE,TRUE,,,,,,,CLR,,,,,,,,VFR,,,,,,,,,,,,SPECI,293.0
KINL 271355Z AUTO 33008KT 10SM CLR 18/11 A2984 RMK AO2 SLP105 T01780111,KINL,2015-05-27T13:55:00Z,48.57,-93.4,17.8,11.1,330,8,,10.0,29.840551,1010.5,,TRUE,TRUE,,,,,,,CLR,,,,,,,,VFR,,,,,,,,,,,,SPECI,360.0
KHON 271355Z AUTO 00000KT 10SM CLR 18/11 A2999 RMK AO2 SLP150 T01830111,KHON,2015-05-27T13:55:00Z,44.38,-98.23,18.3,11.1,0,0,,10.0,29.991142,1015.0,,TRUE,TRUE,,,,,,,CLR,,,,,,,,VFR,,,,,,,,,,,,SPECI,390.0
KRHV 271355Z 17007KT 10SM OVC020 14/10 A3002,KRHV,2015-05-27T13:55:00Z,37.32,-121.82,14.0,10.0,170,7,,10.0,30.02067,,,,,,,,,,,OVC,2000,,,,,,,MVFR,,,,,,,,,,,,METAR,41.0
KEGI 271355Z 16005KT 10SM FEW030 BKN250 27/22 A3015 RMK AO2A SLP211 T02660220 $,KEGI,2015-05-27T13:55:00Z,30.63,-86.52,26.6,22.0,160,5,,10.0,30.15059,1021.1,,,TRUE,TRUE,,,,,,FEW,3000,BKN,25000,,,,,VFR,,,,,,,,,,,,METAR,59.0
EHFS 271355Z AUTO 28012KT 250V320 9999 NCD 14/09 Q1022,EHFS,2015-05-27T13:55:00Z,51.45,3.6,14.0,9.0,280,12,,6.21,30.177166,,,TRUE,,,,,,,,,,,,,,,,,,,,,,,,,,,,METAR,32.0
KHRJ 271355Z AUTO 21004KT 10SM BKN016 BKN024 26/20 A3027 RMK AO2 T02560196,KHRJ,2015-05-27T13:55:00Z,35.38,-78.73,25.6,19.6,210,4,,10.0,30.268702,,,TRUE,TRUE,,,,,,,BKN,1600,BKN,2400,,,,,MVFR,,,,,,,,,,,,SPECI,60.0
KHNR 271355Z AUTO 00000KT 10SM CLR 17/17 A3008 RMK AO2,KHNR,2015-05-27T13:55:00Z,41.58,-95.33,17.0,17.0,0,0,,10.0,30.079725,,,TRUE,TRUE,,,,,,,CLR,,,,,,,,VFR,,,,,,,,,,,,SPECI,375.0
KHJH 271355Z AUTO 00000KT 10SM CLR 19/12 A3009 RMK AO2 T01880123,KHJH,2015-05-27T13:55:00Z,40.15,-97.58,18.8,12.3,0,0,,10.0,30.088583,,,TRUE,TRUE,,,,,,,CLR,,,,,,,,VFR,,,,,,,,,,,,SPECI,447.0
KHHV 271355Z AUTO 13010KT 7SM CLR 27/24 A3008 RMK A01,KHHV,2015-05-27T13:55:00Z,26.93,-94.68,27.0,24.0,130,10,,7.0,30.079725,,,TRUE,TRUE,,,,,,,CLR,,,,,,,,VFR,,,,,,,,,,,,SPECI,25.0
KHHG 271355Z AUTO 24011G16KT 10SM SCT022 BKN085 BKN100 22/17 A3003 RMK AO2 T02160168,KHHG,2015-05-27T13:55:00Z,40.85,-85.45,21.6,16.8,240,11,16,10.0,30.029528,,,TRUE,TRUE,,,,,,,SCT,2200,BKN,8500,BKN,10000,,,VFR,,,,,,,,,,,,SPECI,246.0
KHDE 271355Z AUTO 14003KT 10SM CLR 19/10 A3009 RMK AO2 T01850097,KHDE,2015-05-27T13:55:00Z,40.45,-99.32,18.5,9.7,140,3,,10.0,30.088583,,,TRUE,TRUE,,,,,,,CLR,,,,,,,,VFR,,,,,,,,,,,,SPECI,705.0
KHDC 271355Z AUTO 17003KT 10SM SCT006 BKN012 BKN020 27/24 A3016 RMK AO2,KHDC,2015-05-27T13:55:00Z,30.52,-90.42,27.0,24.0,170,3,,10.0,30.159449,,,TRUE,TRUE,,,,,,,SCT,600,BKN,1200,BKN,2000,,,MVFR,,,,,,,,,,,,SPECI,13.0
KGYB 271355Z AUTO 13008KT 10SM SCT005 BKN027 OVC034 21/20 A3012 RMK AO2 T02060195,KGYB,2015-05-27T13:55:00Z,30.17,-96.98,20.6,19.5,130,8,,10.0,30.121063,,,TRUE,TRUE,,,,,,,SCT,500,BKN,2700,OVC,3400,,,MVFR,,,,,,,,,,,,SPECI,148.0
KGWB 271355Z AUTO 23010G14KT 10SM SCT022 SCT090 22/16 A3002 RMK AO2,KGWB,2015-05-27T13:55:00Z,41.3,-85.07,22.0,16.0,230,10,14,10.0,30.02067,,,TRUE,TRUE,,,,,,,SCT,2200,SCT,9000,,,,,VFR,,,,,,,,,,,,SPECI,269.0
KGUR 271355Z AUTO 09003KT 10SM 17/15 A3005 RMK AO2 T01700145 PWINO,KGUR,2015-05-27T13:55:00Z,42.25,-104.72,17.0,14.5,90,3,,10.0,30.050198,,,TRUE,TRUE,,,,,TRUE,,,,,,,,,,,,,,,,,,,,,,SPECI,1358.0
KGUL 271355Z AUTO 12009KT 5SM HZ SCT016 BKN021 27/24 A3009 RMK A01,KGUL,2015-05-27T13:55:00Z,27.3,-93.53,27.0,24.0,120,9,,5.0,30.088583,,,TRUE,TRUE,,,,,,HZ,SCT,1600,BKN,2100,,,,,MVFR,,,,,,,,,,,,SPECI,30.0
KGRY 271355Z AUTO 14014KT 5SM HZ FEW018 27/24 A3011 RMK A01,KGRY,2015-05-27T13:55:00Z,27.63,-90.45,27.0,24.0,140,14,,5.0,30.109253,,,TRUE,TRUE,,,,,,HZ,FEW,1800,,,,,,,MVFR,,,,,,,,,,,,SPECI,58.0
KGNC 271355Z AUTO 15010KT 4SM BR BKN006 OVC009 21/20 A3011 RMK AO2 T02080198,KGNC,2015-05-27T13:55:00Z,32.68,-102.65,20.8,19.8,150,10,,4.0,30.109253,,,TRUE,TRUE,,,,,,BR,BKN,600,OVC,900,,,,,IFR,,,,,,,,,,,,SPECI,1010.0
KGHG 271355Z AUTO 21010G18KT 360V010 10SM CLR 23/17 A3018 RMK AO2,KGHG,2015-05-27T13:55:00Z,42.1,-70.67,23.0,17.0,210,10,18,10.0,30.180119,,,TRUE,TRUE,,,,,,,CLR,,,,,,,,VFR,,,,,,,,,,,,SPECI,4.0
KGHB 271355Z AUTO VRB03KT 5SM HZ 28/25 A3012 RMK A01,KGHB,2015-05-27T13:55:00Z,27.83,-91.98,28.0,25.0,0,3,,5.0,30.121063,,,TRUE,TRUE,,,,,,HZ,,,,,,,,,,,,,,,,,,,,,SPECI,30.0
KGDJ 271355Z AUTO 12007KT 10SM CLR 23/17 A3007 RMK AO2 T02290169,KGDJ,2015-05-27T13:55:00Z,32.45,-97.82,22.9,16.9,120,7,,10.0,30.070866,,,TRUE,TRUE,,,,,,,CLR,,,,,,,,VFR,,,,,,,,,,,,SPECI,237.0
KGCD 271355Z AUTO 12006KT 10SM CLR 10/06 A3006 RMK AO2 T00980064,KGCD,2015-05-27T13:55:00Z,44.38,-118.97,9.8,6.4,120,6,,10.0,30.059055,,,TRUE,TRUE,,,,,,,CLR,,,,,,,,VFR,,,,,,,,,,,,SPECI,1127.0
KGBK 271355Z AUTO VRB03KT 10SM CLR 27/25 A3011 RMK A01,KGBK,2015-05-27T13:55:00Z,27.2,-92.2,27.0,25.0,0,3,,10.0,30.109253,,,TRUE,TRUE,,,,,,,CLR,,,,,,,,VFR,,,,,,,,,,,,SPECI,59.0
KGBG 271355Z AUTO 28009KT 10SM SCT019 20/15 A3000 RMK AO2 T01950154,KGBG,2015-05-27T13:55:00Z,40.93,-90.43,19.5,15.4,280,9,,10.0,30.0,,,TRUE,TRUE,,,,,,,SCT,1900,,,,,,,VFR,,,,,,,,,,,,SPECI,233.0
KGAO 271355Z AUTO 10SM SCT014 28/24 A3015 RMK AO2 T02790240,KGAO,2015-05-27T13:55:00Z,29.45,-90.27,27.9,24.0,,,,10.0,30.15059,,,TRUE,TRUE,,,,,,,SCT,1400,,,,,,,VFR,,,,,,,,,,,,SPECI,1.0
KFQD 271355Z AUTO 00000KT 10SM SCT008 OVC013 20/18 A3029 RMK AO2 T01950182,KFQD,2015-05-27T13:55:00Z,35.42,-81.93,19.5,18.2,0,0,,10.0,30.28937,,,TRUE,TRUE,,,,,,,SCT,800,OVC,1300,,,,,MVFR,,,,,,,,,,,,SPECI,329.0
KFFL 271355Z AUTO 31007KT 10SM SCT013 18/15 A3002 RMK AO2,KFFL,2015-05-27T13:55:00Z,41.03,-91.97,18.0,15.0,310,7,,10.0,30.02067,,,TRUE,TRUE,,,,,,,SCT,1300,,,,,,,VFR,,,,,,,,,,,,SPECI,244.0
KF05 271355Z AUTO 12006KT 10SM OVC017 20/15 A3007 RMK AO1 T02000154,KF05,2015-05-27T13:55:00Z,34.23,-99.28,20.0,15.4,120,6,,10.0,30.070866,,,TRUE,TRUE,,,,,,,OVC,1700,,,,,,,MVFR,,,,,,,,,,,,SPECI,386.0
KEZM 271355Z AUTO 00000KT 10SM OVC009 24/24 A3028 RMK AO2 T02410240,KEZM,2015-05-27T13:55:00Z,32.22,-83.13,24.1,24.0,0,0,,10.0,30.280512,,,TRUE,TRUE,,,,,,,OVC,900,,,,,,,IFR,,,,,,,,,,,,SPECI,93.0
KETC 271355Z AUTO 23005KT 10SM BKN019 BKN025 27/21 A3027 RMK AO2 T02660210,KETC,2015-05-27T13:55:00Z,35.93,-77.55,26.6,21.0,230,5,,10.0,30.268702,,,TRUE,TRUE,,,,,,,BKN,1900,BKN,2500,,,,,MVFR,,,,,,,,,,,,SPECI,17.0
KETB 271355Z AUTO 25010G14KT 10SM OVC016 17/13 A2988 RMK AO2,KETB,2015-05-27T13:55:00Z,43.42,-88.13,17.0,13.0,250,10,14,10.0,29.878937,,,TRUE,TRUE,,,,,,,OVC,1600,,,,,,,MVFR,,,,,,,,,,,,SPECI,270.0
KEOK 271355Z AUTO 28011KT 10SM CLR 19/15 A3001 RMK AO2,KEOK,2015-05-27T13:55:00Z,40.47,-91.42,19.0,15.0,280,11,,10.0,30.008858,,,TRUE,TRUE,,,,,,,CLR,,,,,,,,VFR,,,,,,,,,,,,SPECI,205.0
KEMM 271355Z AUTO 34003KT 10SM SCT010 SCT023 07/05 A3018 RMK AO2,KEMM,2015-05-27T13:55:00Z,41.82,-110.55,7.0,5.0,340,3,,10.0,30.180119,,,TRUE,TRUE,,,,,,,SCT,1000,SCT,2300,,,,,VFR,,,,,,,,,,,,SPECI,2220.0
KEMK 271355Z AUTO 13010KT CLR 28/24 A3008 RMK A01,KEMK,2015-05-27T13:55:00Z,27.82,-94.32,28.0,24.0,130,10,,,30.079725,,,TRUE,TRUE,,,,,,,CLR,,,,,,,,,,,,,,,,,,,,SPECI,26.0
KEIR 271355Z AUTO 15005KT 8SM FEW018 SCT023 SCT028 28/24 A3014 RMK A01,KEIR,2015-05-27T13:55:00Z,28.63,-91.48,28.0,24.0,150,5,,8.0,30.138779,,,TRUE,TRUE,,,,,,,FEW,1800,SCT,2300,SCT,2800,,,VFR,,,,,,,,,,,,SPECI,28.0
KEHC 271355Z AUTO 11007KT 7SM CLR 28/25 A3012 RMK A01,KEHC,2015-05-27T13:55:00Z,28.43,-92.88,28.0,25.0,110,7,,7.0,30.121063,,,TRUE,TRUE,,,,,,,CLR,,,,,,,,VFR,,,,,,,,,,,,SPECI,31.0
KEFT 271355Z AUTO 27011G17KT 10SM BKN012 OVC018 16/14 A2995 RMK AO2,KEFT,2015-05-27T13:55:00Z,42.62,-89.6,16.0,14.0,270,11,17,10.0,29.949802,,,TRUE,TRUE,,,,,,,BKN,1200,OVC,1800,,,,,MVFR,,,,,,,,,,,,SPECI,331.0
KEFK 271355Z AUTO 18007G14KT 150V210 10SM SCT120 25/19 A3005 RMK AO2 T02500189,KEFK,2015-05-27T13:55:00Z,44.88,-72.23,25.0,18.9,180,7,14,10.0,30.050198,,,TRUE,TRUE,,,,,,,SCT,12000,,,,,,,VFR,,,,,,,,,,,,SPECI,284.0
KECS 271355Z AUTO 14010KT 10SM CLR 16/08 A3003 RMK AO2,KECS,2015-05-27T13:55:00Z,43.88,-104.32,16.0,8.0,140,10,,10.0,30.029528,,,TRUE,TRUE,,,,,,,CLR,,,,,,,,VFR,,,,,,,,,,,,SPECI,1273.0
KEBS 271355Z AUTO 28006KT 10SM CLR 18/15 A2999 RMK AO2,KEBS,2015-05-27T13:55:00Z,42.42,-93.87,18.0,15.0,280,6,,10.0,29.991142,,,TRUE,TRUE,,,,,,,CLR,,,,,,,,VFR,,,,,,,,,,,,SPECI,342.0
KEBG 271355Z AUTO 14008G16KT 7SM OVC011 28/24 A3000 RMK AO2 T02770240,KEBG,2015-05-27T13:55:00Z,26.45,-98.13,27.7,24.0,140,8,16,7.0,30.0,,,TRUE,TRUE,,,,,,,OVC,1100,,,,,,,MVFR,,,,,,,,,,,,SPECI,24.0
KY51 271355Z AUTO 31006KT 10SM BKN007 15/15 A2995 RMK AO1 T01520152,KY51,2015-05-27T13:55:00Z,43.58,-90.9,15.2,15.2,310,6,,10.0,29.949802,,,TRUE,TRUE,,,,,,,BKN,700,,,,,,,IFR,,,,,,,,,,,,SPECI,394.0
KXPY 271355Z AUTO 16008KT 10SM FEW014 28/24 A3015 RMK A01,KXPY,2015-05-27T13:55:00Z,29.12,-90.2,28.0,24.0,160,8,,10.0,30.15059,,,TRUE,TRUE,,,,,,,FEW,1400,,,,,,,VFR,,,,,,,,,,,,SPECI,2.0
KXLL 271355Z AUTO 20006KT 10SM OVC020 25/20 A3017 RMK AO2,KXLL,2015-05-27T13:55:00Z,40.57,-75.48,25.0,20.0,200,6,,10.0,30.171259,,,TRUE,TRUE,,,,,,,OVC,2000,,,,,,,MVFR,,,,,,,,,,,,SPECI,122.0
KWDR 271355Z AUTO 00000KT 10SM OVC013 22/20 A3029 RMK AO1,KWDR,2015-05-27T13:55:00Z,33.98,-83.67,22.0,20.0,0,0,,10.0,30.28937,,,TRUE,TRUE,,,,,,,OVC,1300,,,,,,,MVFR,,,,,,,,,,,,SPECI,287.0
KVQT 271355Z AUTO 16009KT 8SM CLR 29/25 A3012 RMK A01,KVQT,2015-05-27T13:55:00Z,28.27,-92.27,29.0,25.0,160,9,,8.0,30.121063,,,TRUE,TRUE,,,,,,,CLR,,,,,,,,VFR,,,,,,,,,,,,SPECI,25.0
KVKY 271355Z AUTO 13006KT 10SM CLR 27/24 A3014 RMK A01,KVKY,2015-05-27T13:55:00Z,29.25,-88.43,27.0,24.0,130,6,,10.0,30.138779,,,TRUE,TRUE,,,,,,,CLR,,,,,,,,VFR,,,,,,,,,,,,SPECI,32.0
KVJI 271355Z AUTO 23004KT 10SM SCT016 BKN025 OVC034 22/18 A3028 RMK AO2 T02190178,KVJI,2015-05-27T13:55:00Z,36.67,-82.02,21.9,17.8,230,4,,10.0,30.280512,,,TRUE,TRUE,,,,,,,SCT,1600,BKN,2500,OVC,3400,,,MVFR,,,,,,,,,,,,SPECI,631.0
KVDI 271355Z AUTO 00000KT 10SM BKN009 23/21 A3027 RMK AO2,KVDI,2015-05-27T13:55:00Z,32.2,-82.37,23.0,21.0,0,0,,10.0,30.268702,,,TRUE,TRUE,,,,,,,BKN,900,,,,,,,IFR,,,,,,,,,,,,SPECI,84.0
KVCV 271355Z AUTO 00000KT 10SM CLR 14/05 A2998 RMK AO2,KVCV,2015-05-27T13:55:00Z,34.58,-117.38,14.0,5.0,0,0,,10.0,29.97933,,,TRUE,TRUE,,,,,,,CLR,,,,,,,,VFR,,,,,,,,,,,,SPECI,876.0
KVBS 271355Z AUTO 07021G27KT 7SM BKN003 SCT022 BKN034 21/20 A3014 RMK A01,KVBS,2015-05-27T13:55:00Z,29.48,-93.63,21.0,20.0,70,21,27,7.0,30.138779,,,TRUE,TRUE,,,,,,,BKN,300,SCT,2200,BKN,3400,,,LIFR,,,,,,,,,,,,SPECI,31.0
KVAF 271355Z AUTO 14010KT 8SM FEW029 28/25 A3008 RMK A01,KVAF,2015-05-27T13:55:00Z,27.35,-94.63,28.0,25.0,140,10,,8.0,30.079725,,,TRUE,TRUE,,,,,,,FEW,2900,,,,,,,VFR,,,,,,,,,,,,SPECI,46.0
KBBF 271355Z AUTO 16013KT 3SM HZ CLR 28/24 A3005 RMK A01,KBBF,2015-05-27T13:55:00Z,27.83,-96.02,28.0,24.0,160,13,,3.0,30.050198,,,TRUE,TRUE,,,,,,HZ,CLR,,,,,,,,MVFR,,,,,,,,,,,,SPECI,36.0
KAYS 271355Z AUTO 16006KT 10SM BKN015 BKN021 26/22 A3025 RMK AO2 T02620224,KAYS,2015-05-27T13:55:00Z,31.25,-82.4,26.2,22.4,160,6,,10.0,30.250984,,,TRUE,TRUE,,,,,,,BKN,1500,BKN,2100,,,,,MVFR,,,,,,,,,,,,SPECI,46.0
KAXX 271355Z AUTO 00000KT 10SM CLR 06/03 A3033 RMK AO2 T00570027,KAXX,2015-05-27T13:55:00Z,36.42,-105.28,5.7,2.7,0,0,,10.0,30.33071,,,TRUE,TRUE,,,,,,,CLR,,,,,,,,VFR,,,,,,,,,,,,SPECI,2548.0
KAXA 271355Z AUTO 24007KT 10SM CLR 18/15 A3000 RMK AO2,KAXA,2015-05-27T13:55:00Z,43.07,-94.27,18.0,15.0,240,7,,10.0,30.0,,,TRUE,TRUE,,,,,,,CLR,,,,,,,,VFR,,,,,,,,,,,,SPECI,372.0
KAWG 271355Z AUTO 29010KT 10SM BKN014 BKN019 18/15 A3003 RMK AO2,KAWG,2015-05-27T13:55:00Z,41.27,-91.67,18.0,15.0,290,10,,10.0,30.029528,,,TRUE,TRUE,,,,,,,BKN,1400,BKN,1900,,,,,MVFR,,,,,,,,,,,,SPECI,230.0
KAUH 271355Z AUTO 30003KT 10SM CLR 19/12 A3008 RMK AO2 T01850120,KAUH,2015-05-27T13:55:00Z,40.88,-98.0,18.5,12.0,300,3,,10.0,30.079725,,,TRUE,TRUE,,,,,,,CLR,,,,,,,,VFR,,,,,,,,,,,,SPECI,550.0
KATP 271355Z AUTO 13018KT 9SM SCT019 BKN024 28/24 A3010 RMK A01,KATP,2015-05-27T13:55:00Z,27.2,-90.03,28.0,24.0,130,18,,9.0,30.100393,,,TRUE,TRUE,,,,,,,SCT,1900,BKN,2400,,,,,MVFR,,,,,,,,,,,,SPECI,62.0
KASL 271355Z AUTO 00000KT 10SM CLR 20/18 A3010 RMK AO1 T02020184,KASL,2015-05-27T13:55:00Z,32.52,-94.3,20.2,18.4,0,0,,10.0,30.100393,,,TRUE,TRUE,,,,,,,CLR,,,,,,,,VFR,,,,,,,,,,,,SPECI,109.0
KAPY 271355Z AUTO 15010G17KT 5SM HZ BKN017 26/22 A2998 RMK AO2 T02680223,KAPY,2015-05-27T13:55:00Z,26.97,-99.25,26.8,22.3,150,10,17,5.0,29.97933,,,TRUE,TRUE,,,,,,HZ,BKN,1700,,,,,,,MVFR,,,,,,,,,,,,SPECI,129.0
KALX 271355Z AUTO 00000KT 10SM BKN007 BKN021 22/19 A3024 RMK AO2 T02210193,KALX,2015-05-27T13:55:00Z,32.92,-85.97,22.1,19.3,0,0,,10.0,30.239174,,,TRUE,TRUE,,,,,,,BKN,700,BKN,2100,,,,,IFR,,,,,,,,,,,,SPECI,209.0
KAIO 271355Z AUTO 27004KT 10SM CLR 18/15 A3005 RMK AO2,KAIO,2015-05-27T13:55:00Z,41.38,-95.03,18.0,15.0,270,4,,10.0,30.050198,,,TRUE,TRUE,,,,,,,CLR,,,,,,,,VFR,,,,,,,,,,,,SPECI,360.0
KAHQ 271355Z AUTO 29003KT 10SM CLR 19/12 A3005 RMK AO2 T01850123,KAHQ,2015-05-27T13:55:00Z,41.23,-96.6,18.5,12.3,290,3,,10.0,30.050198,,,TRUE,TRUE,,,,,,,CLR,,,,,,,,VFR,,,,,,,,,,,,SPECI,374.0
KAFP 271355Z AUTO 21004KT 7SM CLR 25/19 A3026 RMK AO2 T02500194,KAFP,2015-05-27T13:55:00Z,35.02,-80.08,25.0,19.4,210,4,,7.0,30.259842,,,TRUE,TRUE,,,,,,,CLR,,,,,,,,VFR,,,,,,,,,,,,SPECI,92.0
KAFK 271355Z AUTO 29005KT 10SM CLR 19/11 A3006 RMK AO2 T01860111,KAFK,2015-05-27T13:55:00Z,40.6,-95.85,18.6,11.1,290,5,,10.0,30.059055,,,TRUE,TRUE,,,,,,,CLR,,,,,,,,VFR,,,,,,,,,,,,SPECI,354.0
KADU 271355Z AUTO 24006KT 10SM CLR 18/14 A3005 RMK AO2,KADU,2015-05-27T13:55:00Z,41.7,-94.92,18.0,14.0,240,6,,10.0,30.050198,,,TRUE,TRUE,,,,,,,CLR,,,,,,,,VFR,,,,,,,,,,,,SPECI,392.0
KADH 271355Z AUTO 24003KT 10SM SCT050 22/17 A3008 RMK AO2,KADH,2015-05-27T13:55:00Z,34.8,-96.67,22.0,17.0,240,3,,10.0,30.079725,,,TRUE,TRUE,,,,,,,SCT,5000,,,,,,,VFR,,,,,,,,,,,,SPECI,308.0
KACJ 271355Z AUTO 08003KT 10SM OVC004 21/21 A3026 RMK AO2,KACJ,2015-05-27T13:55:00Z,32.12,-84.18,21.0,21.0,80,3,,10.0,30.259842,,,TRUE,TRUE,,,,,,,OVC,400,,,,,,,LIFR,,,,,,,,,,,,SPECI,143.0
K9A5 271355Z AUTO 23004KT 10SM SCT007 BKN012 OVC017 22/17 A3024 RMK AO2 T02200166,K9A5,2015-05-27T13:55:00Z,34.68,-85.28,22.0,16.6,230,4,,10.0,30.239174,,,TRUE,TRUE,,,,,,,SCT,700,BKN,1200,OVC,1700,,,MVFR,,,,,,,,,,,,SPECI,237.0
K6B0 271355Z AUTO 18009KT 10SM SCT028 BKN080 26/19 A3005 RMK AO2 T02620187,K6B0,2015-05-27T13:55:00Z,43.98,-73.1,26.2,18.7,180,9,,10.0,30.050198,,,TRUE,TRUE,,,,,,,SCT,2800,BKN,8000,,,,,VFR,,,,,,,,,,,,SPECI,149.0
K5C1 271355Z AUTO 18005KT 4SM 23/22 A3007 RMK AO1 P0001,K5C1,2015-05-27T13:55:00Z,29.72,-98.7,23.0,22.0,180,5,,4.0,30.070866,,,TRUE,TRUE,,,,,,,,,,,,,,,,,,,,,0.01,,,,,,SPECI,423.0
K54J 271355Z AUTO 10SM SCT009 24/22 A3019 RMK AO2 T02400216,K54J,2015-05-27T13:55:00Z,30.73,-86.15,24.0,21.6,,,,10.0,30.188976,,,TRUE,TRUE,,,,,,,SCT,900,,,,,,,VFR,,,,,,,,,,,,SPECI,88.0
K4A9 271355Z AUTO 00000KT 10SM OVC014 21/16 A3022 RMK AO2 P0007,K4A9,2015-05-27T13:55:00Z,34.47,-85.72,21.0,16.0,0,0,,10.0,30.221457,,,TRUE,TRUE,,,,,,,OVC,1400,,,,,,,MVFR,,,,,,0.07,,,,,,SPECI,267.0
K40J 271355Z AUTO 09007KT 10SM CLR 26/22 A3022 RMK AO2 T02630218,K40J,2015-05-27T13:55:00Z,30.07,-83.57,26.3,21.8,90,7,,10.0,30.221457,,,TRUE,TRUE,,,,,,,CLR,,,,,,,,VFR,,,,,,,,,,,,SPECI,13.0
K3R7 271355Z AUTO 02008KT 10SM -TSRA SCT042 SCT070 OVC110 19/19 A3017 RMK AO2 LTG DSNT ALQS P0060 T01910185,K3R7,2015-05-27T13:55:00Z,30.25,-92.67,19.1,18.5,20,8,,10.0,30.171259,,,TRUE,TRUE,,,,,,-TSRA,SCT,4200,SCT,7000,OVC,11000,,,VFR,,,,,,0.6,,,,,,SPECI,7.0
K3LF 271355Z AUTO 21013KT 10SM SCT110 20/17 A3007 RMK AO2 T01980168,K3LF,2015-05-27T13:55:00Z,39.17,-89.67,19.8,16.8,210,13,,10.0,30.070866,,,TRUE,TRUE,,,,,,,SCT,11000,,,,,,,VFR,,,,,,,,,,,,SPECI,210.0
K2I0 271355Z AUTO 21004KT 10SM CLR 24/20 A3013 RMK AO2 T02390197,K2I0,2015-05-27T13:55:00Z,37.35,-87.4,23.9,19.7,210,4,,10.0,30.129921,,,TRUE,TRUE,,,,,,,CLR,,,,,,,,VFR,,,,,,,,,,,,SPECI,134.0
K2G9 271355Z AUTO 22003KT 5SM RA OVC005 17/16 A3022 RMK AO2 P0026,K2G9,2015-05-27T13:55:00Z,40.03,-79.02,17.0,16.0,220,3,,5.0,30.221457,,,TRUE,TRUE,,,,,,RA,OVC,500,,,,,,,IFR,,,,,,0.26,,,,,,METAR,693.0
K1L0 271355Z AUTO 16008KT 10SM SCT012 SCT021 BKN030 28/25 A3015 RMK AO2 T02770246,K1L0,2015-05-27T13:55:00Z,30.08,-90.58,27.7,24.6,160,8,,10.0,30.15059,,,TRUE,TRUE,,,,,,,SCT,1200,SCT,2100,BKN,3000,,,MVFR,,,,,,,,,,,,SPECI,2.0
K1H2 271355Z AUTO 22014G17KT 10SM SCT018 SCT025 BKN110 22/17 A3009 RMK AO2 T02150171,K1H2,2015-05-27T13:55:00Z,39.07,-88.53,21.5,17.1,220,14,17,10.0,30.088583,,,TRUE,TRUE,,,,,,,SCT,1800,SCT,2500,BKN,11000,,,VFR,,,,,,,,,,,,SPECI,179.0
K1A6 271355Z AUTO 19006KT 10SM SCT022 OVC034 21/17 A3025 RMK AO2 T02140170,K1A6,2015-05-27T13:55:00Z,36.62,-83.73,21.4,17.0,190,6,,10.0,30.250984,,,TRUE,TRUE,,,,,,,SCT,2200,OVC,3400,,,,,VFR,,,,,,,,,,,,SPECI,352.0
K1A5 271355Z AUTO 00000KT 10SM 15/15 A3031 RMK AO2 T01450145,K1A5,2015-05-27T13:55:00Z,35.22,-83.42,14.5,14.5,0,0,,10.0,30.31004,,,TRUE,TRUE,,,,,,,,,,,,,,,,,,,,,,,,,,,SPECI,616.0
K11R 271355Z AUTO 17003KT 10SM SCT004 SCT090 22/21 A3010 RMK AO2 LTG DSNT E THRU S P0011 T02160212,K11R,2015-05-27T13:55:00Z,30.22,-96.37,21.6,21.2,170,3,,10.0,30.100393,,,TRUE,TRUE,,,,,,,SCT,400,SCT,9000,,,,,VFR,,,,,,0.11,,,,,,SPECI,94.0
K0VG 271355Z AUTO 23006KT 10SM OVC029 21/16 A3028 RMK AO2,K0VG,2015-05-27T13:55:00Z,36.65,-83.22,21.0,16.0,230,6,,10.0,30.280512,,,TRUE,TRUE,,,,,,,OVC,2900,,,,,,,MVFR,,,,,,,,,,,,SPECI,430.0
K0V4 271355Z AUTO 20006KT 10SM CLR 26/20 A3022 RMK AO1 T02610197,K0V4,2015-05-27T13:55:00Z,37.15,-79.02,26.1,19.7,200,6,,10.0,30.221457,,,TRUE,TRUE,,,,,,,CLR,,,,,,,,VFR,,,,,,,,,,,,SPECI,182.0
K0E0 271355Z AUTO 36003KT 10SM CLR 13/08 A3023 RMK AO2 T01310080,K0E0,2015-05-27T13:55:00Z,34.98,-106.0,13.1,8.0,360,3,,10.0,30.230314,,,TRUE,TRUE,,,,,,,CLR,,,,,,,,VFR,,,,,,,,,,,,SPECI,1890.0
KUNU 271355Z AUTO 26007KT 10SM OVC014 17/14 A2990 RMK AO2 T01670143,KUNU,2015-05-27T13:55:00Z,43.42,-88.7,16.7,14.3,260,7,,10.0,29.899607,,,TRUE,TRUE,,,,,,,OVC,1400,,,,,,,MVFR,,,,,,,,,,,,SPECI,285.0
KU68 271355Z AUTO 00000KT 10SM CLR 13/12 A3002 RMK AO2,KU68,2015-05-27T13:55:00Z,44.92,-108.45,13.0,12.0,0,0,,10.0,30.02067,,,TRUE,TRUE,,,,,,,CLR,,,,,,,,VFR,,,,,,,,,,,,SPECI,1247.0
KTQH 271355Z AUTO 00000KT 10SM CLR 21/20 A3009 RMK AO2,KTQH,2015-05-27T13:55:00Z,35.93,-95.0,21.0,20.0,0,0,,10.0,30.088583,,,TRUE,TRUE,,,,,,,CLR,,,,,,,,VFR,,,,,,,,,,,,SPECI,266.0
KTKV 271355Z AUTO 25003KT 4SM DZ SCT006 BKN042 OVC055 13/12 A2990 RMK AO2 T01250118,KTKV,2015-05-27T13:55:00Z,45.47,-89.82,12.5,11.8,250,3,,4.0,29.899607,,,TRUE,TRUE,,,,,,DZ,SCT,600,BKN,4200,OVC,5500,,,MVFR,,,,,,,,,,,,SPECI,453.0
KSZT 271355Z AUTO 00000KT 10SM CLR 11/10 A3003 RMK AO2,KSZT,2015-05-27T13:55:00Z,48.3,-116.57,11.0,10.0,0,0,,10.0,30.029528,,,TRUE,TRUE,,,,,,,CLR,,,,,,,,VFR,,,,,,,,,,,,SPECI,648.0
KSWW 271355Z AUTO 18012G16KT 7SM OVC007 22/22 A3009 RMK AO2 T02240218,KSWW,2015-05-27T13:55:00Z,32.47,-100.47,22.4,21.8,180,12,16,7.0,30.088583,,,TRUE,TRUE,,,,,,,OVC,700,,,,,,,IFR,,,,,,,,,,,,SPECI,727.0
KSUT 271355Z AUTO 22005KT 10SM CLR 27/20 A3029 RMK AO2 T02660199,KSUT,2015-05-27T13:55:00Z,33.93,-78.08,26.6,19.9,220,5,,10.0,30.28937,,,TRUE,TRUE,,,,,,,CLR,,,,,,,,VFR,,,,,,,,,,,,SPECI,8.0
KSQE 271355Z AUTO VRB04G10KT 9SM FEW021 28/24 A3013 RMK A01,KSQE,2015-05-27T13:55:00Z,28.07,-90.82,28.0,24.0,0,4,10,9.0,30.129921,,,TRUE,TRUE,,,,,,,FEW,2100,,,,,,,VFR,,,,,,,,,,,,SPECI,0.0
KSPR 271355Z AUTO 16011KT 10SM CLR 28/25 A3012 RMK A01,KSPR,2015-05-27T13:55:00Z,28.6,-91.2,28.0,25.0,160,11,,10.0,30.121063,,,TRUE,TRUE,,,,,,,CLR,,,,,,,,VFR,,,,,,,,,,,,SPECI,31.0
KSEZ 271355Z AUTO 07005KT 10SM CLR 18/01 A3010 RMK AO2,KSEZ,2015-05-27T13:55:00Z,34.85,-111.78,18.0,1.0,70,5,,10.0,30.100393,,,TRUE,TRUE,,,,,,,CLR,,,,,,,,VFR,,,,,,,,,,,,SPECI,1473.0
KSCF 271355Z AUTO 16010KT 6SM HZ FEW014 FEW020 28/24 A3013 RMK A01,KSCF,2015-05-27T13:55:00Z,29.12,-91.87,28.0,24.0,160,10,,6.0,30.129921,,,TRUE,TRUE,,,,,,HZ,FEW,1400,FEW,2000,,,,,VFR,,,,,,,,,,,,SPECI,8.0
KSBO 271355Z AUTO 00000KT 10SM OVC006 A3028 RMK AO2,KSBO,2015-05-27T13:55:00Z,32.62,-82.37,,,0,0,,10.0,30.280512,,,TRUE,TRUE,,,,,,,OVC,600,,,,,,,IFR,,,,,,,,,,,,SPECI,100.0
KRYV 271355Z AUTO 24009KT 10SM BKN014 OVC022 A2990 RMK AO2,KRYV,2015-05-27T13:55:00Z,43.17,-88.72,,,240,9,,10.0,29.899607,,,TRUE,TRUE,,,,,,,BKN,1400,OVC,2200,,,,,MVFR,,,,,,,,,,,,SPECI,254.0
KRPJ 271355Z AUTO 26015KT 10SM BKN012 BKN017 BKN044 19/16 A2996 RMK AO2 T01870161,KRPJ,2015-05-27T13:55:00Z,41.88,-89.08,18.7,16.1,260,15,,10.0,29.958662,,,TRUE,TRUE,,,,,,,BKN,1200,BKN,1700,BKN,4400,,,MVFR,,,,,,,,,,,,SPECI,238.0
KRCX 271355Z AUTO 23006KT 10SM SCT005 14/13 A2993 RMK AO2 T01370128,KRCX,2015-05-27T13:55:00Z,45.5,-91.0,13.7,12.8,230,6,,10.0,29.929134,,,TRUE,TRUE,,,,,,,SCT,500,,,,,,,VFR,,,,,,,,,,,,SPECI,377.0
KRAS 271355Z AUTO 16009G14KT 7SM CLR 28/24 A3003 RMK AO2 T02750241,KRAS,2015-05-27T13:55:00Z,27.82,-97.08,27.5,24.1,160,9,14,7.0,30.029528,,,TRUE,TRUE,,,,,,,CLR,,,,,,,,VFR,,,,,,,,,,,,SPECI,2.0
KPTS 271355Z AUTO 06003KT 10SM CLR 23/20 A3008 RMK AO2 T02260202,KPTS,2015-05-27T13:55:00Z,37.45,-94.73,22.6,20.2,60,3,,10.0,30.079725,,,TRUE,TRUE,,,,,,,CLR,,,,,,,,VFR,,,,,,,,,,,,SPECI,290.0
KMZG 271355Z AUTO 12014KT 6SM HZ CLR 28/24 A3004 RMK A01,KMZG,2015-05-27T13:55:00Z,27.73,-96.18,28.0,24.0,120,14,,6.0,30.041338,,,TRUE,TRUE,,,,,,HZ,CLR,,,,,,,,VFR,,,,,,,,,,,,SPECI,29.0
KMIS 271355Z AUTO VRB05KT 10SM CLR 33/23 A3014 RMK A01,KMIS,2015-05-27T13:55:00Z,29.3,-88.85,33.0,23.0,0,5,,10.0,30.138779,,,TRUE,TRUE,,,,,,,CLR,,,,,,,,VFR,,,,,,,,,,,,SPECI,32.0
KMDJ 271355Z AUTO 14011KT CLR 28/23 A3017 RMK A01,KMDJ,2015-05-27T13:55:00Z,28.65,-89.8,28.0,23.0,140,11,,,30.171259,,,TRUE,TRUE,,,,,,,CLR,,,,,,,,,,,,,,,,,,,,SPECI,31.0
KL35 271355Z AUTO 00000KT 10SM CLR 04/M02 A3015 RMK AO2,KL35,2015-05-27T13:55:00Z,34.27,-116.85,4.0,-2.0,0,0,,10.0,30.15059,,,TRUE,TRUE,,,,,,,CLR,,,,,,,,VFR,,,,,,,,,,,,SPECI,2059.0
KJZP 271355Z AUTO 15004KT 5SM HZ OVC004 20/13 A3030 RMK AO2 T01970131,KJZP,2015-05-27T13:55:00Z,,,19.7,13.1,150,4,,5.0,30.301182,,,TRUE,TRUE,,,,,,HZ,OVC,400,,,,,,,LIFR,,,,,,,,,,,,SPECI,
KJYR 271355Z AUTO 29004KT 10SM CLR 18/12 A3008 RMK AO2,KJYR,2015-05-27T13:55:00Z,40.9,-97.62,18.0,12.0,290,4,,10.0,30.079725,,,TRUE,TRUE,,,,,,,CLR,,,,,,,,VFR,,,,,,,,,,,,SPECI,509.0
KJGG 271355Z AUTO 21009KT 10SM CLR 27/22 A3024 RMK AO1,KJGG,2015-05-27T13:55:00Z,37.23,-76.72,27.0,22.0,210,9,,10.0,30.239174,,,TRUE,TRUE,,,,,,,CLR,,,,,,,,VFR,,,,,,,,,,,,SPECI,15.0
KIPN 271355Z AUTO 14016KT 10SM CLR 28/22 A3011 RMK A01,KIPN,2015-05-27T13:55:00Z,28.08,-87.98,28.0,22.0,140,16,,10.0,30.109253,,,TRUE,TRUE,,,,,,,CLR,,,,,,,,VFR,,,,,,,,,,,,SPECI,41.0
KINJ 271355Z AUTO 17008KT 10SM CLR A3009 RMK AO2,KINJ,2015-05-27T13:55:00Z,32.08,-97.1,,,170,8,,10.0,30.088583,,,TRUE,TRUE,,,,,,,CLR,,,,,,,,VFR,,,,,,,,,,,,SPECI,209.0
KIKV 271355Z AUTO 28007KT 10SM CLR 18/15 A3002 RMK AO2,KIKV,2015-05-27T13:55:00Z,41.68,-93.57,18.0,15.0,280,7,,10.0,30.02067,,,TRUE,TRUE,,,,,,,CLR,,,,,,,,VFR,,,,,,,,,,,,SPECI,275.0
KIKT 271355Z AUTO 16009KT 10SM CLR 29/23 A3010 RMK A01,KIKT,2015-05-27T13:55:00Z,28.52,-88.28,29.0,23.0,160,9,,10.0,30.100393,,,TRUE,TRUE,,,,,,,CLR,,,,,,,,VFR,,,,,,,,,,,,SPECI,25.0
KIJX 271355Z AUTO 22011G16KT 10SM BKN012 OVC055 22/19 A3004 RMK AO2 T02150186,KIJX,2015-05-27T13:55:00Z,39.77,-90.25,21.5,18.6,220,11,16,10.0,30.041338,,,TRUE,TRUE,,,,,,,BKN,1200,OVC,5500,,,,,MVFR,,,,,,,,,,,,SPECI,190.0
KIIB 271355Z AUTO 31009KT 10SM BKN009 BKN015 16/14 A2999 RMK AO2 P0001,KIIB,2015-05-27T13:55:00Z,42.45,-91.95,16.0,14.0,310,9,,10.0,29.991142,,,TRUE,TRUE,,,,,,,BKN,900,BKN,1500,,,,,IFR,,,,,,0.01,,,,,,SPECI,298.0
KIDP 271355Z AUTO 00000KT 10SM CLR 21/17 A3007 RMK AO2,KIDP,2015-05-27T13:55:00Z,37.17,-95.78,21.0,17.0,0,0,,10.0,30.070866,,,TRUE,TRUE,,,,,,,CLR,,,,,,,,VFR,,,,,,,,,,,,SPECI,251.0
KI75 271355Z AUTO 29006KT 10SM CLR 20/15 A3003 RMK AO2 T01950146,KI75,2015-05-27T13:55:00Z,41.05,-93.68,19.5,14.6,290,6,,10.0,30.029528,,,TRUE,TRUE,,,,,,,CLR,,,,,,,,VFR,,,,,,,,,,,,SPECI,339.0
KE38 271355Z AUTO 00000KT 10SM CLR 22/13 A3017 RMK AO2 T02190134,KE38,2015-05-27T13:55:00Z,30.38,-103.68,21.9,13.4,0,0,,10.0,30.171259,,,TRUE,TRUE,,,,,,,CLR,,,,,,,,VFR,,,,,,,,,,,,SPECI,1376.0
KE11 271355Z AUTO 16011G16KT 5SM BR OVC008 22/20 A3010 RMK AO2 T02150201,KE11,2015-05-27T13:55:00Z,32.33,-102.53,21.5,20.1,160,11,16,5.0,30.100393,,,TRUE,TRUE,,,,,,BR,OVC,800,,,,,,,IFR,,,,,,,,,,,,SPECI,967.0
KDZJ 271355Z AUTO 00000KT 10SM 21/13 A3028 RMK AO2 T02080127,KDZJ,2015-05-27T13:55:00Z,34.85,-84.0,20.8,12.7,0,0,,10.0,30.280512,,,TRUE,TRUE,,,,,,,,,,,,,,,,,,,,,,,,,,,SPECI,582.0
KDZB 271355Z AUTO 11007KT 10SM SCT006 SCT011 SCT021 23/21 A3007 RMK AO2 T02250208,KDZB,2015-05-27T13:55:00Z,30.53,-98.37,22.5,20.8,110,7,,10.0,30.070866,,,TRUE,TRUE,,,,,,,SCT,600,SCT,1100,SCT,2100,,,VFR,,,,,,,,,,,,SPECI,334.0
EHWO 271355Z AUTO 29011KT 9999 NCD 17/09 Q1021 BLU 29010KT 9999 FEW030,EHWO,2015-05-27T13:55:00Z,51.45,4.32,17.0,9.0,290,11,,6.21,30.147638,,,TRUE,,,,,,,,FEW,3000,,,,,,,VFR,,,,,,,,,,,,METAR,17.0
EHVK 271355Z AUTO 22008KT 9999 FEW063 BKN069 BKN076 19/05 Q1021 BLU 26010KT 9999 SCT040 BKN070,EHVK,2015-05-27T13:55:00Z,51.63,5.7,19.0,5.0,220,8,,6.21,30.147638,,,TRUE,,,,,,,,FEW,6300,BKN,6900,BKN,7600,SCT,4000,VFR,,,,,,,,,,,,METAR,21.0
EHGR 271355Z AUTO 26008KT 9999 FEW054 18/06 Q1021 BLU 24005KT CAVOK,EHGR,2015-05-27T13:55:00Z,51.57,4.92,18.0,6.0,260,8,,6.21,30.147638,,,TRUE,,,,,,,,FEW,5400,,,,,,,VFR,,,,,,,,,,,,METAR,13.0
EHDL 271355Z AUTO 23008KT 9999 SCT054 SCT059 BKN068 18/05 Q1021 BLU,EHDL,2015-05-27T13:55:00Z,52.07,5.87,18.0,5.0,230,8,,6.21,30.147638,,,TRUE,,,,,,,,SCT,5400,SCT,5900,BKN,6800,,,VFR,,,,,,,,,,,,METAR,52.0
KRNO 271355Z 00000KT 10SM FEW090 12/03 A3008 RMK AO2 SLP142 T01220033,KRNO,2015-05-27T13:55:00Z,39.5,-119.77,12.2,3.3,0,0,,10.0,30.079725,1014.2,,,TRUE,,,,,,,FEW,9000,,,,,,,VFR,,,,,,,,,,,,SPECI,1342.0
KPHP 271355Z AUTO 20008KT 10SM CLR 19/12 A3000 RMK AO2 SLP143 T01940122,KPHP,2015-05-27T13:55:00Z,44.05,-101.6,19.4,12.2,200,8,,10.0,30.0,1014.3,,TRUE,TRUE,,,,,,,CLR,,,,,,,,VFR,,,,,,,,,,,,SPECI,672.0
KLXY 271355Z AUTO 16008KT 10SM CLR 21/18 A3008 RMK AO2 P0002 T02050181,KLXY,2015-05-27T13:55:00Z,31.63,-96.52,20.5,18.1,160,8,,10.0,30.079725,,,TRUE,TRUE,,,,,,,CLR,,,,,,,,VFR,,,,,,0.02,,,,,,SPECI,166.0
KLOM 271355Z AUTO 23007KT 10SM OVC013 25/21 A3018 RMK AO1,KLOM,2015-05-27T13:55:00Z,40.13,-75.27,25.0,21.0,230,7,,10.0,30.180119,,,TRUE,TRUE,,,,,,,OVC,1300,,,,,,,MVFR,,,,,,,,,,,,SPECI,92.0
KLLJ 271355Z AUTO 00000KT 10SM OVC080 09/05 A3006 RMK AO2 RAB37E41 SLP140 P0000 T00890050,KLLJ,2015-05-27T13:55:00Z,44.52,-114.22,8.9,5.0,0,0,,10.0,30.059055,1014.0,,TRUE,TRUE,,,,,,,OVC,8000,,,,,,,VFR,,,,,,0.0050,,,,,,SPECI,1536.0
KLIC 271355Z AUTO 17008KT 10SM CLR 14/09 A3012 RMK AO2 SLP151 T01390089,KLIC,2015-05-27T13:55:00Z,39.27,-103.67,13.9,8.9,170,8,,10.0,30.121063,1015.1,,TRUE,TRUE,,,,,,,CLR,,,,,,,,VFR,,,,,,,,,,,,SPECI,1630.0
KUGN 271355Z 21013G18KT 10SM OVC015 19/16 A2992 RMK AO2 SLP124 T01890161,KUGN,2015-05-27T13:55:00Z,42.42,-87.87,18.9,16.1,210,13,18,10.0,29.920275,1012.4,,,TRUE,,,,,,,OVC,1500,,,,,,,MVFR,,,,,,,,,,,,SPECI,222.0
KF17 271355Z AUTO 09003KT 10SM CLR 19/18 A3007 RMK AO2 T01860180,KF17,2015-05-27T13:55:00Z,31.83,-94.15,18.6,18.0,90,3,,10.0,30.070866,,,TRUE,TRUE,,,,,,,CLR,,,,,,,,VFR,,,,,,,,,,,,METAR,97.0
PATC 271355Z AUTO 15004KT 10SM OVC080 11/05 A3003 RMK AO2 SLP168 T01080052,PATC,2015-05-27T13:55:00Z,65.57,-167.92,10.8,5.2,150,4,,10.0,30.029528,1016.8,,TRUE,TRUE,,,,,,,OVC,8000,,,,,,,VFR,,,,,,,,,,,,METAR,83.0
OAHR 271355Z 01007KT 340V040 9999 FEW120 31/M06 Q1011 RMK BKN BKN200 VIS MIN 9999 BLU,OAHR,2015-05-27T13:55:00Z,34.22,62.22,31.0,-6.0,10,7,,6.21,29.852362,,,,,,,,,,,FEW,12000,,,,,,,VFR,,,,,,,,,,,,METAR,964.0
EHEH 271355Z AUTO 23008KT 9999 SCT062 BKN067 OVC075 19/05 Q1021 BLU 24005KT CAVOK,EHEH,2015-05-27T13:55:00Z,51.45,5.38,19.0,5.0,230,8,,6.21,30.147638,,,TRUE,,,,,,,,SCT,6200,BKN,6700,OVC,7500,,,VFR,,,,,,,,,,,,METAR,22.0
MUHA 271355Z 09010KT 9000 FEW025 27/20 Q1019,MUHA,2015-05-27T13:55:00Z,22.97,-82.42,27.0,20.0,90,10,,5.59,30.088583,,,,,,,,,,,FEW,2500,,,,,,,VFR,,,,,,,,,,,,METAR,64.0
KFHB 271355Z AUTO 14007KT 10SM CLR 30/20 A3023 RMK AO1,KFHB,2015-05-27T13:55:00Z,30.62,-81.47,30.0,20.0,140,7,,10.0,30.230314,,,TRUE,TRUE,,,,,,,CLR,,,,,,,,VFR,,,,,,,,,,,,METAR,5.0
KFFA 271355Z AUTO 17004KT OVC040 25/19 A3027 RMK AO2 T02470187 PWINO,KFFA,2015-05-27T13:55:00Z,36.02,-75.67,24.7,18.7,170,4,,,30.268702,,,TRUE,TRUE,,,,,TRUE,,OVC,4000,,,,,,,,,,,,,,,,,,,METAR,4.0
KFSW 271355Z AUTO 28010KT 10SM CLR 18/15 A3002 RMK AO2,KFSW,2015-05-27T13:55:00Z,40.67,-91.32,18.0,15.0,280,10,,10.0,30.02067,,,TRUE,TRUE,,,,,,,CLR,,,,,,,,VFR,,,,,,,,,,,,METAR,221.0
KFWC 271355Z AUTO 22008KT 10SM SCT022 21/18 A3009 RMK AO1 LTG DSNT SW T02100183,KFWC,2015-05-27T13:55:00Z,38.38,-88.42,21.0,18.3,220,8,,10.0,30.088583,,,TRUE,TRUE,,,,,,,SCT,2200,,,,,,,VFR,,,,,,,,,,,,METAR,133.0
KFWB 271355Z AUTO 36008KT 10SM CLR 22/18 A3012 RMK AO2,KFWB,2015-05-27T13:55:00Z,36.7,-93.4,22.0,18.0,360,8,,10.0,30.121063,,,TRUE,TRUE,,,,,,,CLR,,,,,,,,VFR,,,,,,,,,,,,METAR,406.0
KFVX 271355Z AUTO 22008KT 10SM CLR 26/18 A3020 RMK AO2 T02630178,KFVX,2015-05-27T13:55:00Z,37.35,-78.42,26.3,17.8,220,8,,10.0,30.200787,,,TRUE,TRUE,,,,,,,CLR,,,,,,,,VFR,,,,,,,,,,,,METAR,125.0
KHMZ 271355Z AUTO 00000KT 10SM SCT030 OVC050 21/17 A3017 RMK AO2 T02130170,KHMZ,2015-05-27T13:55:00Z,,,21.3,17.0,0,0,,10.0,30.171259,,,TRUE,TRUE,,,,,,,SCT,3000,OVC,5000,,,,,VFR,,,,,,,,,,,,METAR,
KHHW 271355Z AUTO 12004KT 10SM CLR 23/16 A3009 RMK AO2 T02300161,KHHW,2015-05-27T13:55:00Z,34.03,-95.55,23.0,16.1,120,4,,10.0,30.088583,,,TRUE,TRUE,,,,,,,CLR,,,,,,,,VFR,,,,,,,,,,,,METAR,144.0
KHSP 271355Z AUTO 27012G17KT 10SM OVC006 18/17 A3029 RMK AO2 T01790172,KHSP,2015-05-27T13:55:00Z,37.95,-79.82,17.9,17.2,270,12,17,10.0,30.28937,,,TRUE,TRUE,,,,,,,OVC,600,,,,,,,IFR,,,,,,,,,,,,METAR,1156.0
KHWY 271355Z AUTO 21006KT 10SM SCT017 26/22 A3017 RMK AO2 T02640221,KHWY,2015-05-27T13:55:00Z,38.58,-77.72,26.4,22.1,210,6,,10.0,30.171259,,,TRUE,TRUE,,,,,,,SCT,1700,,,,,,,VFR,,,,,,,,,,,,METAR,103.0
KHZR 271355Z AUTO 00000KT 5SM BR OVC005 24/23 A3016 RMK AO2 LTG DSNT W T02350230,KHZR,2015-05-27T13:55:00Z,30.72,-91.48,23.5,23.0,0,0,,5.0,30.159449,,,TRUE,TRUE,,,,,,BR,OVC,500,,,,,,,IFR,,,,,,,,,,,,METAR,12.0
KI16 271355Z AUTO 10SM SCT020 BKN025 OVC031 22/20 A3030 RMK AO2 T02240195,KI16,2015-05-27T13:55:00Z,37.6,-81.57,22.4,19.5,,,,10.0,30.301182,,,TRUE,TRUE,,,,,,,SCT,2000,BKN,2500,OVC,3100,,,MVFR,,,,,,,,,,,,METAR,544.0
KIKK 271355Z AUTO 25016G21KT 10SM SCT018 BKN090 22/18 A2999 RMK AO2 T02150175,KIKK,2015-05-27T13:55:00Z,41.07,-87.85,21.5,17.5,250,16,21,10.0,29.991142,,,TRUE,TRUE,,,,,,,SCT,1800,BKN,9000,,,,,VFR,,,,,,,,,,,,METAR,192.0
KIOB 271355Z AUTO 25005KT 10SM SCT013 BKN019 BKN027 22/20 A3021 RMK AO2,KIOB,2015-05-27T13:55:00Z,38.05,-83.98,22.0,20.0,250,5,,10.0,30.209646,,,TRUE,TRUE,,,,,,,SCT,1300,BKN,1900,BKN,2700,,,MVFR,,,,,,,,,,,,METAR,311.0
KFYG 271355Z AUTO 00000KT 10SM CLR 21/16 A3005 RMK AO2,KFYG,2015-05-27T13:55:00Z,38.58,-91.0,21.0,16.0,0,0,,10.0,30.050198,,,TRUE,TRUE,,,,,,,CLR,,,,,,,,VFR,,,,,,,,,,,,SPECI,149.0
KBQP 271355Z AUTO 00000KT 4SM RA OVC008 22/22 A3012 RMK AO2 LTG DSNT N NE AND SW P0003 T02190215,KBQP,2015-05-27T13:55:00Z,32.75,-91.88,21.9,21.5,0,0,,4.0,30.121063,,,TRUE,TRUE,,,,,,RA,OVC,800,,,,,,,IFR,,,,,,0.03,,,,,,METAR,51.0
KBQK 271355Z AUTO 11007KT 10SM SCT029 SCT036 27/18 A3026 RMK AO1,KBQK,2015-05-27T13:55:00Z,31.25,-81.47,27.0,18.0,110,7,,10.0,30.259842,,,TRUE,TRUE,,,,,,,SCT,2900,SCT,3600,,,,,VFR,,,,,,,,,,,,METAR,8.0
KBPG 271355Z AUTO 15011KT 5SM OVC012 23/20 A3009 RMK AO2 T02340202,KBPG,2015-05-27T13:55:00Z,32.22,-101.52,23.4,20.2,150,11,,5.0,30.088583,,,TRUE,TRUE,,,,,,,OVC,1200,,,,,,,MVFR,,,,,,,,,,,,METAR,784.0
KBIJ 271355Z AUTO 10003KT 10SM BKN008 OVC060 24/24 A3022 RMK AO2,KBIJ,2015-05-27T13:55:00Z,31.4,-84.9,24.0,24.0,100,3,,10.0,30.221457,,,TRUE,TRUE,,,,,,,BKN,800,OVC,6000,,,,,IFR,,,,,,,,,,,,METAR,65.0
KBGE 271355Z AUTO 12004KT 10SM OVC015 26/24 A3022 RMK AO2,KBGE,2015-05-27T13:55:00Z,30.97,-84.63,26.0,24.0,120,4,,10.0,30.221457,,,TRUE,TRUE,,,,,,,OVC,1500,,,,,,,MVFR,,,,,,,,,,,,METAR,43.0
KAZE 271355Z AUTO 00000KT 10SM OVC007 24/23 A3025 RMK AO2 T02410233,KAZE,2015-05-27T13:55:00Z,31.88,-82.65,24.1,23.3,0,0,,10.0,30.250984,,,TRUE,TRUE,,,,,,,OVC,700,,,,,,,IFR,,,,,,,,,,,,METAR,78.0
KAVQ 271355Z AUTO 00000KT 10SM CLR 20/02 A2997 RMK AO2 T02040016,KAVQ,2015-05-27T13:55:00Z,32.4,-111.22,20.4,1.6,0,0,,10.0,29.970472,,,TRUE,TRUE,,,,,,,CLR,,,,,,,,VFR,,,,,,,,,,,,METAR,619.0
KARM 271355Z AUTO 05009KT 10SM SCT018 SCT026 BKN048 22/19 A3012 RMK AO2 LTG DSNT NW THRU E T02200193,KARM,2015-05-27T13:55:00Z,29.25,-96.15,22.0,19.3,50,9,,10.0,30.121063,,,TRUE,TRUE,,,,,,,SCT,1800,SCT,2600,BKN,4800,,,VFR,,,,,,,,,,,,METAR,31.0
KAQR 271355Z AUTO 16003KT 10SM BKN055 BKN070 BKN085 22/17 A3010 RMK AO2,KAQR,2015-05-27T13:55:00Z,34.4,-96.15,22.0,17.0,160,3,,10.0,30.100393,,,TRUE,TRUE,,,,,,,BKN,5500,BKN,7000,BKN,8500,,,VFR,,,,,,,,,,,,METAR,189.0
KA08 271355Z AUTO 16004KT 10SM BKN010 OVC019 22/20 A3018 RMK AO2 T02200202 PWINO,KA08,2015-05-27T13:55:00Z,32.52,-87.38,22.0,20.2,160,4,,10.0,30.180119,,,TRUE,TRUE,,,,,TRUE,,BKN,1000,OVC,1900,,,,,MVFR,,,,,,,,,,,,METAR,69.0
K96D 271355Z AUTO 10SM 12/07 A2998 RMK AO2,K96D,2015-05-27T13:55:00Z,48.93,-97.9,12.0,7.0,,,,10.0,29.97933,,,TRUE,TRUE,,,,,,,,,,,,,,,,,,,,,,,,,,,METAR,290.0
K8A0 271355Z AUTO 14004KT 5SM BR OVC004 20/20 A3022 RMK AO2,K8A0,2015-05-27T13:55:00Z,34.23,-86.25,20.0,20.0,140,4,,5.0,30.221457,,,TRUE,TRUE,,,,,,BR,OVC,400,,,,,,,LIFR,,,,,,,,,,,,METAR,315.0
K6R3 271355Z AUTO 18006KT 7SM OVC005 19/18 A3012 RMK AO2 LTG DSNT SE THRU SW P0002 T01850183,K6R3,2015-05-27T13:55:00Z,30.35,-95.0,18.5,18.3,180,6,,7.0,30.121063,,,TRUE,TRUE,,,,,,,OVC,500,,,,,,,IFR,,,,,,0.02,,,,,,METAR,46.0
K66R 271355Z AUTO 09008KT 10SM VCTS BKN026 BKN033 BKN050 21/20 A3010 RMK AO2 LTG DSNT NE AND E P0002 T02050200,K66R,2015-05-27T13:55:00Z,29.65,-96.52,20.5,20.0,90,8,,10.0,30.100393,,,TRUE,TRUE,,,,,,VCTS,BKN,2600,BKN,3300,BKN,5000,,,MVFR,,,,,,0.02,,,,,,METAR,74.0
K5M9 271355Z AUTO 21004KT 10SM SCT028 23/20 A3012 RMK AO2 T02270198,K5M9,2015-05-27T13:55:00Z,37.33,-88.12,22.7,19.8,210,4,,10.0,30.121063,,,TRUE,TRUE,,,,,,,SCT,2800,,,,,,,VFR,,,,,,,,,,,,METAR,199.0
K3T5 271355Z AUTO 13006KT 10SM SCT004 SCT025 22/22 A3007 RMK AO2 LTG DSNT E T02240216,K3T5,2015-05-27T13:55:00Z,29.9,-96.95,22.4,21.6,130,6,,10.0,30.070866,,,TRUE,TRUE,,,,,,,SCT,400,SCT,2500,,,,,VFR,,,,,,,,,,,,METAR,99.0
K3K3 271355Z AUTO 20005KT 10SM CLR 18/13 A3009 RMK AO2,K3K3,2015-05-27T13:55:00Z,38.0,-101.75,18.0,13.0,200,5,,10.0,30.088583,,,TRUE,TRUE,,,,,,,CLR,,,,,,,,VFR,,,,,,,,,,,,METAR,1013.0
K3AU 271355Z AUTO 09006KT 10SM CLR 19/16 A3008 RMK AO2,K3AU,2015-05-27T13:55:00Z,37.67,-97.08,19.0,16.0,90,6,,10.0,30.079725,,,TRUE,TRUE,,,,,,,CLR,,,,,,,,VFR,,,,,,,,,,,,METAR,405.0
K18A 271355Z AUTO 00000KT 10SM 21/19 A3027 RMK AO2 T02100187,K18A,2015-05-27T13:55:00Z,34.35,-83.13,21.0,18.7,0,0,,10.0,30.268702,,,TRUE,TRUE,,,,,,,,,,,,,,,,,,,,,,,,,,,METAR,271.0
KMDD 271355Z AUTO 16011G15KT 5SM HZ SCT010 OVC017 24/20 A3008 RMK AO2 T02350202,KMDD,2015-05-27T13:55:00Z,32.03,-102.1,23.5,20.2,160,11,15,5.0,30.079725,,,TRUE,TRUE,,,,,,HZ,SCT,1000,OVC,1700,,,,,MVFR,,,,,,,,,,,,METAR,854.0
KLUA 271355Z AUTO 20012KT 10SM CLR 27/20 A3017 RMK AO2,KLUA,2015-05-27T13:55:00Z,38.67,-78.5,27.0,20.0,200,12,,10.0,30.171259,,,TRUE,TRUE,,,,,,,CLR,,,,,,,,VFR,,,,,,,,,,,,METAR,275.0
KLRU 271355Z AUTO 00000KT 10SM CLR 21/M06 A3011 RMK AO2 T02061056,KLRU,2015-05-27T13:55:00Z,32.27,-106.92,20.6,-5.6,0,0,,10.0,30.109253,,,TRUE,TRUE,,,,,,,CLR,,,,,,,,VFR,,,,,,,,,,,,METAR,1358.0
KLRJ 271355Z AUTO 25004KT 10SM CLR 18/14 A3003 RMK AO2,KLRJ,2015-05-27T13:55:00Z,42.77,-96.2,18.0,14.0,250,4,,10.0,30.029528,,,TRUE,TRUE,,,,,,,CLR,,,,,,,,VFR,,,,,,,,,,,,METAR,365.0
KLKU 271355Z AUTO 21006KT 10SM CLR 26/19 A3018 RMK AO2,KLKU,2015-05-27T13:55:00Z,38.02,-77.97,26.0,19.0,210,6,,10.0,30.180119,,,TRUE,TRUE,,,,,,,CLR,,,,,,,,VFR,,,,,,,,,,,,METAR,150.0
KLHZ 271355Z AUTO 00000KT 10SM SCT013 SCT018 OVC034 23/21 A3027 RMK AO2,KLHZ,2015-05-27T13:55:00Z,36.02,-78.33,23.0,21.0,0,0,,10.0,30.268702,,,TRUE,TRUE,,,,,,,SCT,1300,SCT,1800,OVC,3400,,,VFR,,,,,,,,,,,,METAR,113.0
KLGC 271355Z AUTO 00000KT 10SM CLR 25/23 A3024 RMK AO2 T02460227,KLGC,2015-05-27T13:55:00Z,33.0,-85.07,24.6,22.7,0,0,,10.0,30.239174,,,TRUE,TRUE,,,,,,,CLR,,,,,,,,VFR,,,,,,,,,,,,METAR,211.0
KLCQ 271355Z AUTO 14006KT 10SM CLR 25/22 A3023 RMK AO2,KLCQ,2015-05-27T13:55:00Z,30.18,-82.58,25.0,22.0,140,6,,10.0,30.230314,,,TRUE,TRUE,,,,,,,CLR,,,,,,,,VFR,,,,,,,,,,,,METAR,61.0
KLCK 271355Z AUTO 23009KT 10SM SCT018 SCT024 22/18 A3012 RMK AO2 T02210180,KLCK,2015-05-27T13:55:00Z,39.82,-82.92,22.1,18.0,230,9,,10.0,30.121063,,,TRUE,TRUE,,,,,,,SCT,1800,SCT,2400,,,,,VFR,,,,,,,,,,,,METAR,227.0
KLCG 271355Z AUTO 00000KT 10SM CLR 19/14 A3005 RMK AO2 T01920140,KLCG,2015-05-27T13:55:00Z,42.25,-96.98,19.2,14.0,0,0,,10.0,30.050198,,,TRUE,TRUE,,,,,,,CLR,,,,,,,,VFR,,,,,,,,,,,,METAR,436.0
KLAM 271355Z AUTO 35004KT 10SM CLR 12/03 A3027 RMK AO2 T01240027,KLAM,2015-05-27T13:55:00Z,35.87,-106.27,12.4,2.7,350,4,,10.0,30.268702,,,TRUE,TRUE,,,,,,,CLR,,,,,,,,VFR,,,,,,,,,,,,METAR,2179.0
KL38 271355Z AUTO 17003KT 7SM OVC007 26/26 A3014 RMK AO2 T02550255,KL38,2015-05-27T13:55:00Z,30.17,-90.93,25.5,25.5,170,3,,7.0,30.138779,,,TRUE,TRUE,,,,,,,OVC,700,,,,,,,IFR,,,,,,,,,,,,METAR,4.0
KJYO 271355Z AUTO 20008G14KT 10SM OVC020 26/22 A3017 RMK AO2,KJYO,2015-05-27T13:55:00Z,39.07,-77.57,26.0,22.0,200,8,14,10.0,30.171259,,,TRUE,TRUE,,,,,,,OVC,2000,,,,,,,MVFR,,,,,,,,,,,,METAR,119.0
KJQF 271355Z 25004KT 10SM SCT012 SCT070 22/18 A3031,KJQF,2015-05-27T13:55:00Z,35.38,-80.72,22.0,18.0,250,4,,10.0,30.31004,,,,,,,,,,,SCT,1200,SCT,7000,,,,,VFR,,,,,,,,,,,,METAR,210.0
KJES 271355Z AUTO 14006KT 10SM BKN020 BKN030 29/23 A3026 RMK AO2,KJES,2015-05-27T13:55:00Z,31.55,-81.88,29.0,23.0,140,6,,10.0,30.259842,,,TRUE,TRUE,,,,,,,BKN,2000,BKN,3000,,,,,MVFR,,,,,,,,,,,,METAR,33.0
KC09 271355Z AUTO 27014KT 10SM BKN019 BKN026 20/16 A2996 RMK AO2 T02030160,KC09,2015-05-27T13:55:00Z,41.43,-88.42,20.3,16.0,270,14,,10.0,29.958662,,,TRUE,TRUE,,,,,,,BKN,1900,BKN,2600,,,,,MVFR,,,,,,,,,,,,METAR,178.0
KEXX 271355Z AUTO 22003KT 10SM SCT018 SCT085 23/19 A3027 RMK AO2 T02270186,KEXX,2015-05-27T13:55:00Z,35.78,-80.3,22.7,18.6,220,3,,10.0,30.268702,,,TRUE,TRUE,,,,,,,SCT,1800,SCT,8500,,,,,VFR,,,,,,,,,,,,METAR,223.0
KELA 271355Z AUTO 08006KT 10SM -VCTSRA SCT010 SCT024 BKN029 21/20 A3012 RMK AO2 LTG DSNT N THRU E P0001 T02080201,KELA,2015-05-27T13:55:00Z,29.6,-96.32,20.8,20.1,80,6,,10.0,30.121063,,,TRUE,TRUE,,,,,,VCTS -RA,SCT,1000,SCT,2400,BKN,2900,,,MVFR,,,,,,0.01,,,,,,METAR,56.0
KEBA 271355Z AUTO 10004KT 10SM SCT010 OVC017 24/22 A3029 RMK AO2 T02440220,KEBA,2015-05-27T13:55:00Z,34.1,-82.82,24.4,22.0,100,4,,10.0,30.28937,,,TRUE,TRUE,,,,,,,SCT,1000,OVC,1700,,,,,MVFR,,,,,,,,,,,,METAR,184.0
KDTA 271355Z AUTO 03007KT 10SM SCT100 11/07 A3009 RMK AO1 T01110066,KDTA,2015-05-27T13:55:00Z,39.38,-112.5,11.1,6.6,30,7,,10.0,30.088583,,,TRUE,TRUE,,,,,,,SCT,10000,,,,,,,VFR,,,,,,,,,,,,METAR,1402.0
KD25 271355Z AUTO 25006KT 10SM SCT005 SCT060 14/14 A2986 RMK AO2 P0001 T01420136,KD25,2015-05-27T13:55:00Z,46.12,-89.88,14.2,13.6,250,6,,10.0,29.861221,,,TRUE,TRUE,,,,,,,SCT,500,SCT,6000,,,,,VFR,,,,,,0.01,,,,,,METAR,491.0
KCXE 271355Z AUTO 19003KT 10SM CLR 27/20 A3023 RMK AO1 T02660204,KCXE,2015-05-27T13:55:00Z,36.78,-78.5,26.6,20.4,190,3,,10.0,30.230314,,,TRUE,TRUE,,,,,,,CLR,,,,,,,,VFR,,,,,,,,,,,,METAR,153.0
KCQF 271355Z AUTO 15003KT 10SM BKN016 OVC024 26/23 A3016 RMK AO2,KCQF,2015-05-27T13:55:00Z,30.47,-87.88,26.0,23.0,150,3,,10.0,30.159449,,,TRUE,TRUE,,,,,,,BKN,1600,OVC,2400,,,,,MVFR,,,,,,,,,,,,METAR,28.0
KCQB 271355Z AUTO 00000KT 7SM BKN005 21/21 A3008 RMK AO2,KCQB,2015-05-27T13:55:00Z,35.72,-96.82,21.0,21.0,0,0,,7.0,30.079725,,,TRUE,TRUE,,,,,,,BKN,500,,,,,,,IFR,,,,,,,,,,,,METAR,300.0
KCNI 271355Z AUTO 13003KT 1 3/4SM BR OVC003 19/17 A3027 RMK AO2,KCNI,2015-05-27T13:55:00Z,34.32,-84.42,19.0,17.0,130,3,,1.75,30.268702,,,TRUE,TRUE,,,,,,BR,OVC,300,,,,,,,LIFR,,,,,,,,,,,,METAR,372.0
KCMY 271355Z AUTO 26004KT 10SM BKN012 BKN050 16/13 A2995 RMK AO2 T01600131,KCMY,2015-05-27T13:55:00Z,43.97,-90.73,16.0,13.1,260,4,,10.0,29.949802,,,TRUE,TRUE,,,,,,,BKN,1200,BKN,5000,,,,,MVFR,,,,,,,,,,,,METAR,256.0
KCKP 271355Z AUTO 24003KT 10SM CLR 17/15 A3001 RMK AO2 T01680149,KCKP,2015-05-27T13:55:00Z,42.73,-95.55,16.8,14.9,240,3,,10.0,30.008858,,,TRUE,TRUE,,,,,,,CLR,,,,,,,,VFR,,,,,,,,,,,,METAR,374.0
KCCA 271355Z AUTO 00000KT 6SM BR SCT019 23/21 A3013 RMK AO2,KCCA,2015-05-27T13:55:00Z,35.6,-92.45,23.0,21.0,0,0,,6.0,30.129921,,,TRUE,TRUE,,,,,,BR,SCT,1900,,,,,,,VFR,,,,,,,,,,,,METAR,157.0
KC75 271355Z AUTO 24005KT 10SM SCT049 SCT060 20/15 A2998 RMK AO2 T02000145,KC75,2015-05-27T13:55:00Z,41.02,-89.38,20.0,14.5,240,5,,10.0,29.97933,,,TRUE,TRUE,,,,,,,SCT,4900,SCT,6000,,,,,VFR,,,,,,,,,,,,METAR,173.0
KEZF 271355Z AUTO 20008KT 10SM CLR 28/21 A3016 RMK AO2 T02780205,KEZF,2015-05-27T13:55:00Z,38.27,-77.45,27.8,20.5,200,8,,10.0,30.159449,,,TRUE,TRUE,,,,,,,CLR,,,,,,,,VFR,,,,,,,,,,,,METAR,26.0
KOPL 271355Z AUTO 27004KT 7SM -TSRA SCT013 BKN080 OVC090 A3021 RMK AO2 LTG DSNT ALQS P0042,KOPL,2015-05-27T13:55:00Z,30.55,-92.1,,,270,4,,7.0,30.209646,,,TRUE,TRUE,,,,,,-TSRA,SCT,1300,BKN,8000,OVC,9000,,,VFR,,,,,,0.42,,,,,,METAR,23.0
KONM 271355Z AUTO 35005KT 10SM CLR 15/04 A3014 RMK AO2 T01530044,KONM,2015-05-27T13:55:00Z,34.02,-106.9,15.3,4.4,350,5,,10.0,30.138779,,,TRUE,TRUE,,,,,,,CLR,,,,,,,,VFR,,,,,,,,,,,,METAR,1410.0
KONL 271355Z AUTO 24004KT 10SM CLR 19/12 A3006 RMK AO2 T01880117,KONL,2015-05-27T13:55:00Z,42.47,-98.67,18.8,11.7,240,4,,10.0,30.059055,,,TRUE,TRUE,,,,,,,CLR,,,,,,,,VFR,,,,,,,,,,,,METAR,619.0
KOMH 271355Z AUTO 18010KT 10SM CLR 26/20 A3019 RMK AO2,KOMH,2015-05-27T13:55:00Z,38.25,-78.05,26.0,20.0,180,10,,10.0,30.188976,,,TRUE,TRUE,,,,,,,CLR,,,,,,,,VFR,,,,,,,,,,,,METAR,142.0
KOLZ 271355Z AUTO 30011KT 10SM OVC012 16/14 A2999 RMK AO2,KOLZ,2015-05-27T13:55:00Z,42.67,-91.97,16.0,14.0,300,11,,10.0,29.991142,,,TRUE,TRUE,,,,,,,OVC,1200,,,,,,,MVFR,,,,,,,,,,,,METAR,328.0
KOLG 271355Z AUTO 23007KT 10SM CLR 16/12 A2987 RMK AO1,KOLG,2015-05-27T13:55:00Z,46.3,-91.82,16.0,12.0,230,7,,10.0,29.870079,,,TRUE,TRUE,,,,,,,CLR,,,,,,,,VFR,,,,,,,,,,,,METAR,336.0
KOKM 271355Z AUTO 20003KT 10SM CLR 22/18 A3007 RMK AO2 T02160180,KOKM,2015-05-27T13:55:00Z,35.67,-95.95,21.6,18.0,200,3,,10.0,30.070866,,,TRUE,TRUE,,,,,,,CLR,,,,,,,,VFR,,,,,,,,,,,,METAR,220.0
KOGA 271355Z AUTO 14005KT 10SM CLR 15/11 A3007 RMK AO2 T01510114,KOGA,2015-05-27T13:55:00Z,41.12,-101.77,15.1,11.4,140,5,,10.0,30.070866,,,TRUE,TRUE,,,,,,,CLR,,,,,,,,VFR,,,,,,,,,,,,METAR,999.0
KOEO 271355Z AUTO 22006KT 10SM CLR 17/16 A2994 RMK AO2 T01710156,KOEO,2015-05-27T13:55:00Z,45.32,-92.7,17.1,15.6,220,6,,10.0,29.940945,,,TRUE,TRUE,,,,,,,CLR,,,,,,,,VFR,,,,,,,,,,,,METAR,275.0
KNOW 271355Z AUTO 27008KT 10SM OVC002 10/10 A3008 RMK AO2 T01020095,KNOW,2015-05-27T13:55:00Z,,,10.2,9.5,270,8,,10.0,30.079725,,,TRUE,TRUE,,,,,,,OVC,200,,,,,,,LIFR,,,,,,,,,,,,METAR,
KMZZ 271355Z AUTO 24013G18KT 10SM SCT025 SCT048 BKN090 22/16 A3006 RMK AO2 T02220160,KMZZ,2015-05-27T13:55:00Z,40.48,-85.68,22.2,16.0,240,13,18,10.0,30.059055,,,TRUE,TRUE,,,,,,,SCT,2500,SCT,4800,BKN,9000,,,VFR,,,,,,,,,,,,METAR,262.0
KMXO 271355Z AUTO 27010KT 10SM OVC013 17/15 A2999 RMK AO2,KMXO,2015-05-27T13:55:00Z,42.22,-91.17,17.0,15.0,270,10,,10.0,29.991142,,,TRUE,TRUE,,,,,,,OVC,1300,,,,,,,MVFR,,,,,,,,,,,,METAR,259.0
KQTZ 271355Z 31008KT 9999 SCT250 38/00 A2978 RMK SLP082 WND/ALSTG/SLP ESTMD,KQTZ,2015-05-27T13:55:00Z,100.65,-1000.65,38.0,0.0,310,8,,6.21,29.778543,1008.2,,,,,,,,,,SCT,25000,,,,,,,VFR,,,,,,,,,,,,METAR,999.0
KQTI 271355Z AUTO 31011G18KT 9999 CLR 37/02 A2977 RMK AO2 SLP079 T03740018,KQTI,2015-05-27T13:55:00Z,,,37.4,1.8,310,11,18,6.21,29.769686,1007.9,,TRUE,TRUE,,,,,,,CLR,,,,,,,,VFR,,,,,,,,,,,,METAR,
KQND 271355Z AUTO VRB01KT CLR 44/11 A2970 RMK AO2 SLP024 T04360109 PWINO TSNO $,KQND,2015-05-27T13:55:00Z,100.65,-1000.65,43.6,10.9,0,1,,,29.698818,1002.4,,TRUE,TRUE,TRUE,,TRUE,,TRUE,,CLR,,,,,,,,,,,,,,,,,,,,METAR,999.0
KQGV 271355Z 31018G25KT 9999 FEW080 42/M08 A2972 RMK SLPNO QNH1006 PA +659,KQGV,2015-05-27T13:55:00Z,100.65,-1000.65,42.0,-8.0,310,18,25,6.21,29.719488,,,,,,,,,,,FEW,8000,,,,,,,VFR,,,,,,,,,,,,METAR,999.0
KQEB 271355Z AUTO 08012G16KT 10SM BKN043 BKN065 23/13 A3015 RMK AO2 SHRAB1325E1347 SLP152 T02300131,KQEB,2015-05-27T13:55:00Z,100.65,-1000.65,23.0,13.1,80,12,16,10.0,30.15059,1015.2,,TRUE,TRUE,,,,,,,BKN,4300,BKN,6500,,,,,VFR,,,,,,,,,,,,METAR,999.0
KRHP 271355Z AUTO 00000KT 10SM SCT029 21/17 A3027 RMK AO2 T02060173,KRHP,2015-05-27T13:55:00Z,35.18,-83.85,20.6,17.3,0,0,,10.0,30.268702,,,TRUE,TRUE,,,,,,,SCT,2900,,,,,,,VFR,,,,,,,,,,,,METAR,518.0
KRDK 271355Z AUTO 00000KT 10SM CLR 19/14 A3005 RMK AO2,KRDK,2015-05-27T13:55:00Z,41.02,-95.27,19.0,14.0,0,0,,10.0,30.050198,,,TRUE,TRUE,,,,,,,CLR,,,,,,,,VFR,,,,,,,,,,,,METAR,318.0
KRCZ 271355Z AUTO 21005KT 10SM CLR 25/19 A3027 RMK AO2 T02470193,KRCZ,2015-05-27T13:55:00Z,34.88,-79.77,24.7,19.3,210,5,,10.0,30.268702,,,TRUE,TRUE,,,,,,,CLR,,,,,,,,VFR,,,,,,,,,,,,METAR,109.0
KRCR 271355Z AUTO 23009KT 10SM SCT020 SCT041 SCT080 23/18 A3001 RMK AO2,KRCR,2015-05-27T13:55:00Z,41.07,-86.18,23.0,18.0,230,9,,10.0,30.008858,,,TRUE,TRUE,,,,,,,SCT,2000,SCT,4100,SCT,8000,,,VFR,,,,,,,,,,,,METAR,241.0
KRBO 271355Z AUTO 14008KT 7SM SCT012 SCT018 28/26 A3002 RMK AO2 T02800260,KRBO,2015-05-27T13:55:00Z,27.78,-97.68,28.0,26.0,140,8,,7.0,30.02067,,,TRUE,TRUE,,,,,,,SCT,1200,SCT,1800,,,,,VFR,,,,,,,,,,,,METAR,24.0
KPXE 271355Z AUTO 10004KT 7SM BKN004 OVC060 24/22 A3026 RMK AO2 T02370215,KPXE,2015-05-27T13:55:00Z,32.52,-83.77,23.7,21.5,100,4,,7.0,30.259842,,,TRUE,TRUE,,,,,,,BKN,400,OVC,6000,,,,,LIFR,,,,,,,,,,,,METAR,127.0
KPVW 271355Z AUTO 21006KT 4SM BR OVC015 20/19 A3010 RMK AO2 T01970189,KPVW,2015-05-27T13:55:00Z,34.17,-101.72,19.7,18.9,210,6,,4.0,30.100393,,,TRUE,TRUE,,,,,,BR,OVC,1500,,,,,,,MVFR,,,,,,,,,,,,METAR,1028.0
KPRG 271355Z AUTO 23011KT 10SM SCT120 24/18 A3005 RMK AO2 T02410183,KPRG,2015-05-27T13:55:00Z,39.7,-87.67,24.1,18.3,230,11,,10.0,30.050198,,,TRUE,TRUE,,,,,,,SCT,12000,,,,,,,VFR,,,,,,,,,,,,METAR,199.0
KPOY 271355Z AUTO 30003KT 10SM SCT001 11/09 A3003 RMK AO2,KPOY,2015-05-27T13:55:00Z,44.87,-108.8,11.0,9.0,300,3,,10.0,30.029528,,,TRUE,TRUE,,,,,,,SCT,100,,,,,,,VFR,,,,,,,,,,,,METAR,1552.0
KPLU 271355Z AUTO 00000KT 10SM FEW045 11/11 A3007 RMK AO2,KPLU,2015-05-27T13:55:00Z,47.1,-122.28,11.0,11.0,0,0,,10.0,30.070866,,,TRUE,TRUE,,,,,,,FEW,4500,,,,,,,VFR,,,,,,,,,,,,METAR,164.0
KPEQ 271355Z AUTO 00000KT 10SM CLR 19/15 A3004 RMK AO2 T01910147,KPEQ,2015-05-27T13:55:00Z,31.38,-103.52,19.1,14.7,0,0,,10.0,30.041338,,,TRUE,TRUE,,,,,,,CLR,,,,,,,,VFR,,,,,,,,,,,,METAR,797.0
KPDC 271355Z AUTO 28009KT 10SM SCT017 18/13 A2995 RMK AO2 T01760134,KPDC,2015-05-27T13:55:00Z,43.02,-91.12,17.6,13.4,280,9,,10.0,29.949802,,,TRUE,TRUE,,,,,,,SCT,1700,,,,,,,VFR,,,,,,,,,,,,METAR,201.0
KPCZ 271355Z AUTO 28007KT 10SM -DZ BKN018 OVC027 16/14 A2990 RMK AO2 T01620138,KPCZ,2015-05-27T13:55:00Z,44.33,-89.02,16.2,13.8,280,7,,10.0,29.899607,,,TRUE,TRUE,,,,,,-DZ,BKN,1800,OVC,2700,,,,,MVFR,,,,,,,,,,,,METAR,252.0
KPBX 271355Z AUTO 00000KT 10SM BKN024 BKN035 22/18 A3023 RMK AO2 T02210181,KPBX,2015-05-27T13:55:00Z,37.57,-82.57,22.1,18.1,0,0,,10.0,30.230314,,,TRUE,TRUE,,,,,,,BKN,2400,BKN,3500,,,,,MVFR,,,,,,,,,,,,METAR,449.0
KOZA 271355Z AUTO 15014G18KT 10SM BKN013 BKN018 25/20 A3009 RMK AO2,KOZA,2015-05-27T13:55:00Z,30.73,-101.2,25.0,20.0,150,14,18,10.0,30.088583,,,TRUE,TRUE,,,,,,,BKN,1300,BKN,1800,,,,,MVFR,,,,,,,,,,,,METAR,726.0
KOXV 271355Z AUTO 31007KT 10SM CLR 18/14 A3002 RMK AO2,KOXV,2015-05-27T13:55:00Z,41.28,-93.12,18.0,14.0,310,7,,10.0,30.02067,,,TRUE,TRUE,,,,,,,CLR,,,,,,,,VFR,,,,,,,,,,,,METAR,283.0
KOUN 271355Z AUTO 19005KT 10SM CLR 21/17 A3009 RMK AO2,KOUN,2015-05-27T13:55:00Z,35.25,-97.47,21.0,17.0,190,5,,10.0,30.088583,,,TRUE,TRUE,,,,,,,CLR,,,,,,,,VFR,,,,,,,,,,,,METAR,357.0
KOSA 271355Z AUTO 05004KT 10SM CLR 21/16 A3009 RMK AO1 T02060164,KOSA,2015-05-27T13:55:00Z,33.1,-94.97,20.6,16.4,50,4,,10.0,30.088583,,,TRUE,TRUE,,,,,,,CLR,,,,,,,,VFR,,,,,,,,,,,,METAR,111.0
KORC 271355Z AUTO 00000KT 10SM CLR 17/13 A3000 RMK AO2,KORC,2015-05-27T13:55:00Z,42.97,-96.07,17.0,13.0,0,0,,10.0,30.0,,,TRUE,TRUE,,,,,,,CLR,,,,,,,,VFR,,,,,,,,,,,,METAR,431.0
KD60 271355Z AUTO 03005KT 10SM CLR 19/10 A2998 RMK AO2,KD60,2015-05-27T13:55:00Z,48.38,-102.9,19.0,10.0,30,5,,10.0,29.97933,,,TRUE,TRUE,,,,,,,CLR,,,,,,,,VFR,,,,,,,,,,,,SPECI,693.0
KMUT 271355Z AUTO 28007KT 10SM FEW015 SCT031 BKN037 19/15 A3000 RMK AO2,KMUT,2015-05-27T13:55:00Z,41.37,-91.15,19.0,15.0,280,7,,10.0,30.0,,,TRUE,TRUE,,,,,,,FEW,1500,SCT,3100,BKN,3700,,,VFR,,,,,,,,,,,,METAR,167.0
KMRN 271355Z AUTO 19003KT 10SM OVC008 19/18 A3032 RMK AO2 T01900181,KMRN,2015-05-27T13:55:00Z,35.82,-81.62,19.0,18.1,190,3,,10.0,30.318897,,,TRUE,TRUE,,,,,,,OVC,800,,,,,,,IFR,,,,,,,,,,,,METAR,387.0
KMLE 271355Z AUTO 00000KT 10SM CLR 19/13 A3005 RMK AO2 T01910131,KMLE,2015-05-27T13:55:00Z,41.2,-96.12,19.1,13.1,0,0,,10.0,30.050198,,,TRUE,TRUE,,,,,,,CLR,,,,,,,,VFR,,,,,,,,,,,,METAR,320.0
KMKJ 271355Z AUTO 25009KT 10SM BKN016 OVC022 22/17 A3031 RMK AO2 T02160166,KMKJ,2015-05-27T13:55:00Z,36.88,-81.33,21.6,16.6,250,9,,10.0,30.31004,,,TRUE,TRUE,,,,,,,BKN,1600,OVC,2200,,,,,MVFR,,,,,,,,,,,,METAR,780.0
KMGC 271355Z AUTO 23012G20KT 10SM SCT020 SCT025 BKN100 21/16 A2997 RMK AO2,KMGC,2015-05-27T13:55:00Z,41.7,-86.82,21.0,16.0,230,12,20,10.0,29.970472,,,TRUE,TRUE,,,,,,,SCT,2000,SCT,2500,BKN,10000,,,VFR,,,,,,,,,,,,METAR,200.0
KXSA 271355Z AUTO 20007KT 10SM CLR 27/18 A3020 RMK AO2 T02740179,KXSA,2015-05-27T13:55:00Z,37.87,-76.9,27.4,17.9,200,7,,10.0,30.200787,,,TRUE,TRUE,,,,,,,CLR,,,,,,,,VFR,,,,,,,,,,,,METAR,42.0
KW43 271355Z AUTO 00000KT 10SM BKN090 13/10 A3001 RMK AO2,KW43,2015-05-27T13:55:00Z,44.67,-104.57,13.0,10.0,0,0,,10.0,30.008858,,,TRUE,TRUE,,,,,,,BKN,9000,,,,,,,VFR,,,,,,,,,,,,METAR,1300.0
KW22 271355Z AUTO 20007KT 10SM SCT005 BKN008 OVC025 19/19 A3022 RMK AO2,KW22,2015-05-27T13:55:00Z,39.0,-80.27,19.0,19.0,200,7,,10.0,30.221457,,,TRUE,TRUE,,,,,,,SCT,500,BKN,800,OVC,2500,,,IFR,,,,,,,,,,,,METAR,499.0
KVUJ 271355Z AUTO 22005KT 10SM CLR 24/21 A3031 RMK AO2 T02390206,KVUJ,2015-05-27T13:55:00Z,35.42,-80.15,23.9,20.6,220,5,,10.0,30.31004,,,TRUE,TRUE,,,,,,,CLR,,,,,,,,VFR,,,,,,,,,,,,METAR,186.0
KUXL 271355Z AUTO 36005KT 7SM TSRA SCT021 BKN029 BKN034 20/19 A3016 RMK AO2 LTG DSNT NE E AND SW P0006 T01990192,KUXL,2015-05-27T13:55:00Z,30.13,-93.38,19.9,19.2,360,5,,7.0,30.159449,,,TRUE,TRUE,,,,,,TSRA,SCT,2100,BKN,2900,BKN,3400,,,MVFR,,,,,,0.06,,,,,,METAR,4.0
KTOC 271355Z AUTO 00000KT 10SM OVC028 21/18 A3027 RMK AO2 T02060183,KTOC,2015-05-27T13:55:00Z,34.6,-83.3,20.6,18.3,0,0,,10.0,30.268702,,,TRUE,TRUE,,,,,,,OVC,2800,,,,,,,MVFR,,,,,,,,,,,,METAR,304.0
KTNU 271355Z AUTO 29008KT 10SM CLR 18/15 A3001 RMK AO2 PWINO,KTNU,2015-05-27T13:55:00Z,41.67,-93.02,18.0,15.0,290,8,,10.0,30.008858,,,TRUE,TRUE,,,,,TRUE,,CLR,,,,,,,,VFR,,,,,,,,,,,,METAR,290.0
KTIF 271355Z AUTO 19008KT 10SM CLR 19/11 A3008 RMK AO2 T01880106,KTIF,2015-05-27T13:55:00Z,41.97,-100.57,18.8,10.6,190,8,,10.0,30.079725,,,TRUE,TRUE,,,,,,,CLR,,,,,,,,VFR,,,,,,,,,,,,METAR,892.0
KTGI 271355Z AUTO 18012G17KT 10SM SCT018 24/22 A3021 RMK AO1,KTGI,2015-05-27T13:55:00Z,37.82,-75.98,24.0,22.0,180,12,17,10.0,30.209646,,,TRUE,TRUE,,,,,,,SCT,1800,,,,,,,VFR,,,,,,,,,,,,METAR,2.0
KTDF 271355Z AUTO 22007KT 10SM CLR 25/18 A3027 RMK AO2,KTDF,2015-05-27T13:55:00Z,36.28,-78.98,25.0,18.0,220,7,,10.0,30.268702,,,TRUE,TRUE,,,,,,,CLR,,,,,,,,VFR,,,,,,,,,,,,METAR,186.0
KTBR 271355Z AUTO 13003KT 10SM BKN008 OVC014 24/24 A3027 RMK AO2 T02440244,KTBR,2015-05-27T13:55:00Z,32.48,-81.73,24.4,24.4,130,3,,10.0,30.268702,,,TRUE,TRUE,,,,,,,BKN,800,OVC,1400,,,,,IFR,,,,,,,,,,,,METAR,57.0
KT65 271355Z AUTO 14007KT 7SM BKN011 OVC019 27/24 A2999 RMK AO2 T02690237,KT65,2015-05-27T13:55:00Z,26.18,-97.97,26.9,23.7,140,7,,7.0,29.991142,,,TRUE,TRUE,,,,,,,BKN,1100,OVC,1900,,,,,MVFR,,,,,,,,,,,,METAR,21.0
KT20 271355Z AUTO 09008KT 10SM OVC008 23/22 A3006 RMK AO2 LTG DSNT NW T02320223,KT20,2015-05-27T13:55:00Z,29.52,-97.47,23.2,22.3,90,8,,10.0,30.059055,,,TRUE,TRUE,,,,,,,OVC,800,,,,,,,IFR,,,,,,,,,,,,METAR,108.0
KSVH 271355Z AUTO 22003KT 10SM OVC012 20/18 A3027 RMK AO2 T01980181,KSVH,2015-05-27T13:55:00Z,35.75,-80.95,19.8,18.1,220,3,,10.0,30.268702,,,TRUE,TRUE,,,,,,,OVC,1200,,,,,,,MVFR,,,,,,,,,,,,METAR,294.0
KSOA 271355Z AUTO 15008KT 10SM BKN014 24/21 A3011 RMK AO2,KSOA,2015-05-27T13:55:00Z,30.58,-100.65,24.0,21.0,150,8,,10.0,30.109253,,,TRUE,TRUE,,,,,,,BKN,1400,,,,,,,MVFR,,,,,,,,,,,,METAR,652.0
KSNK 271355Z AUTO 19009KT 5SM BR BKN005 BKN009 OVC015 21/21 A3008 RMK AO2 T02140205 TSNO,KSNK,2015-05-27T13:55:00Z,32.7,-100.95,21.4,20.5,190,9,,5.0,30.079725,,,TRUE,TRUE,,,TRUE,,,BR,BKN,500,BKN,900,OVC,1500,,,IFR,,,,,,,,,,,,METAR,741.0
KSLB 271355Z AUTO 26009KT 10SM CLR 17/14 A3002 RMK AO2,KSLB,2015-05-27T13:55:00Z,42.6,-95.22,17.0,14.0,260,9,,10.0,30.02067,,,TRUE,TRUE,,,,,,,CLR,,,,,,,,VFR,,,,,,,,,,,,METAR,454.0
KSJS 271355Z AUTO 26008KT 10SM OVC020 23/18 A3022 RMK AO2 T02260181,KSJS,2015-05-27T13:55:00Z,37.75,-82.63,22.6,18.1,260,8,,10.0,30.221457,,,TRUE,TRUE,,,,,,,OVC,2000,,,,,,,MVFR,,,,,,,,,,,,METAR,372.0
KSHL 271355Z AUTO 29006KT 10SM CLR 18/13 A2999 RMK AO2,KSHL,2015-05-27T13:55:00Z,43.22,-95.82,18.0,13.0,290,6,,10.0,29.991142,,,TRUE,TRUE,,,,,,,CLR,,,,,,,,VFR,,,,,,,,,,,,METAR,432.0
KSHD 271355Z AUTO 20007KT 10SM SCT021 24/19 A3022 RMK AO2 T02420189,KSHD,2015-05-27T13:55:00Z,38.27,-78.9,24.2,18.9,200,7,,10.0,30.221457,,,TRUE,TRUE,,,,,,,SCT,2100,,,,,,,VFR,,,,,,,,,,,,METAR,366.0
KSFY 271355Z AUTO 28008KT 10SM BKN017 OVC024 18/14 A2998 RMK AO2 T01810141,KSFY,2015-05-27T13:55:00Z,42.05,-90.12,18.1,14.1,280,8,,10.0,29.97933,,,TRUE,TRUE,,,,,,,BKN,1700,OVC,2400,,,,,MVFR,,,,,,,,,,,,METAR,188.0
KSDA 271355Z AUTO 00000KT 10SM CLR 19/14 A3006 RMK AO2,KSDA,2015-05-27T13:55:00Z,40.75,-95.42,19.0,14.0,0,0,,10.0,30.059055,,,TRUE,TRUE,,,,,,,CLR,,,,,,,,VFR,,,,,,,,,,,,METAR,296.0
KRUQ 271355Z AUTO 23003KT 10SM SCT018 22/19 A3028 RMK AO2 T02210187,KRUQ,2015-05-27T13:55:00Z,35.65,-80.52,22.1,18.7,230,3,,10.0,30.280512,,,TRUE,TRUE,,,,,,,SCT,1800,,,,,,,VFR,,,,,,,,,,,,METAR,236.0
KRRL 271355Z AUTO 27005KT 10SM DZ SCT055 SCT070 OVC080 13/13 A2990 RMK AO2 P0001 T01340134,KRRL,2015-05-27T13:55:00Z,45.2,-89.72,13.4,13.4,270,5,,10.0,29.899607,,,TRUE,TRUE,,,,,,DZ,SCT,5500,SCT,7000,OVC,8000,,,VFR,,,,,,0.01,,,,,,METAR,401.0
KRPD 271355Z AUTO 22004KT 10SM CLR 16/13 A2993 RMK AO2 T01580126,KRPD,2015-05-27T13:55:00Z,45.42,-91.77,15.8,12.6,220,4,,10.0,29.929134,,,TRUE,TRUE,,,,,,,CLR,,,,,,,,VFR,,,,,,,,,,,,METAR,338.0
KRMN 271355Z AUTO 19006KT 10SM SCT021 26/20 A3020 RMK AO2 T02630196,KRMN,2015-05-27T13:55:00Z,38.4,-77.45,26.3,19.6,190,6,,10.0,30.200787,,,TRUE,TRUE,,,,,,,SCT,2100,,,,,,,VFR,,,,,,,,,,,,METAR,65.0
KFXY 271355Z AUTO 25004KT 10SM CLR 17/13 A2999 RMK AO2,KFXY,2015-05-27T13:55:00Z,43.23,-93.62,17.0,13.0,250,4,,10.0,29.991142,,,TRUE,TRUE,,,,,,,CLR,,,,,,,,VFR,,,,,,,,,,,,METAR,375.0
KFKN 271355Z AUTO 23007KT 10SM BKN020 26/21 A3024 RMK AO2 T02590206,KFKN,2015-05-27T13:55:00Z,36.7,-76.9,25.9,20.6,230,7,,10.0,30.239174,,,TRUE,TRUE,,,,,,,BKN,2000,,,,,,,MVFR,,,,,,,,,,,,METAR,12.0
KENL 271355Z AUTO 26012KT 10SM RA SCT016 OVC022 17/16 A3011 RMK AO2 P0007 T01730158,KENL,2015-05-27T13:55:00Z,38.52,-89.1,17.3,15.8,260,12,,10.0,30.109253,,,TRUE,TRUE,,,,,,RA,SCT,1600,OVC,2200,,,,,MVFR,,,,,,0.07,,,,,,METAR,163.0
KEMV 271355Z AUTO 19004KT 10SM SCT080 23/20 A3026 RMK AO2,KEMV,2015-05-27T13:55:00Z,36.68,-77.48,23.0,20.0,190,4,,10.0,30.259842,,,TRUE,TRUE,,,,,,,SCT,8000,,,,,,,VFR,,,,,,,,,,,,METAR,39.0
KECU 271355Z AUTO 15006KT 3SM BR FEW006 FEW012 BKN022 A3009 RMK AO2,KECU,2015-05-27T13:55:00Z,29.95,-100.17,,,150,6,,3.0,30.088583,,,TRUE,TRUE,,,,,,BR,FEW,600,FEW,1200,BKN,2200,,,MVFR,,,,,,,,,,,,METAR,725.0
KDNN 271355Z AUTO 16003KT 10SM SCT009 OVC030 20/20 A3024 RMK AO2,KDNN,2015-05-27T13:55:00Z,34.72,-84.87,20.0,20.0,160,3,,10.0,30.239174,,,TRUE,TRUE,,,,,,,SCT,900,OVC,3000,,,,,MVFR,,,,,,,,,,,,METAR,216.0
KCVB 271355Z AUTO 15006KT 4SM BR OVC010 26/24 A3005 RMK AO2 T02580240,KCVB,2015-05-27T13:55:00Z,29.35,-98.85,25.8,24.0,150,6,,4.0,30.050198,,,TRUE,TRUE,,,,,,BR,OVC,1000,,,,,,,MVFR,,,,,,,,,,,,METAR,235.0
KCKF 271355Z AUTO 00000KT 10SM SCT008 BKN055 25/22 A3026 RMK AO2 T02520223,KCKF,2015-05-27T13:55:00Z,31.98,-83.77,25.2,22.3,0,0,,10.0,30.259842,,,TRUE,TRUE,,,,,,,SCT,800,BKN,5500,,,,,VFR,,,,,,,,,,,,METAR,91.0
KCJR 271355Z AUTO 18007KT 10SM BKN019 BKN024 26/20 A3017 RMK AO2 T02550204 PWINO,KCJR,2015-05-27T13:55:00Z,38.53,-77.87,25.5,20.4,180,7,,10.0,30.171259,,,TRUE,TRUE,,,,,TRUE,,BKN,1900,BKN,2400,,,,,MVFR,,,,,,,,,,,,METAR,97.0
KCEY 271355Z AUTO 21006KT 10SM FEW015 24/21 A3014 RMK AO1,KCEY,2015-05-27T13:55:00Z,36.67,-88.37,24.0,21.0,210,6,,10.0,30.138779,,,TRUE,TRUE,,,,,,,FEW,1500,,,,,,,VFR,,,,,,,,,,,,METAR,176.0
KCBK 271355Z AUTO 14011KT 10SM OVC110 16/12 A3010 RMK AO2,KCBK,2015-05-27T13:55:00Z,39.43,-101.05,16.0,12.0,140,11,,10.0,30.100393,,,TRUE,TRUE,,,,,,,OVC,11000,,,,,,,VFR,,,,,,,,,,,,METAR,971.0
KBCT 271355Z 09015KT 10SM SCT025 28/20 A3014,KBCT,2015-05-27T13:55:00Z,26.38,-80.1,28.0,20.0,90,15,,10.0,30.138779,,,,,,,,,,,SCT,2500,,,,,,,VFR,,,,,,,,,,,,METAR,4.0
KARV 271355Z AUTO 26003KT 10SM BKN004 BKN048 BKN060 14/13 A2987 RMK AO2 T01380130,KARV,2015-05-27T13:55:00Z,45.92,-89.72,13.8,13.0,260,3,,10.0,29.870079,,,TRUE,TRUE,,,,,,,BKN,400,BKN,4800,BKN,6000,,,LIFR,,,,,,,,,,,,METAR,496.0
K9D7 271355Z AUTO 03009KT 10SM CLR 13/07 A2998 RMK AO2,K9D7,2015-05-27T13:55:00Z,48.48,-99.23,13.0,7.0,30,9,,10.0,29.97933,,,TRUE,TRUE,,,,,,,CLR,,,,,,,,VFR,,,,,,,,,,,,METAR,452.0
K7L2 271355Z AUTO 00000KT 10SM CLR 18/14 A2997 RMK AO2,K7L2,2015-05-27T13:55:00Z,46.22,-100.25,18.0,14.0,0,0,,10.0,29.970472,,,TRUE,TRUE,,,,,,,CLR,,,,,,,,VFR,,,,,,,,,,,,METAR,543.0
K5H4 271355Z AUTO 07005KT 10SM CLR 16/11 A2997 RMK AO2,K5H4,2015-05-27T13:55:00Z,47.78,-99.93,16.0,11.0,70,5,,10.0,29.970472,,,TRUE,TRUE,,,,,,,CLR,,,,,,,,VFR,,,,,,,,,,,,METAR,490.0
K4M9 271355Z AUTO 01007KT 10SM BKN013 20/20 A3015 RMK AO2,K4M9,2015-05-27T13:55:00Z,36.4,-90.65,20.0,20.0,10,7,,10.0,30.15059,,,TRUE,TRUE,,,,,,,BKN,1300,,,,,,,MVFR,,,,,,,,,,,,METAR,90.0
K3N8 271355Z AUTO 36007KT 10SM BKN110 17/12 A2991 RMK AO2 T01650115,K3N8,2015-05-27T13:55:00Z,47.25,-95.88,16.5,11.5,360,7,,10.0,29.911417,,,TRUE,TRUE,,,,,,,BKN,11000,,,,,,,VFR,,,,,,,,,,,,METAR,383.0
K0F2 271355Z AUTO 12003KT 10SM CLR 20/17 A3009 RMK AO2 T02010165,K0F2,2015-05-27T13:55:00Z,33.6,-97.78,20.1,16.5,120,3,,10.0,30.088583,,,TRUE,TRUE,,,,,,,CLR,,,,,,,,VFR,,,,,,,,,,,,METAR,336.0
KTAZ 271355Z AUTO 21013G19KT 10SM SCT029 BKN110 20/17 A3005 RMK AO2,KTAZ,2015-05-27T13:55:00Z,39.53,-89.33,20.0,17.0,210,13,19,10.0,30.050198,,,TRUE,TRUE,,,,,,,SCT,2900,BKN,11000,,,,,VFR,,,,,,,,,,,,METAR,190.0
KT82 271355Z AUTO 15006KT 7SM SCT014 BKN042 BKN050 24/22 A3007 RMK AO2 T02430215,KT82,2015-05-27T13:55:00Z,30.25,-98.92,24.3,21.5,150,6,,7.0,30.070866,,,TRUE,TRUE,,,,,,,SCT,1400,BKN,4200,BKN,5000,,,VFR,,,,,,,,,,,,METAR,517.0
KT35 271355Z AUTO 16005KT 10SM SCT002 21/19 A3009 RMK AO2 T02120191,KT35,2015-05-27T13:55:00Z,30.88,-96.97,21.2,19.1,160,5,,10.0,30.088583,,,TRUE,TRUE,,,,,,,SCT,200,,,,,,,VFR,,,,,,,,,,,,METAR,123.0
KSYF 271355Z AUTO 16008KT 10SM CLR 14/10 A3007 RMK AO2 T01410104,KSYF,2015-05-27T13:55:00Z,39.77,-101.8,14.1,10.4,160,8,,10.0,30.070866,,,TRUE,TRUE,,,,,,,CLR,,,,,,,,VFR,,,,,,,,,,,,METAR,1025.0
KSUW 271355Z AUTO 23009KT 10SM CLR 16/13 A2984 RMK AO2 T01620126,KSUW,2015-05-27T13:55:00Z,46.68,-92.1,16.2,12.6,230,9,,10.0,29.840551,,,TRUE,TRUE,,,,,,,CLR,,,,,,,,VFR,,,,,,,,,,,,METAR,206.0
KSTE 271355Z AUTO 28007KT 10SM -RA SCT026 BKN035 OVC080 13/12 A2991 RMK AO2 P0001 T01340124,KSTE,2015-05-27T13:55:00Z,44.55,-89.53,13.4,12.4,280,7,,10.0,29.911417,,,TRUE,TRUE,,,,,,-RA,SCT,2600,BKN,3500,OVC,8000,,,VFR,,,,,,0.01,,,,,,METAR,338.0
KSME 271355Z AUTO 20005KT 10SM OVC014 20/19 A3024 RMK AO2,KSME,2015-05-27T13:55:00Z,37.05,-84.62,20.0,19.0,200,5,,10.0,30.239174,,,TRUE,TRUE,,,,,,,OVC,1400,,,,,,,MVFR,,,,,,,,,,,,METAR,283.0
KSFQ 271355Z AUTO 19008KT 10SM BKN019 26/20 A3026 RMK AO2 T02620204,KSFQ,2015-05-27T13:55:00Z,36.68,-76.6,26.2,20.4,190,8,,10.0,30.259842,,,TRUE,TRUE,,,,,,,BKN,1900,,,,,,,MVFR,,,,,,,,,,,,METAR,22.0
KSEE 271355Z AUTO 29005KT 6SM BR BKN010 OVC021 14/14 A2999 RMK AO2,KSEE,2015-05-27T13:55:00Z,32.82,-116.97,14.0,14.0,290,5,,6.0,29.991142,,,TRUE,TRUE,,,,,,BR,BKN,1000,OVC,2100,,,,,MVFR,,,,,,,,,,,,METAR,117.0
KSCR 271355Z AUTO 19007KT 10SM SCT018 24/19 A3027 RMK AO2 T02390193,KSCR,2015-05-27T13:55:00Z,35.7,-79.5,23.9,19.3,190,7,,10.0,30.268702,,,TRUE,TRUE,,,,,,,SCT,1800,,,,,,,VFR,,,,,,,,,,,,METAR,188.0
KS25 271355Z AUTO 07003KT 10SM CLR 17/09 A2992 RMK AO2,KS25,2015-05-27T13:55:00Z,47.8,-103.25,17.0,9.0,70,3,,10.0,29.920275,,,TRUE,TRUE,,,,,,,CLR,,,,,,,,VFR,,,,,,,,,,,,METAR,644.0
KRPH 271355Z AUTO 18003KT 10SM CLR 22/18 A3004 RMK AO2 T02170184,KRPH,2015-05-27T13:55:00Z,33.12,-98.55,21.7,18.4,180,3,,10.0,30.041338,,,TRUE,TRUE,,,,,,,CLR,,,,,,,,VFR,,,,,,,,,,,,METAR,342.0
KRNH 271355Z AUTO 23006KT 10SM CLR 17/14 A2993 RMK AO2 T01670143,KRNH,2015-05-27T13:55:00Z,45.15,-92.53,16.7,14.3,230,6,,10.0,29.929134,,,TRUE,TRUE,,,,,,,CLR,,,,,,,,VFR,,,,,,,,,,,,METAR,304.0
KRCM 271355Z AUTO 00000KT 10SM CLR 21/14 A3008 RMK AO2,KRCM,2015-05-27T13:55:00Z,38.78,-93.8,21.0,14.0,0,0,,10.0,30.079725,,,TRUE,TRUE,,,,,,,CLR,,,,,,,,VFR,,,,,,,,,,,,METAR,244.0
KPYX 271355Z AUTO 00000KT 10SM CLR 21/16 A3007 RMK AO2 T02050156,KPYX,2015-05-27T13:55:00Z,36.42,-100.75,20.5,15.6,0,0,,10.0,30.070866,,,TRUE,TRUE,,,,,,,CLR,,,,,,,,VFR,,,,,,,,,,,,METAR,889.0
KPVF 271355Z AUTO 11004KT 10SM CLR 17/06 A3000 RMK AO1,KPVF,2015-05-27T13:55:00Z,38.72,-120.75,17.0,6.0,110,4,,10.0,30.0,,,TRUE,TRUE,,,,,,,CLR,,,,,,,,VFR,,,,,,,,,,,,METAR,789.0
KPVB 271355Z AUTO 28010KT 10SM OVC009 16/15 A2997 RMK AO1 T01590148,KPVB,2015-05-27T13:55:00Z,42.68,-90.43,15.9,14.8,280,10,,10.0,29.970472,,,TRUE,TRUE,,,,,,,OVC,900,,,,,,,IFR,,,,,,,,,,,,METAR,313.0
KPTB 271355Z AUTO 21005KT 10SM SCT024 27/23 A3023 RMK AO2 T02730229,KPTB,2015-05-27T13:55:00Z,37.17,-77.52,27.3,22.9,210,5,,10.0,30.230314,,,TRUE,TRUE,,,,,,,SCT,2400,,,,,,,VFR,,,,,,,,,,,,METAR,59.0
KPSK 271355Z AUTO 24006KT 10SM SCT025 BKN031 23/17 A3028 RMK AO2 T02340174,KPSK,2015-05-27T13:55:00Z,37.12,-80.67,23.4,17.4,240,6,,10.0,30.280512,,,TRUE,TRUE,,,,,,,SCT,2500,BKN,3100,,,,,VFR,,,,,,,,,,,,METAR,642.0
KPRS 271355Z AUTO 05010KT 10SM CLR 26/15 A3002 RMK AO2 T02620147,KPRS,2015-05-27T13:55:00Z,29.63,-104.35,26.2,14.7,50,10,,10.0,30.02067,,,TRUE,TRUE,,,,,,,CLR,,,,,,,,VFR,,,,,,,,,,,,METAR,896.0
KPPA 271355Z AUTO 23004KT 10SM CLR 20/15 A3009 RMK AO2 T02010146,KPPA,2015-05-27T13:55:00Z,35.62,-101.0,20.1,14.6,230,4,,10.0,30.088583,,,TRUE,TRUE,,,,,,,CLR,,,,,,,,VFR,,,,,,,,,,,,METAR,989.0
KPNT 271355Z AUTO 25015KT 10SM SCT038 BKN110 22/18 A3000 RMK AO2 T02170175,KPNT,2015-05-27T13:55:00Z,40.92,-88.62,21.7,17.5,250,15,,10.0,30.0,,,TRUE,TRUE,,,,,,,SCT,3800,BKN,11000,,,,,VFR,,,,,,,,,,,,METAR,201.0
KPNA 271355Z AUTO 30003KT 10SM CLR 06/05 A3016 RMK AO2,KPNA,2015-05-27T13:55:00Z,42.8,-109.8,6.0,5.0,300,3,,10.0,30.159449,,,TRUE,TRUE,,,,,,,CLR,,,,,,,,VFR,,,,,,,,,,,,METAR,2160.0
KPGV 271355Z AUTO 22007KT 10SM BKN021 BKN025 BKN032 26/22 A3027 RMK AO2,KPGV,2015-05-27T13:55:00Z,35.62,-77.4,26.0,22.0,220,7,,10.0,30.268702,,,TRUE,TRUE,,,,,,,BKN,2100,BKN,2500,BKN,3200,,,MVFR,,,,,,,,,,,,METAR,8.0
KPEZ 271355Z AUTO 13010G16KT 7SM SCT013 SCT020 26/23 A3003 RMK AO2 T02610229,KPEZ,2015-05-27T13:55:00Z,28.95,-98.52,26.1,22.9,130,10,16,7.0,30.029528,,,TRUE,TRUE,,,,,,,SCT,1300,SCT,2000,,,,,VFR,,,,,,,,,,,,METAR,132.0
KPEA 271355Z AUTO 28006KT 10SM CLR 19/16 A3003 RMK AO2 T01850162,KPEA,2015-05-27T13:55:00Z,41.4,-92.95,18.5,16.2,280,6,,10.0,30.029528,,,TRUE,TRUE,,,,,,,CLR,,,,,,,,VFR,,,,,,,,,,,,METAR,270.0
KOOA 271355Z AUTO 29009KT 10SM SCT015 18/14 A3002 RMK AO2 T01790143,KOOA,2015-05-27T13:55:00Z,41.23,-92.5,17.9,14.3,290,9,,10.0,30.02067,,,TRUE,TRUE,,,,,,,SCT,1500,,,,,,,VFR,,,,,,,,,,,,METAR,256.0
KOLY 271355Z AUTO 22006KT 10SM CLR 21/18 A3010 RMK AO2,KOLY,2015-05-27T13:55:00Z,38.72,-88.18,21.0,18.0,220,6,,10.0,30.100393,,,TRUE,TRUE,,,,,,,CLR,,,,,,,,VFR,,,,,,,,,,,,METAR,147.0
KNY0 271355Z AUTO 00000KT 10SM SCT090 BKN110 23/19 A3010 RMK AO2 T02330186,KNY0,2015-05-27T13:55:00Z,42.98,-74.33,23.3,18.6,0,0,,10.0,30.100393,,,TRUE,TRUE,,,,,,,SCT,9000,BKN,11000,,,,,VFR,,,,,,,,,,,,METAR,271.0
KMYZ 271355Z AUTO 00000KT 10SM CLR 18/12 A3009 RMK AO2,KMYZ,2015-05-27T13:55:00Z,39.25,-96.63,18.0,12.0,0,0,,10.0,30.088583,,,TRUE,TRUE,,,,,,,CLR,,,,,,,,VFR,,,,,,,,,,,,METAR,319.0
KMWK 271355Z AUTO 22003KT OVC008 20/18 A3029 RMK AO2 T02000180 PWINO,KMWK,2015-05-27T13:55:00Z,36.47,-80.55,20.0,18.0,220,3,,,30.28937,,,TRUE,TRUE,,,,,TRUE,,OVC,800,,,,,,,,,,,,,,,,,,,METAR,380.0
KMPZ 271355Z AUTO 28007KT 10SM OVC011 18/15 A3002 RMK AO2 T01760151,KMPZ,2015-05-27T13:55:00Z,40.95,-91.52,17.6,15.1,280,7,,10.0,30.02067,,,TRUE,TRUE,,,,,,,OVC,1100,,,,,,,MVFR,,,,,,,,,,,,METAR,224.0
KMOR 271355Z AUTO VRB05KT 10SM FEW019 22/17 A3027 RMK,KMOR,2015-05-27T13:55:00Z,36.18,-83.37,22.0,17.0,0,5,,10.0,30.268702,,,TRUE,,,,,,,,FEW,1900,,,,,,,VFR,,,,,,,,,,,,METAR,400.0
KMNE 271355Z AUTO 30008KT 10SM CLR 20/18 A3010 RMK AO2 LTG DSNT NE P0001 T01990184,KMNE,2015-05-27T13:55:00Z,32.65,-93.3,19.9,18.4,300,8,,10.0,30.100393,,,TRUE,TRUE,,,,,,,CLR,,,,,,,,VFR,,,,,,0.01,,,,,,METAR,85.0
KMLJ 271355Z AUTO 00000KT 10SM OVC008 22/21 A3027 RMK AO2,KMLJ,2015-05-27T13:55:00Z,33.15,-83.23,22.0,21.0,0,0,,10.0,30.268702,,,TRUE,TRUE,,,,,,,OVC,800,,,,,,,IFR,,,,,,,,,,,,METAR,117.0
KMDZ 271355Z AUTO 25005KT 7SM RA BKN004 BKN014 OVC065 13/12 A2993 RMK AO2 P0005 T01250121,KMDZ,2015-05-27T13:55:00Z,45.1,-90.3,12.5,12.1,250,5,,7.0,29.929134,,,TRUE,TRUE,,,,,,RA,BKN,400,BKN,1400,OVC,6500,,,LIFR,,,,,,0.05,,,,,,METAR,448.0
KLWB 271355Z AUTO 25006KT 10SM SCT016 SCT024 SCT028 22/17 A3026 RMK AO2 T02160174,KLWB,2015-05-27T13:55:00Z,37.87,-80.4,21.6,17.4,250,6,,10.0,30.259842,,,TRUE,TRUE,,,,,,,SCT,1600,SCT,2400,SCT,2800,,,VFR,,,,,,,,,,,,METAR,702.0
KLOT 271355Z AUTO 25017KT 10SM BKN018 OVC025 20/16 A2997 RMK AO2 T02020158,KLOT,2015-05-27T13:55:00Z,41.6,-88.1,20.2,15.8,250,17,,10.0,29.970472,,,TRUE,TRUE,,,,,,,BKN,1800,OVC,2500,,,,,MVFR,,,,,,,,,,,,METAR,205.0
KLNL 271355Z AUTO 00000KT 10SM BKN050 BKN090 14/13 A2986 RMK AO2 T01350128,KLNL,2015-05-27T13:55:00Z,46.15,-89.22,13.5,12.8,0,0,,10.0,29.861221,,,TRUE,TRUE,,,,,,,BKN,5000,BKN,9000,,,,,VFR,,,,,,,,,,,,METAR,520.0
KJOT 271355Z AUTO 25013G18KT 10SM SCT022 SCT027 22/16 A2997 RMK AO2 T02160164,KJOT,2015-05-27T13:55:00Z,41.52,-88.18,21.6,16.4,250,13,18,10.0,29.970472,,,TRUE,TRUE,,,,,,,SCT,2200,SCT,2700,,,,,VFR,,,,,,,,,,,,METAR,177.0
KIYA 271355Z AUTO 29030G40KT 5SM VCTSRA SCT010 BKN017 BKN034 20/18 A3018 RMK AO2 LTG DSNT ALQS P0001 T01990183,KIYA,2015-05-27T13:55:00Z,29.98,-92.08,19.9,18.3,290,30,40,5.0,30.180119,,,TRUE,TRUE,,,,,,VCTSRA,SCT,1000,BKN,1700,BKN,3400,,,MVFR,,,,,,0.01,,,,,,METAR,5.0
KHII 271355Z AUTO 33004KT 10SM CLR 24/04 A2987 RMK AO2,KHII,2015-05-27T13:55:00Z,34.57,-114.37,24.0,4.0,330,4,,10.0,29.870079,,,TRUE,TRUE,,,,,,,CLR,,,,,,,,VFR,,,,,,,,,,,,METAR,238.0
KHFJ 271355Z AUTO 02003KT 10SM SCT041 SCT048 20/17 A3010 RMK AO2,KHFJ,2015-05-27T13:55:00Z,36.9,-94.02,20.0,17.0,20,3,,10.0,30.100393,,,TRUE,TRUE,,,,,,,SCT,4100,SCT,4800,,,,,VFR,,,,,,,,,,,,METAR,401.0
KHBV 271355Z AUTO 14008G17KT 5SM HZ 26/23 A3001 RMK AO2 T02550227,KHBV,2015-05-27T13:55:00Z,27.35,-98.73,25.5,22.7,140,8,17,5.0,30.008858,,,TRUE,TRUE,,,,,,HZ,,,,,,,,,,,,,,,,,,,,,METAR,202.0
KGVT 271355Z AUTO 00000KT 10SM CLR 22/16 A3011 RMK AO2,KGVT,2015-05-27T13:55:00Z,33.07,-96.07,22.0,16.0,0,0,,10.0,30.109253,,,TRUE,TRUE,,,,,,,CLR,,,,,,,,VFR,,,,,,,,,,,,METAR,163.0
KGVE 271355Z AUTO 19012G18KT 10SM CLR 25/19 A3017 RMK AO1 T02510192,KGVE,2015-05-27T13:55:00Z,38.15,-78.17,25.1,19.2,190,12,18,10.0,30.171259,,,TRUE,TRUE,,,,,,,CLR,,,,,,,,VFR,,,,,,,,,,,,METAR,138.0
KGOP 271355Z AUTO 11005KT 10SM FEW007 21/19 A3010 RMK AO2,KGOP,2015-05-27T13:55:00Z,31.42,-97.8,21.0,19.0,110,5,,10.0,30.100393,,,TRUE,TRUE,,,,,,,FEW,700,,,,,,,VFR,,,,,,,,,,,,METAR,276.0
KGLY 271355Z AUTO 00000KT 10SM CLR 22/16 A3010 RMK AO2,KGLY,2015-05-27T13:55:00Z,38.35,-93.68,22.0,16.0,0,0,,10.0,30.100393,,,TRUE,TRUE,,,,,,,CLR,,,,,,,,VFR,,,,,,,,,,,,METAR,251.0
KTVK 271355Z AUTO 28006KT 10SM CLR 18/18 A3006 RMK AO2,KTVK,2015-05-27T13:55:00Z,40.68,-92.9,18.0,18.0,280,6,,10.0,30.059055,,,TRUE,TRUE,,,,,,,CLR,,,,,,,,VFR,,,,,,,,,,,,METAR,314.0
KTIP 271355Z AUTO 22014G17KT 10SM BKN095 BKN110 21/18 A3002 RMK AO2 T02130184,KTIP,2015-05-27T13:55:00Z,40.28,-88.15,21.3,18.4,220,14,17,10.0,30.02067,,,TRUE,TRUE,,,,,,,BKN,9500,BKN,11000,,,,,VFR,,,,,,,,,,,,METAR,225.0
KTFP 271355Z AUTO 14012G18KT 7SM SCT017 29/24 A3002 RMK AO2 T02940244,KTFP,2015-05-27T13:55:00Z,27.92,-97.22,29.4,24.4,140,12,18,7.0,30.02067,,,TRUE,TRUE,,,,,,,SCT,1700,,,,,,,VFR,,,,,,,,,,,,METAR,6.0
LIQC 271355Z ///04KT CAVOK 25/14 Q1011 RMK SCT FEW070 SCT160 QUK 2 QUL 0 VIS MAR 40 KM VIS MIN 9999,LIQC,2015-05-27T13:55:00Z,40.55,14.2,25.0,14.0,,,,6.21,29.852362,,,,,,,,,,,CAVOK,,,,,,,,VFR,,,,,,,,,,,,METAR,269.0
LIEB 271355Z 30003KT 9999 FEW015 SCT025 19/17 Q1013 RMK OVC BKN070 QUK 2 QUL 0 VIS MAR 20 KM MON W CIME INC NC VIS MIN 9999,LIEB,2015-05-27T13:55:00Z,39.93,9.72,19.0,17.0,300,3,,6.21,29.911417,,,,,,,,,,,FEW,1500,SCT,2500,,,,,VFR,,,,,,,,,,,,METAR,156.0
EBLB 271355Z 29006KT 9999 BKN047 14/02 Q1023 BLU,EBLB,2015-05-27T13:55:00Z,50.47,6.17,14.0,2.0,290,6,,6.21,30.206694,,,,,,,,,,,BKN,4700,,,,,,,VFR,,,,,,,,,,,,METAR,570.0
EBFS 271355Z 25006KT 9999 SCT050 18/04 Q1023 BLU BLU,EBFS,2015-05-27T13:55:00Z,50.22,4.65,18.0,4.0,250,6,,6.21,30.206694,,,,,,,,,,,SCT,5000,,,,,,,VFR,,,,,,,,,,,,METAR,299.0
EBFN 271355Z 31008KT 9999 FEW025 SCT220 16/08 Q1022 BLU BLU,EBFN,2015-05-27T13:55:00Z,51.07,2.63,16.0,8.0,310,8,,6.21,30.177166,,,,,,,,,,,FEW,2500,SCT,22000,,,,,VFR,,,,,,,,,,,,METAR,9.0
EBDT 271355Z 21004KT 9999 SCT058 19/05 Q1022 BLU BLU,EBDT,2015-05-27T13:55:00Z,51.02,5.07,19.0,5.0,210,4,,6.21,30.177166,,,,,,,,,,,SCT,5800,,,,,,,VFR,,,,,,,,,,,,METAR,54.0
EBCV 271355Z AUTO 26010KT 9999 FEW050/// SCT220/// 20/06 Q1022 BLU,EBCV,2015-05-27T13:55:00Z,50.57,3.82,20.0,6.0,260,10,,6.21,30.177166,,,TRUE,,,,,,,,,,,,,,,,,,,,,,,,,,,,METAR,63.0
EBBL 271355Z 22008KT 9999 SCT055 BKN070 19/04 Q1022 BLU BLU,EBBL,2015-05-27T13:55:00Z,51.17,5.47,19.0,4.0,220,8,,6.21,30.177166,,,,,,,,,,,SCT,5500,BKN,7000,,,,,VFR,,,,,,,,,,,,METAR,64.0
EBBE 271355Z 25008KT 9999 SCT050 19/05 Q1022 BLU BLU,EBBE,2015-05-27T13:55:00Z,50.75,4.77,19.0,5.0,250,8,,6.21,30.177166,,,,,,,,,,,SCT,5000,,,,,,,VFR,,,,,,,,,,,,METAR,127.0
KY49 271355Z AUTO 28003KT 10SM BKN120 17/12 A2989 RMK AO2 T01670122,KY49,2015-05-27T13:55:00Z,47.13,-94.65,16.7,12.2,280,3,,10.0,29.890747,,,TRUE,TRUE,,,,,,,BKN,12000,,,,,,,VFR,,,,,,,,,,,,METAR,416.0
KY23 271355Z AUTO 23005KT 10SM CLR 15/13 A2992 RMK AO2 T01510133,KY23,2015-05-27T13:55:00Z,45.3,-91.63,15.1,13.3,230,5,,10.0,29.920275,,,TRUE,TRUE,,,,,,,CLR,,,,,,,,VFR,,,,,,,,,,,,METAR,322.0
KWWR 271355Z AUTO 07008KT 10SM CLR 20/15 A3010 RMK AO2,KWWR,2015-05-27T13:55:00Z,36.45,-99.52,20.0,15.0,70,8,,10.0,30.100393,,,TRUE,TRUE,,,,,,,CLR,,,,,,,,VFR,,,,,,,,,,,,METAR,667.0
KW99 271355Z AUTO 30003KT 10SM SCT048 BKN100 BKN110 22/18 A3019 RMK AO2 T02220179,KW99,2015-05-27T13:55:00Z,39.0,-79.15,22.2,17.9,300,3,,10.0,30.188976,,,TRUE,TRUE,,,,,,,SCT,4800,BKN,10000,BKN,11000,,,VFR,,,,,,,,,,,,METAR,293.0
KW81 271355Z AUTO 21010G17KT 190V270 10SM CLR 26/19 A3022 RMK AO1 T02640187,KW81,2015-05-27T13:55:00Z,37.18,-78.1,26.4,18.7,210,10,17,10.0,30.221457,,,TRUE,TRUE,,,,,,,CLR,,,,,,,,VFR,,,,,,,,,,,,METAR,129.0
KW78 271355Z AUTO 20009KT 10SM SCT026 26/18 A3023 RMK AO1 T02570181,KW78,2015-05-27T13:55:00Z,36.68,-78.85,25.7,18.1,200,9,,10.0,30.230314,,,TRUE,TRUE,,,,,,,SCT,2600,,,,,,,VFR,,,,,,,,,,,,METAR,129.0
KVYS 271355Z AUTO 25011KT 10SM BKN020 20/15 A2999 RMK AO2 T02010153,KVYS,2015-05-27T13:55:00Z,41.35,-89.15,20.1,15.3,250,11,,10.0,29.991142,,,TRUE,TRUE,,,,,,,BKN,2000,,,,,,,MVFR,,,,,,,,,,,,METAR,199.0
KVES 271355Z AUTO 22009KT 180V240 10SM SCT017 21/18 A3008 RMK AO2,KVES,2015-05-27T13:55:00Z,40.2,-84.53,21.0,18.0,220,9,,10.0,30.079725,,,TRUE,TRUE,,,,,,,SCT,1700,,,,,,,VFR,,,,,,,,,,,,METAR,307.0
KUNI 271355Z AUTO 22007G15KT 10SM SCT015 BKN045 23/18 A3016 RMK AO2 T02250179,KUNI,2015-05-27T13:55:00Z,39.22,-82.23,22.5,17.9,220,7,15,10.0,30.159449,,,TRUE,TRUE,,,,,,,SCT,1500,BKN,4500,,,,,VFR,,,,,,,,,,,,METAR,193.0
KUKF 271355Z AUTO 00000KT 10SM OVC008 19/17 A3032 RMK AO2,KUKF,2015-05-27T13:55:00Z,36.22,-81.1,19.0,17.0,0,0,,10.0,30.318897,,,TRUE,TRUE,,,,,,,OVC,800,,,,,,,IFR,,,,,,,,,,,,METAR,396.0
KUBE 271355Z AUTO 24008KT 10SM CLR 16/12 A2991 RMK AO2,KUBE,2015-05-27T13:55:00Z,45.5,-91.98,16.0,12.0,240,8,,10.0,29.911417,,,TRUE,TRUE,,,,,,,CLR,,,,,,,,VFR,,,,,,,,,,,,METAR,379.0
LIRX 271355Z 36005KT 9999 FEW005CB SCT010 20/13 Q1013 RMK BKN VIS MIN 9999 VIS MAR 15 KM,LIRX,2015-05-27T13:55:00Z,42.73,10.38,20.0,13.0,360,5,,6.21,29.911417,,,,,,,,,,,FEW,500,SCT,1000,,,,,VFR,,,,,,,,,,,,METAR,297.0
KAQO 271355Z AUTO 11006KT 10SM BKN008 OVC015 22/21 A3010 RMK AO2,KAQO,2015-05-27T13:55:00Z,30.78,-98.67,22.0,21.0,110,6,,10.0,30.100393,,,TRUE,TRUE,,,,,,,BKN,800,OVC,1500,,,,,IFR,,,,,,,,,,,,METAR,336.0
KASJ 271355Z AUTO 00000KT 10SM BKN017 BKN110 25/21 A3026 RMK AO2 T02470207,KASJ,2015-05-27T13:55:00Z,36.28,-77.17,24.7,20.7,0,0,,10.0,30.259842,,,TRUE,TRUE,,,,,,,BKN,1700,BKN,11000,,,,,MVFR,,,,,,,,,,,,METAR,21.0
KD50 271355Z AUTO 15006KT 10SM CLR 17/10 A2995 RMK AO2,KD50,2015-05-27T13:55:00Z,48.93,-103.3,17.0,10.0,150,6,,10.0,29.949802,,,TRUE,TRUE,,,,,,,CLR,,,,,,,,VFR,,,,,,,,,,,,METAR,595.0
KHRX 271355Z AUTO 10SM CLR 19/16 A3012 RMK AO2 T01940155,KHRX,2015-05-27T13:55:00Z,34.87,-102.33,19.4,15.5,,,,10.0,30.121063,,,TRUE,TRUE,,,,,,,CLR,,,,,,,,VFR,,,,,,,,,,,,METAR,1154.0
KRCE 271355Z AUTO 18007KT 10SM CLR 20/20 A3009 RMK AO2,KRCE,2015-05-27T13:55:00Z,35.48,-97.82,20.0,20.0,180,7,,10.0,30.088583,,,TRUE,TRUE,,,,,,,CLR,,,,,,,,VFR,,,,,,,,,,,,METAR,413.0
KSRR 271355Z AUTO 00000KT 10SM CLR 15/00 A3027 RMK AO2,KSRR,2015-05-27T13:55:00Z,33.47,-105.52,15.0,0.0,0,0,,10.0,30.268702,,,TRUE,TRUE,,,,,,,CLR,,,,,,,,VFR,,,,,,,,,,,,METAR,2076.0
KVVG 271355Z AUTO 08007KT 10SM 28/21 A3012 RMK A01,KVVG,2015-05-27T13:55:00Z,28.95,-81.97,28.0,21.0,80,7,,10.0,30.121063,,,TRUE,TRUE,,,,,,,,,,,,,,,,,,,,,,,,,,,METAR,27.0
EHJR 271355Z AUTO 25008G11KT //// ///////// 10/07 Q1021 W11/H10,EHJR,2015-05-27T13:55:00Z,53.22,3.22,10.0,7.0,250,8,11,,30.147638,,,TRUE,,,,,,,,,,,,,,,,,,,,,,,,,,,,METAR,50.0
KQWM 271355Z 31012G22KT 9999 CLR 42/M03 A2974 RMK SLP059 QNH1007,KQWM,2015-05-27T13:55:00Z,100.65,-1000.65,42.0,-3.0,310,12,22,6.21,29.740158,1005.9,,,,,,,,,,CLR,,,,,,,,VFR,,,,,,,,,,,,METAR,999.0
KQL5 271355Z 19003KT 9999 SCT200 33/06 A2970 RMK SLP020 T03250055,KQL5,2015-05-27T13:55:00Z,100.65,-1000.65,32.5,5.5,190,3,,6.21,29.698818,1002.0,,,,,,,,,,SCT,20000,,,,,,,VFR,,,,,,,,,,,,METAR,999.0
KQHN 271355Z 34009KT 9999 FEW100 OVC150 34/M02 A2977 RMK SLP975 Q1008 DA6426,KQHN,2015-05-27T13:55:00Z,100.65,-1000.65,34.0,-2.0,340,9,,6.21,29.769686,997.5,,,,,,,,,,FEW,10000,OVC,15000,,,,,VFR,,,,,,,,,,,,METAR,999.0
KSPF 271355Z AUTO 00000KT 10SM SCT070 16/09 A3001 RMK AO2,KSPF,2015-05-27T13:55:00Z,44.47,-103.77,16.0,9.0,0,0,,10.0,30.008858,,,TRUE,TRUE,,,,,,,SCT,7000,,,,,,,VFR,,,,,,,,,,,,METAR,1188.0
KCKM 271355Z AUTO 00000KT 22/20 A3014 RMK AO1,KCKM,2015-05-27T13:55:00Z,34.3,-90.52,22.0,20.0,0,0,,,30.138779,,,TRUE,TRUE,,,,,,,,,,,,,,,,,,,,,,,,,,,METAR,53.0
KBWD 271355Z AUTO 16005KT 10SM CLR 22/20 A3007 RMK AO2,KBWD,2015-05-27T13:55:00Z,31.8,-98.95,22.0,20.0,160,5,,10.0,30.070866,,,TRUE,TRUE,,,,,,,CLR,,,,,,,,VFR,,,,,,,,,,,,METAR,423.0
K20U 271355Z AUTO 17006KT 10SM CLR 15/13 A2995 RMK AO2,K20U,2015-05-27T13:55:00Z,46.93,-103.98,15.0,13.0,170,6,,10.0,29.949802,,,TRUE,TRUE,,,,,,,CLR,,,,,,,,VFR,,,,,,,,,,,,METAR,840.0
LIPF 271355Z 18006KT 9999 FEW070 19/14 Q1015 RMK FEW VIS MIN 9999,LIPF,2015-05-27T13:55:00Z,44.82,11.62,19.0,14.0,180,6,,6.21,29.970472,,,,,,,,,,,FEW,7000,,,,,,,VFR,,,,,,,,,,,,METAR,10.0
LIPC 271355Z 28002KT 9999 FEW030 18/16 Q1016 RMK BKN SCT080 VIS MIN 9999 WIND THR11 11004KT WIND THR29 29003KT BLU,LIPC,2015-05-27T13:55:00Z,44.22,12.3,18.0,16.0,280,2,,6.21,30.0,,,,,,,,,,,FEW,3000,,,,,,,VFR,,-0.4,,,,,,,,,,METAR,10.0
KY19 271355Z AUTO 00000KT 10SM CLR 18/13 A2997 RMK AO2,KY19,2015-05-27T13:55:00Z,46.77,-100.9,18.0,13.0,0,0,,10.0,29.970472,,,TRUE,TRUE,,,,,,,CLR,,,,,,,,VFR,,,,,,,,,,,,METAR,593.0
KVNC 271355Z AUTO 12007KT 10SM FEW025 27/21 A3018 RMK AO2,KVNC,2015-05-27T13:55:00Z,27.07,-82.43,27.0,21.0,120,7,,10.0,30.180119,,,TRUE,TRUE,,,,,,,FEW,2500,,,,,,,VFR,,,,,,,,,,,,METAR,6.0
LIMS 271355Z 21003KT 9999 FEW040 22/11 Q1014 RMK FEW VIS MIN 9999 WIND THR30 15004KT BLU,LIMS,2015-05-27T13:55:00Z,44.92,9.72,22.0,11.0,210,3,,6.21,29.940945,,,,,,,,,,,FEW,4000,,,,,,,VFR,,,,,,,,,,,,METAR,138.0
KACP 271355Z AUTO 00000KT 2 1/2SM TSRA SCT019 SCT041 OVC046 20/19 A3017 RMK AO2 LTG DSNT ALQS T01950185,KACP,2015-05-27T13:55:00Z,30.75,-92.68,19.5,18.5,0,0,,2.5,30.171259,,,TRUE,TRUE,,,,,,TSRA,SCT,1900,SCT,4100,OVC,4600,,,IFR,,,,,,,,,,,,METAR,33.0
EHSA 271355Z AUTO 00000KT9999 ///////// 11/08 Q1022 W12/H6,EHSA,2015-05-27T13:55:00Z,52.0,3.28,11.0,8.0,,,,6.21,30.177166,,,TRUE,,,,,,,,,,,,,,,,,,,,,,,,,,,,METAR,50.0
EHSC 271355Z AUTO 26008G09KT 9999 ///////// 12/09 Q1021 W13/H6,EHSC,2015-05-27T13:55:00Z,51.93,3.67,12.0,9.0,260,8,9,6.21,30.147638,,,TRUE,,,,,,,,,,,,,,,,,,,,,,,,,,,,METAR,50.0
KRPX 271355Z AUTO 21000KT 40SM 12/10 A2991 RMK A01 T01220100 ,KRPX,2015-05-27T13:55:00Z,46.47,-108.55,12.2,10.0,210,0,,40.0,29.911417,,,TRUE,TRUE,,,,,,,,,,,,,,,,,,,,,,,,,,,METAR,1065.0
KGXA 271355Z AUTO VRB02KT 10SM CLR 17/02 A2997 RMK AO2 SLP122 T01680022 PWINO TSNO $,KGXA,2015-05-27T13:55:00Z,34.57,-117.67,16.8,2.2,0,2,,10.0,29.970472,1012.2,,TRUE,TRUE,TRUE,,TRUE,,TRUE,,CLR,,,,,,,,VFR,,,,,,,,,,,,METAR,923.0
KUOX 271355Z AUTO 21004KT 10SM CLR 22/18 A3019 RMK AO2 LTG DSNT SE-W PWINO PNO,KUOX,2015-05-27T13:55:00Z,34.38,-89.53,22.0,18.0,210,4,,10.0,30.188976,,,TRUE,TRUE,,,,,TRUE,,CLR,,,,,,,,VFR,,,,,,,,,,,,METAR,137.0
KHTO 271355Z 21012KT 10SM OVC008 17/ A3022,KHTO,2015-05-27T13:55:00Z,40.95,-72.25,17.0,,210,12,,10.0,30.221457,,,,,,,,,,,OVC,800,,,,,,,IFR,,,,,,,,,,,,METAR,17.0
KQXT 271355Z 03011KT 9999 FEW160 BKN200 BKN250 38/00 A2969 RMK SLP995 WND DATA ESTMD ALSTG/SLP ESTMD Q1005,KQXT,2015-05-27T13:55:00Z,100.65,-1000.65,38.0,0.0,30,11,,6.21,29.68996,999.5,,,,,,,,,,FEW,16000,BKN,20000,BKN,25000,,,VFR,,,,,,,,,,,,METAR,999.0
LIQW 271355Z 17005KT 9999 FEW025 22/10 Q1015 RMK FEW VIS MIN 9999 BLU,LIQW,2015-05-27T13:55:00Z,44.07,9.97,22.0,10.0,170,5,,6.21,29.970472,,,,,,,,,,,FEW,2500,,,,,,,VFR,,,,,,,,,,,,METAR,10.0
LIRG 271355Z 18002KT 9999 -TSRA SCT025CB BKN030TCU 17/11 Q1012 RMK OVC MON NE CLD CIME NC VIS MIN 9999 BLU,LIRG,2015-05-27T13:55:00Z,42.0,12.72,17.0,11.0,180,2,,6.21,29.88189,,,,,,,,,,-TSRA,SCT,2500,BKN,3000,,,,,MVFR,,,,,,,,,,,,METAR,89.0
LIBQ 271355Z 36012KT 0000 -RA FG VV/// 08/08 Q1011 RMK MON INVIS VAL INVIS VIS MIN 0000,LIBQ,2015-05-27T13:55:00Z,39.32,16.38,8.0,8.0,360,12,,0.0,29.852362,,,,,,,,,,-RA FG,OVX,0,,,,,,,LIFR,,,,,,,,,,,,METAR,1720.0
LIBA 271355Z 02003KT 9999 FEW025TCU SCT030 21/13 Q1010 RMK BKN VIS MIN 9999 WIND THR29 10005KT BLU,LIBA,2015-05-27T13:55:00Z,41.52,15.72,21.0,13.0,20,3,,6.21,29.822834,,,,,,,,,,,FEW,2500,SCT,3000,,,,,VFR,,0.5,,,,,,,,,,METAR,60.0
LIVP 271355Z 36012KT 9999 FEW030 04/M05 Q1018 RMK FEW MON LIB VAL NIL VIS MIN 9999,LIVP,2015-05-27T13:55:00Z,46.15,11.03,4.0,-5.0,360,12,,6.21,30.059055,,,,,,,,,,,FEW,3000,,,,,,,VFR,,,,,,,,,,,,METAR,2129.0
LIVC 271355Z 11011KT 9999 BKN000 02/02 Q1018 RMK BKN MON CIME INC VAL NIL VIS MIN 9999,LIVC,2015-05-27T13:55:00Z,44.2,10.68,2.0,2.0,110,11,,6.21,30.059055,,,,,,,,,,,BKN,0,,,,,,,LIFR,,,,,,,,,,,,METAR,2173.0
LIRV 271355Z 09013KT 9999 SCT028 FEW030CB 20/13 Q1012 RMK BKN SCT090 MON E SE LIB NC VIS MIN 9999 BLU,LIRV,2015-05-27T13:55:00Z,42.42,12.07,20.0,13.0,90,13,,6.21,29.88189,,,,,,,,,,,SCT,2800,FEW,3000,,,,,VFR,,,,,,,,,,,,METAR,300.0
LIRS 271355Z 04012KT 9999 FEW025TCU SCT040 23/09 Q1012 RMK BKN BKN100 VIS MIN 9999 WIND THR03 04011KT WIND THR21 04012KT BLU,LIRS,2015-05-27T13:55:00Z,42.75,11.07,23.0,9.0,40,12,,6.21,29.88189,,,,,,,,,,,FEW,2500,SCT,4000,,,,,VFR,,,,,,,,,,,,METAR,7.0
LIRM 271355Z 03010KT 6000 -TSRA SCT015 FEW020CB SCT030 15/14 Q1012 RMK BKN VIS MIN 6000 WIND THR06 04010KT WHT,LIRM,2015-05-27T13:55:00Z,41.03,14.07,15.0,14.0,30,10,,3.73,29.88189,,,,,,,,,,-TSRA,SCT,1500,FEW,2000,SCT,3000,,,MVFR,,,,,,,,,,,,SPECI,10.0
LIRL 271355Z 03003KT 9999 FEW020 FEW025CB BKN060 19/16 Q1012 RMK BKN MON LIB NC VIS MIN 9999 WIND THR30 03005KT BLU,LIRL,2015-05-27T13:55:00Z,41.53,12.9,19.0,16.0,30,3,,6.21,29.88189,,,,,,,,,,,FEW,2000,FEW,2500,BKN,6000,,,VFR,,,,,,,,,,,,METAR,26.0
LIRH 271355Z 33007KT 6000 -TSRA SCT030CB 16/08 Q1013 RMK BKN SCT060 MON CIME INC NC VIS MIN 6000 WIND THR16 33007KT WHT,LIRH,2015-05-27T13:55:00Z,41.65,13.3,16.0,8.0,330,7,,3.73,29.911417,,,,,,,,,,-TSRA,SCT,3000,,,,,,,MVFR,,,,,,,,,,,,METAR,181.0
LIBV 271355Z 35017KT 9999 FEW035 19/06 Q1009 RMK FEW VIS MIN 9999 WIND THR32 36017KT WIND THR14 35017KT BLU,LIBV,2015-05-27T13:55:00Z,40.77,16.92,19.0,6.0,350,17,,6.21,29.793306,,,,,,,,,,,FEW,3500,,,,,,,VFR,,,,,,,,,,,,METAR,350.0
LICZ 271355Z 09008KT 9999 FEW025 SCT070 22/13 Q1010 RMK BKN VIS MIN 9999 WIND THR28 09008KT A2985 BLU,LICZ,2015-05-27T13:55:00Z,37.38,14.92,22.0,13.0,90,8,,6.21,29.822834,,,,,,,,,,,FEW,2500,SCT,7000,,,,,VFR,,,,,,,,,,,,METAR,22.0
LICT 271355Z 33011KT 9999 SCT018 21/17 Q1013 RMK SCT VIS MIN 9999 WIND THR13 /////KT BLU,LICT,2015-05-27T13:55:00Z,37.92,12.5,21.0,17.0,330,11,,6.21,29.911417,,,,,,,,,,,SCT,1800,,,,,,,VFR,,,,,,,,,,,,METAR,7.0
LICG 271355Z /////KT 9000 FEW010 18/15 Q1014 RMK BKN SCT053 VIS MIN 9000 WIND THR08 31012KT WIND THR21 30016KT BLU,LICG,2015-05-27T13:55:00Z,36.82,11.97,18.0,15.0,,,,5.59,29.940945,,,,,,,,,,,FEW,1000,,,,,,,VFR,,,,,,,,,,,,METAR,191.0
LIBN 271355Z 35015KT 9999 SCT035 23/14 Q1008 RMK BKN SCT200 VIS MIN 9999 WIND THR14 35014KT BLU,LIBN,2015-05-27T13:55:00Z,40.22,18.13,23.0,14.0,350,15,,6.21,29.763779,,,,,,,,,,,SCT,3500,,,,,,,VFR,,,,,,,,,,,,METAR,61.0
LIPA 271355Z 20005KT 9999 FEW040TCU BKN055 19/11 Q1015 RMK BKN VIS MIN 9999 WIND THR05 18005KT WIND THR23 17006KT A2998 BLU,LIPA,2015-05-27T13:55:00Z,46.02,12.58,19.0,11.0,200,5,,6.21,29.970472,,,,,,,,,,,FEW,4000,BKN,5500,,,,,VFR,,,,,,,,,,,,METAR,126.0
LIMN 271355Z /////KT CAVOK 23/10 Q1014 RMK SKC VIS MIN 9999 BLK BLU,LIMN,2015-05-27T13:55:00Z,45.52,8.67,23.0,10.0,,,,6.21,29.940945,,,,,,,,,,,CAVOK,,,,,,,,VFR,,,,,,,,,,,,METAR,169.0
LIMK 271355Z 17007KT CAVOK 19/02 Q1016 RMK SKC VAL NIL VIS MIN 9999,LIMK,2015-05-27T13:55:00Z,45.02,7.72,19.0,2.0,170,7,,6.21,30.0,,,,,,,,,,,CAVOK,,,,,,,,VFR,,,,,,,,,,,,METAR,710.0
LIPI 271355Z 22009KT 9999 FEW025 SCT050 BKN080 20/11 Q1015 RMK BKN VIS MIN 9999 WIND THR06 20004KT BLU,LIPI,2015-05-27T13:55:00Z,45.97,13.05,20.0,11.0,220,9,,6.21,29.970472,,,,,,,,,,,FEW,2500,SCT,5000,BKN,8000,,,VFR,,,0.4,,,,,,,,,METAR,53.0
KSNC 271355Z AUTO 18008KT 10SM OVC008 21/18 A3021 RMK AO2,KSNC,2015-05-27T13:55:00Z,41.38,-72.5,21.0,18.0,180,8,,10.0,30.209646,,,TRUE,TRUE,,,,,,,OVC,800,,,,,,,IFR,,,,,,,,,,,,METAR,127.0
K2J9 271355Z AUTO 12004KT 10SM BKN009 OVC014 25/22 A3023 RMK AO1,K2J9,2015-05-27T13:55:00Z,30.6,-84.55,25.0,22.0,120,4,,10.0,30.230314,,,TRUE,TRUE,,,,,,,BKN,900,OVC,1400,,,,,IFR,,,,,,,,,,,,METAR,69.0
LIPS 271355Z 17008KT 9999 FEW020CB SCT025 21/07 Q1015 RMK BKN VIS MIN 9999 WIND THR26 17005KT WIND THR08 17006KT BLU,LIPS,2015-05-27T13:55:00Z,45.67,12.08,21.0,7.0,170,8,,6.21,29.970472,,,,,,,,,,,FEW,2000,SCT,2500,,,,,VFR,,,,,,,,,,,,METAR,41.0
LIPL 271355Z /////KT 9999 SCT040 SCT050 23/08 Q1015 RMK BKN VIS MIN 9999 WIND THR31 22005KT BLU,LIPL,2015-05-27T13:55:00Z,45.42,10.27,23.0,8.0,,,,6.21,29.970472,,,,,,,,,,,SCT,4000,SCT,5000,,,,,VFR,,,,,,,,,,,,METAR,92.0
K1V4 271354Z AUTO 26/18 A3004 RMK AO1 SLP161 T02560183,K1V4,2015-05-27T13:54:00Z,44.42,-72.02,25.6,18.3,,,,,30.041338,1016.1,,TRUE,TRUE,,,,,,,,,,,,,,,,,,,,,,,,,,,METAR,210.0
KNKT 271354Z 21005KT 10SM FEW028 OVC036 26/19 A3029 RMK AO2 SLP252 T02610194,KNKT,2015-05-27T13:54:00Z,34.9,-76.88,26.1,19.4,210,5,,10.0,30.28937,1025.2,,,TRUE,,,,,,,FEW,2800,OVC,3600,,,,,VFR,,,,,,,,,,,,SPECI,9.0
KMQE 271354Z AUTO 20014G18KT 23/17 A3017 RMK AO1 SLP223 T02280172,KMQE,2015-05-27T13:54:00Z,42.22,-71.12,22.8,17.2,200,14,18,,30.171259,1022.3,,TRUE,TRUE,,,,,,,,,,,,,,,,,,,,,,,,,,,METAR,199.0
KBKB 271354Z AUTO VRB04KT 4SM TSRA BR BKN095 OVC110 20/18 A3007 RMK AO2 TSB11 PRESFR SLP210 P0021 T02000183,KBKB,2015-05-27T13:54:00Z,31.0,-92.92,20.0,18.3,0,4,,4.0,30.070866,1021.0,,TRUE,TRUE,,,,,,TSRA BR,BKN,9500,OVC,11000,,,,,MVFR,,,,,,0.21,,,,,,METAR,94.0
KNFG 271354Z AUTO 00000KT 7SM OVC024 17/13 A2997 RMK AO2 SLP148 T01670128,KNFG,2015-05-27T13:54:00Z,33.28,-117.33,16.7,12.8,0,0,,7.0,29.970472,1014.8,,TRUE,TRUE,,,,,,,OVC,2400,,,,,,,MVFR,,,,,,,,,,,,SPECI,24.0
KNAK 271354Z AUTO 14007KT 10SM OVC020 24/20 A3017 RMK AO2 SLP218 T02390200,KNAK,2015-05-27T13:54:00Z,38.98,-76.48,23.9,20.0,140,7,,10.0,30.171259,1021.8,,TRUE,TRUE,,,,,,,OVC,2000,,,,,,,MVFR,,,,,,,,,,,,METAR,2.0
K12N 271354Z AUTO 21005KT 23/19 A3017 RMK AO1 SLP208 T02330194,K12N,2015-05-27T13:54:00Z,41.02,-74.73,23.3,19.4,210,5,,,30.171259,1020.8,,TRUE,TRUE,,,,,,,,,,,,,,,,,,,,,,,,,,,METAR,177.0
KMTP 271354Z AUTO 19009G16KT 18/15 A3023 RMK AO1 SLP236 T01830150,KMTP,2015-05-27T13:54:00Z,41.07,-71.92,18.3,15.0,190,9,16,,30.230314,1023.6,,TRUE,TRUE,,,,,,,,,,,,,,,,,,,,,,,,,,,METAR,2.0
PGUM 271354Z 08003KT 10SM CLR 26/24 A2986 RMK AO2 SLP102 T02610244 403060217,PGUM,2015-05-27T13:54:00Z,13.48,144.8,26.1,24.4,80,3,,10.0,29.861221,1010.2,,,TRUE,,,,,,,CLR,,,,,,,,VFR,,,,30.6,21.7,,,,,,,METAR,91.0
KRKS 271354Z AUTO 23010KT 10SM CLR 08/05 A3014 RMK AO2 SLP166 T00830050,KRKS,2015-05-27T13:54:00Z,41.6,-109.07,8.3,5.0,230,10,,10.0,30.138779,1016.6,,TRUE,TRUE,,,,,,,CLR,,,,,,,,VFR,,,,,,,,,,,,METAR,2060.0
KDMH 271354Z AUTO 26/20 A3016 RMK AO1 SLP213 T02560200,KDMH,2015-05-27T13:54:00Z,39.28,-76.62,25.6,20.0,,,,,30.159449,1021.3,,TRUE,TRUE,,,,,,,,,,,,,,,,,,,,,,,,,,,SPECI,5.0
KGED 271354Z AUTO 20012KT 10SM OVC016 25/21 A3022 RMK AO2 SLP232 T02500206,KGED,2015-05-27T13:54:00Z,38.68,-75.37,25.0,20.6,200,12,,10.0,30.221457,1023.2,,TRUE,TRUE,,,,,,,OVC,1600,,,,,,,MVFR,,,,,,,,,,,,SPECI,19.0
KGCN 271354Z 00000KT 10SM CLR 10/03 A3019 RMK AO2 SLP148 T01000028 TSNO $,KGCN,2015-05-27T13:54:00Z,35.95,-112.15,10.0,2.8,0,0,,10.0,30.188976,1014.8,,,TRUE,TRUE,,TRUE,,,,CLR,,,,,,,,VFR,,,,,,,,,,,,SPECI,2016.0
KGCK 271354Z 00000KT 10SM BKN100 BKN120 17/14 A3007 RMK AO2 SLP160 T01720144,KGCK,2015-05-27T13:54:00Z,37.92,-100.72,17.2,14.4,0,0,,10.0,30.070866,1016.0,,,TRUE,,,,,,,BKN,10000,BKN,12000,,,,,VFR,,,,,,,,,,,,SPECI,877.0
KFIG 271354Z AUTO 20006KT 9SM -RA OVC095 19/17 A3016 RMK AO2 SLP205 P0002 T01940172,KFIG,2015-05-27T13:54:00Z,41.05,-78.42,19.4,17.2,200,6,,9.0,30.159449,1020.5,,TRUE,TRUE,,,,,,-RA,OVC,9500,,,,,,,VFR,,,,,,0.02,,,,,,SPECI,462.0
KEVV 271354Z 20009KT 10SM FEW025 23/18 A3011 RMK AO2 SLP193 T02280183,KEVV,2015-05-27T13:54:00Z,38.05,-87.52,22.8,18.3,200,9,,10.0,30.109253,1019.3,,,TRUE,,,,,,,FEW,2500,,,,,,,VFR,,,,,,,,,,,,SPECI,117.0
KECG 271354Z 20012KT 10SM FEW025 BKN041 26/21 A3027 RMK AO2 SLP249 T02560206,KECG,2015-05-27T13:54:00Z,36.27,-76.18,25.6,20.6,200,12,,10.0,30.268702,1024.9,,,TRUE,,,,,,,FEW,2500,BKN,4100,,,,,VFR,,,,,,,,,,,,SPECI,11.0
KPTW 271354Z AUTO 23008KT 10SM SCT018 OVC025 24/21 A3019 RMK AO2 SLP218 T02440211,KPTW,2015-05-27T13:54:00Z,40.23,-75.55,24.4,21.1,230,8,,10.0,30.188976,1021.8,,TRUE,TRUE,,,,,,,SCT,1800,OVC,2500,,,,,MVFR,,,,,,,,,,,,SPECI,92.0
KPSF 271354Z AUTO 18008KT 10SM BKN019 BKN090 24/18 A3013 RMK AO2 SLP174 T02390183,KPSF,2015-05-27T13:54:00Z,42.43,-73.28,23.9,18.3,180,8,,10.0,30.129921,1017.4,,TRUE,TRUE,,,,,,,BKN,1900,BKN,9000,,,,,MVFR,,,,,,,,,,,,SPECI,355.0
KPNE 271354Z AUTO 21010KT 9SM OVC015 25/19 A3019 RMK AO2 SLP223 T02500189 TSNO,KPNE,2015-05-27T13:54:00Z,40.08,-75.02,25.0,18.9,210,10,,9.0,30.188976,1022.3,,TRUE,TRUE,,,TRUE,,,,OVC,1500,,,,,,,MVFR,,,,,,,,,,,,SPECI,28.0
KPHL 271354Z 23012KT 10SM OVC015 25/20 A3018 RMK AO2 SLP221 T02500200 $,KPHL,2015-05-27T13:54:00Z,39.87,-75.23,25.0,20.0,230,12,,10.0,30.180119,1022.1,,,TRUE,TRUE,,,,,,OVC,1500,,,,,,,MVFR,,,,,,,,,,,,SPECI,18.0
KPHF 271354Z 20013KT 10SM BKN019 29/21 A3024 RMK AO2 SLP238 T02890211,KPHF,2015-05-27T13:54:00Z,37.13,-76.5,28.9,21.1,200,13,,10.0,30.239174,1023.8,,,TRUE,,,,,,,BKN,1900,,,,,,,MVFR,,,,,,,,,,,,SPECI,12.0
KORH 271354Z 20010KT 10SM CLR 24/17 A3018 RMK AO2 SLP214 T02440172,KORH,2015-05-27T13:54:00Z,42.27,-71.87,24.4,17.2,200,10,,10.0,30.180119,1021.4,,,TRUE,,,,,,,CLR,,,,,,,,VFR,,,,,,,,,,,,SPECI,304.0
KOLS 271354Z AUTO 00000KT 10SM CLR 13/M01 A3006 RMK AO2 SLP123 T01281011,KOLS,2015-05-27T13:54:00Z,31.42,-110.85,12.8,-1.1,0,0,,10.0,30.059055,1012.3,,TRUE,TRUE,,,,,,,CLR,,,,,,,,VFR,,,,,,,,,,,,SPECI,1184.0
KOFP 271354Z AUTO 22011KT 10SM CLR 27/19 A3021 RMK AO2 SLP227 T02670189,KOFP,2015-05-27T13:54:00Z,37.7,-77.43,26.7,18.9,220,11,,10.0,30.209646,1022.7,,TRUE,TRUE,,,,,,,CLR,,,,,,,,VFR,,,,,,,,,,,,SPECI,62.0
KMVL 271354Z AUTO 22007G16KT 200V260 10SM FEW120 28/18 A3005 RMK AO2 SLP172 T02780183 TSNO,KMVL,2015-05-27T13:54:00Z,44.53,-72.62,27.8,18.3,220,7,16,10.0,30.050198,1017.2,,TRUE,TRUE,,,TRUE,,,,FEW,12000,,,,,,,VFR,,,,,,,,,,,,SPECI,234.0
KMRY 271354Z VRB03KT 10SM OVC013 12/09 A3003 RMK AO2 SLP182 T01220089,KMRY,2015-05-27T13:54:00Z,36.58,-121.85,12.2,8.9,0,3,,10.0,30.029528,1018.2,,,TRUE,,,,,,,OVC,1300,,,,,,,MVFR,,,,,,,,,,,,SPECI,66.0
KMOT 271354Z 17003KT 10SM CLR 18/09 A2995 RMK AO2 SLP140 T01780089,KMOT,2015-05-27T13:54:00Z,48.25,-101.27,17.8,8.9,170,3,,10.0,29.949802,1014.0,,,TRUE,,,,,,,CLR,,,,,,,,VFR,,,,,,,,,,,,SPECI,519.0
KWAL 271354Z COR 19015KT 10SM BKN019 OVC250 23/19 A3024 RMK AO2 SLP238 T02280194,KWAL,2015-05-27T13:54:00Z,37.93,-75.47,22.8,19.4,190,15,,10.0,30.239174,1023.8,TRUE,,TRUE,,,,,,,BKN,1900,OVC,25000,,,,,MVFR,,,,,,,,,,,,SPECI,14.0
KVSF 271354Z AUTO 14007KT 090V170 10SM CLR 24/17 A3010 RMK AO2 SLP191 T02440172 TSNO,KVSF,2015-05-27T13:54:00Z,43.35,-72.52,24.4,17.2,140,7,,10.0,30.100393,1019.1,,TRUE,TRUE,,,TRUE,,,,CLR,,,,,,,,VFR,,,,,,,,,,,,SPECI,175.0
KUIN 271354Z AUTO 26009KT 10SM CLR 19/15 A3004 RMK AO2 SLP165 T01940150,KUIN,2015-05-27T13:54:00Z,39.95,-91.2,19.4,15.0,260,9,,10.0,30.041338,1016.5,,TRUE,TRUE,,,,,,,CLR,,,,,,,,VFR,,,,,,,,,,,,SPECI,234.0
KTQE 271354Z AUTO 25007KT 10SM CLR 19/13 A3004 RMK AO2 SLP164 T01890128,KTQE,2015-05-27T13:54:00Z,41.77,-96.18,18.9,12.8,250,7,,10.0,30.041338,1016.4,,TRUE,TRUE,,,,,,,CLR,,,,,,,,VFR,,,,,,,,,,,,SPECI,312.0
KTAD 271354Z AUTO 24009KT 10SM CLR 14/08 A3015 RMK AO2 SLP154 T01390083,KTAD,2015-05-27T13:54:00Z,37.27,-104.33,13.9,8.3,240,9,,10.0,30.15059,1015.4,,TRUE,TRUE,,,,,,,CLR,,,,,,,,VFR,,,,,,,,,,,,SPECI,1756.0
KSYR 271354Z 21014G23KT 10SM BKN040 BKN140 OVC200 26/18 A3003 RMK AO2 PK WND 23026/1321 SLP164 BKN040 V SCT T02560178,KSYR,2015-05-27T13:54:00Z,43.12,-76.1,25.6,17.8,210,14,23,10.0,30.029528,1016.4,,,TRUE,,,,,,,BKN,4000,BKN,14000,OVC,20000,,,VFR,,,,,,,,,,,,SPECI,127.0
KSUS 271354Z 20005KT 10SM SCT050 BKN250 21/17 A3005 RMK AO2 SLPNO T02060167,KSUS,2015-05-27T13:54:00Z,38.65,-90.65,20.6,16.7,200,5,,10.0,30.050198,,,,TRUE,,,,,,,SCT,5000,BKN,25000,,,,,VFR,,,,,,,,,,,,SPECI,141.0
KSJN 271354Z AUTO 00000KT 10SM CLR 12/M01 A3016 RMK AO2 SLP138 T01221011,KSJN,2015-05-27T13:54:00Z,34.52,-109.38,12.2,-1.1,0,0,,10.0,30.159449,1013.8,,TRUE,TRUE,,,,,,,CLR,,,,,,,,VFR,,,,,,,,,,,,SPECI,1745.0
KSET 271354Z AUTO 22012KT 10SM CLR 22/17 A3005 RMK AO2 SLP171 T02170172 TSNO,KSET,2015-05-27T13:54:00Z,38.93,-90.43,21.7,17.2,220,12,,10.0,30.050198,1017.1,,TRUE,TRUE,,,TRUE,,,,CLR,,,,,,,,VFR,,,,,,,,,,,,SPECI,134.0
KSBY 271354Z 21014G17KT 10SM OVC017 24/20 A3022 RMK AO2 SLP236 T02440200,KSBY,2015-05-27T13:54:00Z,38.33,-75.5,24.4,20.0,210,14,17,10.0,30.221457,1023.6,,,TRUE,,,,,,,OVC,1700,,,,,,,MVFR,,,,,,,,,,,,SPECI,19.0
KRST 271354Z 27008KT 10SM CLR 17/14 A2998 RMK AO2 SLP151 T01720144,KRST,2015-05-27T13:54:00Z,43.9,-92.5,17.2,14.4,270,8,,10.0,29.97933,1015.1,,,TRUE,,,,,,,CLR,,,,,,,,VFR,,,,,,,,,,,,SPECI,403.0
KROC 271354Z 23010KT 10SM SCT030 BKN036 BKN045 OVC160 25/18 A3003 RMK AO2 SLP167 T02500178,KROC,2015-05-27T13:54:00Z,43.12,-77.68,25.0,17.8,230,10,,10.0,30.029528,1016.7,,,TRUE,,,,,,,SCT,3000,BKN,3600,BKN,4500,OVC,16000,VFR,,,,,,,,,,,,SPECI,178.0
KROA 271354Z 23008KT 10SM FEW032 SCT120 BKN250 23/17 A3024 RMK AO2 SLP230 T02330167,KROA,2015-05-27T13:54:00Z,37.32,-79.97,23.3,16.7,230,8,,10.0,30.239174,1023.0,,,TRUE,,,,,,,FEW,3200,SCT,12000,BKN,25000,,,VFR,,,,,,,,,,,,SPECI,362.0
KRIC 271354Z 22013G18KT 10SM FEW020 SCT250 27/19 A3021 RMK AO2 SLP232 T02720194,KRIC,2015-05-27T13:54:00Z,37.52,-77.32,27.2,19.4,220,13,18,10.0,30.209646,1023.2,,,TRUE,,,,,,,FEW,2000,SCT,25000,,,,,VFR,,,,,,,,,,,,SPECI,50.0
KRDG 271354Z 20010KT 10SM OVC022 25/19 A3016 RMK AO2 SLP214 T02500194,KRDG,2015-05-27T13:54:00Z,40.37,-75.97,25.0,19.4,200,10,,10.0,30.159449,1021.4,,,TRUE,,,,,,,OVC,2200,,,,,,,MVFR,,,,,,,,,,,,SPECI,109.0
KRBL 271354Z AUTO 00000KT 10SM CLR 15/11 A2998 RMK AO2 SLP149 T01500106,KRBL,2015-05-27T13:54:00Z,40.15,-122.25,15.0,10.6,0,0,,10.0,29.97933,1014.9,,TRUE,TRUE,,,,,,,CLR,,,,,,,,VFR,,,,,,,,,,,,SPECI,104.0
KDYL 271354Z AUTO VRB05KT 10SM OVC015 23/20 A3017 RMK AO2 SLP213 T02280200,KDYL,2015-05-27T13:54:00Z,40.33,-75.12,22.8,20.0,0,5,,10.0,30.171259,1021.3,,TRUE,TRUE,,,,,,,OVC,1500,,,,,,,MVFR,,,,,,,,,,,,METAR,117.0
KDSV 271354Z AUTO VRB03KT 10SM FEW034 24/17 A3006 RMK AO2 SLP184 T02440167,KDSV,2015-05-27T13:54:00Z,42.57,-77.72,24.4,16.7,0,3,,10.0,30.059055,1018.4,,TRUE,TRUE,,,,,,,FEW,3400,,,,,,,VFR,,,,,,,,,,,,METAR,198.0
KDSM 271354Z 30007KT 10SM FEW300 19/14 A3002 RMK AO2 SLP163 T01890139,KDSM,2015-05-27T13:54:00Z,41.53,-93.67,18.9,13.9,300,7,,10.0,30.02067,1016.3,,,TRUE,,,,,,,FEW,30000,,,,,,,VFR,,,,,,,,,,,,SPECI,295.0
KDEC 271354Z 22012KT 10SM OVC100 21/18 A3003 RMK AO2 SLP165 T02110178,KDEC,2015-05-27T13:54:00Z,39.83,-88.85,21.1,17.8,220,12,,10.0,30.029528,1016.5,,,TRUE,,,,,,,OVC,10000,,,,,,,VFR,,,,,,,,,,,,METAR,207.0
KDDH 271354Z AUTO VRB06KT 10SM CLR 26/19 A3010 RMK AO2 SLP187 T02610194,KDDH,2015-05-27T13:54:00Z,42.9,-73.25,26.1,19.4,0,6,,10.0,30.100393,1018.7,,TRUE,TRUE,,,,,,,CLR,,,,,,,,VFR,,,,,,,,,,,,METAR,244.0
KCRW 271354Z 24007KT 10SM FEW007 BKN020 23/18 A3019 RMK AO2 SLP214 T02280183,KCRW,2015-05-27T13:54:00Z,38.38,-81.58,22.8,18.3,240,7,,10.0,30.188976,1021.4,,,TRUE,,,,,,,FEW,700,BKN,2000,,,,,MVFR,,,,,,,,,,,,SPECI,309.0
KCOU 271354Z 26006KT 10SM FEW070 22/17 A3007 RMK AO2 SLP176 T02170172,KCOU,2015-05-27T13:54:00Z,38.82,-92.22,21.7,17.2,260,6,,10.0,30.070866,1017.6,,,TRUE,,,,,,,FEW,7000,,,,,,,VFR,,,,,,,,,,,,SPECI,271.0
KCOS 271354Z 10005KT 10SM FEW080 FEW120 SCT250 12/08 A3016 RMK AO2 SLP165 T01170078,KCOS,2015-05-27T13:54:00Z,38.82,-104.68,11.7,7.8,100,5,,10.0,30.159449,1016.5,,,TRUE,,,,,,,FEW,8000,FEW,12000,SCT,25000,,,VFR,,,,,,,,,,,,SPECI,1856.0
KCAR 271354Z AUTO 18006KT 10SM CLR 24/17 A3002 RMK AO2 SLP164 T02440172,KCAR,2015-05-27T13:54:00Z,46.87,-68.02,24.4,17.2,180,6,,10.0,30.02067,1016.4,,TRUE,TRUE,,,,,,,CLR,,,,,,,,VFR,,,,,,,,,,,,SPECI,191.0
KBWI 271354Z 21009KT 10SM BKN018 OVC100 24/20 A3016 RMK AO2 SLP211 T02440200,KBWI,2015-05-27T13:54:00Z,39.17,-76.68,24.4,20.0,210,9,,10.0,30.159449,1021.1,,,TRUE,,,,,,,BKN,1800,OVC,10000,,,,,MVFR,,,,,,,,,,,,SPECI,59.0
KBUY 271354Z AUTO 20006KT 10SM CLR 25/19 A3025 RMK AO2 SLP238 T02500189,KBUY,2015-05-27T13:54:00Z,36.05,-79.47,25.0,18.9,200,6,,10.0,30.250984,1023.8,,TRUE,TRUE,,,,,,,CLR,,,,,,,,VFR,,,,,,,,,,,,SPECI,180.0
KBUF 271354Z 23013G21KT 10SM SCT026 BKN035 BKN050 23/17 A3003 RMK AO2 SLP165 T02280167,KBUF,2015-05-27T13:54:00Z,42.93,-78.73,22.8,16.7,230,13,21,10.0,30.029528,1016.5,,,TRUE,,,,,,,SCT,2600,BKN,3500,BKN,5000,,,VFR,,,,,,,,,,,,SPECI,211.0
KBTV 271354Z 19012G19KT 10SM FEW040 FEW120 SCT250 27/18 A3002 RMK AO2 PK WND 20026/1302 SLP163 ACSL ALQDS T02670183,KBTV,2015-05-27T13:54:00Z,44.47,-73.15,26.7,18.3,190,12,19,10.0,30.02067,1016.3,,,TRUE,,,,,,,FEW,4000,FEW,12000,SCT,25000,,,VFR,,,,,,,,,,,,SPECI,105.0
KMKC 271354Z 00000KT 10SM CLR 21/13 A3007 RMK AO2 SLP175 T02110133,KMKC,2015-05-27T13:54:00Z,39.12,-94.6,21.1,13.3,0,0,,10.0,30.070866,1017.5,,,TRUE,,,,,,,CLR,,,,,,,,VFR,,,,,,,,,,,,SPECI,227.0
KMIV 271354Z AUTO 19009KT 150V230 10SM OVC015 24/20 A3020 RMK AO2 SLP225 T02440200,KMIV,2015-05-27T13:54:00Z,39.37,-75.08,24.4,20.0,190,9,,10.0,30.200787,1022.5,,TRUE,TRUE,,,,,,,OVC,1500,,,,,,,MVFR,,,,,,,,,,,,SPECI,23.0
KMGJ 271354Z AUTO 23010KT 10SM BKN020 25/21 A3014 RMK AO2 SLP205 T02500206 TSNO,KMGJ,2015-05-27T13:54:00Z,41.52,-74.27,25.0,20.6,230,10,,10.0,30.138779,1020.5,,TRUE,TRUE,,,TRUE,,,,BKN,2000,,,,,,,MVFR,,,,,,,,,,,,SPECI,108.0
KMFI 271354Z AUTO 26006KT 4SM RA BR OVC075 14/12 A2992 RMK AO2 SLP133 P0001 T01440122,KMFI,2015-05-27T13:54:00Z,,,14.4,12.2,260,6,,4.0,29.920275,1013.3,,TRUE,TRUE,,,,,,RA BR,OVC,7500,,,,,,,MVFR,,,,,,0.01,,,,,,SPECI,
KLYH 271354Z 20009KT 10SM SCT085 24/18 A3023 RMK AO2 SLP228 T02390178,KLYH,2015-05-27T13:54:00Z,37.32,-79.2,23.9,17.8,200,9,,10.0,30.230314,1022.8,,,TRUE,,,,,,,SCT,8500,,,,,,,VFR,,,,,,,,,,,,SPECI,295.0
KLWM 271354Z 21009KT 170V240 10SM CLR 26/18 A3015 RMK AO2 SLP207 T02560183,KLWM,2015-05-27T13:54:00Z,42.72,-71.13,25.6,18.3,210,9,,10.0,30.15059,1020.7,,,TRUE,,,,,,,CLR,,,,,,,,VFR,,,,,,,,,,,,SPECI,54.0
KLNK 271354Z 27003KT 10SM CLR 19/12 A3007 RMK AO2 SLP176 T01890122,KLNK,2015-05-27T13:54:00Z,40.85,-96.77,18.9,12.2,270,3,,10.0,30.070866,1017.6,,,TRUE,,,,,,,CLR,,,,,,,,VFR,,,,,,,,,,,,SPECI,364.0
KLEX 271354Z 24010KT 10SM BKN015 BKN020 OVC043 22/19 A3019 RMK AO2 SLP215 T02220189 $,KLEX,2015-05-27T13:54:00Z,38.03,-84.6,22.2,18.9,240,10,,10.0,30.188976,1021.5,,,TRUE,TRUE,,,,,,BKN,1500,BKN,2000,OVC,4300,,,MVFR,,,,,,,,,,,,SPECI,300.0
KLBT 271354Z AUTO 25010KT 10SM SCT012 28/21 A3027 RMK AO2 SLP247 T02780211,KLBT,2015-05-27T13:54:00Z,34.6,-79.07,27.8,21.1,250,10,,10.0,30.268702,1024.7,,TRUE,TRUE,,,,,,,SCT,1200,,,,,,,VFR,,,,,,,,,,,,SPECI,37.0
KIZG 271354Z AUTO VRB05KT 10SM FEW014 29/18 A3009 RMK AO2 SLP186 T02890183,KIZG,2015-05-27T13:54:00Z,43.98,-70.95,28.9,18.3,0,5,,10.0,30.088583,1018.6,,TRUE,TRUE,,,,,,,FEW,1400,,,,,,,VFR,,,,,,,,,,,,SPECI,135.0
KISW 271354Z AUTO 31007KT 10SM -RA BKN060 OVC075 15/13 A2993 RMK AO2 RAB1257 SLP134 P0000 T01500128,KISW,2015-05-27T13:54:00Z,44.37,-89.83,15.0,12.8,310,7,,10.0,29.929134,1013.4,,TRUE,TRUE,,,,,,-RA,BKN,6000,OVC,7500,,,,,VFR,,,,,,0.0050,,,,,,SPECI,307.0
KIPT 271354Z 17009G15KT 10SM BKN037 OVC045 26/19 A3010 RMK AO2 SLP188 T02610194,KIPT,2015-05-27T13:54:00Z,41.25,-76.92,26.1,19.4,170,9,15,10.0,30.100393,1018.8,,,TRUE,,,,,,,BKN,3700,OVC,4500,,,,,VFR,,,,,,,,,,,,SPECI,164.0
KIND 271354Z 22014G18KT 10SM FEW045 SCT080 SCT250 23/17 A3006 RMK AO2 SLP175 T02280167,KIND,2015-05-27T13:54:00Z,39.72,-86.3,22.8,16.7,220,14,18,10.0,30.059055,1017.5,,,TRUE,,,,,,,FEW,4500,SCT,8000,SCT,25000,,,VFR,,,,,,,,,,,,SPECI,241.0
KWLD 271354Z AUTO 10005KT 10SM CLR 21/17 A3008 RMK AO2 SLP177 T02110172,KWLD,2015-05-27T13:54:00Z,37.17,-97.03,21.1,17.2,100,5,,10.0,30.079725,1017.7,,TRUE,TRUE,,,,,,,CLR,,,,,,,,VFR,,,,,,,,,,,,METAR,350.0
PGSN 271354Z 08006KT 10SM SCT018 SCT025 27/24 A2986 RMK AO2 SLP131 T02670244 403000256,PGSN,2015-05-27T13:54:00Z,15.12,145.72,26.7,24.4,80,6,,10.0,29.861221,1013.1,,,TRUE,,,,,,,SCT,1800,SCT,2500,,,,,VFR,,,,30.0,25.6,,,,,,,METAR,65.0
PHOG 271354Z AUTO 05003KT 10SM SCT024 BKN031 OVC070 22/17 A2993 RMK AO2 SLP140 T02220172 TSNO,PHOG,2015-05-27T13:54:00Z,20.9,-156.43,22.2,17.2,50,3,,10.0,29.929134,1014.0,,TRUE,TRUE,,,TRUE,,,,SCT,2400,BKN,3100,OVC,7000,,,VFR,,,,,,,,,,,,SPECI,12.0
PHMK 271354Z AUTO 01005KT 10SM OVC060 21/17 A2993 RMK AO2 SLP138 T02110172 TSNO,PHMK,2015-05-27T13:54:00Z,21.15,-157.1,21.1,17.2,10,5,,10.0,29.929134,1013.8,,TRUE,TRUE,,,TRUE,,,,OVC,6000,,,,,,,VFR,,,,,,,,,,,,METAR,141.0
PAKN 271354Z 16009KT 10SM BKN080 BKN200 07/02 A3022 RMK AO2 SLP234 T00670017,PAKN,2015-05-27T13:54:00Z,58.68,-156.65,6.7,1.7,160,9,,10.0,30.221457,1023.4,,,TRUE,,,,,,,BKN,8000,BKN,20000,,,,,VFR,,,,,,,,,,,,SPECI,17.0
PAHN 271354Z AUTO 11007KT 10SM BKN015 OVC023 11/08 A3010 RMK AO2 RAE49 SLP196 P0001 T01060083 TSNO,PAHN,2015-05-27T13:54:00Z,59.25,-135.52,10.6,8.3,110,7,,10.0,30.100393,1019.6,,TRUE,TRUE,,,TRUE,,,,BKN,1500,OVC,2300,,,,,MVFR,,,,,,0.01,,,,,,SPECI,5.0
KLAF 271354Z 22008KT 10SM BKN020 BKN120 22/18 A3002 RMK AO2 SLP162 T02220178,KLAF,2015-05-27T13:54:00Z,40.42,-86.93,22.2,17.8,220,8,,10.0,30.02067,1016.2,,,TRUE,,,,,,,BKN,2000,BKN,12000,,,,,MVFR,,,,,,,,,,,,METAR,182.0
KJAN 271354Z 15010KT 10SM SCT009 BKN019 26/22 A3015 RMK AO2 SLP205 T02560222,KJAN,2015-05-27T13:54:00Z,32.32,-90.08,25.6,22.2,150,10,,10.0,30.15059,1020.5,,,TRUE,,,,,,,SCT,900,BKN,1900,,,,,MVFR,,,,,,,,,,,,SPECI,91.0
KINT 271354Z 23007KT 10SM FEW016 22/17 A3028 RMK AO2 SLP244 T02170172,KINT,2015-05-27T13:54:00Z,36.13,-80.22,21.7,17.2,230,7,,10.0,30.280512,1024.4,,,TRUE,,,,,,,FEW,1600,,,,,,,VFR,,,,,,,,,,,,METAR,291.0
KFWA 271354Z 23016KT 10SM FEW023 SCT085 BKN280 22/17 A3003 RMK AO2 SLP164 T02220172,KFWA,2015-05-27T13:54:00Z,40.98,-85.18,22.2,17.2,230,16,,10.0,30.029528,1016.4,,,TRUE,,,,,,,FEW,2300,SCT,8500,BKN,28000,,,VFR,,,,,,,,,,,,SPECI,248.0
KFTG 271354Z 26006KT 50SM SCT100 SCT200 15/08 A3009,KFTG,2015-05-27T13:54:00Z,39.78,-104.55,15.0,8.0,260,6,,50.0,30.088583,,,,,,,,,,,SCT,10000,SCT,20000,,,,,VFR,,,,,,,,,,,,METAR,1675.0
KEWN 271354Z 20003KT 10SM FEW024 BKN038 OVC055 27/21 A3029 RMK AO2 SLP255 T02670206,KEWN,2015-05-27T13:54:00Z,35.07,-77.05,26.7,20.6,200,3,,10.0,30.28937,1025.5,,,TRUE,,,,,,,FEW,2400,BKN,3800,OVC,5500,,,VFR,,,,,,,,,,,,METAR,3.0
KEUG 271354Z 00000KT 3SM BR BCFG FEW001 FEW004 09/07 A3008 RMK AO2 SLP184 VIS NW 1 FG FEW001 T00940072,KEUG,2015-05-27T13:54:00Z,44.13,-123.22,9.4,7.2,0,0,,3.0,30.079725,1018.4,,,TRUE,,,,,,BR BCFG,FEW,100,FEW,400,,,,,MVFR,,,,,,,,,,,,METAR,114.0
KCEU 271354Z AUTO 16003KT 10SM BKN012 22/18 A3028 RMK AO2 SLP245 T02170183,KCEU,2015-05-27T13:54:00Z,34.67,-82.88,21.7,18.3,160,3,,10.0,30.280512,1024.5,,TRUE,TRUE,,,,,,,BKN,1200,,,,,,,MVFR,,,,,,,,,,,,METAR,268.0
KALO 271354Z 30008KT 10SM CLR 18/14 A2998 RMK AO2 SLP149 T01780139,KALO,2015-05-27T13:54:00Z,42.55,-92.4,17.8,13.9,300,8,,10.0,29.97933,1014.9,,,TRUE,,,,,,,CLR,,,,,,,,VFR,,,,,,,,,,,,METAR,264.0
KAKH 271354Z AUTO 21005KT 10SM BKN005 21/18 A3028 RMK AO2 SLP246 T02060183,KAKH,2015-05-27T13:54:00Z,35.2,-81.15,20.6,18.3,210,5,,10.0,30.280512,1024.6,,TRUE,TRUE,,,,,,,BKN,500,,,,,,,IFR,,,,,,,,,,,,METAR,243.0
KABY 271354Z 12005KT 10SM BKN010 24/22 A3025 RMK AO2 T02440217,KABY,2015-05-27T13:54:00Z,31.53,-84.2,24.4,21.7,120,5,,10.0,30.250984,,,,TRUE,,,,,,,BKN,1000,,,,,,,MVFR,,,,,,,,,,,,SPECI,58.0
KUZA 271354Z AUTO 22005KT 10SM FEW010 21/19 A3029 RMK AO2 SLP244 T02110189,KUZA,2015-05-27T13:54:00Z,34.98,-81.05,21.1,18.9,220,5,,10.0,30.28937,1024.4,,TRUE,TRUE,,,,,,,FEW,1000,,,,,,,VFR,,,,,,,,,,,,SPECI,202.0
KSBN 271354Z 23015G22KT 10SM FEW018 BKN095 22/17 A2998 RMK AO2 SLP147 T02170167,KSBN,2015-05-27T13:54:00Z,41.7,-86.32,21.7,16.7,230,15,22,10.0,29.97933,1014.7,,,TRUE,,,,,,,FEW,1800,BKN,9500,,,,,VFR,,,,,,,,,,,,SPECI,237.0
KRFD 271354Z 25010G24KT 9SM FEW015 BKN022 BKN050 19/15 A2995 RMK AO2 SLP140 T01890150,KRFD,2015-05-27T13:54:00Z,42.2,-89.1,18.9,15.0,250,10,24,9.0,29.949802,1014.0,,,TRUE,,,,,,,FEW,1500,BKN,2200,BKN,5000,,,MVFR,,,,,,,,,,,,SPECI,221.0
KPIA 271354Z 24006KT 10SM SCT045 21/16 A3000 RMK AO2 SLP156 T02110161,KPIA,2015-05-27T13:54:00Z,40.67,-89.68,21.1,16.1,240,6,,10.0,30.0,1015.6,,,TRUE,,,,,,,SCT,4500,,,,,,,VFR,,,,,,,,,,,,SPECI,205.0
KMEM 271354Z 21009G18KT 10SM SCT049 BKN150 BKN250 26/18 A3014 RMK AO2 SLP202 T02610183,KMEM,2015-05-27T13:54:00Z,35.07,-89.98,26.1,18.3,210,9,18,10.0,30.138779,1020.2,,,TRUE,,,,,,,SCT,4900,BKN,15000,BKN,25000,,,VFR,,,,,,,,,,,,METAR,86.0
KIMT 271354Z AUTO 30008G16KT 10SM -RA FEW008 FEW070 OVC085 13/12 A2981 RMK AO2 SLP096 P0001 T01330117 TSNO,KIMT,2015-05-27T13:54:00Z,45.82,-88.12,13.3,11.7,300,8,16,10.0,29.811024,1009.6,,TRUE,TRUE,,,TRUE,,,-RA,FEW,800,FEW,7000,OVC,8500,,,VFR,,,,,,0.01,,,,,,METAR,349.0
KFZY 271354Z AUTO 20006KT 10SM FEW036 SCT090 BKN110 24/18 A3003 RMK AO2 SLP167 T02390183,KFZY,2015-05-27T13:54:00Z,43.35,-76.38,23.9,18.3,200,6,,10.0,30.029528,1016.7,,TRUE,TRUE,,,,,,,FEW,3600,SCT,9000,BKN,11000,,,VFR,,,,,,,,,,,,SPECI,138.0
KHWD 271354Z AUTO 28006KT 10SM BKN012 OVC018 13/10 A3001 RMK AO2 SLP172 T01280100,KHWD,2015-05-27T13:54:00Z,37.67,-122.12,12.8,10.0,280,6,,10.0,30.008858,1017.2,,TRUE,TRUE,,,,,,,BKN,1200,OVC,1800,,,,,MVFR,,,,,,,,,,,,SPECI,21.0
KILN 271354Z AUTO 22011KT 10SM BKN019 BKN025 22/17 A3013 RMK AO2 SLP197 T02170172,KILN,2015-05-27T13:54:00Z,39.43,-83.8,21.7,17.2,220,11,,10.0,30.129921,1019.7,,TRUE,TRUE,,,,,,,BKN,1900,BKN,2500,,,,,MVFR,,,,,,,,,,,,SPECI,322.0
KAAO 271354Z AUTO 09006KT 10SM CLR 20/14 A3007 RMK AO2 SLP175 T02000144,KAAO,2015-05-27T13:54:00Z,37.75,-97.22,20.0,14.4,90,6,,10.0,30.070866,1017.5,,TRUE,TRUE,,,,,,,CLR,,,,,,,,VFR,,,,,,,,,,,,METAR,434.0
KAKQ 271354Z AUTO 18006KT 10SM SCT019 26/21 A3024 RMK AO2 SLP237 T02610206 TSNO,KAKQ,2015-05-27T13:54:00Z,36.98,-77.0,26.1,20.6,180,6,,10.0,30.239174,1023.7,,TRUE,TRUE,,,TRUE,,,,SCT,1900,,,,,,,VFR,,,,,,,,,,,,SPECI,34.0
KAPN 271354Z AUTO 23015G25KT 10SM SCT032 23/14 A2978 RMK AO2 PK WND 24030/1332 SLP083 T02280144,KAPN,2015-05-27T13:54:00Z,45.07,-83.57,22.8,14.4,230,15,25,10.0,29.778543,1008.3,,TRUE,TRUE,,,,,,,SCT,3200,,,,,,,VFR,,,,,,,,,,,,SPECI,210.0
KAUW 271354Z AUTO 29006KT 6SM -RA BR OVC075 13/13 A2989 RMK AO2 SLP125 P0004 T01330128,KAUW,2015-05-27T13:54:00Z,44.93,-89.62,13.3,12.8,290,6,,6.0,29.890747,1012.5,,TRUE,TRUE,,,,,,-RA BR,OVC,7500,,,,,,,VFR,,,,,,0.04,,,,,,METAR,362.0
KAVP 271354Z 22006KT 10SM SCT027 27/18 A3013 RMK AO2 SLP194 T02670183,KAVP,2015-05-27T13:54:00Z,41.33,-75.72,26.7,18.3,220,6,,10.0,30.129921,1019.4,,,TRUE,,,,,,,SCT,2700,,,,,,,VFR,,,,,,,,,,,,SPECI,291.0
KBFL 271354Z 34006KT 10SM CLR 17/08 A2996 RMK AO2 SLP139 T01720083,KBFL,2015-05-27T13:54:00Z,35.43,-119.05,17.2,8.3,340,6,,10.0,29.958662,1013.9,,,TRUE,,,,,,,CLR,,,,,,,,VFR,,,,,,,,,,,,METAR,151.0
KBOS 271354Z 19012KT 10SM FEW140 BKN250 24/17 A3015 RMK AO2 SLP208 T02390172,KBOS,2015-05-27T13:54:00Z,42.37,-71.02,23.9,17.2,190,12,,10.0,30.15059,1020.8,,,TRUE,,,,,,,FEW,14000,BKN,25000,,,,,VFR,,,,,,,,,,,,SPECI,6.0
MUCC 271354Z 06015KT 9000 SCT020TCU 30/22 Q1018,MUCC,2015-05-27T13:54:00Z,22.47,-78.33,30.0,22.0,60,15,,5.59,30.059055,,,,,,,,,,,SCT,2000,,,,,,,VFR,,,,,,,,,,,,METAR,4.0
KAPG 271354Z 22012KT 7SM BKN020 26/22 A3015,KAPG,2015-05-27T13:54:00Z,39.47,-76.17,26.0,22.0,220,12,,7.0,30.15059,,,,,,,,,,,BKN,2000,,,,,,,MVFR,,,,,,,,,,,,METAR,18.0
KGSO 271354Z 22009KT 10SM FEW012 SCT070 BKN170 BKN250 23/18 A3026 RMK AO2 SLP236 T02330183,KGSO,2015-05-27T13:54:00Z,36.1,-79.95,23.3,18.3,220,9,,10.0,30.259842,1023.6,,,TRUE,,,,,,,FEW,1200,SCT,7000,BKN,17000,BKN,25000,VFR,,,,,,,,,,,,SPECI,275.0
KIAG 271353Z 24019G24KT 10SM BKN021 BKN080 BKN240 22/17 A3002 RMK AO2 PK WND 23027/1343 SLP161 T02220172,KIAG,2015-05-27T13:53:00Z,43.12,-78.93,22.2,17.2,240,19,24,10.0,30.02067,1016.1,,,TRUE,,,,,,,BKN,2100,BKN,8000,BKN,24000,,,MVFR,,,,,,,,,,,,SPECI,182.0
KDNL 271353Z AUTO 00000KT 10SM FEW007 OVC012 23/20 A3028 RMK AO2 SLP248 T02280200,KDNL,2015-05-27T13:53:00Z,33.47,-82.03,22.8,20.0,0,0,,10.0,30.280512,1024.8,,TRUE,TRUE,,,,,,,FEW,700,OVC,1200,,,,,MVFR,,,,,,,,,,,,METAR,130.0
KDMO 271353Z AUTO VRB03KT 10SM CLR 22/16 A3009 RMK AO2 SLP183 T02220161 TSNO,KDMO,2015-05-27T13:53:00Z,38.72,-93.17,22.2,16.1,0,3,,10.0,30.088583,1018.3,,TRUE,TRUE,,,TRUE,,,,CLR,,,,,,,,VFR,,,,,,,,,,,,METAR,274.0
KDMN 271353Z AUTO 00000KT 10SM CLR 15/M04 A3010 RMK AO2 SLP129 T01501039,KDMN,2015-05-27T13:53:00Z,32.27,-107.72,15.0,-3.9,0,0,,10.0,30.100393,1012.9,,TRUE,TRUE,,,,,,,CLR,,,,,,,,VFR,,,,,,,,,,,,METAR,1311.0
KDLS 271353Z AUTO 00000KT 10SM CLR 14/09 A3002 RMK AO2 SLP166 T01440089,KDLS,2015-05-27T13:53:00Z,45.62,-121.17,14.4,8.9,0,0,,10.0,30.02067,1016.6,,TRUE,TRUE,,,,,,,CLR,,,,,,,,VFR,,,,,,,,,,,,METAR,71.0
KDLN 271353Z AUTO 34004KT 9SM BKN002 OVC050 09/08 A3006 RMK AO2 SLP146 T00890078,KDLN,2015-05-27T13:53:00Z,45.25,-112.55,8.9,7.8,340,4,,9.0,30.059055,1014.6,,TRUE,TRUE,,,,,,,BKN,200,OVC,5000,,,,,LIFR,,,,,,,,,,,,METAR,1591.0
KDKK 271353Z AUTO 22011G21KT 10SM BKN029 OVC040 23/17 A3005 RMK AO2 SLP171 T02280172,KDKK,2015-05-27T13:53:00Z,42.5,-79.28,22.8,17.2,220,11,21,10.0,30.050198,1017.1,,TRUE,TRUE,,,,,,,BKN,2900,OVC,4000,,,,,MVFR,,,,,,,,,,,,METAR,202.0
KDHT 271353Z AUTO 13005KT 10SM CLR 19/13 A3011 RMK AO2 SLP151 T01890133,KDHT,2015-05-27T13:53:00Z,36.02,-102.55,18.9,13.3,130,5,,10.0,30.109253,1015.1,,TRUE,TRUE,,,,,,,CLR,,,,,,,,VFR,,,,,,,,,,,,METAR,1217.0
KDHN 271353Z 12007KT 10SM BKN007 23/21 A3024 RMK AO2 SLP234 T02330206,KDHN,2015-05-27T13:53:00Z,31.32,-85.45,23.3,20.6,120,7,,10.0,30.239174,1023.4,,,TRUE,,,,,,,BKN,700,,,,,,,IFR,,,,,,,,,,,,METAR,113.0
KDGW 271353Z AUTO VRB03KT 10SM BKN100 OVC120 14/11 A3004 RMK AO2 SLP132 T01390106,KDGW,2015-05-27T13:53:00Z,42.8,-105.38,13.9,10.6,0,3,,10.0,30.041338,1013.2,,TRUE,TRUE,,,,,,,BKN,10000,OVC,12000,,,,,VFR,,,,,,,,,,,,METAR,1499.0
KDFW 271353Z 11004KT 10SM SCT250 21/16 A3008 RMK AO2 SLP180 T02060156,KDFW,2015-05-27T13:53:00Z,32.9,-97.02,20.6,15.6,110,4,,10.0,30.079725,1018.0,,,TRUE,,,,,,,SCT,25000,,,,,,,VFR,,,,,,,,,,,,METAR,174.0
KDFI 271353Z AUTO 22013G19KT 10SM CLR 23/17 A3001 RMK AO2 SLP159 T02330172,KDFI,2015-05-27T13:53:00Z,41.33,-84.43,23.3,17.2,220,13,19,10.0,30.008858,1015.9,,TRUE,TRUE,,,,,,,CLR,,,,,,,,VFR,,,,,,,,,,,,METAR,219.0
KDEW 271353Z AUTO 00000KT 10SM CLR 12/10 A3003 RMK AO2 SLP163 T01220100,KDEW,2015-05-27T13:53:00Z,47.97,-117.43,12.2,10.0,0,0,,10.0,30.029528,1016.3,,TRUE,TRUE,,,,,,,CLR,,,,,,,,VFR,,,,,,,,,,,,METAR,674.0
KDET 271353Z 24011KT 10SM FEW027 23/17 A2997 RMK AO2 SLP142 T02280167 $,KDET,2015-05-27T13:53:00Z,42.4,-83.02,22.8,16.7,240,11,,10.0,29.970472,1014.2,,,TRUE,TRUE,,,,,,FEW,2700,,,,,,,VFR,,,,,,,,,,,,METAR,190.0
KDEQ 271353Z AUTO VRB04KT 10SM CLR 22/19 A3008 RMK AO2 SLP180 T02220194 $,KDEQ,2015-05-27T13:53:00Z,34.05,-94.4,22.2,19.4,0,4,,10.0,30.079725,1018.0,,TRUE,TRUE,TRUE,,,,,,CLR,,,,,,,,VFR,,,,,,,,,,,,METAR,106.0
KDEN 271353Z 23008KT 10SM FEW080 SCT120 SCT250 14/07 A3008 RMK AO2 SLP131 T01440067,KDEN,2015-05-27T13:53:00Z,39.85,-104.65,14.4,6.7,230,8,,10.0,30.079725,1013.1,,,TRUE,,,,,,,FEW,8000,SCT,12000,SCT,25000,,,VFR,,,,,,,,,,,,METAR,1640.0
KDCU 271353Z AUTO 16005KT 10SM OVC010 22/20 A3021 RMK AO2 CIG 008V012 SLP223 T02170200,KDCU,2015-05-27T13:53:00Z,34.65,-86.95,21.7,20.0,160,5,,10.0,30.209646,1022.3,,TRUE,TRUE,,,,,,,OVC,1000,,,,,,,MVFR,,,,,,,,,,,,METAR,176.0
KDBQ 271353Z 28012KT 10SM OVC012 16/13 A2998 RMK AO2 SLP150 T01560133,KDBQ,2015-05-27T13:53:00Z,42.4,-90.7,15.6,13.3,280,12,,10.0,29.97933,1015.0,,,TRUE,,,,,,,OVC,1200,,,,,,,MVFR,,,,,,,,,,,,METAR,326.0
KDAN 271353Z AUTO 26009KT 10SM CLR 26/18 A3024 RMK AO2 SLP228 T02560178,KDAN,2015-05-27T13:53:00Z,36.57,-79.33,25.6,17.8,260,9,,10.0,30.239174,1022.8,,TRUE,TRUE,,,,,,,CLR,,,,,,,,VFR,,,,,,,,,,,,METAR,175.0
KDAL 271353Z 16005KT 10SM FEW210 22/16 A3009 RMK AO2 SLP183 T02220156,KDAL,2015-05-27T13:53:00Z,32.85,-96.85,22.2,15.6,160,5,,10.0,30.088583,1018.3,,,TRUE,,,,,,,FEW,21000,,,,,,,VFR,,,,,,,,,,,,METAR,158.0
KDAB 271353Z 08007KT 10SM SCT029 BKN250 27/19 A3022 RMK AO2 SLP232 T02670194,KDAB,2015-05-27T13:53:00Z,29.18,-81.07,26.7,19.4,80,7,,10.0,30.221457,1023.2,,,TRUE,,,,,,,SCT,2900,BKN,25000,,,,,VFR,,,,,,,,,,,,SPECI,9.0
KCYS 271353Z 26010KT 10SM CLR 14/06 A3010 RMK AO2 SLP132 T01440061,KCYS,2015-05-27T13:53:00Z,41.15,-104.8,14.4,6.1,260,10,,10.0,30.100393,1013.2,,,TRUE,,,,,,,CLR,,,,,,,,VFR,,,,,,,,,,,,METAR,1868.0
KCXO 271353Z 16005KT 10SM FEW006 18/17 A3012 RMK AO2 LTG DSNT SE AND S RAE11 SLP195 T01830172 PNO,KCXO,2015-05-27T13:53:00Z,30.35,-95.42,18.3,17.2,160,5,,10.0,30.121063,1019.5,,,TRUE,,,,,,,FEW,600,,,,,,,VFR,,,,,,,,,,,,METAR,75.0
KCUT 271353Z AUTO 00000KT 10SM BKN110 11/09 A3007 RMK AO2 SLP148 T01110089,KCUT,2015-05-27T13:53:00Z,43.73,-103.62,11.1,8.9,0,0,,10.0,30.070866,1014.8,,TRUE,TRUE,,,,,,,BKN,11000,,,,,,,VFR,,,,,,,,,,,,METAR,1725.0
KCUB 271353Z AUTO 19005KT 10SM OVC041 25/19 A3028 RMK AO2 SLP249 T02500194,KCUB,2015-05-27T13:53:00Z,33.97,-81.0,25.0,19.4,190,5,,10.0,30.280512,1024.9,,TRUE,TRUE,,,,,,,OVC,4100,,,,,,,VFR,,,,,,,,,,,,METAR,56.0
KCSV 271353Z AUTO VRB03KT 10SM OVC010 20/17 A3026 RMK AO2 CIG 008V014 SLP229 T02000172,KCSV,2015-05-27T13:53:00Z,35.95,-85.08,20.0,17.2,0,3,,10.0,30.259842,1022.9,,TRUE,TRUE,,,,,,,OVC,1000,,,,,,,MVFR,,,,,,,,,,,,METAR,570.0
KCSM 271353Z 14005KT 10SM SCT030 21/16 A3008 RMK AO2 SLP168 T02110161,KCSM,2015-05-27T13:53:00Z,35.35,-99.2,21.1,16.1,140,5,,10.0,30.079725,1016.8,,,TRUE,,,,,,,SCT,3000,,,,,,,VFR,,,,,,,,,,,,METAR,588.0
KCRS 271353Z AUTO 17009KT 10SM CLR 21/17 A3009 RMK AO2 SLP185 T02110167,KCRS,2015-05-27T13:53:00Z,32.03,-96.4,21.1,16.7,170,9,,10.0,30.088583,1018.5,,TRUE,TRUE,,,,,,,CLR,,,,,,,,VFR,,,,,,,,,,,,METAR,133.0
KCRG 271353Z 13005KT 10SM SCT032 27/18 A3023 RMK AO2 SLP236 T02720178,KCRG,2015-05-27T13:53:00Z,30.33,-81.52,27.2,17.8,130,5,,10.0,30.230314,1023.6,,,TRUE,,,,,,,SCT,3200,,,,,,,VFR,,,,,,,,,,,,METAR,13.0
KCRE 271353Z 20009KT 10SM FEW050 26/21 A3028 RMK AO1 SLP255 T02610206,KCRE,2015-05-27T13:53:00Z,33.82,-78.72,26.1,20.6,200,9,,10.0,30.280512,1025.5,,,TRUE,,,,,,,FEW,5000,,,,,,,VFR,,,,,,,,,,,,METAR,10.0
KBPT 271353Z 07004KT 9SM RA BKN110 20/18 A3016 RMK AO2 LTG DSNT SW TSE1257 SLP213 P0012 T02000183,KBPT,2015-05-27T13:53:00Z,29.95,-94.03,20.0,18.3,70,4,,9.0,30.159449,1021.3,,,TRUE,,,,,,RA,BKN,11000,,,,,,,VFR,,,,,,0.12,,,,,,METAR,5.0
KBPK 271353Z AUTO 19003KT 8SM CLR 22/20 A3011 RMK AO2 SLP188 T02220200,KBPK,2015-05-27T13:53:00Z,36.37,-92.47,22.2,20.0,190,3,,8.0,30.109253,1018.8,,TRUE,TRUE,,,,,,,CLR,,,,,,,,VFR,,,,,,,,,,,,METAR,280.0
KBPI 271353Z AUTO 07003KT 10SM CLR 08/04 A3015 RMK AO2 SLP154 T00780044,KBPI,2015-05-27T13:53:00Z,42.58,-110.1,7.8,4.4,70,3,,10.0,30.15059,1015.4,,TRUE,TRUE,,,,,,,CLR,,,,,,,,VFR,,,,,,,,,,,,METAR,2117.0
KBOI 271353Z 06004KT 10SM CLR 14/11 A3000 RMK AO2 SLP138 T01390106,KBOI,2015-05-27T13:53:00Z,43.57,-116.23,13.9,10.6,60,4,,10.0,30.0,1013.8,,,TRUE,,,,,,,CLR,,,,,,,,VFR,,,,,,,,,,,,METAR,875.0
KBNO 271353Z AUTO 28004KT 10SM SCT070 11/06 A3005 RMK AO2 SLP149 T01060056,KBNO,2015-05-27T13:53:00Z,43.6,-118.95,10.6,5.6,280,4,,10.0,30.050198,1014.9,,TRUE,TRUE,,,,,,,SCT,7000,,,,,,,VFR,,,,,,,,,,,,METAR,1264.0
KBNA 271353Z 19008KT 10SM BKN014 BKN029 23/20 A3020 RMK AO2 SLP219 T02330200,KBNA,2015-05-27T13:53:00Z,36.12,-86.68,23.3,20.0,190,8,,10.0,30.200787,1021.9,,,TRUE,,,,,,,BKN,1400,BKN,2900,,,,,MVFR,,,,,,,,,,,,METAR,210.0
KBMQ 271353Z AUTO 10005KT 10SM BKN014 OVC020 22/19 A3010 RMK AO2 SLP177 T02170189,KBMQ,2015-05-27T13:53:00Z,30.73,-98.23,21.7,18.9,100,5,,10.0,30.100393,1017.7,,TRUE,TRUE,,,,,,,BKN,1400,OVC,2000,,,,,MVFR,,,,,,,,,,,,METAR,389.0
KBMG 271353Z 23009KT 10SM CLR 23/17 A3010 RMK AO2 SLP185 T02280172,KBMG,2015-05-27T13:53:00Z,39.15,-86.62,22.8,17.2,230,9,,10.0,30.100393,1018.5,,,TRUE,,,,,,,CLR,,,,,,,,VFR,,,,,,,,,,,,METAR,257.0
KBLI 271353Z 17005KT 10SM FEW004 OVC041 13/11 A3006 RMK AO2 SLP187 T01280111,KBLI,2015-05-27T13:53:00Z,48.8,-122.53,12.8,11.1,170,5,,10.0,30.059055,1018.7,,,TRUE,,,,,,,FEW,400,OVC,4100,,,,,VFR,,,,,,,,,,,,METAR,50.0
KBKV 271353Z 10007KT 10SM FEW022 27/20 A3021 RMK AO2 SLP227 T02670200 $,KBKV,2015-05-27T13:53:00Z,28.47,-82.45,26.7,20.0,100,7,,10.0,30.209646,1022.7,,,TRUE,TRUE,,,,,,FEW,2200,,,,,,,VFR,,,,,,,,,,,,METAR,20.0
KBKL 271353Z 21012KT 10SM CLR 24/17 A3004 RMK AO2 SLP169 T02390172,KBKL,2015-05-27T13:53:00Z,41.53,-81.67,23.9,17.2,210,12,,10.0,30.041338,1016.9,,,TRUE,,,,,,,CLR,,,,,,,,VFR,,,,,,,,,,,,METAR,184.0
KBKE 271353Z AUTO 18003KT 10SM BKN090 11/07 A3003 RMK AO2 SLP162 T01060072,KBKE,2015-05-27T13:53:00Z,44.85,-117.82,10.6,7.2,180,3,,10.0,30.029528,1016.2,,TRUE,TRUE,,,,,,,BKN,9000,,,,,,,VFR,,,,,,,,,,,,METAR,1024.0
KBIV 271353Z AUTO 22017G28KT 10SM SCT014 SCT023 21/16 A2994 RMK AO2 PK WND 21028/1349 SLP134 T02060161,KBIV,2015-05-27T13:53:00Z,42.75,-86.1,20.6,16.1,220,17,28,10.0,29.940945,1013.4,,TRUE,TRUE,,,,,,,SCT,1400,SCT,2300,,,,,VFR,,,,,,,,,,,,METAR,208.0
KBGR 271353Z 18008KT 8SM SCT095 SCT110 19/16 A3009 RMK AO2 SLP187 T01940156,KBGR,2015-05-27T13:53:00Z,44.8,-68.82,19.4,15.6,180,8,,8.0,30.088583,1018.7,,,TRUE,,,,,,,SCT,9500,SCT,11000,,,,,VFR,,,,,,,,,,,,METAR,57.0
KBGM 271353Z 22012KT 10SM BKN018 BKN027 OVC033 23/18 A3013 RMK AO2 SLP193 T02280183,KBGM,2015-05-27T13:53:00Z,42.22,-75.98,22.8,18.3,220,12,,10.0,30.129921,1019.3,,,TRUE,,,,,,,BKN,1800,BKN,2700,OVC,3300,,,MVFR,,,,,,,,,,,,METAR,490.0
KBFM 271353Z 11007KT 10SM SCT011 BKN019 BKN042 26/23 A3017 RMK AO2 SLP216 T02610228,KBFM,2015-05-27T13:53:00Z,30.62,-88.07,26.1,22.8,110,7,,10.0,30.171259,1021.6,,,TRUE,,,,,,,SCT,1100,BKN,1900,BKN,4200,,,MVFR,,,,,,,,,,,,METAR,20.0
KBFI 271353Z 00000KT 10SM BKN045 15/11 A3006 RMK AO2 SLP180 T01500111,KBFI,2015-05-27T13:53:00Z,47.55,-122.32,15.0,11.1,0,0,,10.0,30.059055,1018.0,,,TRUE,,,,,,,BKN,4500,,,,,,,VFR,,,,,,,,,,,,METAR,4.0
KBFF 271353Z AUTO 10010KT 020V120 10SM CLR 14/12 A3004 RMK AO2 SLP142 T01440117,KBFF,2015-05-27T13:53:00Z,41.87,-103.58,14.4,11.7,100,10,,10.0,30.041338,1014.2,,TRUE,TRUE,,,,,,,CLR,,,,,,,,VFR,,,,,,,,,,,,METAR,1203.0
KBEH 271353Z AUTO 23019G27KT 10SM CLR 21/17 A2995 RMK AO2 PK WND 24028/1319 SLP139 T02060167,KBEH,2015-05-27T13:53:00Z,42.13,-86.42,20.6,16.7,230,19,27,10.0,29.949802,1013.9,,TRUE,TRUE,,,,,,,CLR,,,,,,,,VFR,,,,,,,,,,,,METAR,191.0
KBDE 271353Z AUTO 31011KT 10SM CLR 14/09 A2987 RMK AO2 SLP117 T01440094 TSNO,KBDE,2015-05-27T13:53:00Z,48.73,-94.62,14.4,9.4,310,11,,10.0,29.870079,1011.7,,TRUE,TRUE,,,TRUE,,,,CLR,,,,,,,,VFR,,,,,,,,,,,,METAR,329.0
KBCE 271353Z AUTO 00000KT 10SM CLR 07/03 A3023 RMK AO2 SLP157 T00720033,KBCE,2015-05-27T13:53:00Z,37.7,-112.15,7.2,3.3,0,0,,10.0,30.230314,1015.7,,TRUE,TRUE,,,,,,,CLR,,,,,,,,VFR,,,,,,,,,,,,METAR,2312.0
KBBW 271353Z AUTO 21004KT 10SM CLR 17/12 A3009 RMK AO2 SLP178 T01720117,KBBW,2015-05-27T13:53:00Z,41.43,-99.63,17.2,11.7,210,4,,10.0,30.088583,1017.8,,TRUE,TRUE,,,,,,,CLR,,,,,,,,VFR,,,,,,,,,,,,METAR,776.0
KBAF 271353Z 18011KT 10SM CLR 24/17 A3014 RMK AO2 SLP202 T02440172,KBAF,2015-05-27T13:53:00Z,42.17,-72.72,24.4,17.2,180,11,,10.0,30.138779,1020.2,,,TRUE,,,,,,,CLR,,,,,,,,VFR,,,,,,,,,,,,SPECI,83.0
KAZO 271353Z COR 23012G24KT 10SM FEW025 22/16 A2996 RMK AO2 SLP141 T02220156,KAZO,2015-05-27T13:53:00Z,42.23,-85.55,22.2,15.6,230,12,24,10.0,29.958662,1014.1,TRUE,,TRUE,,,,,,,FEW,2500,,,,,,,VFR,,,,,,,,,,,,SPECI,272.0
KAXN 271353Z AUTO 30005KT 10SM FEW120 17/12 A2993 RMK AO2 SLP135 T01720117,KAXN,2015-05-27T13:53:00Z,45.87,-95.4,17.2,11.7,300,5,,10.0,29.929134,1013.5,,TRUE,TRUE,,,,,,,FEW,12000,,,,,,,VFR,,,,,,,,,,,,METAR,433.0
KAWM 271353Z AUTO 21007KT 10SM CLR 24/20 A3013 RMK AO2 LTG DSNT SE AND S SLP197 T02390200,KAWM,2015-05-27T13:53:00Z,35.13,-90.23,23.9,20.0,210,7,,10.0,30.129921,1019.7,,TRUE,TRUE,,,,,,,CLR,,,,,,,,VFR,,,,,,,,,,,,METAR,65.0
KAUG 271353Z AUTO 15005KT 10SM SCT120 23/18 A3010 RMK AO2 SLP190 T02330183,KAUG,2015-05-27T13:53:00Z,44.32,-69.8,23.3,18.3,150,5,,10.0,30.100393,1019.0,,TRUE,TRUE,,,,,,,SCT,12000,,,,,,,VFR,,,,,,,,,,,,METAR,109.0
KCPS 271353Z VRB04KT 10SM FEW050 BKN070 OVC085 19/16 A3007 RMK AO2 RAE08B11E50 PRESFR SLP179 P0000 T01940156,KCPS,2015-05-27T13:53:00Z,38.57,-90.15,19.4,15.6,0,4,,10.0,30.070866,1017.9,,,TRUE,,,,,,,FEW,5000,BKN,7000,OVC,8500,,,VFR,,,,,,0.0050,,,,,,METAR,126.0
KCPR 271353Z 22015G21KT 10SM BKN075 12/08 A3004 RMK AO2 SLP134 T01220078,KCPR,2015-05-27T13:53:00Z,42.9,-106.47,12.2,7.8,220,15,21,10.0,30.041338,1013.4,,,TRUE,,,,,,,BKN,7500,,,,,,,VFR,,,,,,,,,,,,METAR,1621.0
KCNO 271353Z VRB03KT 4SM HZ OVC018 17/13 A2999 RMK AO2 SLP153 T01670128,KCNO,2015-05-27T13:53:00Z,33.98,-117.62,16.7,12.8,0,3,,4.0,29.991142,1015.3,,,TRUE,,,,,,HZ,OVC,1800,,,,,,,MVFR,,,,,,,,,,,,METAR,207.0
KCNM 271353Z AUTO 10003KT 8SM OVC006 19/14 A3006 RMK AO2 SLP130 T01940144,KCNM,2015-05-27T13:53:00Z,32.33,-104.25,19.4,14.4,100,3,,8.0,30.059055,1013.0,,TRUE,TRUE,,,,,,,OVC,600,,,,,,,IFR,,,,,,,,,,,,METAR,985.0
KCMX 271353Z AUTO 29017KT 10SM FEW095 14/11 A2976 RMK AO2 SLP080 T01390111,KCMX,2015-05-27T13:53:00Z,47.17,-88.48,13.9,11.1,290,17,,10.0,29.760826,1008.0,,TRUE,TRUE,,,,,,,FEW,9500,,,,,,,VFR,,,,,,,,,,,,METAR,326.0
KCMI 271353Z 22013KT 10SM OVC095 21/18 A3003 RMK AO2 RAB39E49 SLP165 P0000 T02110178,KCMI,2015-05-27T13:53:00Z,40.03,-88.27,21.1,17.8,220,13,,10.0,30.029528,1016.5,,,TRUE,,,,,,,OVC,9500,,,,,,,VFR,,,,,,0.0050,,,,,,METAR,228.0
KCLL 271353Z 12007KT 10SM BKN006 21/19 A3009 RMK AO2 TSE05 SLP185 T02110194,KCLL,2015-05-27T13:53:00Z,30.58,-96.37,21.1,19.4,120,7,,10.0,30.088583,1018.5,,,TRUE,,,,,,,BKN,600,,,,,,,IFR,,,,,,,,,,,,METAR,96.0
KCHO 271353Z 18010KT 10SM SCT018 26/19 A3018 RMK AO2 SLP211 T02560194,KCHO,2015-05-27T13:53:00Z,38.13,-78.45,25.6,19.4,180,10,,10.0,30.180119,1021.1,,,TRUE,,,,,,,SCT,1800,,,,,,,VFR,,,,,,,,,,,,METAR,192.0
KCHA 271353Z 18005KT 8SM BKN014 OVC035 21/18 A3023 RMK AO2 SLP231 T02110183,KCHA,2015-05-27T13:53:00Z,35.03,-85.2,21.1,18.3,180,5,,8.0,30.230314,1023.1,,,TRUE,,,,,,,BKN,1400,OVC,3500,,,,,MVFR,,,,,,,,,,,,METAR,210.0
KCGI 271353Z 29009KT 10SM FEW045 BKN060 OVC090 21/17 A3014 RMK AO2 PK WND 30030/1306 RAB40E51 SLP205 P0000 T02060172,KCGI,2015-05-27T13:53:00Z,37.23,-89.58,20.6,17.2,290,9,,10.0,30.138779,1020.5,,,TRUE,,,,,,,FEW,4500,BKN,6000,OVC,9000,,,VFR,,,,,,0.0050,,,,,,METAR,102.0
KCEZ 271353Z AUTO 00000KT 10SM FEW100 11/06 A3018 RMK AO2 SLP167 T01060056,KCEZ,2015-05-27T13:53:00Z,37.3,-108.63,10.6,5.6,0,0,,10.0,30.180119,1016.7,,TRUE,TRUE,,,,,,,FEW,10000,,,,,,,VFR,,,,,,,,,,,,METAR,1797.0
KCEW 271353Z AUTO 06003KT 10SM CLR 27/23 A3018 RMK AO2 SLP216 T02670228,KCEW,2015-05-27T13:53:00Z,30.78,-86.52,26.7,22.8,60,3,,10.0,30.180119,1021.6,,TRUE,TRUE,,,,,,,CLR,,,,,,,,VFR,,,,,,,,,,,,METAR,55.0
KCDW 271353Z 00000KT 8SM OVC012 23/19 A3017 RMK AO2 SLP221 T02280189,KCDW,2015-05-27T13:53:00Z,40.88,-74.28,22.8,18.9,0,0,,8.0,30.171259,1022.1,,,TRUE,,,,,,,OVC,1200,,,,,,,MVFR,,,,,,,,,,,,METAR,64.0
KCDR 271353Z AUTO 17011KT 10SM OVC110 16/11 A3002 RMK AO2 SLP155 T01560111,KCDR,2015-05-27T13:53:00Z,42.83,-103.1,15.6,11.1,170,11,,10.0,30.02067,1015.5,,TRUE,TRUE,,,,,,,OVC,11000,,,,,,,VFR,,,,,,,,,,,,METAR,1010.0
KCDC 271353Z AUTO 00000KT 10SM CLR 11/05 A3012 RMK AO2 SLP160 T01110050,KCDC,2015-05-27T13:53:00Z,37.7,-113.1,11.1,5.0,0,0,,10.0,30.121063,1016.0,,TRUE,TRUE,,,,,,,CLR,,,,,,,,VFR,,,,,,,,,,,,METAR,1714.0
KCCR 271353Z 22007KT 10SM OVC015 13/08 A3000 RMK AO2 SLP145 T01280083,KCCR,2015-05-27T13:53:00Z,38.0,-122.05,12.8,8.3,220,7,,10.0,30.0,1014.5,,,TRUE,,,,,,,OVC,1500,,,,,,,MVFR,,,,,,,,,,,,METAR,11.0
KCAG 271353Z AUTO 00000KT 10SM SCT075 12/06 A3017 RMK AO2 SLP181 T01170061,KCAG,2015-05-27T13:53:00Z,40.5,-107.52,11.7,6.1,0,0,,10.0,30.171259,1018.1,,TRUE,TRUE,,,,,,,SCT,7500,,,,,,,VFR,,,,,,,,,,,,METAR,1887.0
KBYI 271353Z AUTO 00000KT 10SM FEW100 12/08 A3002 RMK AO2 SLP138 T01220083,KBYI,2015-05-27T13:53:00Z,42.55,-113.77,12.2,8.3,0,0,,10.0,30.02067,1013.8,,TRUE,TRUE,,,,,,,FEW,10000,,,,,,,VFR,,,,,,,,,,,,METAR,1264.0
KBYG 271353Z AUTO 32008KT 10SM OVC070 11/09 A3002 RMK AO2 RAE25 SLP130 P0000 T01110089,KBYG,2015-05-27T13:53:00Z,44.38,-106.72,11.1,8.9,320,8,,10.0,30.02067,1013.0,,TRUE,TRUE,,,,,,,OVC,7000,,,,,,,VFR,,,,,,0.0050,,,,,,METAR,1497.0
KBWG 271353Z AUTO 20009KT 10SM SCT013 SCT020 OVC031 24/20 A3017 RMK AO2 SLP212 T02390200,KBWG,2015-05-27T13:53:00Z,36.97,-86.42,23.9,20.0,200,9,,10.0,30.171259,1021.2,,TRUE,TRUE,,,,,,,SCT,1300,SCT,2000,OVC,3100,,,VFR,,,,,,,,,,,,METAR,168.0
KBVY 271353Z 18008KT 10SM CLR 24/17 A3014 RMK AO2 SLP199 T02440172,KBVY,2015-05-27T13:53:00Z,42.58,-70.92,24.4,17.2,180,8,,10.0,30.138779,1019.9,,,TRUE,,,,,,,CLR,,,,,,,,VFR,,,,,,,,,,,,METAR,28.0
KBVO 271353Z AUTO 00000KT 10SM OVC013 21/19 A3008 RMK AO2 SLP178 T02060194,KBVO,2015-05-27T13:53:00Z,36.77,-96.02,20.6,19.4,0,0,,10.0,30.079725,1017.8,,TRUE,TRUE,,,,,,,OVC,1300,,,,,,,MVFR,,,,,,,,,,,,METAR,210.0
KBUR 271353Z 19003KT 9SM OVC013 14/11 A2998 RMK AO2 SLP143 T01440111,KBUR,2015-05-27T13:53:00Z,34.2,-118.37,14.4,11.1,190,3,,9.0,29.97933,1014.3,,,TRUE,,,,,,,OVC,1300,,,,,,,MVFR,,,,,,,,,,,,SPECI,217.0
KBTR 271353Z 00000KT 10SM BKN008 BKN018 OVC030 24/23 A3015 RMK AO2 SLP207 T02440233,KBTR,2015-05-27T13:53:00Z,30.53,-91.15,24.4,23.3,0,0,,10.0,30.15059,1020.7,,,TRUE,,,,,,,BKN,800,BKN,1800,OVC,3000,,,IFR,,,,,,,,,,,,METAR,21.0
KBTM 271353Z AUTO 00000KT 10SM OVC035 08/06 A3007 RMK AO2 RAB02E28 SLP156 P0000 T00830061,KBTM,2015-05-27T13:53:00Z,45.97,-112.5,8.3,6.1,0,0,,10.0,30.070866,1015.6,,TRUE,TRUE,,,,,,,OVC,3500,,,,,,,VFR,,,,,,0.0050,,,,,,METAR,1688.0
KBTL 271353Z 22016KT 10SM FEW025 22/16 A2996 RMK AO2 SLP139 T02220161,KBTL,2015-05-27T13:53:00Z,42.32,-85.23,22.2,16.1,220,16,,10.0,29.958662,1013.9,,,TRUE,,,,,,,FEW,2500,,,,,,,VFR,,,,,,,,,,,,METAR,290.0
KBRL 271353Z AUTO 30008KT 10SM CLR 18/15 A3000 RMK AO2 SLP155 T01830150,KBRL,2015-05-27T13:53:00Z,40.77,-91.13,18.3,15.0,300,8,,10.0,30.0,1015.5,,TRUE,TRUE,,,,,,,CLR,,,,,,,,VFR,,,,,,,,,,,,METAR,211.0
KBRD 271353Z AUTO 27004KT 10SM CLR 16/13 A2989 RMK AO2 SLP121 T01610128,KBRD,2015-05-27T13:53:00Z,46.4,-94.13,16.1,12.8,270,4,,10.0,29.890747,1012.1,,TRUE,TRUE,,,,,,,CLR,,,,,,,,VFR,,,,,,,,,,,,METAR,372.0
KFAT 271353Z 31006KT 10SM CLR 14/09 A2995 RMK AO2 SLP138 MTNS OBSC HZ DSNT E-S T01440094,KFAT,2015-05-27T13:53:00Z,36.78,-119.72,14.4,9.4,310,6,,10.0,29.949802,1013.8,,,TRUE,,,,,,,CLR,,,,,,,,VFR,,,,,,,,,,,,METAR,104.0
KFAR 271353Z 35012KT 10SM CLR 18/12 A2992 RMK AO2 SLP132 T01780117,KFAR,2015-05-27T13:53:00Z,46.93,-96.82,17.8,11.7,350,12,,10.0,29.920275,1013.2,,,TRUE,,,,,,,CLR,,,,,,,,VFR,,,,,,,,,,,,METAR,277.0
KEYW 271353Z 11013KT 10SM SCT034 28/20 A3011 RMK AO2 SLP194 T02830200,KEYW,2015-05-27T13:53:00Z,24.55,-81.75,28.3,20.0,110,13,,10.0,30.109253,1019.4,,,TRUE,,,,,,,SCT,3400,,,,,,,VFR,,,,,,,,,,,,METAR,5.0
KEYE 271353Z AUTO 23005G16KT 10SM CLR 23/17 A3006 RMK AO2 SLP174 T02280172,KEYE,2015-05-27T13:53:00Z,39.83,-86.3,22.8,17.2,230,5,16,10.0,30.059055,1017.4,,TRUE,TRUE,,,,,,,CLR,,,,,,,,VFR,,,,,,,,,,,,METAR,248.0
KEVW 271353Z AUTO 00000KT 10SM SCT060 07/05 A3017 RMK AO2 SLP164 T00720050,KEVW,2015-05-27T13:53:00Z,41.27,-111.03,7.2,5.0,0,0,,10.0,30.171259,1016.4,,TRUE,TRUE,,,,,,,SCT,6000,,,,,,,VFR,,,,,,,,,,,,METAR,2177.0
KEQY 271353Z AUTO 21005KT 10SM SCT120 22/19 A3027 RMK AO2 SLP248 T02220189,KEQY,2015-05-27T13:53:00Z,35.02,-80.62,22.2,18.9,210,5,,10.0,30.268702,1024.8,,TRUE,TRUE,,,,,,,SCT,12000,,,,,,,VFR,,,,,,,,,,,,SPECI,212.0
KEPH 271353Z AUTO 00000KT 10SM CLR 13/11 A3000 RMK AO2 SLP154 T01330106,KEPH,2015-05-27T13:53:00Z,47.3,-119.52,13.3,10.6,0,0,,10.0,30.0,1015.4,,TRUE,TRUE,,,,,,,CLR,,,,,,,,VFR,,,,,,,,,,,,SPECI,383.0
KENW 271353Z 23013KT 10SM SCT017 BKN027 BKN046 19/16 A2991 RMK AO2 SLP126 T01940161,KENW,2015-05-27T13:53:00Z,42.6,-87.93,19.4,16.1,230,13,,10.0,29.911417,1012.6,,,TRUE,,,,,,,SCT,1700,BKN,2700,BKN,4600,,,MVFR,,,,,,,,,,,,SPECI,219.0
KEMP 271353Z AUTO 04004KT 10SM CLR 21/14 A3008 RMK AO2 SLP181 T02060144 $,KEMP,2015-05-27T13:53:00Z,38.33,-96.2,20.6,14.4,40,4,,10.0,30.079725,1018.1,,TRUE,TRUE,TRUE,,,,,,CLR,,,,,,,,VFR,,,,,,,,,,,,METAR,367.0
KELY 271353Z AUTO 34004KT 10SM CLR 09/06 A3014 RMK AO2 SLP137 T00940056,KELY,2015-05-27T13:53:00Z,39.3,-114.85,9.4,5.6,340,4,,10.0,30.138779,1013.7,,TRUE,TRUE,,,,,,,CLR,,,,,,,,VFR,,,,,,,,,,,,METAR,1906.0
KELN 271353Z AUTO 09003KT 10SM CLR 13/08 A3003 RMK AO2 SLP164 T01280083,KELN,2015-05-27T13:53:00Z,47.03,-120.53,12.8,8.3,90,3,,10.0,30.029528,1016.4,,TRUE,TRUE,,,,,,,CLR,,,,,,,,VFR,,,,,,,,,,,,SPECI,519.0
KELM 271353Z 24011KT 10SM BKN035 26/17 A3008 RMK AO2 SLP179 T02560172,KELM,2015-05-27T13:53:00Z,42.15,-76.9,25.6,17.2,240,11,,10.0,30.079725,1017.9,,,TRUE,,,,,,,BKN,3500,,,,,,,VFR,,,,,,,,,,,,SPECI,302.0
KELD 271353Z AUTO 00000KT 10SM CLR 21/20 A3011 RMK AO2 SLP194 T02110200,KELD,2015-05-27T13:53:00Z,33.22,-92.82,21.1,20.0,0,0,,10.0,30.109253,1019.4,,TRUE,TRUE,,,,,,,CLR,,,,,,,,VFR,,,,,,,,,,,,SPECI,81.0
KEEO 271353Z AUTO 00000KT 10SM CLR 09/07 A3019 RMK AO2 SLP180 T00890067,KEEO,2015-05-27T13:53:00Z,40.05,-107.88,8.9,6.7,0,0,,10.0,30.188976,1018.0,,TRUE,TRUE,,,,,,,CLR,,,,,,,,VFR,,,,,,,,,,,,SPECI,1930.0
KECP 271353Z 08006KT 10SM CLR 26/22 A3017 RMK AO2 SLP227 T02560222,KECP,2015-05-27T13:53:00Z,30.35,-85.8,25.6,22.2,80,6,,10.0,30.171259,1022.7,,,TRUE,,,,,,,CLR,,,,,,,,VFR,,,,,,,,,,,,SPECI,21.0
KDWH 271353Z 16003KT 5SM VCTS -RA BR BKN040 OVC100 19/19 A3010 RMK AO2 LTG DSNT ALQDS TSE13 SLP190 P0002 T01940189,KDWH,2015-05-27T13:53:00Z,30.07,-95.55,19.4,18.9,160,3,,5.0,30.100393,1019.0,,,TRUE,,,,,,VCTS -RA BR,BKN,4000,OVC,10000,,,,,MVFR,,,,,,0.02,,,,,,SPECI,46.0
KDVT 271353Z 00000KT 10SM CLR 22/05 A2992 RMK AO2 SLP109 T02170050,KDVT,2015-05-27T13:53:00Z,33.68,-112.07,21.7,5.0,0,0,,10.0,29.920275,1010.9,,,TRUE,,,,,,,CLR,,,,,,,,VFR,,,,,,,,,,,,SPECI,443.0
KDUJ 271353Z AUTO 21008KT 10SM OVC010 19/17 A3015 RMK AO2 RAE1255 CIG 006V012 SLP198 P0000 T01940172,KDUJ,2015-05-27T13:53:00Z,41.17,-78.9,19.4,17.2,210,8,,10.0,30.15059,1019.8,,TRUE,TRUE,,,,,,,OVC,1000,,,,,,,MVFR,,,,,,0.0050,,,,,,SPECI,554.0
KDTW 271353Z 21014KT 10SM FEW035 SCT240 23/17 A2998 RMK AO2 SLP148 T02330167 $,KDTW,2015-05-27T13:53:00Z,42.23,-83.33,23.3,16.7,210,14,,10.0,29.97933,1014.8,,,TRUE,TRUE,,,,,,FEW,3500,SCT,24000,,,,,VFR,,,,,,,,,,,,SPECI,195.0
KDTS 271353Z AUTO 13010KT 10SM CLR 27/23 A3016 RMK AO2 SLP211 T02720228 TSNO,KDTS,2015-05-27T13:53:00Z,30.4,-86.47,27.2,22.8,130,10,,10.0,30.159449,1021.1,,TRUE,TRUE,,,TRUE,,,,CLR,,,,,,,,VFR,,,,,,,,,,,,SPECI,5.0
KDTO 271353Z 00000KT 10SM CLR 22/16 A3009 RMK AO2 SLP181 T02170161,KDTO,2015-05-27T13:53:00Z,33.2,-97.2,21.7,16.1,0,0,,10.0,30.088583,1018.1,,,TRUE,,,,,,,CLR,,,,,,,,VFR,,,,,,,,,,,,SPECI,196.0
KDTN 271353Z 11005KT 10SM CLR 21/18 A3007 RMK AO2 SLP179 T02060183,KDTN,2015-05-27T13:53:00Z,32.55,-93.75,20.6,18.3,110,5,,10.0,30.070866,1017.9,,,TRUE,,,,,,,CLR,,,,,,,,VFR,,,,,,,,,,,,SPECI,53.0
KDRT 271353Z AUTO 13009KT 7SM OVC013 26/23 A2999 RMK AO2 SLP139 T02560228,KDRT,2015-05-27T13:53:00Z,29.37,-100.92,25.6,22.8,130,9,,7.0,29.991142,1013.9,,TRUE,TRUE,,,,,,,OVC,1300,,,,,,,MVFR,,,,,,,,,,,,METAR,313.0
KDRO 271353Z AUTO 00000KT 10SM FEW090 10/06 A3023 RMK AO2 SLP181 T01000056,KDRO,2015-05-27T13:53:00Z,37.15,-107.77,10.0,5.6,0,0,,10.0,30.230314,1018.1,,TRUE,TRUE,,,,,,,FEW,9000,,,,,,,VFR,,,,,,,,,,,,SPECI,2035.0
PAYA 271353Z 27005KT 10SM BKN015 BKN021 OVC027 09/07 A3017 RMK AO2 SLP218 T00890072,PAYA,2015-05-27T13:53:00Z,59.52,-139.67,8.9,7.2,270,5,,10.0,30.171259,1021.8,,,TRUE,,,,,,,BKN,1500,BKN,2100,OVC,2700,,,MVFR,,,,,,,,,,,,METAR,11.0
PAWD 271353Z AUTO 36014G24KT 10SM CLR 09/01 A3024 RMK AO2 PK WND 35027/1329 SLP239 T00890006 TSNO,PAWD,2015-05-27T13:53:00Z,60.12,-149.42,8.9,0.6,360,14,24,10.0,30.239174,1023.9,,TRUE,TRUE,,,TRUE,,,,CLR,,,,,,,,VFR,,,,,,,,,,,,SPECI,23.0
PAVL 271353Z AUTO 15009KT 10SM SCT080 BKN100 09/06 A3007 RMK AO2 RAB22E31 SLP183 P0000 T00890056 TSNO,PAVL,2015-05-27T13:53:00Z,67.73,-164.55,8.9,5.6,150,9,,10.0,30.070866,1018.3,,TRUE,TRUE,,,TRUE,,,,SCT,8000,BKN,10000,,,,,VFR,,,,,,0.0050,,,,,,SPECI,3.0
PATO 271353Z AUTO 27009G17KT 10SM CLR 08/02 A3026 RMK AO2 SLP248 T00830017 TSNO,PATO,2015-05-27T13:53:00Z,60.78,-148.85,8.3,1.7,270,9,17,10.0,30.259842,1024.8,,TRUE,TRUE,,,TRUE,,,,CLR,,,,,,,,VFR,,,,,,,,,,,,SPECI,31.0
PATK 271353Z AUTO 10SM CLR 03/02 A3030 RMK AO2 SLP263 T00330022 TSNO $,PATK,2015-05-27T13:53:00Z,62.3,-150.1,3.3,2.2,,,,10.0,30.301182,1026.3,,TRUE,TRUE,TRUE,,TRUE,,,,CLR,,,,,,,,VFR,,,,,,,,,,,,METAR,109.0
PASO 271353Z AUTO 00000KT 10SM CLR 02/01 A3031 RMK AO2 SLP262 T00220006 TSNO,PASO,2015-05-27T13:53:00Z,59.45,-151.7,2.2,0.6,0,0,,10.0,30.31004,1026.2,,TRUE,TRUE,,,TRUE,,,,CLR,,,,,,,,VFR,,,,,,,,,,,,SPECI,9.0
PASI 271353Z 22003KT 10SM -RA FEW011 OVC036 09/07 A3021 RMK AO2 PK WND 27035/1312 SLP229 P0003 T00940072,PASI,2015-05-27T13:53:00Z,57.07,-135.35,9.4,7.2,220,3,,10.0,30.209646,1022.9,,,TRUE,,,,,,-RA,FEW,1100,OVC,3600,,,,,VFR,,,,,,0.03,,,,,,SPECI,5.0
PASC 271353Z 08008KT 3/4SM BR VV002 01/M01 A3028 RMK AO2 SLP254 VIS1/2V1 1/2 T00061006 RVRNO,PASC,2015-05-27T13:53:00Z,70.2,-148.47,0.6,-0.6,80,8,,0.75,30.280512,1025.4,,,TRUE,,,,,,BR,OVX,0,,,,,,,LIFR,,,,,,,,,,,200,SPECI,15.0
PAOT 271353Z COR 12012KT 10SM SCT085 07/06 A3009 RMK AO2 SLP190 T00720056 $,PAOT,2015-05-27T13:53:00Z,66.87,-162.58,7.2,5.6,120,12,,10.0,30.088583,1019.0,TRUE,,TRUE,TRUE,,,,,,SCT,8500,,,,,,,VFR,,,,,,,,,,,,SPECI,3.0
PAOR 271353Z 32010G19KT 10SM SCT038 BKN045 BKN100 BKN150 11/08 A3006 RMK AO2 SLP187 T01060083,PAOR,2015-05-27T13:53:00Z,62.97,-141.93,10.6,8.3,320,10,19,10.0,30.059055,1018.7,,,TRUE,,,,,,,SCT,3800,BKN,4500,BKN,10000,BKN,15000,VFR,,,,,,,,,,,,METAR,523.0
PANN 271353Z AUTO VRB04KT 10SM OVC085 13/06 A3012 RMK AO2 SLP203 T01280056 TSNO,PANN,2015-05-27T13:53:00Z,64.55,-149.08,12.8,5.6,0,4,,10.0,30.121063,1020.3,,TRUE,TRUE,,,TRUE,,,,OVC,8500,,,,,,,VFR,,,,,,,,,,,,METAR,110.0
PANC 271353Z 00000KT 10SM BKN050 BKN200 05/02 A3029 RMK AO2 SLP258 T00500022,PANC,2015-05-27T13:53:00Z,61.17,-150.02,5.0,2.2,0,0,,10.0,30.28937,1025.8,,,TRUE,,,,,,,BKN,5000,BKN,20000,,,,,VFR,,,,,,,,,,,,METAR,38.0
PAMR 271353Z 00000KT 10SM SCT050 BKN200 08/02 A3029 RMK AO2 SLP258 T00830017,PAMR,2015-05-27T13:53:00Z,61.22,-149.85,8.3,1.7,0,0,,10.0,30.28937,1025.8,,,TRUE,,,,,,,SCT,5000,BKN,20000,,,,,VFR,,,,,,,,,,,,SPECI,41.0
PAMC 271353Z 00000KT 10SM SCT070 BKN200 07/04 A3021 RMK AO2 SLP234 T00720044 $,PAMC,2015-05-27T13:53:00Z,62.97,-155.62,7.2,4.4,0,0,,10.0,30.209646,1023.4,,,TRUE,TRUE,,,,,,SCT,7000,BKN,20000,,,,,VFR,,,,,,,,,,,,METAR,103.0
PALH 271353Z 00000KT 10SM OVC050 08/02 A3030 RMK AO2 SLP261 T00780022,PALH,2015-05-27T13:53:00Z,61.18,-149.97,7.8,2.2,0,0,,10.0,30.301182,1026.1,,,TRUE,,,,,,,OVC,5000,,,,,,,VFR,,,,,,,,,,,,SPECI,22.0
PAKW 271353Z AUTO 22004KT 10SM FEW016 BKN022 10/07 A3019 RMK AO2 SLP224 T01000067 TSNO,PAKW,2015-05-27T13:53:00Z,55.58,-133.07,10.0,6.7,220,4,,10.0,30.188976,1022.4,,TRUE,TRUE,,,TRUE,,,,FEW,1600,BKN,2200,,,,,MVFR,,,,,,,,,,,,SPECI,15.0
PAKV 271353Z AUTO 00000KT 10SM BKN075 OVC095 07/04 A3020 RMK AO2 SLP227 T00670044 TSNO $,PAKV,2015-05-27T13:53:00Z,64.33,-158.75,6.7,4.4,0,0,,10.0,30.200787,1022.7,,TRUE,TRUE,TRUE,,TRUE,,,,BKN,7500,OVC,9500,,,,,VFR,,,,,,,,,,,,SPECI,61.0
PAJN 271353Z 09003KT 10SM -RA FEW019 BKN037 OVC048 11/09 A3013 RMK AO2 RAE01B40 SLP203 P0000 T01060089,PAJN,2015-05-27T13:53:00Z,58.37,-134.58,10.6,8.9,90,3,,10.0,30.129921,1020.3,,,TRUE,,,,,,-RA,FEW,1900,BKN,3700,OVC,4800,,,VFR,,,,,,0.0050,,,,,,METAR,5.0
PAIL 271353Z 03005KT 10SM SCT200 03/01 A3027 RMK AO2 SLP253 T00280011,PAIL,2015-05-27T13:53:00Z,59.75,-154.92,2.8,1.1,30,5,,10.0,30.268702,1025.3,,,TRUE,,,,,,,SCT,20000,,,,,,,VFR,,,,,,,,,,,,SPECI,49.0
PAHO 271353Z 00000KT 10SM FEW250 04/01 A3031 RMK AO2 SLP263 T00390006,PAHO,2015-05-27T13:53:00Z,59.63,-151.5,3.9,0.6,0,0,,10.0,30.31004,1026.3,,,TRUE,,,,,,,FEW,25000,,,,,,,VFR,,,,,,,,,,,,METAR,28.0
PAGY 271353Z AUTO 21012G17KT 10SM OVC050 12/08 A3010 RMK AO2 RAE53 SLP192 P0000 T01170083 TSNO,PAGY,2015-05-27T13:53:00Z,59.47,-135.3,11.7,8.3,210,12,17,10.0,30.100393,1019.2,,TRUE,TRUE,,,TRUE,,,,OVC,5000,,,,,,,VFR,,,,,,0.0050,,,,,,SPECI,5.0
PAGK 271353Z AUTO 00000KT 10SM OVC060 10/04 A3016 RMK AO2 RAB1259E14 SLP218 P0000 T01000039 TSNO,PAGK,2015-05-27T13:53:00Z,62.15,-145.45,10.0,3.9,0,0,,10.0,30.159449,1021.8,,TRUE,TRUE,,,TRUE,,,,OVC,6000,,,,,,,VFR,,,,,,0.0050,,,,,,SPECI,481.0
PAFA 271353Z 00000KT 10SM FEW070 BKN090 BKN200 11/08 A3011 RMK AO2 SLP201 T01110078,PAFA,2015-05-27T13:53:00Z,64.8,-147.88,11.1,7.8,0,0,,10.0,30.109253,1020.1,,,TRUE,,,,,,,FEW,7000,BKN,9000,BKN,20000,,,VFR,,,,,,,,,,,,METAR,132.0
PAEN 271353Z 15003KT 10SM CLR 02/00 A3029 RMK AO2 SLP260 T00220000,PAEN,2015-05-27T13:53:00Z,60.57,-151.25,2.2,0.0,150,3,,10.0,30.28937,1026.0,,,TRUE,,,,,,,CLR,,,,,,,,VFR,,,,,,,,,,,,SPECI,27.0
PAEG 271353Z AUTO 00000KT 10SM CLR 08/05 A3008 RMK AO2 SLP188 T00830050 TSNO,PAEG,2015-05-27T13:53:00Z,64.78,-141.15,8.3,5.0,0,0,,10.0,30.079725,1018.8,,TRUE,TRUE,,,TRUE,,,,CLR,,,,,,,,VFR,,,,,,,,,,,,SPECI,268.0
PADQ 271353Z 29004KT 10SM FEW033 SCT055 03/02 A3032 RMK AO2 SLP266 T00280022,PADQ,2015-05-27T13:53:00Z,57.75,-152.5,2.8,2.2,290,4,,10.0,30.318897,1026.6,,,TRUE,,,,,,,FEW,3300,SCT,5500,,,,,VFR,,,,,,,,,,,,METAR,34.0
PADE 271353Z AUTO 11004KT 10SM BKN100 OVC120 10/04 A3007 RMK AO2 SLP182 T01000044 TSNO,PADE,2015-05-27T13:53:00Z,66.07,-162.77,10.0,4.4,110,4,,10.0,30.070866,1018.2,,TRUE,TRUE,,,TRUE,,,,BKN,10000,OVC,12000,,,,,VFR,,,,,,,,,,,,SPECI,5.0
PACV 271353Z 12003KT 10SM FEW028 SCT075 BKN200 05/04 A3015 RMK AO2 SLP208 T00500039 $,PACV,2015-05-27T13:53:00Z,60.5,-145.5,5.0,3.9,120,3,,10.0,30.15059,1020.8,,,TRUE,TRUE,,,,,,FEW,2800,SCT,7500,BKN,20000,,,VFR,,,,,,,,,,,,SPECI,12.0
PACD 271353Z 15008KT 10SM OVC043 07/06 A3003 RMK AO2 SLPNO T00670056 $,PACD,2015-05-27T13:53:00Z,55.2,-162.72,6.7,5.6,150,8,,10.0,30.029528,,,,TRUE,TRUE,,,,,,OVC,4300,,,,,,,VFR,,,,,,,,,,,,METAR,30.0
PABT 271353Z VRB03KT 10SM FEW090 SCT120 BKN170 11/05 A3015 RMK AO2 SLP217 T01110050,PABT,2015-05-27T13:53:00Z,66.92,-151.52,11.1,5.0,0,3,,10.0,30.15059,1021.7,,,TRUE,,,,,,,FEW,9000,SCT,12000,BKN,17000,,,VFR,,,,,,,,,,,,METAR,195.0
PABI 271353Z AUTO 23005KT 10SM BKN060 OVC075 12/07 A3015 RMK AO2 SLP212 T01220067 TSNO,PABI,2015-05-27T13:53:00Z,64.0,-145.73,12.2,6.7,230,5,,10.0,30.15059,1021.2,,TRUE,TRUE,,,TRUE,,,,BKN,6000,OVC,7500,,,,,VFR,,,,,,,,,,,,SPECI,386.0
PABE 271353Z 15007KT 10SM BKN038 OVC049 07/05 A3013 RMK AO2 SLP204 T00720050,PABE,2015-05-27T13:53:00Z,60.78,-161.85,7.2,5.0,150,7,,10.0,30.129921,1020.4,,,TRUE,,,,,,,BKN,3800,OVC,4900,,,,,VFR,,,,,,,,,,,,METAR,41.0
PAAQ 271353Z AUTO 29004KT 10SM OVC050 08/02 A3029 RMK AO2 SLP259 T00830022 TSNO,PAAQ,2015-05-27T13:53:00Z,61.6,-149.08,8.3,2.2,290,4,,10.0,30.28937,1025.9,,TRUE,TRUE,,,TRUE,,,,OVC,5000,,,,,,,VFR,,,,,,,,,,,,SPECI,73.0
KOQT 271353Z AUTO 26007KT 10SM BKN011 OVC034 21/18 A3025 RMK AO2 SLP234 T02110178,KOQT,2015-05-27T13:53:00Z,36.02,-84.23,21.1,17.8,260,7,,10.0,30.250984,1023.4,,TRUE,TRUE,,,,,,,BKN,1100,OVC,3400,,,,,MVFR,,,,,,,,,,,,METAR,277.0
PHLI 271353Z 25006KT 10SM SCT055 BKN070 19/15 A2994 RMK AO2 SLP136 T01860150 $,PHLI,2015-05-27T13:53:00Z,21.97,-159.33,18.6,15.0,250,6,,10.0,29.940945,1013.6,,,TRUE,TRUE,,,,,,SCT,5500,BKN,7000,,,,,VFR,,,,,,,,,,,,METAR,45.0
PHKO 271353Z AUTO 11003KT 10SM OVC050 24/19 A2989 RMK AO2 SLP120 T02390189 TSNO,PHKO,2015-05-27T13:53:00Z,19.73,-156.05,23.9,18.9,110,3,,10.0,29.890747,1012.0,,TRUE,TRUE,,,TRUE,,,,OVC,5000,,,,,,,VFR,,,,,,,,,,,,SPECI,27.0
PHTO 271353Z 20005KT 10SM OVC042 21/18 A2992 RMK AO2 SLP131 T02060178,PHTO,2015-05-27T13:53:00Z,19.72,-155.05,20.6,17.8,200,5,,10.0,29.920275,1013.1,,,TRUE,,,,,,,OVC,4200,,,,,,,VFR,,,,,,,,,,,,SPECI,12.0
PHNL 271353Z 32003KT 10SM FEW029 SCT038 SCT065 22/17 A2991 RMK AO2 SLP129 T02220172,PHNL,2015-05-27T13:53:00Z,21.33,-157.92,22.2,17.2,320,3,,10.0,29.911417,1012.9,,,TRUE,,,,,,,FEW,2900,SCT,3800,SCT,6500,,,VFR,,,,,,,,,,,,SPECI,4.0
PAOM 271353Z 29003KT 10SM OVC034 07/06 A3008 RMK AO2 SLP186 T00720056,PAOM,2015-05-27T13:53:00Z,64.5,-165.43,7.2,5.6,290,3,,10.0,30.079725,1018.6,,,TRUE,,,,,,,OVC,3400,,,,,,,VFR,,,,,,,,,,,,METAR,11.0
PHJR 271353Z AUTO 00000KT 10SM BKN070 20/16 A2993 RMK AO2 SLP141 T02000156 TSNO,PHJR,2015-05-27T13:53:00Z,21.32,-158.07,20.0,15.6,0,0,,10.0,29.929134,1014.1,,TRUE,TRUE,,,TRUE,,,,BKN,7000,,,,,,,VFR,,,,,,,,,,,,METAR,15.0
KP68 271353Z AUTO 13005KT 08/06 A3012 RMK AO1 SLP145 T00830061,KP68,2015-05-27T13:53:00Z,39.6,-116.0,8.3,6.1,130,5,,,30.121063,1014.5,,TRUE,TRUE,,,,,,,,,,,,,,,,,,,,,,,,,,,METAR,1809.0
KLOR 271353Z AUTO 13004KT 10SM FEW009 24/21 A3019 RMK AO2 SLP219 T02390211,KLOR,2015-05-27T13:53:00Z,31.35,-85.75,23.9,21.1,130,4,,10.0,30.188976,1021.9,,TRUE,TRUE,,,,,,,FEW,900,,,,,,,VFR,,,,,,,,,,,,METAR,74.0
KP92 271353Z AUTO 00000KT 27/25 A3012 RMK AO1 SLP199 T02720250,KP92,2015-05-27T13:53:00Z,29.57,-91.53,27.2,25.0,0,0,,,30.121063,1019.9,,TRUE,TRUE,,,,,,,,,,,,,,,,,,,,,,,,,,,METAR,1.0
KNUI 271353Z AUTO 20009KT 10SM CLR 26/20 A3019 RMK AO2 SLP224 T02560200 ,KNUI,2015-05-27T13:53:00Z,38.15,-76.43,25.6,20.0,200,9,,10.0,30.188976,1022.4,,TRUE,TRUE,,,,,,,CLR,,,,,,,,VFR,,,,,,,,,,,,METAR,7.0
KTWF 271353Z 19012KT 10SM CLR 14/06 A3000 RMK AO2 SLP116 T01440061,KTWF,2015-05-27T13:53:00Z,42.48,-114.48,14.4,6.1,190,12,,10.0,30.0,1011.6,,,TRUE,,,,,,,CLR,,,,,,,,VFR,,,,,,,,,,,,METAR,1266.0
KRVS 271353Z AUTO 17004KT 10SM CLR 22/18 A3006 RMK AO2 SLP184 T02220183,KRVS,2015-05-27T13:53:00Z,36.05,-95.98,22.2,18.3,170,4,,10.0,30.059055,1018.4,,TRUE,TRUE,,,,,,,CLR,,,,,,,,VFR,,,,,,,,,,,,METAR,200.0
KBRO 271353Z 15013KT 9SM SCT018 BKN029 OVC038 28/24 A3000 RMK AO2 SLP156 T02830244,KBRO,2015-05-27T13:53:00Z,25.92,-97.42,28.3,24.4,150,13,,9.0,30.0,1015.6,,,TRUE,,,,,,,SCT,1800,BKN,2900,OVC,3800,,,MVFR,,,,,,,,,,,,SPECI,7.0
KBIL 271353Z 21005KT 10SM BKN060 BKN095 12/11 A2999 RMK AO2 SLP146 SHRA DSNT NE T01220106,KBIL,2015-05-27T13:53:00Z,45.8,-108.55,12.2,10.6,210,5,,10.0,29.991142,1014.6,,,TRUE,,,,,,,BKN,6000,BKN,9500,,,,,VFR,,,,,,,,,,,,METAR,1091.0
KPUC 271353Z AUTO 06003KT 10SM CLR 12/04 A3016 RMK AO2 SLP183 T01170044 TSNO,KPUC,2015-05-27T13:53:00Z,39.62,-110.75,11.7,4.4,60,3,,10.0,30.159449,1018.3,,TRUE,TRUE,,,TRUE,,,,CLR,,,,,,,,VFR,,,,,,,,,,,,METAR,2091.0
KODX 271353Z AUTO 30003KT 10SM CLR 16/11 A3007 RMK AO2 SLP179 T01560111,KODX,2015-05-27T13:53:00Z,41.62,-98.95,15.6,11.1,300,3,,10.0,30.070866,1017.9,,TRUE,TRUE,,,,,,,CLR,,,,,,,,VFR,,,,,,,,,,,,METAR,631.0
KMCW 271353Z AUTO 27010KT 10SM CLR 18/14 A3000 RMK AO2 SLP150 T01830144,KMCW,2015-05-27T13:53:00Z,43.15,-93.33,18.3,14.4,270,10,,10.0,30.0,1015.0,,TRUE,TRUE,,,,,,,CLR,,,,,,,,VFR,,,,,,,,,,,,METAR,369.0
KLXT 271353Z AUTO VRB03KT 10SM CLR 21/14 A3009 RMK AO2 SLP181 T02110139,KLXT,2015-05-27T13:53:00Z,38.97,-94.37,21.1,13.9,0,3,,10.0,30.088583,1018.1,,TRUE,TRUE,,,,,,,CLR,,,,,,,,VFR,,,,,,,,,,,,METAR,306.0
KLSE 271353Z 35005KT 10SM FEW012 18/14 A2995 RMK AO2 SLP138 T01780139,KLSE,2015-05-27T13:53:00Z,43.88,-91.25,17.8,13.9,350,5,,10.0,29.949802,1013.8,,,TRUE,,,,,,,FEW,1200,,,,,,,VFR,,,,,,,,,,,,METAR,199.0
KGFK 271353Z 34012KT 10SM SCT110 14/08 A2994 RMK AO2 SLP138 T01440078,KGFK,2015-05-27T13:53:00Z,47.95,-97.18,14.4,7.8,340,12,,10.0,29.940945,1013.8,,,TRUE,,,,,,,SCT,11000,,,,,,,VFR,,,,,,,,,,,,METAR,258.0
TJNR 271353Z AUTO 07007KT 040V110 10SM CLR 30/22 A3002 RMK AO2 SLP165 T03000222 $,TJNR,2015-05-27T13:53:00Z,18.25,-65.63,30.0,22.2,70,7,,10.0,30.02067,1016.5,,TRUE,TRUE,TRUE,,,,,,CLR,,,,,,,,VFR,,,,,,,,,,,,METAR,12.0
KTUP 271353Z 20006KT 10SM OVC006 23/21 A3017 RMK AO2 LTG DSNT W SLP212 T02330206,KTUP,2015-05-27T13:53:00Z,34.27,-88.77,23.3,20.6,200,6,,10.0,30.171259,1021.2,,,TRUE,,,,,,,OVC,600,,,,,,,IFR,,,,,,,,,,,,METAR,105.0
KTCS 271353Z AUTO 01005KT 10SM CLR 19/M02 A3012 RMK AO2 SLP120 T01891017 TSNO,KTCS,2015-05-27T13:53:00Z,33.23,-107.27,18.9,-1.7,10,5,,10.0,30.121063,1012.0,,TRUE,TRUE,,,TRUE,,,,CLR,,,,,,,,VFR,,,,,,,,,,,,METAR,1469.0
KCQC 271353Z AUTO 13005KT 10SM CLR 15/04 A3023 RMK AO2 SLP156 T01500044,KCQC,2015-05-27T13:53:00Z,35.0,-105.67,15.0,4.4,130,5,,10.0,30.230314,1015.6,,TRUE,TRUE,,,,,,,CLR,,,,,,,,VFR,,,,,,,,,,,,METAR,2160.0
K6R6 271353Z AUTO 00000KT 24/20 A3003 RMK AO1 SLP134 T02390200,K6R6,2015-05-27T13:53:00Z,30.05,-102.22,23.9,20.0,0,0,,,30.029528,1013.4,,TRUE,TRUE,,,,,,,,,,,,,,,,,,,,,,,,,,,METAR,701.0
KMWT 271353Z AUTO 00000KT 10SM CLR 23/19 A3008 RMK AO2 SLP178 T02280194,KMWT,2015-05-27T13:53:00Z,34.55,-93.58,22.8,19.4,0,0,,10.0,30.079725,1017.8,,TRUE,TRUE,,,,,,,CLR,,,,,,,,VFR,,,,,,,,,,,,SPECI,214.0
KNQX 271353Z 10013KT 10SM SCT032 SCT150 29/21 A3010 RMK AO2 SLP192 T02890206,KNQX,2015-05-27T13:53:00Z,24.57,-81.67,28.9,20.6,100,13,,10.0,30.100393,1019.2,,,TRUE,,,,,,,SCT,3200,SCT,15000,,,,,VFR,,,,,,,,,,,,SPECI,2.0
KCTY 271353Z AUTO VRB05KT 27/22 A3021 RMK AO1 SLP230 T02670217,KCTY,2015-05-27T13:53:00Z,29.63,-83.1,26.7,21.7,0,5,,,30.209646,1023.0,,TRUE,TRUE,,,,,,,,,,,,,,,,,,,,,,,,,,,METAR,13.0
KNIP 271353Z 14008KT 10SM FEW031 FEW080 BKN250 28/18 A3024 RMK AO2 SLP234 T02780183,KNIP,2015-05-27T13:53:00Z,30.22,-81.67,27.8,18.3,140,8,,10.0,30.239174,1023.4,,,TRUE,,,,,,,FEW,3100,FEW,8000,BKN,25000,,,VFR,,,,,,,,,,,,SPECI,7.0
PTTP 271353Z 14003KT 12SM -RA BKN017TCU OVC120 25/24 A2989 RMK TCU ALQDS SLP122 T02460243,PTTP,2015-05-27T13:53:00Z,6.97,158.22,24.6,24.3,140,3,,12.0,29.890747,1012.2,,,,,,,,,-RA,BKN,1700,OVC,12000,,,,,MVFR,,,,,,,,,,,,METAR,2.0
KABR 271353Z AUTO 30003KT 10SM CLR 21/12 A2997 RMK AO2 SLP143 T02110122,KABR,2015-05-27T13:53:00Z,45.45,-98.42,21.1,12.2,300,3,,10.0,29.970472,1014.3,,TRUE,TRUE,,,,,,,CLR,,,,,,,,VFR,,,,,,,,,,,,METAR,397.0
KAAF 271353Z AUTO 14009KT 10SM SCT019 BKN027 OVC043 29/23 A3019 RMK AO2 SLP222 T02890228,KAAF,2015-05-27T13:53:00Z,29.73,-85.03,28.9,22.8,140,9,,10.0,30.188976,1022.2,,TRUE,TRUE,,,,,,,SCT,1900,BKN,2700,OVC,4300,,,MVFR,,,,,,,,,,,,METAR,5.0
KACK 271353Z 19015KT 10SM BKN027 18/14 A3026 RMK AO2 SLP247 T01830144,KACK,2015-05-27T13:53:00Z,41.25,-70.07,18.3,14.4,190,15,,10.0,30.259842,1024.7,,,TRUE,,,,,,,BKN,2700,,,,,,,MVFR,,,,,,,,,,,,METAR,16.0
KACV 271353Z AUTO 12005KT 6SM BR OVC008 10/10 A3003 RMK AO2 RAE1255 SLP175 P0001 T01000100,KACV,2015-05-27T13:53:00Z,40.98,-124.1,10.0,10.0,120,5,,6.0,30.029528,1017.5,,TRUE,TRUE,,,,,,BR,OVC,800,,,,,,,IFR,,,,,,0.01,,,,,,METAR,67.0
KADG 271353Z AUTO 24012G19KT 10SM FEW023 22/17 A2999 RMK AO2 SLP154 T02220172 TSNO,KADG,2015-05-27T13:53:00Z,41.87,-84.08,22.2,17.2,240,12,19,10.0,29.991142,1015.4,,TRUE,TRUE,,,TRUE,,,,FEW,2300,,,,,,,VFR,,,,,,,,,,,,METAR,241.0
KAMG 271353Z AUTO 16007KT 10SM FEW015 26/21 A3025 RMK AO2 SLP240 T02560211,KAMG,2015-05-27T13:53:00Z,31.53,-82.5,25.6,21.1,160,7,,10.0,30.250984,1024.0,,TRUE,TRUE,,,,,,,FEW,1500,,,,,,,VFR,,,,,,,,,,,,METAR,59.0
KAMA 271353Z 18011KT 10SM CLR 19/15 A3010 RMK AO2 SLP151 T01940150,KAMA,2015-05-27T13:53:00Z,35.22,-101.72,19.4,15.0,180,11,,10.0,30.100393,1015.1,,,TRUE,,,,,,,CLR,,,,,,,,VFR,,,,,,,,,,,,METAR,1093.0
KALW 271353Z 20006KT 10SM FEW080 BKN120 16/09 A3001 RMK AO2 SLP159 T01560094,KALW,2015-05-27T13:53:00Z,46.1,-118.28,15.6,9.4,200,6,,10.0,30.008858,1015.9,,,TRUE,,,,,,,FEW,8000,BKN,12000,,,,,VFR,,,,,,,,,,,,METAR,363.0
KALI 271353Z AUTO 16011G23KT 9SM SCT013 BKN020 28/24 A3000 RMK AO2 SLP156 T02780244,KALI,2015-05-27T13:53:00Z,27.73,-98.02,27.8,24.4,160,11,23,9.0,30.0,1015.6,,TRUE,TRUE,,,,,,,SCT,1300,BKN,2000,,,,,MVFR,,,,,,,,,,,,METAR,53.0
KAKO 271353Z AUTO 18006KT 10SM OVC120 15/11 A3008 RMK AO2 SLP147 T01500111,KAKO,2015-05-27T13:53:00Z,40.17,-103.22,15.0,11.1,180,6,,10.0,30.079725,1014.7,,TRUE,TRUE,,,,,,,OVC,12000,,,,,,,VFR,,,,,,,,,,,,METAR,1421.0
KAIA 271353Z AUTO 16010KT 10SM BKN095 15/12 A3005 RMK AO2 SLP151 T01500117,KAIA,2015-05-27T13:53:00Z,42.05,-102.8,15.0,11.7,160,10,,10.0,30.050198,1015.1,,TRUE,TRUE,,,,,,,BKN,9500,,,,,,,VFR,,,,,,,,,,,,METAR,1196.0
KAGS 271353Z 00000KT 10SM FEW008 OVC012 23/21 A3026 RMK AO2 SLP246 T02280206,KAGS,2015-05-27T13:53:00Z,33.37,-81.97,22.8,20.6,0,0,,10.0,30.259842,1024.6,,,TRUE,,,,,,,FEW,800,OVC,1200,,,,,MVFR,,,,,,,,,,,,METAR,44.0
KAGC 271353Z 21008KT 10SM SCT008 BKN029 20/17 A3016 RMK AO2 SLP208 T02000167,KAGC,2015-05-27T13:53:00Z,40.35,-79.92,20.0,16.7,210,8,,10.0,30.159449,1020.8,,,TRUE,,,,,,,SCT,800,BKN,2900,,,,,MVFR,,,,,,,,,,,,METAR,389.0
KAFW 271353Z 11006KT 10SM FEW250 22/16 A3008 RMK AO2 SLP176 CB DSIPTD T02220156,KAFW,2015-05-27T13:53:00Z,32.97,-97.32,22.2,15.6,110,6,,10.0,30.079725,1017.6,,,TRUE,,,,,,,FEW,25000,,,,,,,VFR,,,,,,,,,,,,METAR,233.0
KAMW 271353Z AUTO 29006KT 10SM CLR 19/14 A3001 RMK AO2 SLP156 T01890144,KAMW,2015-05-27T13:53:00Z,41.98,-93.62,18.9,14.4,290,6,,10.0,30.008858,1015.6,,TRUE,TRUE,,,,,,,CLR,,,,,,,,VFR,,,,,,,,,,,,METAR,279.0
KAOH 271353Z AUTO 21015G20KT 10SM CLR 22/17 A3006 RMK AO2 SLP174 T02170172,KAOH,2015-05-27T13:53:00Z,40.7,-84.02,21.7,17.2,210,15,20,10.0,30.059055,1017.4,,TRUE,TRUE,,,,,,,CLR,,,,,,,,VFR,,,,,,,,,,,,METAR,296.0
KAPF 271353Z 09008KT 10SM FEW025 28/21 A3013 RMK AO2 SLP202 T02780211,KAPF,2015-05-27T13:53:00Z,26.15,-81.77,27.8,21.1,90,8,,10.0,30.129921,1020.2,,,TRUE,,,,,,,FEW,2500,,,,,,,VFR,,,,,,,,,,,,METAR,3.0
KAPA 271353Z 24008KT 10SM FEW120 FEW150 FEW200 15/05 A3010 RMK AO2 SLP145 ACSL DSNT SW-W T01500050,KAPA,2015-05-27T13:53:00Z,39.57,-104.85,15.0,5.0,240,8,,10.0,30.100393,1014.5,,,TRUE,,,,,,,FEW,12000,FEW,15000,FEW,20000,,,VFR,,,,,,,,,,,,METAR,1775.0
KAOO 271353Z AUTO 24009KT 10SM BKN060 22/16 A3019 RMK AO2 RAB10E22 SLP212 P0000 T02170161,KAOO,2015-05-27T13:53:00Z,40.3,-78.32,21.7,16.1,240,9,,10.0,30.188976,1021.2,,TRUE,TRUE,,,,,,,BKN,6000,,,,,,,VFR,,,,,,0.0050,,,,,,METAR,455.0
KASD 271353Z AUTO 16008KT 10SM FEW013 SCT022 BKN027 27/24 A3015 RMK AO2 SLP209 T02720239,KASD,2015-05-27T13:53:00Z,30.35,-89.82,27.2,23.9,160,8,,10.0,30.15059,1020.9,,TRUE,TRUE,,,,,,,FEW,1300,SCT,2200,BKN,2700,,,MVFR,,,,,,,,,,,,METAR,9.0
KARB 271353Z AUTO 24015G20KT 10SM FEW023 22/17 A2997 RMK AO2 SLP144 T02220172,KARB,2015-05-27T13:53:00Z,42.22,-83.73,22.2,17.2,240,15,20,10.0,29.970472,1014.4,,TRUE,TRUE,,,,,,,FEW,2300,,,,,,,VFR,,,,,,,,,,,,METAR,251.0
KASX 271353Z AUTO 23009KT 10SM CLR 17/13 A2983 RMK AO2 SLP105 T01670128,KASX,2015-05-27T13:53:00Z,46.55,-90.92,16.7,12.8,230,9,,10.0,29.828741,1010.5,,TRUE,TRUE,,,,,,,CLR,,,,,,,,VFR,,,,,,,,,,,,METAR,251.0
KATY 271353Z AUTO 31006KT 10SM CLR 19/12 A2998 RMK AO2 SLP146 T01890117 TSNO,KATY,2015-05-27T13:53:00Z,44.9,-97.15,18.9,11.7,310,6,,10.0,29.97933,1014.6,,TRUE,TRUE,,,TRUE,,,,CLR,,,,,,,,VFR,,,,,,,,,,,,METAR,532.0
KPSP 271353Z 14004KT 10SM CLR 20/12 A2988 RMK AO2 SLP117 T02000117,KPSP,2015-05-27T13:53:00Z,33.82,-116.5,20.0,11.7,140,4,,10.0,29.878937,1011.7,,,TRUE,,,,,,,CLR,,,,,,,,VFR,,,,,,,,,,,,METAR,135.0
KPTK 271353Z 22011KT 10SM SCT025 22/17 A2995 RMK AO2 SLP136 T02220167 $,KPTK,2015-05-27T13:53:00Z,42.67,-83.42,22.2,16.7,220,11,,10.0,29.949802,1013.6,,,TRUE,TRUE,,,,,,SCT,2500,,,,,,,VFR,,,,,,,,,,,,METAR,299.0
KPUB 271353Z 28006KT 10SM CLR 13/09 A3011 RMK AO2 SLP155 T01280094,KPUB,2015-05-27T13:53:00Z,38.28,-104.5,12.8,9.4,280,6,,10.0,30.109253,1015.5,,,TRUE,,,,,,,CLR,,,,,,,,VFR,,,,,,,,,,,,METAR,1420.0
KPWA 271353Z 18005KT 10SM CLR 22/17 A3007 RMK AO2 SLP170 T02170172,KPWA,2015-05-27T13:53:00Z,35.53,-97.65,21.7,17.2,180,5,,10.0,30.070866,1017.0,,,TRUE,,,,,,,CLR,,,,,,,,VFR,,,,,,,,,,,,METAR,397.0
KPUW 271353Z AUTO 00000KT 10SM SCT095 08/07 A3003 RMK AO2 SLP170 T00830067,KPUW,2015-05-27T13:53:00Z,46.75,-117.12,8.3,6.7,0,0,,10.0,30.029528,1017.0,,TRUE,TRUE,,,,,,,SCT,9500,,,,,,,VFR,,,,,,,,,,,,METAR,773.0
KRIW 271353Z AUTO 29006KT 10SM BKN075 11/09 A3006 RMK AO2 SLP142 T01060089,KRIW,2015-05-27T13:53:00Z,43.07,-108.47,10.6,8.9,290,6,,10.0,30.059055,1014.2,,TRUE,TRUE,,,,,,,BKN,7500,,,,,,,VFR,,,,,,,,,,,,METAR,1697.0
KRIL 271353Z AUTO 00000KT 10SM SCT001 09/07 A3019 RMK AO2 SLP191 T00940067 $,KRIL,2015-05-27T13:53:00Z,39.53,-107.73,9.4,6.7,0,0,,10.0,30.188976,1019.1,,TRUE,TRUE,TRUE,,,,,,SCT,100,,,,,,,VFR,,,,,,,,,,,,METAR,1678.0
KRHI 271353Z AUTO 26007KT 10SM -RA SCT043 BKN050 OVC065 12/12 A2988 RMK AO2 SLP118 P0001 T01220117,KRHI,2015-05-27T13:53:00Z,45.63,-89.48,12.2,11.7,260,7,,10.0,29.878937,1011.8,,TRUE,TRUE,,,,,,-RA,SCT,4300,BKN,5000,OVC,6500,,,VFR,,,,,,0.01,,,,,,METAR,485.0
KRDD 271353Z 19003KT 10SM CLR 17/10 A2997 RMK AO2 SLP143 T01720100,KRDD,2015-05-27T13:53:00Z,40.52,-122.3,17.2,10.0,190,3,,10.0,29.970472,1014.3,,,TRUE,,,,,,,CLR,,,,,,,,VFR,,,,,,,,,,,,METAR,155.0
KRBG 271353Z AUTO 00000KT 10SM CLR 11/09 A3007 RMK AO2 SLP180 T01110089,KRBG,2015-05-27T13:53:00Z,43.23,-123.35,11.1,8.9,0,0,,10.0,30.070866,1018.0,,TRUE,TRUE,,,,,,,CLR,,,,,,,,VFR,,,,,,,,,,,,METAR,154.0
KRBD 271353Z 00000KT 10SM CLR 18/15 A3008 RMK AO2 SLP178 T01780150 $,KRBD,2015-05-27T13:53:00Z,32.68,-96.87,17.8,15.0,0,0,,10.0,30.079725,1017.8,,,TRUE,TRUE,,,,,,CLR,,,,,,,,VFR,,,,,,,,,,,,METAR,203.0
KRKP 271353Z AUTO 15006KT 8SM FEW017 28/23 A3003 RMK AO2 SLP171 T02830233,KRKP,2015-05-27T13:53:00Z,28.08,-97.05,28.3,23.3,150,6,,8.0,30.029528,1017.1,,TRUE,TRUE,,,,,,,FEW,1700,,,,,,,VFR,,,,,,,,,,,,METAR,6.0
KRME 271353Z 24010G18KT 10SM FEW039 BKN080 BKN090 26/18 A3006 RMK AO2 SLP175 T02610178,KRME,2015-05-27T13:53:00Z,43.22,-75.4,26.1,17.8,240,10,18,10.0,30.059055,1017.5,,,TRUE,,,,,,,FEW,3900,BKN,8000,BKN,9000,,,VFR,,,,,,,,,,,,METAR,154.0
KRNM 271353Z AUTO 28006KT 5SM BR OVC004 13/12 A2997 RMK AO2 CIG 002V006 SLP140 T01280122,KRNM,2015-05-27T13:53:00Z,33.03,-116.92,12.8,12.2,280,6,,5.0,29.970472,1014.0,,TRUE,TRUE,,,,,,BR,OVC,400,,,,,,,LIFR,,,,,,,,,,,,METAR,427.0
KRNT 271353Z 00000KT 9SM SCT047 13/11 A3006 RMK AO2 SLP185 T01330106,KRNT,2015-05-27T13:53:00Z,47.5,-122.22,13.3,10.6,0,0,,9.0,30.059055,1018.5,,,TRUE,,,,,,,SCT,4700,,,,,,,VFR,,,,,,,,,,,,METAR,21.0
KRQE 271353Z AUTO 00000KT 10SM CLR 10/03 A3022 RMK AO2 SLP140 T01000028 TSNO,KRQE,2015-05-27T13:53:00Z,35.65,-109.07,10.0,2.8,0,0,,10.0,30.221457,1014.0,,TRUE,TRUE,,,TRUE,,,,CLR,,,,,,,,VFR,,,,,,,,,,,,METAR,2055.0
KRSL 271353Z AUTO 09008KT 10SM CLR 20/13 A3006 RMK AO2 SLP170 T02000133,KRSL,2015-05-27T13:53:00Z,38.87,-98.82,20.0,13.3,90,8,,10.0,30.059055,1017.0,,TRUE,TRUE,,,,,,,CLR,,,,,,,,VFR,,,,,,,,,,,,METAR,567.0
KRTN 271353Z AUTO 08004KT 10SM SCT120 11/08 A3021 RMK AO2 SLP172 T01060078 $,KRTN,2015-05-27T13:53:00Z,36.73,-104.5,10.6,7.8,80,4,,10.0,30.209646,1017.2,,TRUE,TRUE,TRUE,,,,,,SCT,12000,,,,,,,VFR,,,,,,,,,,,,METAR,1936.0
KUNV 271353Z 26007KT 10SM BKN031 OVC075 23/17 A3015,KUNV,2015-05-27T13:53:00Z,40.85,-77.83,23.0,17.0,260,7,,10.0,30.15059,,,,,,,,,,,BKN,3100,OVC,7500,,,,,VFR,,,,,,,,,,,,METAR,378.0
KRWL 271353Z AUTO 23009KT 10SM BKN038 OVC047 08/06 A3015 RMK AO2 SLP152 T00830061,KRWL,2015-05-27T13:53:00Z,41.78,-107.2,8.3,6.1,230,9,,10.0,30.15059,1015.2,,TRUE,TRUE,,,,,,,BKN,3800,OVC,4700,,,,,VFR,,,,,,,,,,,,METAR,2077.0
KRWI 271353Z AUTO 22006KT 10SM BKN018 OVC025 25/21 A3026 RMK AO2 SLP246 T02500211,KRWI,2015-05-27T13:53:00Z,35.85,-77.9,25.0,21.1,220,6,,10.0,30.259842,1024.6,,TRUE,TRUE,,,,,,,BKN,1800,OVC,2500,,,,,MVFR,,,,,,,,,,,,METAR,47.0
KRWF 271353Z AUTO 29008KT 10SM CLR 18/12 A2994 RMK AO2 SLP137 T01830122,KRWF,2015-05-27T13:53:00Z,44.55,-95.08,18.3,12.2,290,8,,10.0,29.940945,1013.7,,TRUE,TRUE,,,,,,,CLR,,,,,,,,VFR,,,,,,,,,,,,METAR,311.0
KRXE 271353Z AUTO 06003KT 10SM FEW030 BKN041 OVC070 08/07 A3008 RMK AO2 SLP177 T00830072,KRXE,2015-05-27T13:53:00Z,43.83,-111.8,8.3,7.2,60,3,,10.0,30.079725,1017.7,,TRUE,TRUE,,,,,,,FEW,3000,BKN,4100,OVC,7000,,,VFR,,,,,,,,,,,,METAR,1480.0
KHBR 271353Z AUTO 18006KT 10SM FEW017 21/17 A3006 RMK AO2 SLP167 T02060167,KHBR,2015-05-27T13:53:00Z,34.98,-99.05,20.6,16.7,180,6,,10.0,30.059055,1016.7,,TRUE,TRUE,,,,,,,FEW,1700,,,,,,,VFR,,,,,,,,,,,,METAR,473.0
KHEI 271353Z AUTO 14003KT 10SM CLR 17/09 A2998 RMK AO2 SLP140 T01670094,KHEI,2015-05-27T13:53:00Z,46.02,-102.65,16.7,9.4,140,3,,10.0,29.97933,1014.0,,TRUE,TRUE,,,,,,,CLR,,,,,,,,VFR,,,,,,,,,,,,METAR,828.0
KHFD 271353Z 17009KT 10SM CLR 24/18 A3016 RMK AO2 SLP212 T02390178,KHFD,2015-05-27T13:53:00Z,41.73,-72.65,23.9,17.8,170,9,,10.0,30.159449,1021.2,,,TRUE,,,,,,,CLR,,,,,,,,VFR,,,,,,,,,,,,METAR,4.0
KHGR 271353Z 19009G20KT 10SM CLR 27/19 A3015 RMK AO2 SLP211 T02670189,KHGR,2015-05-27T13:53:00Z,39.7,-77.73,26.7,18.9,190,9,20,10.0,30.15059,1021.1,,,TRUE,,,,,,,CLR,,,,,,,,VFR,,,,,,,,,,,,METAR,224.0
KHHR 271353Z AUTO 29003KT 10SM OVC018 17/12 A2999 RMK AO2 SLP155 T01670117,KHHR,2015-05-27T13:53:00Z,33.92,-118.33,16.7,11.7,290,3,,10.0,29.991142,1015.5,,TRUE,TRUE,,,,,,,OVC,1800,,,,,,,MVFR,,,,,,,,,,,,METAR,18.0
KHIB 271353Z AUTO 33004KT 10SM CLR 18/12 A2984 RMK AO2 SLP107 T01830122,KHIB,2015-05-27T13:53:00Z,47.38,-92.83,18.3,12.2,330,4,,10.0,29.840551,1010.7,,TRUE,TRUE,,,,,,,CLR,,,,,,,,VFR,,,,,,,,,,,,METAR,412.0
KHIO 271353Z 00000KT 10SM CLR 11/09 A3006 RMK AO2 SLP179 T01110094,KHIO,2015-05-27T13:53:00Z,45.55,-122.95,11.1,9.4,0,0,,10.0,30.059055,1017.9,,,TRUE,,,,,,,CLR,,,,,,,,VFR,,,,,,,,,,,,METAR,68.0
KHJO 271353Z AUTO 31007KT 10SM CLR 14/09 A2995 RMK AO2 SLP144 T01440094,KHJO,2015-05-27T13:53:00Z,36.32,-119.62,14.4,9.4,310,7,,10.0,29.949802,1014.4,,TRUE,TRUE,,,,,,,CLR,,,,,,,,VFR,,,,,,,,,,,,METAR,74.0
KHKA 271353Z AUTO 23008KT 10SM CLR 25/22 A3013 RMK AO2 SLP202 T02500222,KHKA,2015-05-27T13:53:00Z,35.93,-89.83,25.0,22.2,230,8,,10.0,30.129921,1020.2,,TRUE,TRUE,,,,,,,CLR,,,,,,,,VFR,,,,,,,,,,,,METAR,78.0
KHKY 271353Z 22006KT 10SM OVC013 20/17 A3027 RMK AO2 SLP231 T02000167,KHKY,2015-05-27T13:53:00Z,35.75,-81.38,20.0,16.7,220,6,,10.0,30.268702,1023.1,,,TRUE,,,,,,,OVC,1300,,,,,,,MVFR,,,,,,,,,,,,METAR,354.0
KHLC 271353Z AUTO 00000KT 10SM CLR 17/12 A3009 RMK AO2 SLP180 T01670117,KHLC,2015-05-27T13:53:00Z,39.37,-99.83,16.7,11.7,0,0,,10.0,30.088583,1018.0,,TRUE,TRUE,,,,,,,CLR,,,,,,,,VFR,,,,,,,,,,,,METAR,669.0
KHLN 271353Z 00000KT 10SM BKN048 OVC060 11/09 A3005 RMK AO2 SLP173 T01110089,KHLN,2015-05-27T13:53:00Z,46.6,-111.98,11.1,8.9,0,0,,10.0,30.050198,1017.3,,,TRUE,,,,,,,BKN,4800,OVC,6000,,,,,VFR,,,,,,,,,,,,METAR,1182.0
KHOT 271353Z AUTO 00000KT 10SM CLR 23/20 A3011 RMK AO2 SLP190 T02280200,KHOT,2015-05-27T13:53:00Z,34.48,-93.1,22.8,20.0,0,0,,10.0,30.109253,1019.0,,TRUE,TRUE,,,,,,,CLR,,,,,,,,VFR,,,,,,,,,,,,METAR,162.0
KHOU 271353Z 07009KT 10SM -RA SCT065 OVC120 20/19 A3013 RMK AO2 RAB25 SLP207 P0003 T02000189,KHOU,2015-05-27T13:53:00Z,29.63,-95.28,20.0,18.9,70,9,,10.0,30.129921,1020.7,,,TRUE,,,,,,-RA,SCT,6500,OVC,12000,,,,,VFR,,,,,,0.03,,,,,,METAR,36.0
KHQM 271353Z AUTO VRB03KT 4SM BR OVC006 11/10 A3009 RMK AO2 SLP192 T01110100,KHQM,2015-05-27T13:53:00Z,46.97,-123.93,11.1,10.0,0,3,,4.0,30.088583,1019.2,,TRUE,TRUE,,,,,,BR,OVC,600,,,,,,,IFR,,,,,,,,,,,,METAR,7.0
KHRI 271353Z AUTO 00000KT 8SM BKN085 OVC110 14/11 A3001 RMK AO2 SLP158 T01390106,KHRI,2015-05-27T13:53:00Z,45.83,-119.27,13.9,10.6,0,0,,8.0,30.008858,1015.8,,TRUE,TRUE,,,,,,,BKN,8500,OVC,11000,,,,,VFR,,,,,,,,,,,,METAR,195.0
KHRO 271353Z AUTO 00000KT 10SM CLR 22/17 A3013 RMK AO2 SLP191 T02220167,KHRO,2015-05-27T13:53:00Z,36.27,-93.15,22.2,16.7,0,0,,10.0,30.129921,1019.1,,TRUE,TRUE,,,,,,,CLR,,,,,,,,VFR,,,,,,,,,,,,METAR,417.0
KHSI 271353Z AUTO VRB04KT 10SM CLR 18/12 A3009 RMK AO2 SLP182 T01780117,KHSI,2015-05-27T13:53:00Z,40.6,-98.43,17.8,11.7,0,4,,10.0,30.088583,1018.2,,TRUE,TRUE,,,,,,,CLR,,,,,,,,VFR,,,,,,,,,,,,METAR,591.0
KHSV 271353Z 15004KT 10SM OVC010 23/19 A3021 RMK AO2 SLP222 T02330194,KHSV,2015-05-27T13:53:00Z,34.65,-86.78,23.3,19.4,150,4,,10.0,30.209646,1022.2,,,TRUE,,,,,,,OVC,1000,,,,,,,MVFR,,,,,,,,,,,,METAR,191.0
KHTL 271353Z AUTO 23012G19KT 10SM BKN025 OVC033 19/14 A2984 RMK AO2 SLP102 T01890139,KHTL,2015-05-27T13:53:00Z,44.35,-84.67,18.9,13.9,230,12,19,10.0,29.840551,1010.2,,TRUE,TRUE,,,,,,,BKN,2500,OVC,3300,,,,,MVFR,,,,,,,,,,,,METAR,351.0
KHUF 271353Z 21012KT 10SM FEW110 22/18 A3006 RMK AO2 SLP175 T02220178,KHUF,2015-05-27T13:53:00Z,39.45,-87.3,22.2,17.8,210,12,,10.0,30.059055,1017.5,,,TRUE,,,,,,,FEW,11000,,,,,,,VFR,,,,,,,,,,,,METAR,179.0
KHUL 271353Z AUTO 20006KT 10SM CLR 26/16 A3003 RMK AO2 SLP169 T02610161,KHUL,2015-05-27T13:53:00Z,46.12,-67.8,26.1,16.1,200,6,,10.0,30.029528,1016.9,,TRUE,TRUE,,,,,,,CLR,,,,,,,,VFR,,,,,,,,,,,,METAR,150.0
KHVN 271353Z 18006KT 10SM SCT007 BKN012 OVC100 20/16 A3019 RMK AO2 SLP223 T02000161,KHVN,2015-05-27T13:53:00Z,41.27,-72.87,20.0,16.1,180,6,,10.0,30.188976,1022.3,,,TRUE,,,,,,,SCT,700,BKN,1200,OVC,10000,,,MVFR,,,,,,,,,,,,METAR,4.0
KRSW 271353Z 10010KT 10SM FEW033 28/19 A3015 RMK AO2 SLP206 T02780189,KRSW,2015-05-27T13:53:00Z,26.53,-81.75,27.8,18.9,100,10,,10.0,30.15059,1020.6,,,TRUE,,,,,,,FEW,3300,,,,,,,VFR,,,,,,,,,,,,METAR,10.0
KRUE 271353Z AUTO VRB03KT 10SM CLR 23/21 A3009 RMK AO2 SLP183 T02330206,KRUE,2015-05-27T13:53:00Z,35.25,-93.1,23.3,20.6,0,3,,10.0,30.088583,1018.3,,TRUE,TRUE,,,,,,,CLR,,,,,,,,VFR,,,,,,,,,,,,METAR,115.0
KHVR 271353Z AUTO 23006KT 10SM CLR 14/11 A2996 RMK AO2 SLP140 T01390111,KHVR,2015-05-27T13:53:00Z,48.55,-109.77,13.9,11.1,230,6,,10.0,29.958662,1014.0,,TRUE,TRUE,,,,,,,CLR,,,,,,,,VFR,,,,,,,,,,,,METAR,787.0
KHYR 271353Z AUTO 22005KT 10SM CLR 16/12 A2989 RMK AO2 SLP124 T01560122,KHYR,2015-05-27T13:53:00Z,46.02,-91.45,15.6,12.2,220,5,,10.0,29.890747,1012.4,,TRUE,TRUE,,,,,,,CLR,,,,,,,,VFR,,,,,,,,,,,,METAR,370.0
KHZY 271353Z AUTO 22011KT 10SM SCT017 23/18 A3008 RMK AO2 SLP180 T02280183,KHZY,2015-05-27T13:53:00Z,41.78,-80.7,22.8,18.3,220,11,,10.0,30.079725,1018.0,,TRUE,TRUE,,,,,,,SCT,1700,,,,,,,VFR,,,,,,,,,,,,METAR,276.0
KFCM 271353Z 22004KT 10SM CLR 16/14 A2992 RMK AO2 SLP132 T01610144,KFCM,2015-05-27T13:53:00Z,44.83,-93.47,16.1,14.4,220,4,,10.0,29.920275,1013.2,,,TRUE,,,,,,,CLR,,,,,,,,VFR,,,,,,,,,,,,METAR,280.0
KFDR 271353Z AUTO 11006KT 10SM OVC021 19/17 A3004 RMK AO2 SLP159 T01940172,KFDR,2015-05-27T13:53:00Z,34.35,-98.98,19.4,17.2,110,6,,10.0,30.041338,1015.9,,TRUE,TRUE,,,,,,,OVC,2100,,,,,,,MVFR,,,,,,,,,,,,METAR,386.0
KPIR 271353Z AUTO 21005KT 10SM CLR 17/10 A2999 RMK AO2 SLP148 T01670100,KPIR,2015-05-27T13:53:00Z,44.38,-100.28,16.7,10.0,210,5,,10.0,29.991142,1014.8,,TRUE,TRUE,,,,,,,CLR,,,,,,,,VFR,,,,,,,,,,,,SPECI,526.0
KMTO 271353Z AUTO 22009G16KT 10SM BKN100 21/18 A3005 RMK AO2 SLP170 T02110178,KMTO,2015-05-27T13:53:00Z,39.47,-88.27,21.1,17.8,220,9,16,10.0,30.050198,1017.0,,TRUE,TRUE,,,,,,,BKN,10000,,,,,,,VFR,,,,,,,,,,,,SPECI,214.0
KLWV 271353Z AUTO 18008KT 10SM CLR 23/18 A3008 RMK AO2 SLP182 T02330178,KLWV,2015-05-27T13:53:00Z,38.77,-87.6,23.3,17.8,180,8,,10.0,30.079725,1018.2,,TRUE,TRUE,,,,,,,CLR,,,,,,,,VFR,,,,,,,,,,,,SPECI,131.0
KJLN 271353Z VRB05KT 10SM SCT030 22/19 A3009 RMK AO2 SLP182 T02170194,KJLN,2015-05-27T13:53:00Z,37.15,-94.5,21.7,19.4,0,5,,10.0,30.088583,1018.2,,,TRUE,,,,,,,SCT,3000,,,,,,,VFR,,,,,,,,,,,,SPECI,299.0
TIST 271353Z 18004KT 10SM SCT049 SCT060 28/21 A2999 RMK AO2 SLP157 T02780211,TIST,2015-05-27T13:53:00Z,18.33,-64.98,27.8,21.1,180,4,,10.0,29.991142,1015.7,,,TRUE,,,,,,,SCT,4900,SCT,6000,,,,,VFR,,,,,,,,,,,,METAR,7.0
TISX 271353Z 11007KT 10SM FEW031 29/21 A3001 RMK AO2 SLP159 T02890211,TISX,2015-05-27T13:53:00Z,17.7,-64.8,28.9,21.1,110,7,,10.0,30.008858,1015.9,,,TRUE,,,,,,,FEW,3100,,,,,,,VFR,,,,,,,,,,,,METAR,19.0
KZZV 271353Z AUTO 21007KT 8SM SCT014 BKN020 BKN037 22/18 A3014 RMK AO2 SLP200 T02170178,KZZV,2015-05-27T13:53:00Z,39.95,-81.9,21.7,17.8,210,7,,8.0,30.138779,1020.0,,TRUE,TRUE,,,,,,,SCT,1400,BKN,2000,BKN,3700,,,MVFR,,,,,,,,,,,,METAR,268.0
KYKM 271353Z 32005KT 10SM FEW085 17/08 A3002 RMK AO2 SLP162 T01670078,KYKM,2015-05-27T13:53:00Z,46.57,-120.53,16.7,7.8,320,5,,10.0,30.02067,1016.2,,,TRUE,,,,,,,FEW,8500,,,,,,,VFR,,,,,,,,,,,,SPECI,324.0
KYIP 271353Z AUTO 22013KT 10SM CLR 24/18 A2998 RMK AO2 SLP143 T02440178 TSNO,KYIP,2015-05-27T13:53:00Z,42.23,-83.53,24.4,17.8,220,13,,10.0,29.97933,1014.3,,TRUE,TRUE,,,TRUE,,,,CLR,,,,,,,,VFR,,,,,,,,,,,,METAR,215.0
KXNA 271353Z 02005KT 10SM CLR 22/17 A3011 RMK AO2 SLP183 T02170172,KXNA,2015-05-27T13:53:00Z,36.28,-94.3,21.7,17.2,20,5,,10.0,30.109253,1018.3,,,TRUE,,,,,,,CLR,,,,,,,,VFR,,,,,,,,,,,,METAR,392.0
KWVI 271353Z AUTO 18004KT 10SM OVC013 12/09 A3003 RMK AO2 SLP169 T01220094,KWVI,2015-05-27T13:53:00Z,36.93,-121.78,12.2,9.4,180,4,,10.0,30.029528,1016.9,,TRUE,TRUE,,,,,,,OVC,1300,,,,,,,MVFR,,,,,,,,,,,,METAR,43.0
KWST 271353Z AUTO 20010KT 10SM OVC010 18/14 A3022 RMK AO2 SLP232 T01830144,KWST,2015-05-27T13:53:00Z,41.35,-71.8,18.3,14.4,200,10,,10.0,30.221457,1023.2,,TRUE,TRUE,,,,,,,OVC,1000,,,,,,,MVFR,,,,,,,,,,,,METAR,21.0
KWRL 271353Z AUTO 25003KT 10SM BKN060 BKN085 BKN120 13/11 A3001 RMK AO2 SLP141 T01280111,KWRL,2015-05-27T13:53:00Z,43.97,-107.95,12.8,11.1,250,3,,10.0,30.008858,1014.1,,TRUE,TRUE,,,,,,,BKN,6000,BKN,8500,BKN,12000,,,VFR,,,,,,,,,,,,METAR,1271.0
KVUO 271353Z AUTO VRB04KT 10SM OVC008 13/11 A3006 RMK AO2 SLP180 T01280106,KVUO,2015-05-27T13:53:00Z,45.62,-122.65,12.8,10.6,0,4,,10.0,30.059055,1018.0,,TRUE,TRUE,,,,,,,OVC,800,,,,,,,IFR,,,,,,,,,,,,METAR,8.0
KVRB 271353Z 12011KT 10SM SCT036 29/17 A3018 RMK AO2 SLP217 T02940172,KVRB,2015-05-27T13:53:00Z,27.65,-80.42,29.4,17.2,120,11,,10.0,30.180119,1021.7,,,TRUE,,,,,,,SCT,3600,,,,,,,VFR,,,,,,,,,,,,METAR,10.0
KVLD 271353Z 16007KT 10SM -RA FEW090 27/22 A3023 RMK AO2 SLP242 P0000 T02670217,KVLD,2015-05-27T13:53:00Z,30.78,-83.27,26.7,21.7,160,7,,10.0,30.230314,1024.2,,,TRUE,,,,,,-RA,FEW,9000,,,,,,,VFR,,,,,,0.0050,,,,,,METAR,62.0
KVIH 271353Z AUTO 20008KT 10SM CLR 18/17 A3008 RMK AO2 SLP180 T01830172,KVIH,2015-05-27T13:53:00Z,38.13,-91.77,18.3,17.2,200,8,,10.0,30.079725,1018.0,,TRUE,TRUE,,,,,,,CLR,,,,,,,,VFR,,,,,,,,,,,,METAR,333.0
KVGT 271353Z 00000KT 10SM CLR 22/00 A2993 RMK AO2 SLP128 T02220000,KVGT,2015-05-27T13:53:00Z,36.22,-115.2,22.2,0.0,0,0,,10.0,29.929134,1012.8,,,TRUE,,,,,,,CLR,,,,,,,,VFR,,,,,,,,,,,,METAR,671.0
KVCB 271353Z AUTO 23003KT 10SM CLR 13/10 A2997 RMK AO2 SLP147 T01330100,KVCB,2015-05-27T13:53:00Z,38.38,-121.95,13.3,10.0,230,3,,10.0,29.970472,1014.7,,TRUE,TRUE,,,,,,,CLR,,,,,,,,VFR,,,,,,,,,,,,METAR,33.0
KUUU 271353Z AUTO 20007G16KT 170V230 10SM OVC009 18/14 A3021 RMK AO2 SLP230 T01780144,KUUU,2015-05-27T13:53:00Z,41.53,-71.28,17.8,14.4,200,7,16,10.0,30.209646,1023.0,,TRUE,TRUE,,,,,,,OVC,900,,,,,,,IFR,,,,,,,,,,,,METAR,51.0
KUNO 271353Z AUTO 16004KT 10SM OVC020 19/16 A3014 RMK AO2 SLP196 T01890161,KUNO,2015-05-27T13:53:00Z,36.88,-91.9,18.9,16.1,160,4,,10.0,30.138779,1019.6,,TRUE,TRUE,,,,,,,OVC,2000,,,,,,,MVFR,,,,,,,,,,,,METAR,372.0
KUAO 271353Z AUTO 00000KT 10SM CLR 12/10 A3007 RMK AO2 SLP182 T01170100,KUAO,2015-05-27T13:53:00Z,45.25,-122.77,11.7,10.0,0,0,,10.0,30.070866,1018.2,,TRUE,TRUE,,,,,,,CLR,,,,,,,,VFR,,,,,,,,,,,,METAR,59.0
KTYS 271353Z 24012KT 10SM SCT033 SCT180 BKN250 23/16 A3023 RMK AO2 SLP228 T02280156,KTYS,2015-05-27T13:53:00Z,35.82,-83.98,22.8,15.6,240,12,,10.0,30.230314,1022.8,,,TRUE,,,,,,,SCT,3300,SCT,18000,BKN,25000,,,VFR,,,,,,,,,,,,METAR,302.0
KTYR 271353Z 11003KT 10SM CLR 20/16 A3008 RMK AO2 SLP181 T02000161,KTYR,2015-05-27T13:53:00Z,32.37,-95.4,20.0,16.1,110,3,,10.0,30.079725,1018.1,,,TRUE,,,,,,,CLR,,,,,,,,VFR,,,,,,,,,,,,METAR,165.0
KTXK 271353Z 07004KT 10SM CLR 22/18 A3009 RMK AO2 SLP185 T02170183,KTXK,2015-05-27T13:53:00Z,33.45,-93.98,21.7,18.3,70,4,,10.0,30.088583,1018.5,,,TRUE,,,,,,,CLR,,,,,,,,VFR,,,,,,,,,,,,METAR,111.0
KTVR 271353Z AUTO 15009KT 10SM OVC007 23/22 A3013 RMK AO2 SLP207 T02280217,KTVR,2015-05-27T13:53:00Z,32.35,-91.03,22.8,21.7,150,9,,10.0,30.129921,1020.7,,TRUE,TRUE,,,,,,,OVC,700,,,,,,,IFR,,,,,,,,,,,,METAR,26.0
KTVL 271353Z AUTO 00000KT 10SM CLR 04/02 A3014 RMK AO2 SLP167 T00440017,KTVL,2015-05-27T13:53:00Z,38.9,-120.0,4.4,1.7,0,0,,10.0,30.138779,1016.7,,TRUE,TRUE,,,,,,,CLR,,,,,,,,VFR,,,,,,,,,,,,METAR,1924.0
KTVC 271353Z 23009G18KT 10SM BKN021 OVC029 18/13 A2978 RMK AO2 SLP084 T01830133,KTVC,2015-05-27T13:53:00Z,44.73,-85.57,18.3,13.3,230,9,18,10.0,29.778543,1008.4,,,TRUE,,,,,,,BKN,2100,OVC,2900,,,,,MVFR,,,,,,,,,,,,METAR,190.0
KTUS 271353Z 15005KT 10SM CLR 18/01 A3001 RMK AO2 SLP119 T01830006,KTUS,2015-05-27T13:53:00Z,32.13,-110.95,18.3,0.6,150,5,,10.0,30.008858,1011.9,,,TRUE,,,,,,,CLR,,,,,,,,VFR,,,,,,,,,,,,METAR,776.0
KTUL 271353Z 16007KT 10SM FEW015 SCT100 SCT250 23/19 A3005 RMK AO2 SLP170 T02280189,KTUL,2015-05-27T13:53:00Z,36.2,-95.88,22.8,18.9,160,7,,10.0,30.050198,1017.0,,,TRUE,,,,,,,FEW,1500,SCT,10000,SCT,25000,,,VFR,,,,,,,,,,,,METAR,207.0
KTTN 271353Z 22009KT 8SM OVC013 24/20 A3017 RMK AO2 SLP210 T02440200,KTTN,2015-05-27T13:53:00Z,40.28,-74.82,24.4,20.0,220,9,,8.0,30.171259,1021.0,,,TRUE,,,,,,,OVC,1300,,,,,,,MVFR,,,,,,,,,,,,METAR,59.0
KTTD 271353Z 00000KT 10SM OVC008 13/11 A3005 RMK AO2 SLP177 T01330111,KTTD,2015-05-27T13:53:00Z,45.55,-122.42,13.3,11.1,0,0,,10.0,30.050198,1017.7,,,TRUE,,,,,,,OVC,800,,,,,,,IFR,,,,,,,,,,,,METAR,14.0
KTRL 271353Z AUTO 07004KT 10SM CLR 22/17 A3010 RMK AO2 SLP187 T02170167,KTRL,2015-05-27T13:53:00Z,32.72,-96.27,21.7,16.7,70,4,,10.0,30.100393,1018.7,,TRUE,TRUE,,,,,,,CLR,,,,,,,,VFR,,,,,,,,,,,,METAR,145.0
KTRI 271353Z 22006KT 10SM SCT020 BKN032 22/17 A3026 RMK AO2 SLP221 T02220167,KTRI,2015-05-27T13:53:00Z,36.48,-82.4,22.2,16.7,220,6,,10.0,30.259842,1022.1,,,TRUE,,,,,,,SCT,2000,BKN,3200,,,,,VFR,,,,,,,,,,,,METAR,474.0
KTPA 271353Z 10006KT 10SM SCT026 BKN250 27/19 A3020 RMK AO2 SLP225 T02720194,KTPA,2015-05-27T13:53:00Z,27.97,-82.53,27.2,19.4,100,6,,10.0,30.200787,1022.5,,,TRUE,,,,,,,SCT,2600,BKN,25000,,,,,VFR,,,,,,,,,,,,METAR,11.0
KTOP 271353Z 00000KT 10SM CLR 20/14 A3008 RMK AO2 SLP181 T02000144,KTOP,2015-05-27T13:53:00Z,39.07,-95.63,20.0,14.4,0,0,,10.0,30.079725,1018.1,,,TRUE,,,,,,,CLR,,,,,,,,VFR,,,,,,,,,,,,METAR,268.0
KTOI 271353Z AUTO 15003KT 10SM CLR 24/21 A3020 RMK AO2 SLP224 T02440206,KTOI,2015-05-27T13:53:00Z,31.85,-86.02,24.4,20.6,150,3,,10.0,30.200787,1022.4,,TRUE,TRUE,,,,,,,CLR,,,,,,,,VFR,,,,,,,,,,,,SPECI,118.0
KTMB 271353Z 09013G20KT 10SM FEW033 29/20 A3011 RMK AO2 SLP196 T02940200,KTMB,2015-05-27T13:53:00Z,25.65,-80.43,29.4,20.0,90,13,20,10.0,30.109253,1019.6,,,TRUE,,,,,,,FEW,3300,,,,,,,VFR,,,,,,,,,,,,METAR,2.0
KTLH 271353Z 07006KT 10SM SCT012 BKN250 26/21 A3021 RMK AO2 SLP227 T02610211,KTLH,2015-05-27T13:53:00Z,30.4,-84.35,26.1,21.1,70,6,,10.0,30.209646,1022.7,,,TRUE,,,,,,,SCT,1200,BKN,25000,,,,,VFR,,,,,,,,,,,,METAR,19.0
KTKI 271353Z 13006KT 10SM CLR 22/16 A3010 RMK AO2 SLP191 T02170161,KTKI,2015-05-27T13:53:00Z,33.18,-96.58,21.7,16.1,130,6,,10.0,30.100393,1019.1,,,TRUE,,,,,,,CLR,,,,,,,,VFR,,,,,,,,,,,,METAR,179.0
KTIW 271353Z AUTO 25003KT 10SM BKN004 OVC043 11/10 A3008 RMK AO2 SLP185 T01110100,KTIW,2015-05-27T13:53:00Z,47.27,-122.58,11.1,10.0,250,3,,10.0,30.079725,1018.5,,TRUE,TRUE,,,,,,,BKN,400,OVC,4300,,,,,LIFR,,,,,,,,,,,,METAR,89.0
KTHV 271353Z AUTO 23006KT 10SM SCT018 26/21 A3015 RMK AO2 SLP208 T02560206,KTHV,2015-05-27T13:53:00Z,39.92,-76.88,25.6,20.6,230,6,,10.0,30.15059,1020.8,,TRUE,TRUE,,,,,,,SCT,1800,,,,,,,VFR,,,,,,,,,,,,METAR,144.0
KTDZ 271353Z AUTO 24015G22KT 10SM CLR 23/17 A3001 RMK AO2 SLP160 T02280167 TSNO,KTDZ,2015-05-27T13:53:00Z,41.57,-83.48,22.8,16.7,240,15,22,10.0,30.008858,1016.0,,TRUE,TRUE,,,TRUE,,,,CLR,,,,,,,,VFR,,,,,,,,,,,,METAR,189.0
KTCL 271353Z 13006KT 7SM OVC008 23/21 A3019 RMK AO2 SLP220 T02280206,KTCL,2015-05-27T13:53:00Z,33.22,-87.62,22.8,20.6,130,6,,7.0,30.188976,1022.0,,,TRUE,,,,,,,OVC,800,,,,,,,IFR,,,,,,,,,,,,METAR,49.0
KTCC 271353Z AUTO 06003KT 10SM CLR 19/13 A3009 RMK AO2 SLP139 T01940128,KTCC,2015-05-27T13:53:00Z,35.18,-103.6,19.4,12.8,60,3,,10.0,30.088583,1013.9,,TRUE,TRUE,,,,,,,CLR,,,,,,,,VFR,,,,,,,,,,,,METAR,1235.0
KSWO 271353Z 17007KT 6SM BR OVC002 21/20 A3007 RMK AO2 CIG 001V006 SLP171 T02060200,KSWO,2015-05-27T13:53:00Z,36.17,-97.08,20.6,20.0,170,7,,6.0,30.070866,1017.1,,,TRUE,,,,,,BR,OVC,200,,,,,,,LIFR,,,,,,,,,,,,METAR,290.0
KSTS 271353Z 00000KT 4SM BR SCT007 OVC012 11/09 A2999 RMK AO2 SLP150 T01060094,KSTS,2015-05-27T13:53:00Z,38.5,-122.82,10.6,9.4,0,0,,4.0,29.991142,1015.0,,,TRUE,,,,,,BR,SCT,700,OVC,1200,,,,,MVFR,,,,,,,,,,,,METAR,39.0
KSTP 271353Z 24004KT 10SM CLR 18/14 A2993 RMK AO2 SLP133 T01780144,KSTP,2015-05-27T13:53:00Z,44.93,-93.05,17.8,14.4,240,4,,10.0,29.929134,1013.3,,,TRUE,,,,,,,CLR,,,,,,,,VFR,,,,,,,,,,,,METAR,219.0
KSTJ 271353Z 00000KT 10SM CLR 19/14 A3007 RMK AO2 SLP178 T01940139,KSTJ,2015-05-27T13:53:00Z,39.77,-94.92,19.4,13.9,0,0,,10.0,30.070866,1017.8,,,TRUE,,,,,,,CLR,,,,,,,,VFR,,,,,,,,,,,,METAR,247.0
KSTC 271353Z 24005KT 10SM CLR 18/13 A2990 RMK AO2 SLP130 T01780133,KSTC,2015-05-27T13:53:00Z,45.55,-94.05,17.8,13.3,240,5,,10.0,29.899607,1013.0,,,TRUE,,,,,,,CLR,,,,,,,,VFR,,,,,,,,,,,,METAR,314.0
KSSF 271353Z 14008KT 5SM BR BKN010 OVC015 26/24 A3002 RMK AO2 CIG 008V013 SLP153 T02610239 $,KSSF,2015-05-27T13:53:00Z,29.33,-98.47,26.1,23.9,140,8,,5.0,30.02067,1015.3,,,TRUE,TRUE,,,,,BR,BKN,1000,OVC,1500,,,,,MVFR,,,,,,,,,,,,METAR,176.0
KSRQ 271353Z 11007KT 10SM CLR 27/21 A3017 RMK AO2 SLP214 T02670206,KSRQ,2015-05-27T13:53:00Z,27.4,-82.57,26.7,20.6,110,7,,10.0,30.171259,1021.4,,,TRUE,,,,,,,CLR,,,,,,,,VFR,,,,,,,,,,,,METAR,18.0
KSPW 271353Z AUTO 27008KT 10SM CLR 18/14 A3000 RMK AO2 SLP155 T01830144 TSNO,KSPW,2015-05-27T13:53:00Z,43.17,-95.22,18.3,14.4,270,8,,10.0,30.0,1015.5,,TRUE,TRUE,,,TRUE,,,,CLR,,,,,,,,VFR,,,,,,,,,,,,METAR,403.0
KSPG 271353Z 14009KT 10SM CLR 27/21 A3017 RMK AO2 SLP217 T02670206,KSPG,2015-05-27T13:53:00Z,27.77,-82.63,26.7,20.6,140,9,,10.0,30.171259,1021.7,,,TRUE,,,,,,,CLR,,,,,,,,VFR,,,,,,,,,,,,METAR,2.0
KSPB 271353Z AUTO VRB03KT 10SM OVC040 13/10 A3006 RMK AO2 SLP178 T01330100,KSPB,2015-05-27T13:53:00Z,45.77,-122.87,13.3,10.0,0,3,,10.0,30.059055,1017.8,,TRUE,TRUE,,,,,,,OVC,4000,,,,,,,VFR,,,,,,,,,,,,METAR,14.0
KSNY 271353Z AUTO 17008KT 10SM BKN095 OVC110 12/11 A3007 RMK AO2 SLP157 T01220111,KSNY,2015-05-27T13:53:00Z,41.1,-102.98,12.2,11.1,170,8,,10.0,30.070866,1015.7,,TRUE,TRUE,,,,,,,BKN,9500,OVC,11000,,,,,VFR,,,,,,,,,,,,METAR,1307.0
KSNS 271353Z 30006KT 10SM OVC014 13/09 A3003 RMK AO2 SLP178 T01280089,KSNS,2015-05-27T13:53:00Z,36.67,-121.6,12.8,8.9,300,6,,10.0,30.029528,1017.8,,,TRUE,,,,,,,OVC,1400,,,,,,,MVFR,,,,,,,,,,,,METAR,30.0
KSNA 271353Z 00000KT 10SM OVC023 17/12 A2998 RMK AO2 SLP153 T01670117,KSNA,2015-05-27T13:53:00Z,33.67,-117.87,16.7,11.7,0,0,,10.0,29.97933,1015.3,,,TRUE,,,,,,,OVC,2300,,,,,,,MVFR,,,,,,,,,,,,METAR,16.0
KSMQ 271353Z AUTO 19005KT 8SM OVC018 24/20 A3015 RMK AO2 SLP209 T02390200 TSNO,KSMQ,2015-05-27T13:53:00Z,40.62,-74.67,23.9,20.0,190,5,,8.0,30.15059,1020.9,,TRUE,TRUE,,,TRUE,,,,OVC,1800,,,,,,,MVFR,,,,,,,,,,,,METAR,30.0
KSMF 271353Z 18006KT 10SM CLR 12/10 A2995 RMK AO2 SLP141 T01220100,KSMF,2015-05-27T13:53:00Z,38.7,-121.6,12.2,10.0,180,6,,10.0,29.949802,1014.1,,,TRUE,,,,,,,CLR,,,,,,,,VFR,,,,,,,,,,,,METAR,6.0
KSLN 271353Z 00000KT 10SM CLR 21/13 A3008 RMK AO2 SLP177 T02060133,KSLN,2015-05-27T13:53:00Z,38.78,-97.65,20.6,13.3,0,0,,10.0,30.079725,1017.7,,,TRUE,,,,,,,CLR,,,,,,,,VFR,,,,,,,,,,,,METAR,385.0
KSLC 271353Z 13007KT 10SM FEW065 SCT100 BKN200 13/08 A3007 RMK AO2 SLP151 TCU DSNT SW AND NW ACSL DSNT N SH DSNT SW-NW T01330083,KSLC,2015-05-27T13:53:00Z,40.77,-111.97,13.3,8.3,130,7,,10.0,30.070866,1015.1,,,TRUE,,,,,,,FEW,6500,SCT,10000,BKN,20000,,,VFR,,,,,,,,,,,,METAR,1286.0
KSJC 271353Z 18004KT 10SM FEW009 BKN017 OVC021 14/09 A3001 RMK AO2 SLP161 T01440089,KSJC,2015-05-27T13:53:00Z,37.37,-121.92,14.4,8.9,180,4,,10.0,30.008858,1016.1,,,TRUE,,,,,,,FEW,900,BKN,1700,OVC,2100,,,MVFR,,,,,,,,,,,,METAR,24.0
KSIY 271353Z AUTO 00000KT 10SM CLR 10/06 A3004 RMK AO2 SLP169 T01000061,KSIY,2015-05-27T13:53:00Z,41.77,-122.47,10.0,6.1,0,0,,10.0,30.041338,1016.9,,TRUE,TRUE,,,,,,,CLR,,,,,,,,VFR,,,,,,,,,,,,METAR,807.0
KSHR 271353Z AUTO 00000KT 10SM OVC080 12/10 A3000 RMK AO2 SLP146 T01170100,KSHR,2015-05-27T13:53:00Z,44.77,-106.97,11.7,10.0,0,0,,10.0,30.0,1014.6,,TRUE,TRUE,,,,,,,OVC,8000,,,,,,,VFR,,,,,,,,,,,,METAR,1202.0
KSGR 271353Z 09005KT 10SM VCTS -RA FEW006 FEW110 20/19 A3011 RMK AO2 LTG DSNT ALQDS SLP196 P0003 T02000189,KSGR,2015-05-27T13:53:00Z,29.62,-95.65,20.0,18.9,90,5,,10.0,30.109253,1019.6,,,TRUE,,,,,,VCTS -RA,FEW,600,FEW,11000,,,,,VFR,,,,,,0.03,,,,,,METAR,2.0
KSFF 271353Z 00000KT 10SM FEW008 FEW080 11/09 A3003 RMK AO2 SLP163 T01110094,KSFF,2015-05-27T13:53:00Z,47.68,-117.32,11.1,9.4,0,0,,10.0,30.029528,1016.3,,,TRUE,,,,,,,FEW,800,FEW,8000,,,,,VFR,,,,,,,,,,,,METAR,609.0
KSFB 271353Z 00000KT 10SM CLR 28/20 A3021 RMK AO2 SLP227 T02780200,KSFB,2015-05-27T13:53:00Z,28.77,-81.22,27.8,20.0,0,0,,10.0,30.209646,1022.7,,,TRUE,,,,,,,CLR,,,,,,,,VFR,,,,,,,,,,,,METAR,17.0
KSEG 271353Z AUTO 18006KT 10SM SCT022 25/19 A3013 RMK AO2 SLP200 T02500194,KSEG,2015-05-27T13:53:00Z,40.82,-76.87,25.0,19.4,180,6,,10.0,30.129921,1020.0,,TRUE,TRUE,,,,,,,SCT,2200,,,,,,,VFR,,,,,,,,,,,,METAR,134.0
KSEA 271353Z 23003KT 10SM FEW006 BKN038 13/11 A3007 RMK AO2 SLP188 T01330111,KSEA,2015-05-27T13:53:00Z,47.45,-122.32,13.3,11.1,230,3,,10.0,30.070866,1018.8,,,TRUE,,,,,,,FEW,600,BKN,3800,,,,,VFR,,,,,,,,,,,,METAR,136.0
KSDM 271353Z AUTO 00000KT 8SM OVC006 14/14 A2998 RMK AO2 SLP149 T01440139,KSDM,2015-05-27T13:53:00Z,32.58,-117.0,14.4,13.9,0,0,,8.0,29.97933,1014.9,,TRUE,TRUE,,,,,,,OVC,600,,,,,,,IFR,,,,,,,,,,,,METAR,159.0
KSDL 271353Z 00000KT 10SM CLR 22/06 A2993 RMK AO2 SLP112 T02220061,KSDL,2015-05-27T13:53:00Z,33.62,-111.92,22.2,6.1,0,0,,10.0,29.929134,1011.2,,,TRUE,,,,,,,CLR,,,,,,,,VFR,,,,,,,,,,,,METAR,447.0
KSBM 271353Z AUTO 29013G20KT 10SM SCT026 BKN031 18/13 A2985 RMK AO2 SLP107 T01830133,KSBM,2015-05-27T13:53:00Z,43.78,-87.85,18.3,13.3,290,13,20,10.0,29.84941,1010.7,,TRUE,TRUE,,,,,,,SCT,2600,BKN,3100,,,,,VFR,,,,,,,,,,,,METAR,232.0
KSBA 271353Z 08005KT 10SM CLR 14/12 A2999 RMK AO2 SLP154 T01390117,KSBA,2015-05-27T13:53:00Z,34.43,-119.85,13.9,11.7,80,5,,10.0,29.991142,1015.4,,,TRUE,,,,,,,CLR,,,,,,,,VFR,,,,,,,,,,,,METAR,3.0
KSAV 271353Z 11007KT 10SM SCT025 SCT050 BKN250 27/18 A3026 RMK AO2 SLP246 T02670178 $,KSAV,2015-05-27T13:53:00Z,32.12,-81.2,26.7,17.8,110,7,,10.0,30.259842,1024.6,,,TRUE,TRUE,,,,,,SCT,2500,SCT,5000,BKN,25000,,,VFR,,,,,,,,,,,,SPECI,14.0
KSAF 271353Z 01010KT 10SM CLR 14/06 A3020 RMK AO2 SLP144 T01390056,KSAF,2015-05-27T13:53:00Z,35.62,-106.1,13.9,5.6,10,10,,10.0,30.200787,1014.4,,,TRUE,,,,,,,CLR,,,,,,,,VFR,,,,,,,,,,,,METAR,1930.0
KSAC 271353Z 21011G16KT 10SM CLR 13/10 A2997 RMK AO2 SLP146 T01280100,KSAC,2015-05-27T13:53:00Z,38.5,-121.5,12.8,10.0,210,11,16,10.0,29.970472,1014.6,,,TRUE,,,,,,,CLR,,,,,,,,VFR,,,,,,,,,,,,METAR,11.0
KCNY 271353Z AUTO 00000KT 10SM CLR 14/08 A3011 RMK AO2 SLP155 T01440078,KCNY,2015-05-27T13:53:00Z,38.77,-109.75,14.4,7.8,0,0,,10.0,30.109253,1015.5,,TRUE,TRUE,,,,,,,CLR,,,,,,,,VFR,,,,,,,,,,,,SPECI,1390.0
KOVE 271353Z AUTO 14003KT 10SM CLR 13/11 A2999 RMK AO2 SLP155 T01330106,KOVE,2015-05-27T13:53:00Z,39.5,-121.62,13.3,10.6,140,3,,10.0,29.991142,1015.5,,TRUE,TRUE,,,,,,,CLR,,,,,,,,VFR,,,,,,,,,,,,METAR,58.0
KOTM 271353Z AUTO 29007KT 10SM FEW020 18/14 A3002 RMK AO2 SLP162 T01830144,KOTM,2015-05-27T13:53:00Z,41.1,-92.45,18.3,14.4,290,7,,10.0,30.02067,1016.2,,TRUE,TRUE,,,,,,,FEW,2000,,,,,,,VFR,,,,,,,,,,,,METAR,256.0
KOSU 271353Z 23012G20KT 10SM SCT021 BKN029 22/17 A3011 RMK AO2 SLP192 T02220172,KOSU,2015-05-27T13:53:00Z,40.08,-83.08,22.2,17.2,230,12,20,10.0,30.109253,1019.2,,,TRUE,,,,,,,SCT,2100,BKN,2900,,,,,MVFR,,,,,,,,,,,,METAR,280.0
KOSH 271353Z 27010G18KT 10SM BKN023 OVC031 18/13 A2987 RMK AO2 SLP107 T01780128,KOSH,2015-05-27T13:53:00Z,43.97,-88.55,17.8,12.8,270,10,18,10.0,29.870079,1010.7,,,TRUE,,,,,,,BKN,2300,OVC,3100,,,,,MVFR,,,,,,,,,,,,METAR,248.0
KORL 271353Z 10SM FEW029 SCT037 27/20 A3021 RMK AO2 SLP230 T02720200,KORL,2015-05-27T13:53:00Z,28.55,-81.33,27.2,20.0,,,,10.0,30.209646,1023.0,,,TRUE,,,,,,,FEW,2900,SCT,3700,,,,,VFR,,,,,,,,,,,,METAR,37.0
KONT 271353Z 00000KT 4SM HZ OVC014 15/12 A2998 RMK AO2 SLP145 T01500117 $,KONT,2015-05-27T13:53:00Z,34.05,-117.58,15.0,11.7,0,0,,4.0,29.97933,1014.5,,,TRUE,TRUE,,,,,HZ,OVC,1400,,,,,,,MVFR,,,,,,,,,,,,METAR,274.0
KONO 271353Z AUTO 24003KT 10SM CLR 14/10 A3000 RMK AO2 SLP152 T01390100,KONO,2015-05-27T13:53:00Z,44.02,-117.02,13.9,10.0,240,3,,10.0,30.0,1015.2,,TRUE,TRUE,,,,,,,CLR,,,,,,,,VFR,,,,,,,,,,,,METAR,667.0
KOMK 271353Z AUTO 02003KT 10SM CLR 13/09 A3002 RMK AO2 SLP163 T01330094 $,KOMK,2015-05-27T13:53:00Z,48.47,-119.52,13.3,9.4,20,3,,10.0,30.02067,1016.3,,TRUE,TRUE,TRUE,,,,,,CLR,,,,,,,,VFR,,,,,,,,,,,,METAR,395.0
KOJC 271353Z 36005KT 10SM CLR 22/13 A3008 RMK AO2 SLP176 T02170128,KOJC,2015-05-27T13:53:00Z,38.85,-94.73,21.7,12.8,360,5,,10.0,30.079725,1017.6,,,TRUE,,,,,,,CLR,,,,,,,,VFR,,,,,,,,,,,,METAR,326.0
KOGD 271353Z AUTO 15007KT 10SM BKN095 13/08 A3007 RMK AO2 SLP150 T01280083 TSNO,KOGD,2015-05-27T13:53:00Z,41.2,-112.02,12.8,8.3,150,7,,10.0,30.070866,1015.0,,TRUE,TRUE,,,TRUE,,,,BKN,9500,,,,,,,VFR,,,,,,,,,,,,METAR,1353.0
KODO 271353Z AUTO 16010G18KT 4SM HZ OVC012 23/19 A3008 RMK AO2 SLP140 T02280189,KODO,2015-05-27T13:53:00Z,31.92,-102.4,22.8,18.9,160,10,18,4.0,30.079725,1014.0,,TRUE,TRUE,,,,,,HZ,OVC,1200,,,,,,,MVFR,,,,,,,,,,,,METAR,902.0
KOAK 271353Z 26012KT 10SM FEW011 OVC021 12/09 A3002 RMK AO2 SLP164 T01170089,KOAK,2015-05-27T13:53:00Z,37.72,-122.23,11.7,8.9,260,12,,10.0,30.02067,1016.4,,,TRUE,,,,,,,FEW,1100,OVC,2100,,,,,MVFR,,,,,,,,,,,,METAR,26.0
KNEW 271353Z AUTO 14006KT 10SM CLR 28/23 A3016 RMK AO2 SLP205 T02830228 TSNO,KNEW,2015-05-27T13:53:00Z,30.05,-90.03,28.3,22.8,140,6,,10.0,30.159449,1020.5,,TRUE,TRUE,,,TRUE,,,,CLR,,,,,,,,VFR,,,,,,,,,,,,METAR,3.0
KMYV 271353Z AUTO 10005KT 10SM CLR 13/10 A2997 RMK AO2 SLP153 T01280100,KMYV,2015-05-27T13:53:00Z,39.1,-121.57,12.8,10.0,100,5,,10.0,29.970472,1015.3,,TRUE,TRUE,,,,,,,CLR,,,,,,,,VFR,,,,,,,,,,,,METAR,21.0
KMYF 271353Z 31007KT 8SM FEW011 OVC023 15/13 A2997 RMK AO2 SLP147 T01500133,KMYF,2015-05-27T13:53:00Z,32.82,-117.13,15.0,13.3,310,7,,8.0,29.970472,1014.7,,,TRUE,,,,,,,FEW,1100,OVC,2300,,,,,MVFR,,,,,,,,,,,,METAR,136.0
KMWL 271353Z AUTO 14010KT 10SM CLR 21/17 A3006 RMK AO2 SLP168 T02110167,KMWL,2015-05-27T13:53:00Z,32.78,-98.07,21.1,16.7,140,10,,10.0,30.059055,1016.8,,TRUE,TRUE,,,,,,,CLR,,,,,,,,VFR,,,,,,,,,,,,METAR,284.0
KMVY 271353Z 21012G27KT 10SM BKN018 BKN026 BKN045 19/15 A3024 RMK AO2 PK WND 21028/1327 SLP240 T01940150,KMVY,2015-05-27T13:53:00Z,41.4,-70.62,19.4,15.0,210,12,27,10.0,30.239174,1024.0,,,TRUE,,,,,,,BKN,1800,BKN,2600,BKN,4500,,,MVFR,,,,,,,,,,,,METAR,16.0
KMTJ 271353Z AUTO 30003KT 10SM CLR 11/07 A3019 RMK AO2 SLP175 T01060072,KMTJ,2015-05-27T13:53:00Z,38.5,-107.9,10.6,7.2,300,3,,10.0,30.188976,1017.5,,TRUE,TRUE,,,,,,,CLR,,,,,,,,VFR,,,,,,,,,,,,METAR,1750.0
KMSY 271353Z 15009KT 10SM FEW010 SCT027 BKN150 OVC250 27/23 A3015 RMK AO2 SLP213 T02720233,KMSY,2015-05-27T13:53:00Z,30.0,-90.25,27.2,23.3,150,9,,10.0,30.15059,1021.3,,,TRUE,,,,,,,FEW,1000,SCT,2700,BKN,15000,OVC,25000,VFR,,,,,,,,,,,,METAR,5.0
KMSS 271353Z AUTO 23013G26KT 10SM FEW031 BKN110 25/19 A2997 RMK AO2 PK WND 23026/1350 SLP148 T02500189,KMSS,2015-05-27T13:53:00Z,44.93,-74.85,25.0,18.9,230,13,26,10.0,29.970472,1014.8,,TRUE,TRUE,,,,,,,FEW,3100,BKN,11000,,,,,VFR,,,,,,,,,,,,METAR,66.0
KMSP 271353Z 19006KT 9SM BKN250 17/14 A2992 RMK AO2 SLP132 T01720144,KMSP,2015-05-27T13:53:00Z,44.88,-93.23,17.2,14.4,190,6,,9.0,29.920275,1013.2,,,TRUE,,,,,,,BKN,25000,,,,,,,VFR,,,,,,,,,,,,METAR,265.0
KMSO 271353Z 00000KT 10SM CLR 07/06 A3006 RMK AO2 SLP176 T00720061,KMSO,2015-05-27T13:53:00Z,46.92,-114.1,7.2,6.1,0,0,,10.0,30.059055,1017.6,,,TRUE,,,,,,,CLR,,,,,,,,VFR,,,,,,,,,,,,METAR,975.0
KLFK 271353Z AUTO 00000KT 10SM CLR 19/18 A3007 RMK AO2 RAB1254E26 SLP180 P0000 T01940178,KLFK,2015-05-27T13:53:00Z,31.23,-94.75,19.4,17.8,0,0,,10.0,30.070866,1018.0,,TRUE,TRUE,,,,,,,CLR,,,,,,,,VFR,,,,,,0.0050,,,,,,METAR,88.0
KLEE 271353Z 12005KT 10SM FEW026 SCT032 27/19 A3022 RMK AO2 SLP233 T02720194,KLEE,2015-05-27T13:53:00Z,28.82,-81.82,27.2,19.4,120,5,,10.0,30.221457,1023.3,,,TRUE,,,,,,,FEW,2600,SCT,3200,,,,,VFR,,,,,,,,,,,,METAR,23.0
KLEB 271353Z VRB06KT 10SM CLR 26/18 A3008 RMK AO2 SLP173 T02560183,KLEB,2015-05-27T13:53:00Z,43.63,-72.3,25.6,18.3,0,6,,10.0,30.079725,1017.3,,,TRUE,,,,,,,CLR,,,,,,,,VFR,,,,,,,,,,,,METAR,171.0
KLBX 271353Z AUTO 06008KT 10SM -RA SCT031 BKN060 OVC080 19/19 A3013 RMK AO2 RAB04 SLP201 P0001 T01940194,KLBX,2015-05-27T13:53:00Z,29.12,-95.47,19.4,19.4,60,8,,10.0,30.129921,1020.1,,TRUE,TRUE,,,,,,-RA,SCT,3100,BKN,6000,OVC,8000,,,VFR,,,,,,0.01,,,,,,METAR,6.0
KLBF 271353Z AUTO 09006KT 10SM BKN110 16/10 A3008 RMK AO2 SLP174 T01610100,KLBF,2015-05-27T13:53:00Z,41.12,-100.67,16.1,10.0,90,6,,10.0,30.079725,1017.4,,TRUE,TRUE,,,,,,,BKN,11000,,,,,,,VFR,,,,,,,,,,,,METAR,847.0
KLBB 271353Z 18008KT 4SM BR SCT012 OVC017 21/19 A3010 RMK AO2 SLP149 THN SPTS IOVC HIR CLDS VSB T02110189,KLBB,2015-05-27T13:53:00Z,33.67,-101.82,21.1,18.9,180,8,,4.0,30.100393,1014.9,,,TRUE,,,,,,BR,SCT,1200,OVC,1700,,,,,MVFR,,,,,,,,,,,,METAR,993.0
KLAX 271353Z 26007KT 8SM OVC017 15/12 A3000 RMK AO2 SLP157 T01500122,KLAX,2015-05-27T13:53:00Z,33.93,-118.38,15.0,12.2,260,7,,8.0,30.0,1015.7,,,TRUE,,,,,,,OVC,1700,,,,,,,MVFR,,,,,,,,,,,,METAR,46.0
KLAW 271353Z 17005KT 10SM BKN034 21/17 A3006 RMK AO2 SLP171 T02110167,KLAW,2015-05-27T13:53:00Z,34.55,-98.42,21.1,16.7,170,5,,10.0,30.059055,1017.1,,,TRUE,,,,,,,BKN,3400,,,,,,,VFR,,,,,,,,,,,,METAR,337.0
KLAR 271353Z AUTO 22012KT 10SM OVC110 10/04 A3014 RMK AO2 SLP135 T01000044,KLAR,2015-05-27T13:53:00Z,41.32,-105.67,10.0,4.4,220,12,,10.0,30.138779,1013.5,,TRUE,TRUE,,,,,,,OVC,11000,,,,,,,VFR,,,,,,,,,,,,METAR,2216.0
KLAN 271353Z AUTO 22018G24KT 10SM SCT026 BKN036 22/16 A2993 RMK AO2 SLP132 T02170161 TSNO,KLAN,2015-05-27T13:53:00Z,42.78,-84.58,21.7,16.1,220,18,24,10.0,29.929134,1013.2,,TRUE,TRUE,,,TRUE,,,,SCT,2600,BKN,3600,,,,,VFR,,,,,,,,,,,,METAR,264.0
KLAA 271353Z AUTO 22003KT 8SM CLR 16/13 A3007 RMK AO2 SLP146 T01610133 TSNO,KLAA,2015-05-27T13:53:00Z,38.07,-102.68,16.1,13.3,220,3,,8.0,30.070866,1014.6,,TRUE,TRUE,,,TRUE,,,,CLR,,,,,,,,VFR,,,,,,,,,,,,METAR,1119.0
KJER 271353Z AUTO 13004KT 10SM CLR 12/07 A3003 RMK AO2 SLP147 T01220072,KJER,2015-05-27T13:53:00Z,42.72,-114.45,12.2,7.2,130,4,,10.0,30.029528,1014.7,,TRUE,TRUE,,,,,,,CLR,,,,,,,,VFR,,,,,,,,,,,,METAR,1222.0
KJEF 271353Z 31006KT 9SM CLR 21/17 A3006 RMK AO2 SLP165 T02110167,KJEF,2015-05-27T13:53:00Z,38.6,-92.15,21.1,16.7,310,6,,9.0,30.059055,1016.5,,,TRUE,,,,,,,CLR,,,,,,,,VFR,,,,,,,,,,,,METAR,168.0
KIXD 271353Z 00000KT 10SM CLR 21/13 A3009 RMK AO2 SLP181 T02060133,KIXD,2015-05-27T13:53:00Z,38.82,-94.88,20.6,13.3,0,0,,10.0,30.088583,1018.1,,,TRUE,,,,,,,CLR,,,,,,,,VFR,,,,,,,,,,,,METAR,342.0
KIWI 271353Z AUTO 20006KT 10SM CLR 22/16 A3012 RMK AO2 SLP200 T02220161,KIWI,2015-05-27T13:53:00Z,43.97,-69.72,22.2,16.1,200,6,,10.0,30.121063,1020.0,,TRUE,TRUE,,,,,,,CLR,,,,,,,,VFR,,,,,,,,,,,,METAR,20.0
KITR 271353Z AUTO 17015KT 10SM CLR 16/12 A3009 RMK AO2 SLP154 T01560117,KITR,2015-05-27T13:53:00Z,39.23,-102.28,15.6,11.7,170,15,,10.0,30.088583,1015.4,,TRUE,TRUE,,,,,,,CLR,,,,,,,,VFR,,,,,,,,,,,,METAR,1279.0
KIPL 271353Z AUTO 19004KT 10SM CLR 21/14 A2984 RMK AO2 SLP105 T02060139,KIPL,2015-05-27T13:53:00Z,32.83,-115.58,20.6,13.9,190,4,,10.0,29.840551,1010.5,,TRUE,TRUE,,,,,,,CLR,,,,,,,,VFR,,,,,,,,,,,,METAR,-17.0
KINK 271353Z AUTO 14013G22KT 7SM SCT008 23/19 A3004 RMK AO2 SLP128 T02280194,KINK,2015-05-27T13:53:00Z,31.78,-103.2,22.8,19.4,140,13,22,7.0,30.041338,1012.8,,TRUE,TRUE,,,,,,,SCT,800,,,,,,,VFR,,,,,,,,,,,,METAR,855.0
KIML 271353Z AUTO 15010KT 10SM CLR 16/10 A3008 RMK AO2 SLP171 T01560100,KIML,2015-05-27T13:53:00Z,40.52,-101.62,15.6,10.0,150,10,,10.0,30.079725,1017.1,,TRUE,TRUE,,,,,,,CLR,,,,,,,,VFR,,,,,,,,,,,,METAR,998.0
KIDA 271353Z 00000KT 10SM SCT070 BKN095 09/08 A3007 RMK AO2 SLP172 T00890078,KIDA,2015-05-27T13:53:00Z,43.52,-112.07,8.9,7.8,0,0,,10.0,30.070866,1017.2,,,TRUE,,,,,,,SCT,7000,BKN,9500,,,,,VFR,,,,,,,,,,,,METAR,1453.0
KICT 271353Z 09008KT 10SM SCT150 SCT180 BKN200 20/15 A3007 RMK AO2 SLP172 T02000150,KICT,2015-05-27T13:53:00Z,37.65,-97.43,20.0,15.0,90,8,,10.0,30.070866,1017.2,,,TRUE,,,,,,,SCT,15000,SCT,18000,BKN,20000,,,VFR,,,,,,,,,,,,METAR,407.0
KICR 271353Z AUTO 23010KT 10SM CLR 19/09 A3003 RMK AO2 SLP159 T01940094,KICR,2015-05-27T13:53:00Z,43.38,-99.85,19.4,9.4,230,10,,10.0,30.029528,1015.9,,TRUE,TRUE,,,,,,,CLR,,,,,,,,VFR,,,,,,,,,,,,METAR,621.0
KIAH 271353Z 26005KT 7SM -RA FEW007 SCT040 BKN120 OVC250 19/18 A3010 RMK AO2 TSE53 PRESRR SLP191 TS MOVD E P0048 T01940183,KIAH,2015-05-27T13:53:00Z,30.0,-95.37,19.4,18.3,260,5,,7.0,30.100393,1019.1,,,TRUE,,,,,,-RA,FEW,700,SCT,4000,BKN,12000,OVC,25000,VFR,,,,,,0.48,,,,,,METAR,36.0
KPSC 271353Z 12003KT 10SM BKN070 OVC110 16/12 A3000 RMK AO2 SLP158 T01560122,KPSC,2015-05-27T13:53:00Z,46.27,-119.12,15.6,12.2,120,3,,10.0,30.0,1015.8,,,TRUE,,,,,,,BKN,7000,OVC,11000,,,,,VFR,,,,,,,,,,,,METAR,121.0
KPRC 271353Z 00000KT 10SM CLR 12/01 A3011 RMK AO2 SLP134 T01170006,KPRC,2015-05-27T13:53:00Z,34.65,-112.42,11.7,0.6,0,0,,10.0,30.109253,1013.4,,,TRUE,,,,,,,CLR,,,,,,,,VFR,,,,,,,,,,,,METAR,1524.0
KPRB 271353Z AUTO 27005KT 10SM OVC007 11/09 A3002 RMK AO2 SLP163 T01110089 TSNO,KPRB,2015-05-27T13:53:00Z,35.67,-120.63,11.1,8.9,270,5,,10.0,30.02067,1016.3,,TRUE,TRUE,,,TRUE,,,,OVC,700,,,,,,,IFR,,,,,,,,,,,,METAR,245.0
KPQL 271353Z 15008KT 10SM SCT020 28/23 A3014 RMK AO2 SLP209 T02780228,KPQL,2015-05-27T13:53:00Z,30.47,-88.53,27.8,22.8,150,8,,10.0,30.138779,1020.9,,,TRUE,,,,,,,SCT,2000,,,,,,,VFR,,,,,,,,,,,,METAR,6.0
KPOU 271353Z AUTO VRB06KT 10SM FEW025 26/19 A3013 RMK AO2 SLP198 T02610189,KPOU,2015-05-27T13:53:00Z,41.63,-73.88,26.1,18.9,0,6,,10.0,30.129921,1019.8,,TRUE,TRUE,,,,,,,FEW,2500,,,,,,,VFR,,,,,,,,,,,,METAR,46.0
KPOF 271353Z AUTO 36008KT 10SM -RA OVC043 20/16 A3013 RMK AO2 WSHFT 1253 LTG DSNT E RAB52 SLP197 P0000 T02000156,KPOF,2015-05-27T13:53:00Z,36.77,-90.32,20.0,15.6,360,8,,10.0,30.129921,1019.7,,TRUE,TRUE,,,,,,-RA,OVC,4300,,,,,,,VFR,,,,,,0.0050,,,,,,METAR,99.0
KPNS 271353Z 11008KT 10SM BKN016 OVC022 26/24 A3015 RMK AO2 SLP210 T02560239,KPNS,2015-05-27T13:53:00Z,30.48,-87.18,25.6,23.9,110,8,,10.0,30.15059,1021.0,,,TRUE,,,,,,,BKN,1600,OVC,2200,,,,,MVFR,,,,,,,,,,,,METAR,38.0
KPNC 271353Z AUTO 00000KT 1/4SM FG VV002 20/19 A3007 RMK AO2 SLP172 T02000194,KPNC,2015-05-27T13:53:00Z,36.73,-97.1,20.0,19.4,0,0,,0.25,30.070866,1017.2,,TRUE,TRUE,,,,,,FG,OVX,0,,,,,,,LIFR,,,,,,,,,,,200,METAR,308.0
KPMP 271353Z 09015KT 10SM FEW028 SCT047 28/20 A3012 RMK AO2 SLP201 T02830200 $,KPMP,2015-05-27T13:53:00Z,26.25,-80.12,28.3,20.0,90,15,,10.0,30.121063,1020.1,,,TRUE,TRUE,,,,,,FEW,2800,SCT,4700,,,,,VFR,,,,,,,,,,,,METAR,6.0
KPMD 271353Z AUTO 21005KT 10SM CLR 16/07 A2996 RMK AO2 SLP126 T01560072,KPMD,2015-05-27T13:53:00Z,34.63,-118.08,15.6,7.2,210,5,,10.0,29.958662,1012.6,,TRUE,TRUE,,,,,,,CLR,,,,,,,,VFR,,,,,,,,,,,,METAR,780.0
KPKD 271353Z AUTO 33007KT 10SM CLR 19/12 A2989 RMK AO2 SLP119 T01940117,KPKD,2015-05-27T13:53:00Z,46.9,-95.07,19.4,11.7,330,7,,10.0,29.890747,1011.9,,TRUE,TRUE,,,,,,,CLR,,,,,,,,VFR,,,,,,,,,,,,METAR,442.0
KPIL 271353Z AUTO 14014KT 6SM HZ FEW018 28/24 A2999 RMK AO2 SLP155 T02780239,KPIL,2015-05-27T13:53:00Z,26.17,-97.33,27.8,23.9,140,14,,6.0,29.991142,1015.5,,TRUE,TRUE,,,,,,HZ,FEW,1800,,,,,,,VFR,,,,,,,,,,,,METAR,5.0
KPIH 271353Z 06003KT 10SM SCT110 10/08 A3006 RMK AO2 SLP154 T01000083,KPIH,2015-05-27T13:53:00Z,42.92,-112.57,10.0,8.3,60,3,,10.0,30.059055,1015.4,,,TRUE,,,,,,,SCT,11000,,,,,,,VFR,,,,,,,,,,,,METAR,1359.0
KPIE 271353Z 12009KT 10SM CLR 26/21 A3019 RMK AO2 SLP222 T02610206,KPIE,2015-05-27T13:53:00Z,27.92,-82.68,26.1,20.6,120,9,,10.0,30.188976,1022.2,,,TRUE,,,,,,,CLR,,,,,,,,VFR,,,,,,,,,,,,METAR,4.0
KPGD 271353Z AUTO 09009KT 10SM FEW029 28/20 A3018 RMK AO2 SLP219 T02830200,KPGD,2015-05-27T13:53:00Z,26.92,-82.0,28.3,20.0,90,9,,10.0,30.180119,1021.9,,TRUE,TRUE,,,,,,,FEW,2900,,,,,,,VFR,,,,,,,,,,,,METAR,7.0
KPGA 271353Z AUTO 00000KT 10SM CLR 17/07 A3009 RMK AO2 SLP135 T01670072 TSNO,KPGA,2015-05-27T13:53:00Z,36.92,-111.45,16.7,7.2,0,0,,10.0,30.088583,1013.5,,TRUE,TRUE,,,TRUE,,,,CLR,,,,,,,,VFR,,,,,,,,,,,,METAR,1307.0
KPEO 271353Z AUTO 20007KT 10SM BKN110 23/17 A3007 RMK AO2 SLP174 T02330172,KPEO,2015-05-27T13:53:00Z,42.65,-77.05,23.3,17.2,200,7,,10.0,30.070866,1017.4,,TRUE,TRUE,,,,,,,BKN,11000,,,,,,,VFR,,,,,,,,,,,,METAR,256.0
KPDX 271353Z 00000KT 10SM OVC008 13/12 A3007 RMK AO2 SLP181 T01330117,KPDX,2015-05-27T13:53:00Z,45.6,-122.62,13.3,11.7,0,0,,10.0,30.070866,1018.1,,,TRUE,,,,,,,OVC,800,,,,,,,IFR,,,,,,,,,,,,METAR,7.0
KPDT 271353Z 10004KT 10SM OVC070 12/09 A3002 RMK AO2 SLP156 T01170094,KPDT,2015-05-27T13:53:00Z,45.7,-118.83,11.7,9.4,100,4,,10.0,30.02067,1015.6,,,TRUE,,,,,,,OVC,7000,,,,,,,VFR,,,,,,,,,,,,METAR,462.0
KPDK 271353Z 00000KT 8SM BKN009 OVC012 21/18 A3026 RMK AO2 SLP237 T02110183,KPDK,2015-05-27T13:53:00Z,33.88,-84.3,21.1,18.3,0,0,,8.0,30.259842,1023.7,,,TRUE,,,,,,,BKN,900,OVC,1200,,,,,IFR,,,,,,,,,,,,METAR,302.0
KPBI 271353Z 09014KT 10SM FEW029 SCT040 SCT250 28/20 A3015 RMK AO2 SLP208 T02830200 $,KPBI,2015-05-27T13:53:00Z,26.68,-80.1,28.3,20.0,90,14,,10.0,30.15059,1020.8,,,TRUE,TRUE,,,,,,FEW,2900,SCT,4000,SCT,25000,,,VFR,,,,,,,,,,,,SPECI,6.0
KPBG 271353Z AUTO 13010KT 10SM SCT070 25/19 A2999 RMK AO2 SLP154 T02500189,KPBG,2015-05-27T13:53:00Z,44.65,-73.47,25.0,18.9,130,10,,10.0,29.991142,1015.4,,TRUE,TRUE,,,,,,,SCT,7000,,,,,,,VFR,,,,,,,,,,,,METAR,72.0
KPBF 271353Z AUTO 16005KT 10SM FEW038 OVC120 22/19 A3011 RMK AO2 LTG DSNT E AND SE SLP194 T02170189,KPBF,2015-05-27T13:53:00Z,34.18,-91.93,21.7,18.9,160,5,,10.0,30.109253,1019.4,,TRUE,TRUE,,,,,,,FEW,3800,OVC,12000,,,,,VFR,,,,,,,,,,,,METAR,62.0
KOXB 271353Z AUTO 21012G18KT 10SM OVC013 22/18 A3024 RMK AO2 SLP238 T02220183 TSNO,KOXB,2015-05-27T13:53:00Z,38.32,-75.12,22.2,18.3,210,12,18,10.0,30.239174,1023.8,,TRUE,TRUE,,,TRUE,,,,OVC,1300,,,,,,,MVFR,,,,,,,,,,,,METAR,3.0
KOWD 271353Z 18008KT 10SM CLR 25/18 A3016 RMK AO2 SLP212 T02500178,KOWD,2015-05-27T13:53:00Z,42.18,-71.17,25.0,17.8,180,8,,10.0,30.159449,1021.2,,,TRUE,,,,,,,CLR,,,,,,,,VFR,,,,,,,,,,,,METAR,19.0
KOVS 271353Z AUTO 28006KT 10SM SCT015 OVC023 18/14 A2995 RMK AO2 RAE1258 SLP142 P0000 T01780139,KOVS,2015-05-27T13:53:00Z,43.15,-90.68,17.8,13.9,280,6,,10.0,29.949802,1014.2,,TRUE,TRUE,,,,,,,SCT,1500,OVC,2300,,,,,MVFR,,,,,,0.0050,,,,,,METAR,202.0
KMSL 271353Z AUTO 19007KT 10SM BKN018 OVC023 24/19 A3020 RMK AO2 SLP222 T02390194 $,KMSL,2015-05-27T13:53:00Z,34.75,-87.6,23.9,19.4,190,7,,10.0,30.200787,1022.2,,TRUE,TRUE,TRUE,,,,,,BKN,1800,OVC,2300,,,,,MVFR,,,,,,,,,,,,METAR,164.0
KMRB 271353Z 21006KT 10SM CLR 26/20 A3015 RMK AO2 SLP206 T02560200,KMRB,2015-05-27T13:53:00Z,39.4,-77.98,25.6,20.0,210,6,,10.0,30.15059,1020.6,,,TRUE,,,,,,,CLR,,,,,,,,VFR,,,,,,,,,,,,METAR,164.0
KMOD 271353Z 34006KT 10SM CLR 13/09 A2996 RMK AO2 SLP145 T01330094,KMOD,2015-05-27T13:53:00Z,37.62,-120.95,13.3,9.4,340,6,,10.0,29.958662,1014.5,,,TRUE,,,,,,,CLR,,,,,,,,VFR,,,,,,,,,,,,METAR,29.0
KMMV 271353Z AUTO 28004KT 10SM CLR 11/09 A3007 RMK AO2 SLP182 T01110094,KMMV,2015-05-27T13:53:00Z,45.2,-123.13,11.1,9.4,280,4,,10.0,30.070866,1018.2,,TRUE,TRUE,,,,,,,CLR,,,,,,,,VFR,,,,,,,,,,,,METAR,48.0
KMLU 271353Z 21008KT 9SM -RA FEW020 BKN110 22/21 A3013 RMK AO2 LTG DSNT S AND SW SLP200 P0007 T02170211,KMLU,2015-05-27T13:53:00Z,32.52,-92.03,21.7,21.1,210,8,,9.0,30.129921,1020.0,,,TRUE,,,,,,-RA,FEW,2000,BKN,11000,,,,,VFR,,,,,,0.07,,,,,,METAR,29.0
KMLT 271353Z AUTO 17006KT 10SM SCT120 23/17 A3008 RMK AO2 SLP188 T02330172,KMLT,2015-05-27T13:53:00Z,45.65,-68.7,23.3,17.2,170,6,,10.0,30.079725,1018.8,,TRUE,TRUE,,,,,,,SCT,12000,,,,,,,VFR,,,,,,,,,,,,METAR,123.0
KMLS 271353Z AUTO 05006KT 10SM FEW070 16/11 A2993 RMK AO2 SLP122 T01610106,KMLS,2015-05-27T13:53:00Z,46.43,-105.88,16.1,10.6,50,6,,10.0,29.929134,1012.2,,TRUE,TRUE,,,,,,,FEW,7000,,,,,,,VFR,,,,,,,,,,,,METAR,801.0
KMLP 271353Z AUTO 00000KT 10SM CLR 07/05 A3007 RMK AO2 SLP122 T00720050,KMLP,2015-05-27T13:53:00Z,47.45,-115.67,7.2,5.0,0,0,,10.0,30.070866,1012.2,,TRUE,TRUE,,,,,,,CLR,,,,,,,,VFR,,,,,,,,,,,,METAR,1837.0
KMLC 271353Z AUTO VRB04KT 10SM BKN100 22/17 A3009 RMK AO2 SLP180 T02220172,KMLC,2015-05-27T13:53:00Z,34.88,-95.78,22.2,17.2,0,4,,10.0,30.088583,1018.0,,TRUE,TRUE,,,,,,,BKN,10000,,,,,,,VFR,,,,,,,,,,,,METAR,232.0
KMLB 271353Z 09012KT 10SM SCT032 BKN047 28/18 A3018 RMK AO2 SLP220 T02830183,KMLB,2015-05-27T13:53:00Z,28.1,-80.65,28.3,18.3,90,12,,10.0,30.180119,1022.0,,,TRUE,,,,,,,SCT,3200,BKN,4700,,,,,VFR,,,,,,,,,,,,METAR,11.0
KMKO 271353Z AUTO 17005KT 10SM CLR 21/17 A3008 RMK AO2 SLP180 T02110172,KMKO,2015-05-27T13:53:00Z,35.65,-95.37,21.1,17.2,170,5,,10.0,30.079725,1018.0,,TRUE,TRUE,,,,,,,CLR,,,,,,,,VFR,,,,,,,,,,,,METAR,185.0
KMKL 271353Z 22006KT 10SM BKN035 OVC041 24/20 A3016 RMK AO2 SLP209 T02390200,KMKL,2015-05-27T13:53:00Z,35.6,-88.92,23.9,20.0,220,6,,10.0,30.159449,1020.9,,,TRUE,,,,,,,BKN,3500,OVC,4100,,,,,VFR,,,,,,,,,,,,METAR,128.0
KMIW 271353Z AUTO 28007KT 10SM FEW010 17/14 A3000 RMK AO2 SLP156 T01720144,KMIW,2015-05-27T13:53:00Z,42.12,-92.92,17.2,14.4,280,7,,10.0,30.0,1015.6,,TRUE,TRUE,,,,,,,FEW,1000,,,,,,,VFR,,,,,,,,,,,,METAR,296.0
KMIE 271353Z 24010G17KT 10SM CLR 22/17 A3007 RMK AO2 SLP173 T02220172,KMIE,2015-05-27T13:53:00Z,40.23,-85.4,22.2,17.2,240,10,17,10.0,30.070866,1017.3,,,TRUE,,,,,,,CLR,,,,,,,,VFR,,,,,,,,,,,,METAR,285.0
KMIC 271353Z 21006KT 10SM CLR 18/14 A2990 RMK AO2 SLP125 T01780139,KMIC,2015-05-27T13:53:00Z,45.07,-93.35,17.8,13.9,210,6,,10.0,29.899607,1012.5,,,TRUE,,,,,,,CLR,,,,,,,,VFR,,,,,,,,,,,,METAR,265.0
KMIA 271353Z 11014KT 10SM SCT032 29/20 A3012 RMK AO2 SLP198 T02890200,KMIA,2015-05-27T13:53:00Z,25.8,-80.28,28.9,20.0,110,14,,10.0,30.121063,1019.8,,,TRUE,,,,,,,SCT,3200,,,,,,,VFR,,,,,,,,,,,,METAR,3.0
KMHT 271353Z 19009KT 10SM FEW180 BKN200 BKN250 25/18 A3011 RMK AO2 SLP203 T02500178,KMHT,2015-05-27T13:53:00Z,42.93,-71.43,25.0,17.8,190,9,,10.0,30.109253,1020.3,,,TRUE,,,,,,,FEW,18000,BKN,20000,BKN,25000,,,VFR,,,,,,,,,,,,METAR,81.0
KMHE 271353Z AUTO 25003KT 10SM CLR 18/13 A3001 RMK AO2 SLP156 T01830128,KMHE,2015-05-27T13:53:00Z,43.77,-98.02,18.3,12.8,250,3,,10.0,30.008858,1015.6,,TRUE,TRUE,,,,,,,CLR,,,,,,,,VFR,,,,,,,,,,,,METAR,397.0
KMGM 271353Z COR 00000KT 10SM BKN028 23/19 A3021 RMK AO2 SLP229 T02280194,KMGM,2015-05-27T13:53:00Z,32.3,-86.4,22.8,19.4,0,0,,10.0,30.209646,1022.9,TRUE,,TRUE,,,,,,,BKN,2800,,,,,,,MVFR,,,,,,,,,,,,SPECI,63.0
KMFR 271353Z 00000KT 10SM CLR 11/07 A3005 RMK AO2 SLP167 T01110067,KMFR,2015-05-27T13:53:00Z,42.38,-122.87,11.1,6.7,0,0,,10.0,30.050198,1016.7,,,TRUE,,,,,,,CLR,,,,,,,,VFR,,,,,,,,,,,,METAR,396.0
KMDW 271353Z 26015G20KT 10SM BKN021 22/16 A2994 RMK AO2 SLP131 T02170161 PNO,KMDW,2015-05-27T13:53:00Z,41.78,-87.75,21.7,16.1,260,15,20,10.0,29.940945,1013.1,,,TRUE,,,,,,,BKN,2100,,,,,,,MVFR,,,,,,,,,,,,METAR,188.0
KMCO 271353Z 12006KT 10SM BKN026 BKN050 BKN250 27/21 A3020 RMK AO2 SLP225 T02720206,KMCO,2015-05-27T13:53:00Z,28.42,-81.33,27.2,20.6,120,6,,10.0,30.200787,1022.5,,,TRUE,,,,,,,BKN,2600,BKN,5000,BKN,25000,,,MVFR,,,,,,,,,,,,SPECI,29.0
KHAO 271353Z AUTO VRB04KT 10SM CLR 23/18 A3013 RMK AO2 SLP197 T02330183,KHAO,2015-05-27T13:53:00Z,39.37,-84.52,23.3,18.3,0,4,,10.0,30.129921,1019.7,,TRUE,TRUE,,,,,,,CLR,,,,,,,,VFR,,,,,,,,,,,,METAR,188.0
KGZH 271353Z AUTO 16003KT 10SM CLR 23/21 A3019 RMK AO2 SLP221 T02330206,KGZH,2015-05-27T13:53:00Z,31.42,-87.05,23.3,20.6,160,3,,10.0,30.188976,1022.1,,TRUE,TRUE,,,,,,,CLR,,,,,,,,VFR,,,,,,,,,,,,METAR,78.0
KGWO 271353Z AUTO 00000KT 10SM CLR 25/21 A3014 RMK AO2 SLP203 T02500206,KGWO,2015-05-27T13:53:00Z,33.5,-90.08,25.0,20.6,0,0,,10.0,30.138779,1020.3,,TRUE,TRUE,,,,,,,CLR,,,,,,,,VFR,,,,,,,,,,,,METAR,44.0
KGVL 271353Z AUTO 25003KT 10SM BKN010 BKN014 OVC029 21/18 A3028 RMK AO2 CIG 007V011 SLP244 T02060178,KGVL,2015-05-27T13:53:00Z,34.27,-83.83,20.6,17.8,250,3,,10.0,30.280512,1024.4,,TRUE,TRUE,,,,,,,BKN,1000,BKN,1400,OVC,2900,,,MVFR,,,,,,,,,,,,METAR,386.0
KGUY 271353Z AUTO 19007KT 10SM CLR 20/16 A3008 RMK AO2 SLP147 T02000161,KGUY,2015-05-27T13:53:00Z,36.68,-101.5,20.0,16.1,190,7,,10.0,30.079725,1014.7,,TRUE,TRUE,,,,,,,CLR,,,,,,,,VFR,,,,,,,,,,,,METAR,948.0
KGUP 271353Z AUTO 00000KT 10SM CLR 09/02 A3021 RMK AO2 SLP125 T00940022,KGUP,2015-05-27T13:53:00Z,35.52,-108.8,9.4,2.2,0,0,,10.0,30.209646,1012.5,,TRUE,TRUE,,,,,,,CLR,,,,,,,,VFR,,,,,,,,,,,,METAR,1971.0
KGTF 271353Z 22009KT 10SM BKN034 BKN048 OVC080 11/09 A3003 RMK AO2 SLP160 T01060089,KGTF,2015-05-27T13:53:00Z,47.47,-111.38,10.6,8.9,220,9,,10.0,30.029528,1016.0,,,TRUE,,,,,,,BKN,3400,BKN,4800,OVC,8000,,,VFR,,,,,,,,,,,,METAR,1119.0
KGSP 271353Z 17006KT 10SM BKN008 BKN016 OVC020 21/19 A3026 RMK AO2 SLP239 T02060189,KGSP,2015-05-27T13:53:00Z,34.9,-82.22,20.6,18.9,170,6,,10.0,30.259842,1023.9,,,TRUE,,,,,,,BKN,800,BKN,1600,OVC,2000,,,IFR,,,,,,,,,,,,METAR,287.0
KGSH 271353Z AUTO 23019G25KT 10SM FEW065 22/17 A2999 RMK AO2 SLP150 T02220167 TSNO,KGSH,2015-05-27T13:53:00Z,41.53,-85.78,22.2,16.7,230,19,25,10.0,29.991142,1015.0,,TRUE,TRUE,,,TRUE,,,,FEW,6500,,,,,,,VFR,,,,,,,,,,,,METAR,252.0
KGRR 271353Z 23020G27KT 10SM BKN023 22/16 A2991 RMK AO2 PK WND 24030/1314 SLP126 T02170161,KGRR,2015-05-27T13:53:00Z,42.88,-85.52,21.7,16.1,230,20,27,10.0,29.911417,1012.6,,,TRUE,,,,,,,BKN,2300,,,,,,,MVFR,,,,,,,,,,,,METAR,237.0
KGRI 271353Z 26003KT 10SM CLR 18/11 A3008 RMK AO2 SLP183 T01830106,KGRI,2015-05-27T13:53:00Z,40.97,-98.32,18.3,10.6,260,3,,10.0,30.079725,1018.3,,,TRUE,,,,,,,CLR,,,,,,,,VFR,,,,,,,,,,,,METAR,561.0
KGRB 271353Z 28011KT 10SM OVC018 16/13 A2985 RMK AO2 SLP106 T01610133,KGRB,2015-05-27T13:53:00Z,44.48,-88.13,16.1,13.3,280,11,,10.0,29.84941,1010.6,,,TRUE,,,,,,,OVC,1800,,,,,,,MVFR,,,,,,,,,,,,METAR,208.0
KGPT 271353Z 14008KT 10SM SCT017 27/22 A3014 RMK AO2 SLP205 T02720222,KGPT,2015-05-27T13:53:00Z,30.42,-89.08,27.2,22.2,140,8,,10.0,30.138779,1020.5,,,TRUE,,,,,,,SCT,1700,,,,,,,VFR,,,,,,,,,,,,METAR,14.0
KGOK 271353Z AUTO 18007KT 8SM CLR 22/18 A3007 RMK AO2 SLP175 T02170183,KGOK,2015-05-27T13:53:00Z,35.85,-97.4,21.7,18.3,180,7,,8.0,30.070866,1017.5,,TRUE,TRUE,,,,,,,CLR,,,,,,,,VFR,,,,,,,,,,,,METAR,324.0
KGNV 271353Z 14008KT 10SM FEW024 SCT032 26/20 A3022 RMK AO2 SLP231 T02610200,KGNV,2015-05-27T13:53:00Z,29.7,-82.28,26.1,20.0,140,8,,10.0,30.221457,1023.1,,,TRUE,,,,,,,FEW,2400,SCT,3200,,,,,VFR,,,,,,,,,,,,METAR,45.0
KGLR 271353Z AUTO 23013G22KT 10SM SCT016 OVC022 17/14 A2980 RMK AO2 PK WND 23028/1328 SLP087 T01720144,KGLR,2015-05-27T13:53:00Z,45.02,-84.68,17.2,14.4,230,13,22,10.0,29.799213,1008.7,,TRUE,TRUE,,,,,,,SCT,1600,OVC,2200,,,,,MVFR,,,,,,,,,,,,METAR,407.0
KGLH 271353Z AUTO 12006KT 10SM SCT100 21/19 A3010 RMK AO2 LTG DSNT W AND NW RAE10 SLP199 P0000 T02110194,KGLH,2015-05-27T13:53:00Z,33.5,-90.98,21.1,19.4,120,6,,10.0,30.100393,1019.9,,TRUE,TRUE,,,,,,,SCT,10000,,,,,,,VFR,,,,,,0.0050,,,,,,METAR,45.0
KGLD 271353Z AUTO 16011KT 10SM FEW070 OVC085 13/11 A3009 RMK AO2 RAB14E32 SLP165 P0001 T01330111,KGLD,2015-05-27T13:53:00Z,39.37,-101.7,13.3,11.1,160,11,,10.0,30.088583,1016.5,,TRUE,TRUE,,,,,,,FEW,7000,OVC,8500,,,,,VFR,,,,,,0.01,,,,,,METAR,1113.0
KGKY 271353Z 15009KT 10SM CLR 22/16 A3007 RMK AO2 SLP176 T02170156,KGKY,2015-05-27T13:53:00Z,32.67,-97.1,21.7,15.6,150,9,,10.0,30.070866,1017.6,,,TRUE,,,,,,,CLR,,,,,,,,VFR,,,,,,,,,,,,METAR,192.0
KGKJ 271353Z AUTO 21007KT 8SM BKN017 OVC024 21/17 A3011 RMK AO2 SLP187 T02060167 TSNO,KGKJ,2015-05-27T13:53:00Z,41.63,-80.22,20.6,16.7,210,7,,8.0,30.109253,1018.7,,TRUE,TRUE,,,TRUE,,,,BKN,1700,OVC,2400,,,,,MVFR,,,,,,,,,,,,METAR,428.0
KGJT 271353Z 14006KT 10SM CLR 12/09 A3014 RMK AO2 SLP169 T01170089,KGJT,2015-05-27T13:53:00Z,39.12,-108.52,11.7,8.9,140,6,,10.0,30.138779,1016.9,,,TRUE,,,,,,,CLR,,,,,,,,VFR,,,,,,,,,,,,METAR,1475.0
KGIF 271353Z AUTO 09008KT 10SM FEW030 SCT040 28/19 A3021 RMK AO2 SLP228 T02780194,KGIF,2015-05-27T13:53:00Z,28.07,-81.75,27.8,19.4,90,8,,10.0,30.209646,1022.8,,TRUE,TRUE,,,,,,,FEW,3000,SCT,4000,,,,,VFR,,,,,,,,,,,,METAR,43.0
KGGW 271353Z AUTO 06008KT 10SM BKN085 OVC100 14/12 A2992 RMK AO2 LTG DSNT NE AND E SLP127 T01440117,KGGW,2015-05-27T13:53:00Z,48.22,-106.62,14.4,11.7,60,8,,10.0,29.920275,1012.7,,TRUE,TRUE,,,,,,,BKN,8500,OVC,10000,,,,,VFR,,,,,,,,,,,,METAR,694.0
KGGG 271353Z 11003KT 10SM CLR 20/18 A3007 RMK AO2 SLP178 T02000178,KGGG,2015-05-27T13:53:00Z,32.38,-94.72,20.0,17.8,110,3,,10.0,30.070866,1017.8,,,TRUE,,,,,,,CLR,,,,,,,,VFR,,,,,,,,,,,,METAR,107.0
KGFL 271353Z AUTO 20011G19KT 10SM FEW075 SCT100 26/19 A3007 RMK AO2 SLP178 T02560189,KGFL,2015-05-27T13:53:00Z,43.33,-73.62,25.6,18.9,200,11,19,10.0,30.070866,1017.8,,TRUE,TRUE,,,,,,,FEW,7500,SCT,10000,,,,,VFR,,,,,,,,,,,,METAR,103.0
KGEZ 271353Z AUTO 22011KT 10SM CLR 23/18 A3009 RMK AO2 SLP184 T02280183,KGEZ,2015-05-27T13:53:00Z,39.58,-85.8,22.8,18.3,220,11,,10.0,30.088583,1018.4,,TRUE,TRUE,,,,,,,CLR,,,,,,,,VFR,,,,,,,,,,,,METAR,245.0
KGEY 271353Z AUTO 00000KT 10SM BKN065 OVC085 13/12 A3000 RMK AO2 SLP140 T01330117,KGEY,2015-05-27T13:53:00Z,44.52,-108.08,13.3,11.7,0,0,,10.0,30.0,1014.0,,TRUE,TRUE,,,,,,,BKN,6500,OVC,8500,,,,,VFR,,,,,,,,,,,,METAR,1191.0
KGEG 271353Z 00000KT 10SM FEW080 SCT200 12/09 A3002 RMK AO2 SLP160 T01170094 $,KGEG,2015-05-27T13:53:00Z,47.62,-117.53,11.7,9.4,0,0,,10.0,30.02067,1016.0,,,TRUE,TRUE,,,,,,FEW,8000,SCT,20000,,,,,VFR,,,,,,,,,,,,METAR,735.0
KMCN 271353Z 11004KT 10SM OVC006 22/20 A3026 RMK AO2 SLP242 T02170200,KMCN,2015-05-27T13:53:00Z,32.68,-83.65,21.7,20.0,110,4,,10.0,30.259842,1024.2,,,TRUE,,,,,,,OVC,600,,,,,,,IFR,,,,,,,,,,,,METAR,109.0
KMCK 271353Z AUTO 16006KT 10SM CLR 17/11 A3009 RMK AO2 SLP176 T01670106,KMCK,2015-05-27T13:53:00Z,40.2,-100.58,16.7,10.6,160,6,,10.0,30.088583,1017.6,,TRUE,TRUE,,,,,,,CLR,,,,,,,,VFR,,,,,,,,,,,,METAR,782.0
KMCI 271353Z 31004KT 10SM FEW250 20/14 A3008 RMK AO2 SLP177 T02000139,KMCI,2015-05-27T13:53:00Z,39.3,-94.73,20.0,13.9,310,4,,10.0,30.079725,1017.7,,,TRUE,,,,,,,FEW,25000,,,,,,,VFR,,,,,,,,,,,,METAR,320.0
KMCE 271353Z AUTO 32007KT 9SM CLR 12/10 A2996 RMK AO2 SLP143 T01220100 $,KMCE,2015-05-27T13:53:00Z,37.28,-120.5,12.2,10.0,320,7,,9.0,29.958662,1014.3,,TRUE,TRUE,TRUE,,,,,,CLR,,,,,,,,VFR,,,,,,,,,,,,METAR,47.0
KMCB 271353Z AUTO 17009KT 9SM OVC005 24/23 A3016 RMK AO2 SLP206 T02390233,KMCB,2015-05-27T13:53:00Z,31.18,-90.47,23.9,23.3,170,9,,9.0,30.159449,1020.6,,TRUE,TRUE,,,,,,,OVC,500,,,,,,,IFR,,,,,,,,,,,,METAR,124.0
KMBS 271353Z 23017KT 10SM SCT024 BKN036 OVC045 22/17 A2989 RMK AO2 SLP117 T02220167,KMBS,2015-05-27T13:53:00Z,43.53,-84.08,22.2,16.7,230,17,,10.0,29.890747,1011.7,,,TRUE,,,,,,,SCT,2400,BKN,3600,OVC,4500,,,VFR,,,,,,,,,,,,METAR,202.0
KMAF 271353Z 16015G23KT 4SM HZ BKN011 OVC017 23/20 A3007 RMK AO2 SLP136 T02280200,KMAF,2015-05-27T13:53:00Z,31.95,-102.2,22.8,20.0,160,15,23,4.0,30.070866,1013.6,,,TRUE,,,,,,HZ,BKN,1100,OVC,1700,,,,,MVFR,,,,,,,,,,,,METAR,874.0
KMAE 271353Z AUTO 31005KT 10SM CLR 13/09 A2996 RMK AO2 SLP142 T01330094 $,KMAE,2015-05-27T13:53:00Z,36.98,-120.12,13.3,9.4,310,5,,10.0,29.958662,1014.2,,TRUE,TRUE,TRUE,,,,,,CLR,,,,,,,,VFR,,,,,,,,,,,,METAR,77.0
KLXV 271353Z AUTO 00000KT 10SM BKN055 OVC075 03/00 A3030 RMK AO2 SLP155 T00330000,KLXV,2015-05-27T13:53:00Z,39.23,-106.32,3.3,0.0,0,0,,10.0,30.301182,1015.5,,TRUE,TRUE,,,,,,,BKN,5500,OVC,7500,,,,,VFR,,,,,,,,,,,,METAR,3028.0
KLWD 271353Z AUTO 29006KT 10SM CLR 20/14 A3005 RMK AO2 SLP170 T02000144,KLWD,2015-05-27T13:53:00Z,40.63,-93.9,20.0,14.4,290,6,,10.0,30.050198,1017.0,,TRUE,TRUE,,,,,,,CLR,,,,,,,,VFR,,,,,,,,,,,,METAR,346.0
KLVS 271353Z AUTO 03004KT 10SM CLR 14/04 A3024 RMK AO2 SLP150 T01390044,KLVS,2015-05-27T13:53:00Z,35.65,-105.13,13.9,4.4,30,4,,10.0,30.239174,1015.0,,TRUE,TRUE,,,,,,,CLR,,,,,,,,VFR,,,,,,,,,,,,METAR,2091.0
KLVM 271353Z AUTO 27008KT 10SM FEW033 OVC075 12/07 A3003 RMK AO2 SLP143 T01220072,KLVM,2015-05-27T13:53:00Z,45.7,-110.43,12.2,7.2,270,8,,10.0,30.029528,1014.3,,TRUE,TRUE,,,,,,,FEW,3300,OVC,7500,,,,,VFR,,,,,,,,,,,,METAR,1418.0
KLVK 271353Z 25004KT 10SM OVC014 14/09 A3000 RMK AO2 SLP155 T01390094,KLVK,2015-05-27T13:53:00Z,37.7,-121.82,13.9,9.4,250,4,,10.0,30.0,1015.5,,,TRUE,,,,,,,OVC,1400,,,,,,,MVFR,,,,,,,,,,,,METAR,117.0
KLVJ 271353Z AUTO 06010KT 10SM BKN055 21/19 A3015 RMK AO2 LTG DSNT NW-NE RAE25 SLP207 P0000 T02060189,KLVJ,2015-05-27T13:53:00Z,29.52,-95.25,20.6,18.9,60,10,,10.0,30.15059,1020.7,,TRUE,TRUE,,,,,,,BKN,5500,,,,,,,VFR,,,,,,0.0050,,,,,,METAR,12.0
KLUK 271353Z 22012G18KT 10SM FEW023 23/18 A3013 RMK AO2 SLP200 T02330183,KLUK,2015-05-27T13:53:00Z,39.1,-84.42,23.3,18.3,220,12,18,10.0,30.129921,1020.0,,,TRUE,,,,,,,FEW,2300,,,,,,,VFR,,,,,,,,,,,,METAR,155.0
KLPR 271353Z AUTO 23010KT 9SM SCT055 23/17 A3006 RMK AO2 SLP174 T02280172 TSNO,KLPR,2015-05-27T13:53:00Z,41.35,-82.18,22.8,17.2,230,10,,9.0,30.059055,1017.4,,TRUE,TRUE,,,TRUE,,,,SCT,5500,,,,,,,VFR,,,,,,,,,,,,METAR,241.0
KLOZ 271353Z AUTO 22006KT 10SM FEW016 BKN021 OVC027 22/17 A3023 RMK AO2 SLP225 T02220167,KLOZ,2015-05-27T13:53:00Z,37.08,-84.07,22.2,16.7,220,6,,10.0,30.230314,1022.5,,TRUE,TRUE,,,,,,,FEW,1600,BKN,2100,OVC,2700,,,MVFR,,,,,,,,,,,,METAR,362.0
KLOU 271353Z 19006KT 10SM SCT015 BKN027 23/19 A3015 RMK AO2 SLP206 T02280189,KLOU,2015-05-27T13:53:00Z,38.22,-85.67,22.8,18.9,190,6,,10.0,30.15059,1020.6,,,TRUE,,,,,,,SCT,1500,BKN,2700,,,,,MVFR,,,,,,,,,,,,METAR,164.0
KLOL 271353Z AUTO 11004KT 10SM CLR 13/08 A3001 RMK AO2 SLP134 T01280083,KLOL,2015-05-27T13:53:00Z,40.07,-118.57,12.8,8.3,110,4,,10.0,30.008858,1013.4,,TRUE,TRUE,,,,,,,CLR,,,,,,,,VFR,,,,,,,,,,,,METAR,1189.0
KLNS 271353Z 21009KT 9SM OVC018 24/20 A3016 RMK AO2 SLP209 T02440200,KLNS,2015-05-27T13:53:00Z,40.12,-76.3,24.4,20.0,210,9,,9.0,30.159449,1020.9,,,TRUE,,,,,,,OVC,1800,,,,,,,MVFR,,,,,,,,,,,,METAR,125.0
KLND 271353Z AUTO 09004KT 10SM CLR 11/07 A3005 RMK AO2 SLP137 T01060067,KLND,2015-05-27T13:53:00Z,42.82,-108.73,10.6,6.7,90,4,,10.0,30.050198,1013.7,,TRUE,TRUE,,,,,,,CLR,,,,,,,,VFR,,,,,,,,,,,,METAR,1694.0
KLMT 271353Z 00000KT 10SM CLR 06/03 A3006 RMK AO2 SLP155 T00610033,KLMT,2015-05-27T13:53:00Z,42.15,-121.72,6.1,3.3,0,0,,10.0,30.059055,1015.5,,,TRUE,,,,,,,CLR,,,,,,,,VFR,,,,,,,,,,,,METAR,1246.0
KLIT 271353Z 17005KT 10SM FEW020 SCT050 OVC250 23/19 A3011 RMK AO2 SLP197 BLDG CU DSNT NE-E T02280189,KLIT,2015-05-27T13:53:00Z,34.73,-92.23,22.8,18.9,170,5,,10.0,30.109253,1019.7,,,TRUE,,,,,,,FEW,2000,SCT,5000,OVC,25000,,,VFR,,,,,,,,,,,,METAR,79.0
KLHX 271353Z AUTO 00000KT 10SM CLR 15/11 A3010 RMK AO2 SLP147 T01500111,KLHX,2015-05-27T13:53:00Z,38.05,-103.52,15.0,11.1,0,0,,10.0,30.100393,1014.7,,TRUE,TRUE,,,,,,,CLR,,,,,,,,VFR,,,,,,,,,,,,METAR,1277.0
KLHQ 271353Z AUTO 24009KT 10SM SCT019 SCT028 BKN035 22/18 A3014 RMK AO2 SLP200 T02220178,KLHQ,2015-05-27T13:53:00Z,39.75,-82.67,22.2,17.8,240,9,,10.0,30.138779,1020.0,,TRUE,TRUE,,,,,,,SCT,1900,SCT,2800,BKN,3500,,,VFR,,,,,,,,,,,,METAR,260.0
KLGB 271353Z 22003KT 10SM OVC022 17/12 A2999 RMK AO2 SLP154 T01720122,KLGB,2015-05-27T13:53:00Z,33.82,-118.15,17.2,12.2,220,3,,10.0,29.991142,1015.4,,,TRUE,,,,,,,OVC,2200,,,,,,,MVFR,,,,,,,,,,,,METAR,10.0
KGCC 271353Z AUTO 17010KT 10SM FEW080 13/10 A2999 RMK AO2 SLP132 T01330100,KGCC,2015-05-27T13:53:00Z,44.33,-105.55,13.3,10.0,170,10,,10.0,29.991142,1013.2,,TRUE,TRUE,,,,,,,FEW,8000,,,,,,,VFR,,,,,,,,,,,,METAR,1320.0
KGAG 271353Z AUTO VRB04KT 10SM CLR 21/16 A3006 RMK AO2 SLP159 T02110161,KGAG,2015-05-27T13:53:00Z,36.3,-99.77,21.1,16.1,0,4,,10.0,30.059055,1015.9,,TRUE,TRUE,,,,,,,CLR,,,,,,,,VFR,,,,,,,,,,,,METAR,668.0
KFYV 271353Z 00000KT 10SM CLR 20/17 A3011 RMK AO2 SLP185 T02000172,KFYV,2015-05-27T13:53:00Z,36.02,-94.17,20.0,17.2,0,0,,10.0,30.109253,1018.5,,,TRUE,,,,,,,CLR,,,,,,,,VFR,,,,,,,,,,,,METAR,379.0
KFXE 271353Z 08017KT 10SM SCT025 28/21 A3012 RMK AO2 SLP202 T02830206 $,KFXE,2015-05-27T13:53:00Z,26.2,-80.18,28.3,20.6,80,17,,10.0,30.121063,1020.2,,,TRUE,TRUE,,,,,,SCT,2500,,,,,,,VFR,,,,,,,,,,,,METAR,6.0
KFWN 271353Z AUTO VRB04KT 10SM OVC016 23/19 A3017 RMK AO2 SLP212 T02330189,KFWN,2015-05-27T13:53:00Z,41.2,-74.63,23.3,18.9,0,4,,10.0,30.171259,1021.2,,TRUE,TRUE,,,,,,,OVC,1600,,,,,,,MVFR,,,,,,,,,,,,METAR,133.0
KFVE 271353Z AUTO 16005KT 10SM BKN110 21/17 A3003 RMK AO2 SLP163 T02110167,KFVE,2015-05-27T13:53:00Z,47.28,-68.3,21.1,16.7,160,5,,10.0,30.029528,1016.3,,TRUE,TRUE,,,,,,,BKN,11000,,,,,,,VFR,,,,,,,,,,,,METAR,301.0
KFUL 271353Z 00000KT 10SM OVC021 17/11 A2998 RMK AO2 SLP149 T01720111,KFUL,2015-05-27T13:53:00Z,33.87,-117.98,17.2,11.1,0,0,,10.0,29.97933,1014.9,,,TRUE,,,,,,,OVC,2100,,,,,,,MVFR,,,,,,,,,,,,METAR,35.0
KFTY 271353Z 00000KT 8SM BKN011 OVC031 22/18 A3025 RMK AO2 SLP238 T02170183,KFTY,2015-05-27T13:53:00Z,33.78,-84.52,21.7,18.3,0,0,,8.0,30.250984,1023.8,,,TRUE,,,,,,,BKN,1100,OVC,3100,,,,,MVFR,,,,,,,,,,,,METAR,263.0
KFTW 271353Z 16007KT 10SM CLR 22/16 A3006 RMK AO2 SLP173 T02220161,KFTW,2015-05-27T13:53:00Z,32.83,-97.37,22.2,16.1,160,7,,10.0,30.059055,1017.3,,,TRUE,,,,,,,CLR,,,,,,,,VFR,,,,,,,,,,,,METAR,214.0
KFST 271353Z AUTO 14014G19KT 10SM CLR 22/17 A3006 RMK AO2 SLP131 T02220172,KFST,2015-05-27T13:53:00Z,30.92,-102.92,22.2,17.2,140,14,19,10.0,30.059055,1013.1,,TRUE,TRUE,,,,,,,CLR,,,,,,,,VFR,,,,,,,,,,,,METAR,918.0
KFSM 271353Z 09005KT 10SM CLR 23/18 A3008 RMK AO2 SLP180 T02280178,KFSM,2015-05-27T13:53:00Z,35.33,-94.37,22.8,17.8,90,5,,10.0,30.079725,1018.0,,,TRUE,,,,,,,CLR,,,,,,,,VFR,,,,,,,,,,,,METAR,140.0
KFRG 271353Z 18009KT 10SM OVC010 20/17 A3020 RMK AO2 SLP225 T02000167,KFRG,2015-05-27T13:53:00Z,40.73,-73.42,20.0,16.7,180,9,,10.0,30.200787,1022.5,,,TRUE,,,,,,,OVC,1000,,,,,,,MVFR,,,,,,,,,,,,METAR,21.0
KFPR 271353Z AUTO 10012KT 10SM FEW037 28/19 A3016 RMK AO2 SLP214 T02780189 TSNO,KFPR,2015-05-27T13:53:00Z,27.5,-80.38,27.8,18.9,100,12,,10.0,30.159449,1021.4,,TRUE,TRUE,,,TRUE,,,,FEW,3700,,,,,,,VFR,,,,,,,,,,,,METAR,13.0
KFOK 271353Z AUTO 21011G18KT 10SM OVC008 19/16 A3023 RMK AO2 SLP234 T01890156 TSNO,KFOK,2015-05-27T13:53:00Z,40.85,-72.62,18.9,15.6,210,11,18,10.0,30.230314,1023.4,,TRUE,TRUE,,,TRUE,,,,OVC,800,,,,,,,IFR,,,,,,,,,,,,METAR,33.0
KFOE 271353Z 00000KT 10SM CLR 21/14 A3008 RMK AO2 SLP179 T02060144,KFOE,2015-05-27T13:53:00Z,38.93,-95.65,20.6,14.4,0,0,,10.0,30.079725,1017.9,,,TRUE,,,,,,,CLR,,,,,,,,VFR,,,,,,,,,,,,METAR,320.0
KFNT 271353Z 22012G23KT 10SM SCT028 SCT035 23/16 A2992 RMK AO2 SLP128 T02330161,KFNT,2015-05-27T13:53:00Z,42.97,-83.75,23.3,16.1,220,12,23,10.0,29.920275,1012.8,,,TRUE,,,,,,,SCT,2800,SCT,3500,,,,,VFR,,,,,,,,,,,,METAR,233.0
KFNB 271353Z AUTO 30004KT 10SM CLR 19/13 A3006 RMK AO2 SLP173 T01940128,KFNB,2015-05-27T13:53:00Z,40.07,-95.58,19.4,12.8,300,4,,10.0,30.059055,1017.3,,TRUE,TRUE,,,,,,,CLR,,,,,,,,VFR,,,,,,,,,,,,METAR,300.0
KFMY 271353Z 09009KT 10SM CLR 28/19 A3014 RMK AO2 SLP207 T02780194,KFMY,2015-05-27T13:53:00Z,26.58,-81.87,27.8,19.4,90,9,,10.0,30.138779,1020.7,,,TRUE,,,,,,,CLR,,,,,,,,VFR,,,,,,,,,,,,METAR,4.0
KFMN 271353Z 08011KT 10SM CLR 13/06 A3015 RMK AO2 SLP171 T01330061,KFMN,2015-05-27T13:53:00Z,36.75,-108.23,13.3,6.1,80,11,,10.0,30.15059,1017.1,,,TRUE,,,,,,,CLR,,,,,,,,VFR,,,,,,,,,,,,METAR,1685.0
KFLO 271353Z VRB06KT 10SM FEW016 SCT075 27/22 A3027 RMK AO2 SLP246 T02670217,KFLO,2015-05-27T13:53:00Z,34.18,-79.73,26.7,21.7,0,6,,10.0,30.268702,1024.6,,,TRUE,,,,,,,FEW,1600,SCT,7500,,,,,VFR,,,,,,,,,,,,METAR,44.0
KFLL 271353Z 09019KT 10SM SCT027 SCT039 BKN049 28/21 A3011 RMK AO2 SLP197 T02830211,KFLL,2015-05-27T13:53:00Z,26.07,-80.15,28.3,21.1,90,19,,10.0,30.109253,1019.7,,,TRUE,,,,,,,SCT,2700,SCT,3900,BKN,4900,,,VFR,,,,,,,,,,,,SPECI,3.0
KFLD 271353Z AUTO 27010G19KT 10SM SCT015 BKN021 OVC027 17/13 A2987 RMK AO2 SLP114 T01720133,KFLD,2015-05-27T13:53:00Z,43.77,-88.48,17.2,13.3,270,10,19,10.0,29.870079,1011.4,,TRUE,TRUE,,,,,,,SCT,1500,BKN,2100,OVC,2700,,,MVFR,,,,,,,,,,,,METAR,240.0
KFHR 271353Z AUTO 00000KT M1/4SM FG VV002 10/10 A3008 RMK AO2 SLP184 T01000100,KFHR,2015-05-27T13:53:00Z,48.52,-123.03,10.0,10.0,0,0,,0.25,30.079725,1018.4,,TRUE,TRUE,,,,,,FG,OVX,0,,,,,,,LIFR,,,,,,,,,,,200,METAR,32.0
KFFT 271353Z AUTO 22012KT 8SM SCT014 BKN021 OVC037 22/19 A3017 RMK AO2 SLP209 T02220189,KFFT,2015-05-27T13:53:00Z,38.18,-84.9,22.2,18.9,220,12,,8.0,30.171259,1020.9,,TRUE,TRUE,,,,,,,SCT,1400,BKN,2100,OVC,3700,,,MVFR,,,,,,,,,,,,METAR,236.0
KFDY 271353Z AUTO 22013KT 10SM CLR 23/18 A3004 RMK AO2 SLP163 T02330178,KFDY,2015-05-27T13:53:00Z,41.02,-83.67,23.3,17.8,220,13,,10.0,30.041338,1016.3,,TRUE,TRUE,,,,,,,CLR,,,,,,,,VFR,,,,,,,,,,,,METAR,247.0
KRYT 271353Z AUTO VRB04KT 10SM CLR 24/19 A3015 RMK AO2 SLP196 T02440194 $,KRYT,2015-05-27T13:53:00Z,39.73,-77.43,24.4,19.4,0,4,,10.0,30.15059,1019.6,,TRUE,TRUE,TRUE,,,,,,CLR,,,,,,,,VFR,,,,,,,,,,,,METAR,274.0
MUCL 271353Z 06012KT 9999 SCT018 28/22 Q1017,MUCL,2015-05-27T13:53:00Z,21.63,-81.55,28.0,22.0,60,12,,6.21,30.029528,,,,,,,,,,,SCT,1800,,,,,,,VFR,,,,,,,,,,,,METAR,5.0
KTOR 271353Z AUTO 14005KT 10SM CLR 14/12 A3002 RMK AO2 SLP137 T01390117,KTOR,2015-05-27T13:53:00Z,42.07,-104.15,13.9,11.7,140,5,,10.0,30.02067,1013.7,,TRUE,TRUE,,,,,,,CLR,,,,,,,,VFR,,,,,,,,,,,,METAR,1277.0
PAQT 271353Z AUTO 06006KT 1/4SM -RA FG VV002 01/01 A3029 RMK SLP257 P0000 T00110011 TSNO VIA AUTODIAL,PAQT,2015-05-27T13:53:00Z,70.22,-151.0,1.1,1.1,60,6,,0.25,30.28937,1025.7,,TRUE,,,,TRUE,,,-RA FG,OVX,0,,,,,,,LIFR,,,,,,0.0050,,,,,200,METAR,12.0
PAWI 271353Z AUTO 05008KT 10SM BKN003 M01/M02 A3027 RMK SLP252 T10111022 TSNO VIA AUTODIAL,PAWI,2015-05-27T13:53:00Z,70.62,-159.85,-1.1,-2.2,50,8,,10.0,30.268702,1025.2,,TRUE,,,,TRUE,,,,BKN,300,,,,,,,LIFR,,,,,,,,,,,,METAR,27.0
PANT 271353Z 33007KT 10SM CLR 12/09 A3014 RMK SLP208 T01220094 VIA AUTODIAL,PANT,2015-05-27T13:53:00Z,55.03,-131.57,12.2,9.4,330,7,,10.0,30.138779,1020.8,,,,,,,,,,CLR,,,,,,,,VFR,,,,,,,,,,,,METAR,36.0
KHLG 271353Z 22009KT 10SM FEW010 BKN014 OVC024 21/18 A3015,KHLG,2015-05-27T13:53:00Z,40.17,-80.65,21.0,18.0,220,9,,10.0,30.15059,,,,,,,,,,,FEW,1000,BKN,1400,OVC,2400,,,MVFR,,,,,,,,,,,,METAR,372.0
KNZY 271352Z 34006KT 10SM BKN017 OVC026 16/13 A2996 RMK AO2 SLP145 T01610128 $,KNZY,2015-05-27T13:52:00Z,32.7,-117.22,16.1,12.8,340,6,,10.0,29.958662,1014.5,,,TRUE,TRUE,,,,,,BKN,1700,OVC,2600,,,,,MVFR,,,,,,,,,,,,SPECI,8.0
KVTN 271352Z AUTO 23009KT 10SM CLR 17/10 A3007 RMK AO2 SLP172 T01720100,KVTN,2015-05-27T13:52:00Z,42.87,-100.55,17.2,10.0,230,9,,10.0,30.070866,1017.2,,TRUE,TRUE,,,,,,,CLR,,,,,,,,VFR,,,,,,,,,,,,METAR,788.0
KTRM 271352Z AUTO 33008KT 8SM CLR 21/11 A2984 RMK AO2 SLP108 T02060111 TSNO,KTRM,2015-05-27T13:52:00Z,33.63,-116.17,20.6,11.1,330,8,,8.0,29.840551,1010.8,,TRUE,TRUE,,,TRUE,,,,CLR,,,,,,,,VFR,,,,,,,,,,,,METAR,-35.0
KTOL 271352Z 24014KT 10SM CLR 23/17 A3000 RMK AO2 SLP155 T02280167,KTOL,2015-05-27T13:52:00Z,41.58,-83.8,22.8,16.7,240,14,,10.0,30.0,1015.5,,,TRUE,,,,,,,CLR,,,,,,,,VFR,,,,,,,,,,,,METAR,210.0
KTAN 271352Z AUTO 19007G15KT 10SM CLR 22/16 A3019 RMK AO2 SLP222 T02220161,KTAN,2015-05-27T13:52:00Z,41.88,-71.02,22.2,16.1,190,7,15,10.0,30.188976,1022.2,,TRUE,TRUE,,,,,,,CLR,,,,,,,,VFR,,,,,,,,,,,,METAR,7.0
KSPS 271352Z VRB03KT 10SM FEW055 FEW080 21/17 A3006 RMK AO2 SLP167 T02060167,KSPS,2015-05-27T13:52:00Z,33.98,-98.5,20.6,16.7,0,3,,10.0,30.059055,1016.7,,,TRUE,,,,,,,FEW,5500,FEW,8000,,,,,VFR,,,,,,,,,,,,METAR,308.0
KSPI 271352Z 23013G20KT 10SM OVC019 21/18 A3004 RMK AO2 SLP168 T02110178,KSPI,2015-05-27T13:52:00Z,39.85,-89.68,21.1,17.8,230,13,20,10.0,30.041338,1016.8,,,TRUE,,,,,,,OVC,1900,,,,,,,MVFR,,,,,,,,,,,,METAR,181.0
KSGF 271352Z 31005KT 8SM -RA SCT008 BKN090 OVC110 20/18 A3010 RMK AO2 RAB40 SLP182 P0001 T02000183,KSGF,2015-05-27T13:52:00Z,37.23,-93.38,20.0,18.3,310,5,,8.0,30.100393,1018.2,,,TRUE,,,,,,-RA,SCT,800,BKN,9000,OVC,11000,,,VFR,,,,,,0.01,,,,,,METAR,390.0
KRAP 271352Z 17010KT 10SM FEW120 14/12 A3000 RMK AO2 SLP149 T01440122,KRAP,2015-05-27T13:52:00Z,44.05,-103.05,14.4,12.2,170,10,,10.0,30.0,1014.9,,,TRUE,,,,,,,FEW,12000,,,,,,,VFR,,,,,,,,,,,,METAR,965.0
KPYM 271352Z AUTO 20011G21KT 10SM CLR 22/17 A3020 RMK AO2 SLP226 T02170167,KPYM,2015-05-27T13:52:00Z,41.92,-70.73,21.7,16.7,200,11,21,10.0,30.200787,1022.6,,TRUE,TRUE,,,,,,,CLR,,,,,,,,VFR,,,,,,,,,,,,METAR,43.0
KFIT 271352Z AUTO 20008KT 10SM CLR 27/18 A3014 RMK AO2 SLP203 T02670183,KFIT,2015-05-27T13:52:00Z,42.55,-71.75,26.7,18.3,200,8,,10.0,30.138779,1020.3,,TRUE,TRUE,,,,,,,CLR,,,,,,,,VFR,,,,,,,,,,,,METAR,103.0
KEST 271352Z AUTO 26009KT 10SM CLR 17/13 A2997 RMK AO2 SLP148 T01720128,KEST,2015-05-27T13:52:00Z,43.4,-94.75,17.2,12.8,260,9,,10.0,29.970472,1014.8,,TRUE,TRUE,,,,,,,CLR,,,,,,,,VFR,,,,,,,,,,,,METAR,401.0
KDDC 271352Z AUTO 09005KT 10SM FEW110 18/16 A3007 RMK AO2 SLP160 T01830156,KDDC,2015-05-27T13:52:00Z,37.77,-99.97,18.3,15.6,90,5,,10.0,30.070866,1016.0,,TRUE,TRUE,,,,,,,FEW,11000,,,,,,,VFR,,,,,,,,,,,,METAR,789.0
KDCA 271352Z 17009KT 10SM BKN019 OVC023 26/21 A3017 RMK AO2 SLP217 BINOVC T02560211 $,KDCA,2015-05-27T13:52:00Z,38.85,-77.03,25.6,21.1,170,9,,10.0,30.171259,1021.7,,,TRUE,TRUE,,,,,,BKN,1900,OVC,2300,,,,,MVFR,,,,,,,,,,,,METAR,18.0
KCVG 271352Z 24010G16KT 10SM FEW020 BKN250 23/18 A3014 RMK AO2 SLP197 T02280178,KCVG,2015-05-27T13:52:00Z,39.05,-84.67,22.8,17.8,240,10,16,10.0,30.138779,1019.7,,,TRUE,,,,,,,FEW,2000,BKN,25000,,,,,VFR,,,,,,,,,,,,METAR,269.0
KCQX 271352Z AUTO 22007KT 200V260 10SM OVC016 19/16 A3025 RMK AO2 SLP244 T01890161,KCQX,2015-05-27T13:52:00Z,41.68,-70.0,18.9,16.1,220,7,,10.0,30.250984,1024.4,,TRUE,TRUE,,,,,,,OVC,1600,,,,,,,MVFR,,,,,,,,,,,,METAR,19.0
KCNU 271352Z AUTO 08004KT 10SM CLR 22/16 A3008 RMK AO2 SLP176 T02170161,KCNU,2015-05-27T13:52:00Z,37.67,-95.48,21.7,16.1,80,4,,10.0,30.079725,1017.6,,TRUE,TRUE,,,,,,,CLR,,,,,,,,VFR,,,,,,,,,,,,METAR,297.0
KCKV 271352Z AUTO 20006KT 10SM SCT011 SCT030 23/21 A3015 RMK AO2 SLP204 T02330206,KCKV,2015-05-27T13:52:00Z,36.62,-87.42,23.3,20.6,200,6,,10.0,30.15059,1020.4,,TRUE,TRUE,,,,,,,SCT,1100,SCT,3000,,,,,VFR,,,,,,,,,,,,METAR,165.0
KCID 271352Z 29012KT 10SM OVC015 17/15 A2999 RMK AO2 SLP153 T01670150,KCID,2015-05-27T13:52:00Z,41.88,-91.72,16.7,15.0,290,12,,10.0,29.991142,1015.3,,,TRUE,,,,,,,OVC,1500,,,,,,,MVFR,,,,,,,,,,,,METAR,264.0
KCFV 271352Z AUTO 00000KT 10SM CLR 22/19 A3007 RMK AO2 SLP176 T02170189,KCFV,2015-05-27T13:52:00Z,37.08,-95.57,21.7,18.9,0,0,,10.0,30.070866,1017.6,,TRUE,TRUE,,,,,,,CLR,,,,,,,,VFR,,,,,,,,,,,,METAR,225.0
KBML 271352Z AUTO 22009KT 10SM CLR 27/18 A3008 RMK AO2 SLP181 T02670183,KBML,2015-05-27T13:52:00Z,44.58,-71.18,26.7,18.3,220,9,,10.0,30.079725,1018.1,,TRUE,TRUE,,,,,,,CLR,,,,,,,,VFR,,,,,,,,,,,,METAR,345.0
KBLH 271352Z AUTO 36004KT 10SM CLR 21/08 A2986 RMK AO2 SLP107 T02110078,KBLH,2015-05-27T13:52:00Z,33.62,-114.72,21.1,7.8,360,4,,10.0,29.861221,1010.7,,TRUE,TRUE,,,,,,,CLR,,,,,,,,VFR,,,,,,,,,,,,METAR,119.0
KBLF 271352Z AUTO 24009KT 10SM FEW020 22/15 A3029 RMK AO2 SLP218 T02220150,KBLF,2015-05-27T13:52:00Z,37.3,-81.2,22.2,15.0,240,9,,10.0,30.28937,1021.8,,TRUE,TRUE,,,,,,,FEW,2000,,,,,,,VFR,,,,,,,,,,,,METAR,873.0
KBIS 271352Z 00000KT 10SM CLR 18/11 A2996 RMK AO2 SLP144 T01830106,KBIS,2015-05-27T13:52:00Z,46.77,-100.75,18.3,10.6,0,0,,10.0,29.958662,1014.4,,,TRUE,,,,,,,CLR,,,,,,,,VFR,,,,,,,,,,,,METAR,505.0
KBDR 271352Z 20008KT 10SM OVC013 21/17 A3018 RMK AO2 SLP221 T02110172,KBDR,2015-05-27T13:52:00Z,41.17,-73.13,21.1,17.2,200,8,,10.0,30.180119,1022.1,,,TRUE,,,,,,,OVC,1300,,,,,,,MVFR,,,,,,,,,,,,METAR,7.0
KATL 271352Z 00000KT 10SM SCT010 BKN028 BKN250 23/19 A3026 RMK AO2 SLP239 T02280189,KATL,2015-05-27T13:52:00Z,33.63,-84.45,22.8,18.9,0,0,,10.0,30.259842,1023.9,,,TRUE,,,,,,,SCT,1000,BKN,2800,BKN,25000,,,MVFR,,,,,,,,,,,,METAR,296.0
KARR 271352Z COR 24011G20KT 8SM BKN018 BKN026 BKN034 21/16 A2996 RMK AO2 SLP141 T02060156 $,KARR,2015-05-27T13:52:00Z,41.77,-88.48,20.6,15.6,240,11,20,8.0,29.958662,1014.1,TRUE,,TRUE,TRUE,,,,,,BKN,1800,BKN,2600,BKN,3400,,,MVFR,,,,,,,,,,,,SPECI,215.0
KALS 271352Z AUTO 09005KT 10SM CLR 10/05 A3027 RMK AO2 SLP190 T01000050,KALS,2015-05-27T13:52:00Z,37.43,-105.87,10.0,5.0,90,5,,10.0,30.268702,1019.0,,TRUE,TRUE,,,,,,,CLR,,,,,,,,VFR,,,,,,,,,,,,METAR,2299.0
KAFN 271352Z AUTO 21008KT 170V230 10SM CLR 24/18 A3015 RMK AO2 SLP207 T02440178,KAFN,2015-05-27T13:52:00Z,42.8,-72.0,24.4,17.8,210,8,,10.0,30.15059,1020.7,,TRUE,TRUE,,,,,,,CLR,,,,,,,,VFR,,,,,,,,,,,,METAR,313.0
KABI 271352Z 18009KT 8SM OVC010 23/20 A3005 RMK AO2 SLP151 T02280200,KABI,2015-05-27T13:52:00Z,32.42,-99.68,22.8,20.0,180,9,,8.0,30.050198,1015.1,,,TRUE,,,,,,,OVC,1000,,,,,,,MVFR,,,,,,,,,,,,METAR,548.0
KPPF 271352Z AUTO 01004KT 10SM CLR 23/19 A3008 RMK AO2 SLP180 T02280194,KPPF,2015-05-27T13:52:00Z,37.33,-95.5,22.8,19.4,10,4,,10.0,30.079725,1018.0,,TRUE,TRUE,,,,,,,CLR,,,,,,,,VFR,,,,,,,,,,,,METAR,274.0
KORE 271352Z AUTO 15009KT 10SM CLR 23/17 A3014 RMK AO2 SLP205 T02280172,KORE,2015-05-27T13:52:00Z,42.57,-72.28,22.8,17.2,150,9,,10.0,30.138779,1020.5,,TRUE,TRUE,,,,,,,CLR,,,,,,,,VFR,,,,,,,,,,,,METAR,164.0
KOMA 271352Z 32004KT 10SM CLR 18/13 A3005 RMK AO2 SLP171 T01830128,KOMA,2015-05-27T13:52:00Z,41.32,-95.9,18.3,12.8,320,4,,10.0,30.050198,1017.1,,,TRUE,,,,,,,CLR,,,,,,,,VFR,,,,,,,,,,,,METAR,312.0
KOKC 271352Z 19009KT 10SM FEW080 SCT250 20/17 A3007 RMK AO2 SLP171 T02000167,KOKC,2015-05-27T13:52:00Z,35.38,-97.6,20.0,16.7,190,9,,10.0,30.070866,1017.1,,,TRUE,,,,,,,FEW,8000,SCT,25000,,,,,VFR,,,,,,,,,,,,METAR,390.0
KOKB 271352Z AUTO 00000KT 10SM OVC023 17/13 A2996 RMK AO2 SLP145 T01670133,KOKB,2015-05-27T13:52:00Z,33.22,-117.35,16.7,13.3,0,0,,10.0,29.958662,1014.5,,TRUE,TRUE,,,,,,,OVC,2300,,,,,,,MVFR,,,,,,,,,,,,METAR,8.0
KMWH 271352Z 00000KT 10SM CLR 12/09 A3000 RMK AO2 SLP158 T01220094,KMWH,2015-05-27T13:52:00Z,47.2,-119.32,12.2,9.4,0,0,,10.0,30.0,1015.8,,,TRUE,,,,,,,CLR,,,,,,,,VFR,,,,,,,,,,,,METAR,362.0
KMLI 271352Z 28010KT 10SM BKN013 19/15 A2998 RMK AO2 SLP148 T01940150,KMLI,2015-05-27T13:52:00Z,41.45,-90.52,19.4,15.0,280,10,,10.0,29.97933,1014.8,,,TRUE,,,,,,,BKN,1300,,,,,,,MVFR,,,,,,,,,,,,METAR,184.0
KMLF 271352Z AUTO 20008KT 10SM CLR 11/07 A3008 RMK AO2 SLP156 T01110072,KMLF,2015-05-27T13:52:00Z,38.42,-113.02,11.1,7.2,200,8,,10.0,30.079725,1015.6,,TRUE,TRUE,,,,,,,CLR,,,,,,,,VFR,,,,,,,,,,,,METAR,1534.0
KMKE 271352Z 24011KT 10SM FEW018 BKN050 BKN080 18/14 A2991 RMK AO2 SLP125 T01830144,KMKE,2015-05-27T13:52:00Z,42.95,-87.9,18.3,14.4,240,11,,10.0,29.911417,1012.5,,,TRUE,,,,,,,FEW,1800,BKN,5000,BKN,8000,,,VFR,,,,,,,,,,,,METAR,206.0
KMHK 271352Z 17003KT 10SM CLR 18/15 A3008 RMK AO2 SLP181 T01780150,KMHK,2015-05-27T13:52:00Z,39.13,-96.68,17.8,15.0,170,3,,10.0,30.079725,1018.1,,,TRUE,,,,,,,CLR,,,,,,,,VFR,,,,,,,,,,,,METAR,317.0
KMFD 271352Z 21013KT 10SM FEW018 22/17 A3009 RMK AO2 SLP183 T02170172,KMFD,2015-05-27T13:52:00Z,40.82,-82.52,21.7,17.2,210,13,,10.0,30.088583,1018.3,,,TRUE,,,,,,,FEW,1800,,,,,,,VFR,,,,,,,,,,,,METAR,395.0
KMEB 271352Z AUTO 24006KT 10SM SCT029 BKN060 OVC075 26/19 A3027 RMK AO2 SLP248 T02610194,KMEB,2015-05-27T13:52:00Z,34.78,-79.37,26.1,19.4,240,6,,10.0,30.268702,1024.8,,TRUE,TRUE,,,,,,,SCT,2900,BKN,6000,OVC,7500,,,VFR,,,,,,,,,,,,METAR,67.0
KMDH 271352Z 27006KT 10SM -TSRA FEW047 BKN100 OVC110 18/17 A3013 RMK AO2 LTG DSNT N-SE RAB15 SLP202 P0011 T01830167,KMDH,2015-05-27T13:52:00Z,37.78,-89.25,18.3,16.7,270,6,,10.0,30.129921,1020.2,,,TRUE,,,,,,-TSRA,FEW,4700,BKN,10000,OVC,11000,,,VFR,,,,,,0.11,,,,,,METAR,130.0
KMBG 271352Z AUTO 16004KT 10SM CLR 17/12 A2996 RMK AO2 SLP140 T01720122,KMBG,2015-05-27T13:52:00Z,45.55,-100.42,17.2,12.2,160,4,,10.0,29.958662,1014.0,,TRUE,TRUE,,,,,,,CLR,,,,,,,,VFR,,,,,,,,,,,,METAR,510.0
KLWC 271352Z AUTO 32004KT 10SM CLR 19/15 A3008 RMK AO2 SLP180 T01890150,KLWC,2015-05-27T13:52:00Z,39.02,-95.22,18.9,15.0,320,4,,10.0,30.079725,1018.0,,TRUE,TRUE,,,,,,,CLR,,,,,,,,VFR,,,,,,,,,,,,METAR,253.0
KISN 271352Z AUTO VRB03KT 10SM CLR 18/08 A2993 RMK AO2 SLP128 T01830083,KISN,2015-05-27T13:52:00Z,48.17,-103.63,18.3,8.3,0,3,,10.0,29.929134,1012.8,,TRUE,TRUE,,,,,,,CLR,,,,,,,,VFR,,,,,,,,,,,,METAR,579.0
KIJD 271352Z AUTO 18008KT 10SM CLR 23/17 A3018 RMK AO2 SLP218 T02330172,KIJD,2015-05-27T13:52:00Z,41.75,-72.18,23.3,17.2,180,8,,10.0,30.180119,1021.8,,TRUE,TRUE,,,,,,,CLR,,,,,,,,VFR,,,,,,,,,,,,METAR,75.0
KIEN 271352Z AUTO 16011G18KT 10SM FEW065 OVC080 15/11 A3003 RMK AO2 RAE37 SLP152 P0000 T01500106,KIEN,2015-05-27T13:52:00Z,43.03,-102.52,15.0,10.6,160,11,18,10.0,30.029528,1015.2,,TRUE,TRUE,,,,,,,FEW,6500,OVC,8000,,,,,VFR,,,,,,0.0050,,,,,,METAR,998.0
KIAD 271352Z 22009KT 10SM BKN016 BKN023 24/20 A3016 RMK AO2 SLP212 T02440200,KIAD,2015-05-27T13:52:00Z,38.93,-77.45,24.4,20.0,220,9,,10.0,30.159449,1021.2,,,TRUE,,,,,,,BKN,1600,BKN,2300,,,,,MVFR,,,,,,,,,,,,METAR,93.0
KHUT 271352Z 09009KT 10SM CLR 21/13 A3007 RMK AO2 SLP165 T02060128,KHUT,2015-05-27T13:52:00Z,38.07,-97.87,20.6,12.8,90,9,,10.0,30.070866,1016.5,,,TRUE,,,,,,,CLR,,,,,,,,VFR,,,,,,,,,,,,METAR,467.0
KHRL 271352Z 15014KT 8SM FEW014 BKN034 28/25 A2999 RMK AO2 SLP156 T02780250,KHRL,2015-05-27T13:52:00Z,26.23,-97.65,27.8,25.0,150,14,,8.0,29.991142,1015.6,,,TRUE,,,,,,,FEW,1400,BKN,3400,,,,,VFR,,,,,,,,,,,,METAR,10.0
KHIE 271352Z AUTO VRB06KT 10SM -RA CLR 27/18 A3007 RMK AO2 RAB01 SLP179 P0000 T02720183 TSNO,KHIE,2015-05-27T13:52:00Z,44.37,-71.55,27.2,18.3,0,6,,10.0,30.070866,1017.9,,TRUE,TRUE,,,TRUE,,,-RA,CLR,,,,,,,,VFR,,,,,,0.0050,,,,,,METAR,318.0
KGLS 271352Z 05012KT 10SM SCT080 21/20 A3015 RMK AO2 LTG DSNT NE-SE RAE18 TSE1253 SLP208 P0001 T02110200,KGLS,2015-05-27T13:52:00Z,29.27,-94.87,21.1,20.0,50,12,,10.0,30.15059,1020.8,,,TRUE,,,,,,,SCT,8000,,,,,,,VFR,,,,,,0.01,,,,,,METAR,6.0
PATA 271352Z AUTO 35004KT 10SM SCT110 05/03 A3015 RMK AO2 SLP211 T00500033 TSNO,PATA,2015-05-27T13:52:00Z,65.17,-152.1,5.0,3.3,350,4,,10.0,30.15059,1021.1,,TRUE,TRUE,,,TRUE,,,,SCT,11000,,,,,,,VFR,,,,,,,,,,,,METAR,67.0
MMPB 271352Z 35006KT 6SM SCT100 SCT220 15/11 A3038 RMK 8/038 HZY,MMPB,2015-05-27T13:52:00Z,19.17,-98.37,15.0,11.0,350,6,,6.0,30.380905,,,,,,,,,,,SCT,10000,SCT,22000,,,,,VFR,,,,,,,,,,,,METAR,2244.0
KBLU 271352Z AUTO 00000KT 10SM CLR 13/02 A3010 RMK AO2 SLP125 T01330022,KBLU,2015-05-27T13:52:00Z,39.28,-120.7,13.3,2.2,0,0,,10.0,30.100393,1012.5,,TRUE,TRUE,,,,,,,CLR,,,,,,,,VFR,,,,,,,,,,,,METAR,1609.0
KP69 271352Z AUTO 00000KT 09/08 A3005 RMK AO1 SLP171 T00940078,KP69,2015-05-27T13:52:00Z,46.15,-115.6,9.4,7.8,0,0,,,30.050198,1017.1,,TRUE,TRUE,,,,,,,,,,,,,,,,,,,,,,,,,,,METAR,480.0
KN60 271352Z AUTO 00000KT 20/10 A2995 RMK AO1 SLP133 T02000100,KN60,2015-05-27T13:52:00Z,47.65,-101.43,20.0,10.0,0,0,,,29.949802,1013.3,,TRUE,TRUE,,,,,,,,,,,,,,,,,,,,,,,,,,,METAR,582.0
KNFW 271352Z 17008KT 10SM FEW250 22/17 A3007 RMK AO2 SLP165 T02220167 $,KNFW,2015-05-27T13:52:00Z,32.78,-97.43,22.2,16.7,170,8,,10.0,30.070866,1016.5,,,TRUE,TRUE,,,,,,FEW,25000,,,,,,,VFR,,,,,,,,,,,,METAR,198.0
KBAN 271352Z AUTO 00000KT 10SM CLR 03/M02 A3015 RMK AO2 SLP146 T00281017,KBAN,2015-05-27T13:52:00Z,38.35,-119.52,2.8,-1.7,0,0,,10.0,30.15059,1014.6,,TRUE,TRUE,,,,,,,CLR,,,,,,,,VFR,,,,,,,,,,,,METAR,2057.0
KNHK 271352Z 18006KT 10SM FEW016 BKN250 26/20 A3019 RMK AO2 SLP223 T02610200,KNHK,2015-05-27T13:52:00Z,38.27,-76.4,26.1,20.0,180,6,,10.0,30.188976,1022.3,,,TRUE,,,,,,,FEW,1600,BKN,25000,,,,,VFR,,,,,,,,,,,,SPECI,12.0
KREO 271352Z AUTO 17003KT 11/07 A3003 RMK AO1 SLP148 T01060067,KREO,2015-05-27T13:52:00Z,42.58,-117.87,10.6,6.7,170,3,,,30.029528,1014.8,,TRUE,TRUE,,,,,,,,,,,,,,,,,,,,,,,,,,,METAR,1235.0
KNRB 271352Z 13008KT 10SM FEW020 FEW150 BKN250 28/18 A3023 RMK AO2 SLP237 T02780183,KNRB,2015-05-27T13:52:00Z,30.38,-81.42,27.8,18.3,130,8,,10.0,30.230314,1023.7,,,TRUE,,,,,,,FEW,2000,FEW,15000,BKN,25000,,,VFR,,,,,,,,,,,,SPECI,5.0
KCZZ 271352Z AUTO 03006KT 12/10 A2994 RMK AO1 SLP118 T01170100,KCZZ,2015-05-27T13:52:00Z,32.63,-116.47,11.7,10.0,30,6,,,29.940945,1011.8,,TRUE,TRUE,,,,,,,,,,,,,,,,,,,,,,,,,,,METAR,807.0
KSUX 271352Z 00000KT 10SM CLR 18/12 A3003 RMK AO2 SLP167 T01780122,KSUX,2015-05-27T13:52:00Z,42.38,-96.38,17.8,12.2,0,0,,10.0,30.029528,1016.7,,,TRUE,,,,,,,CLR,,,,,,,,VFR,,,,,,,,,,,,METAR,338.0
KEGE 271352Z 00000KT 10SM FEW060 09/06 A3023,KEGE,2015-05-27T13:52:00Z,39.63,-106.92,9.0,6.0,0,0,,10.0,30.230314,,,,,,,,,,,FEW,6000,,,,,,,VFR,,,,,,,,,,,,METAR,1993.0
PTYA 271352Z VRB03KT 12SM FEW016 BKN300 26/25 A2983 RMK SLP103 T02620246,PTYA,2015-05-27T13:52:00Z,9.48,138.08,26.2,24.6,0,3,,12.0,29.828741,1010.3,,,,,,,,,,FEW,1600,BKN,30000,,,,,VFR,,,,,,,,,,,,METAR,17.0
KABQ 271352Z 35006KT 10SM BKN200 15/07 A3017 RMK AO2 SLP151 T01500067,KABQ,2015-05-27T13:52:00Z,35.05,-106.62,15.0,6.7,350,6,,10.0,30.171259,1015.1,,,TRUE,,,,,,,BKN,20000,,,,,,,VFR,,,,,,,,,,,,METAR,1618.0
KCDJ 271352Z AUTO VRB03KT 20/14 A3007 RMK AO1 SLP173 T02000144,KCDJ,2015-05-27T13:52:00Z,39.82,-93.58,20.0,14.4,0,3,,,30.070866,1017.3,,TRUE,TRUE,,,,,,,,,,,,,,,,,,,,,,,,,,,SPECI,234.0
KAID 271352Z 21010G15KT 10SM CLR 22/15 A3009,KAID,2015-05-27T13:52:00Z,40.12,-85.62,22.0,15.0,210,10,15,10.0,30.088583,,,,,,,,,,,CLR,,,,,,,,VFR,,,,,,,,,,,,METAR,280.0
KMWA 271352Z 27012KTS 5SM -RA BKN014 BKN027 OVC070 20/18 A3014,KMWA,2015-05-27T13:52:00Z,37.77,-89.02,20.0,18.0,270,12,,5.0,30.138779,,,,,,,,,,-RA,BKN,1400,BKN,2700,OVC,7000,,,MVFR,,,,,,,,,,,,METAR,144.0
MMGL 271351Z 11004KT 8SM FEW250 20/12 A3022 RMK 8/001 ISOL AC,MMGL,2015-05-27T13:51:00Z,20.52,-103.32,20.0,12.0,110,4,,8.0,30.221457,,,,,,,,,,,FEW,25000,,,,,,,VFR,,,,,,,,,,,,METAR,1528.0
KJAC 271351Z 00000KT 10SM VCSH OVC006 06/06 A3013,KJAC,2015-05-27T13:51:00Z,43.62,-110.73,6.0,6.0,0,0,,10.0,30.129921,,,,,,,,,,VCSH,OVC,600,,,,,,,IFR,,,,,,,,,,,,METAR,1961.0
KP58 271351Z AUTO 23014G25KT A2986 RMK AO1 SLPNO $,KP58,2015-05-27T13:51:00Z,44.02,-82.8,,,230,14,25,,29.861221,,,TRUE,TRUE,TRUE,,,,,,,,,,,,,,,,,,,,,,,,,,METAR,179.0
KVNY 271351Z 13003KT 8SM OVC011 14/11 A2998 RMK AO2 SLP148 T01440111,KVNY,2015-05-27T13:51:00Z,34.22,-118.48,14.4,11.1,130,3,,8.0,29.97933,1014.8,,,TRUE,,,,,,,OVC,1100,,,,,,,MVFR,,,,,,,,,,,,METAR,245.0
KVCT 271351Z 09008KT 5SM BR FEW015 OVC025 26/26 A3006 RMK AO2 SLP179 T02610256,KVCT,2015-05-27T13:51:00Z,28.87,-96.93,26.1,25.6,90,8,,5.0,30.059055,1017.9,,,TRUE,,,,,,BR,FEW,1500,OVC,2500,,,,,MVFR,,,,,,,,,,,,METAR,31.0
KTEB 271351Z 24010KT 10SM OVC018 24/19 A3016 RMK AO2 SLP213 T02390194,KTEB,2015-05-27T13:51:00Z,40.87,-74.05,23.9,19.4,240,10,,10.0,30.159449,1021.3,,,TRUE,,,,,,,OVC,1800,,,,,,,MVFR,,,,,,,,,,,,METAR,7.0
KSTL 271351Z 21011KT 10SM SCT070 BKN130 BKN200 21/16 A3006 RMK AO2 SLP171 T02110156,KSTL,2015-05-27T13:51:00Z,38.75,-90.37,21.1,15.6,210,11,,10.0,30.059055,1017.1,,,TRUE,,,,,,,SCT,7000,BKN,13000,BKN,20000,,,VFR,,,,,,,,,,,,METAR,171.0
KSMX 271351Z 32004KT 7SM OVC012 13/10 A3003 RMK AO2 SLP171 T01280100,KSMX,2015-05-27T13:51:00Z,34.9,-120.45,12.8,10.0,320,4,,7.0,30.029528,1017.1,,,TRUE,,,,,,,OVC,1200,,,,,,,MVFR,,,,,,,,,,,,METAR,74.0
KSMO 271351Z 00000KT 10SM OVC013 15/12 A3000 RMK AO2 SLP156 T01500117,KSMO,2015-05-27T13:51:00Z,34.02,-118.45,15.0,11.7,0,0,,10.0,30.0,1015.6,,,TRUE,,,,,,,OVC,1300,,,,,,,MVFR,,,,,,,,,,,,METAR,57.0
KSJT 271351Z 16009KT 10SM CLR 25/21 A3005 RMK AO2 SLP152 T02500211,KSJT,2015-05-27T13:51:00Z,31.37,-100.5,25.0,21.1,160,9,,10.0,30.050198,1015.2,,,TRUE,,,,,,,CLR,,,,,,,,VFR,,,,,,,,,,,,METAR,576.0
KSAT 271351Z 15008KT 5SM BR BKN012 OVC029 26/24 A3004 RMK AO2 RAE1255 SLP154 P0000 T02610244,KSAT,2015-05-27T13:51:00Z,29.53,-98.47,26.1,24.4,150,8,,5.0,30.041338,1015.4,,,TRUE,,,,,,BR,BKN,1200,OVC,2900,,,,,MVFR,,,,,,0.0050,,,,,,METAR,243.0
KSAN 271351Z 31004KT 10SM FEW011 SCT016 OVC025 17/12 A2998 RMK AO2 SLP153 T01670122,KSAN,2015-05-27T13:51:00Z,32.73,-117.18,16.7,12.2,310,4,,10.0,29.97933,1015.3,,,TRUE,,,,,,,FEW,1100,SCT,1600,OVC,2500,,,MVFR,,,,,,,,,,,,METAR,12.0
KROW 271351Z 36005KT 10SM CLR 17/09 A3008 RMK AO2 SLP133 T01720089,KROW,2015-05-27T13:51:00Z,33.3,-104.5,17.2,8.9,360,5,,10.0,30.079725,1013.3,,,TRUE,,,,,,,CLR,,,,,,,,VFR,,,,,,,,,,,,METAR,1112.0
KRDU 271351Z 22008KT 10SM BKN011 BKN016 24/21 A3027 RMK AO2 SLP245 T02440211 $,KRDU,2015-05-27T13:51:00Z,35.9,-78.78,24.4,21.1,220,8,,10.0,30.268702,1024.5,,,TRUE,TRUE,,,,,,BKN,1100,BKN,1600,,,,,MVFR,,,,,,,,,,,,METAR,130.0
KPWM 271351Z 15008KT 10SM FEW120 SCT250 23/16 A3010 RMK AO2 SLP192 T02330161,KPWM,2015-05-27T13:51:00Z,43.65,-70.3,23.3,16.1,150,8,,10.0,30.100393,1019.2,,,TRUE,,,,,,,FEW,12000,SCT,25000,,,,,VFR,,,,,,,,,,,,METAR,15.0
KPVD 271351Z 17009KT 10SM FEW020 FEW150 SCT250 BKN300 22/17 A3020 RMK AO2 SLP225 T02220167,KPVD,2015-05-27T13:51:00Z,41.72,-71.43,22.2,16.7,170,9,,10.0,30.200787,1022.5,,,TRUE,,,,,,,FEW,2000,FEW,15000,SCT,25000,BKN,30000,VFR,,,,,,,,,,,,METAR,16.0
KPIT 271351Z 21005KT 10SM FEW009 BKN014 OVC025 21/18 A3015 RMK AO2 SLP209 T02060178,KPIT,2015-05-27T13:51:00Z,40.5,-80.27,20.6,17.8,210,5,,10.0,30.15059,1020.9,,,TRUE,,,,,,,FEW,900,BKN,1400,OVC,2500,,,MVFR,,,,,,,,,,,,METAR,357.0
KPHX 271351Z 10007KT 10SM FEW180 BKN240 23/07 A2990 RMK AO2 SLP107 T02330067,KPHX,2015-05-27T13:51:00Z,33.43,-112.02,23.3,6.7,100,7,,10.0,29.899607,1010.7,,,TRUE,,,,,,,FEW,18000,BKN,24000,,,,,VFR,,,,,,,,,,,,METAR,336.0
KOXR 271351Z 00000KT 8SM OVC016 15/12 A2999 RMK AO2 SLP155 T01500117,KOXR,2015-05-27T13:51:00Z,34.2,-119.2,15.0,11.7,0,0,,8.0,29.991142,1015.5,,,TRUE,,,,,,,OVC,1600,,,,,,,MVFR,,,,,,,,,,,,METAR,20.0
KORF 271351Z AUTO 21013KT 10SM CLR 27/20 A3023 RMK AO2 SLP237 T02720200 TSNO,KORF,2015-05-27T13:51:00Z,36.9,-76.2,27.2,20.0,210,13,,10.0,30.230314,1023.7,,TRUE,TRUE,,,TRUE,,,,CLR,,,,,,,,VFR,,,,,,,,,,,,METAR,14.0
KMYL 271351Z AUTO 00000KT 10SM OVC050 08/05 A3003 RMK AO2 SLP147 T00830050,KMYL,2015-05-27T13:51:00Z,44.9,-116.1,8.3,5.0,0,0,,10.0,30.029528,1014.7,,TRUE,TRUE,,,,,,,OVC,5000,,,,,,,VFR,,,,,,,,,,,,METAR,1533.0
KLGU 271351Z AUTO 00000KT 10SM FEW001 BKN090 08/07 A3008 RMK AO2 SLP167 T00780072 TSNO,KLGU,2015-05-27T13:51:00Z,41.78,-111.85,7.8,7.2,0,0,,10.0,30.079725,1016.7,,TRUE,TRUE,,,TRUE,,,,FEW,100,BKN,9000,,,,,VFR,,,,,,,,,,,,METAR,1355.0
KLGA 271351Z 20007KT 10SM BKN015 BKN250 24/18 A3017 RMK AO2 SLP215 T02390178,KLGA,2015-05-27T13:51:00Z,40.78,-73.88,23.9,17.8,200,7,,10.0,30.171259,1021.5,,,TRUE,,,,,,,BKN,1500,BKN,25000,,,,,MVFR,,,,,,,,,,,,METAR,11.0
KJFK 271351Z 16006KT 10SM OVC012 20/16 A3019 RMK AO2 SLP224 T02000156,KJFK,2015-05-27T13:51:00Z,40.63,-73.77,20.0,15.6,160,6,,10.0,30.188976,1022.4,,,TRUE,,,,,,,OVC,1200,,,,,,,MVFR,,,,,,,,,,,,SPECI,9.0
KILG 271351Z 20012G15KT 10SM OVC016 24/21 A3018 RMK AO2 SLP220 T02440206,KILG,2015-05-27T13:51:00Z,39.67,-75.6,24.4,20.6,200,12,15,10.0,30.180119,1022.0,,,TRUE,,,,,,,OVC,1600,,,,,,,MVFR,,,,,,,,,,,,METAR,28.0
KIGM 271351Z AUTO 22004KT CLR 16/M02 A3001 RMK AO2 SLP099 T01611022 $,KIGM,2015-05-27T13:51:00Z,35.25,-113.93,16.1,-2.2,220,4,,,30.008858,1009.9,,TRUE,TRUE,TRUE,,,,,,CLR,,,,,,,,,,,,,,,,,,,,METAR,1032.0
KHTS 271351Z 22004KT 10SM SCT020 BKN027 OVC031 21/19 A3018 RMK AO2 SLPNO T02110189,KHTS,2015-05-27T13:51:00Z,38.37,-82.55,21.1,18.9,220,4,,10.0,30.180119,,,,TRUE,,,,,,,SCT,2000,BKN,2700,OVC,3100,,,MVFR,,,,,,,,,,,,METAR,254.0
KHSE 271351Z AUTO 18008KT 10SM CLR 24/17 A3030 RMK AO2 SLP259 T02440167 TSNO,KHSE,2015-05-27T13:51:00Z,35.23,-75.62,24.4,16.7,180,8,,10.0,30.301182,1025.9,,TRUE,TRUE,,,TRUE,,,,CLR,,,,,,,,VFR,,,,,,,,,,,,METAR,3.0
KHDO 271351Z AUTO 15011KT 4SM BR BKN010 OVC020 26/24 A3004 RMK AO2 CIG 007V014 SLP157 T02560239,KHDO,2015-05-27T13:51:00Z,29.37,-99.17,25.6,23.9,150,11,,4.0,30.041338,1015.7,,TRUE,TRUE,,,,,,BR,BKN,1000,OVC,2000,,,,,MVFR,,,,,,,,,,,,METAR,282.0
KEWR 271351Z 24009KT 10SM BKN017 26/20 A3017 RMK AO2 SLP215 CIG 016V020 T02610200,KEWR,2015-05-27T13:51:00Z,40.68,-74.17,26.1,20.0,240,9,,10.0,30.171259,1021.5,,,TRUE,,,,,,,BKN,1700,,,,,,,MVFR,,,,,,,,,,,,METAR,7.0
KERI 271351Z 22011KT 10SM FEW024 BKN050 23/17 A3006 RMK AO2 SLP173 T02280167,KERI,2015-05-27T13:51:00Z,42.08,-80.18,22.8,16.7,220,11,,10.0,30.059055,1017.3,,,TRUE,,,,,,,FEW,2400,BKN,5000,,,,,VFR,,,,,,,,,,,,METAR,222.0
KELP 271351Z 00000KT 10SM FEW060 FEW150 21/M02 A3007 RMK AO2 SLP113 T02061017,KELP,2015-05-27T13:51:00Z,31.82,-106.38,20.6,-1.7,0,0,,10.0,30.070866,1011.3,,,TRUE,,,,,,,FEW,6000,FEW,15000,,,,,VFR,,,,,,,,,,,,METAR,1197.0
KEKN 271351Z AUTO 15004KT 10SM -RA SCT013 BKN019 OVC024 19/17 A3024 RMK AO2 SLP234 P0008 T01940167 TSNO,KEKN,2015-05-27T13:51:00Z,38.88,-79.85,19.4,16.7,150,4,,10.0,30.239174,1023.4,,TRUE,TRUE,,,TRUE,,,-RA,SCT,1300,BKN,1900,OVC,2400,,,MVFR,,,,,,0.08,,,,,,METAR,603.0
KDAW 271351Z AUTO VRB03KT 10SM CLR 28/19 A3011 RMK AO2 SLP190 T02780189,KDAW,2015-05-27T13:51:00Z,43.28,-70.92,27.8,18.9,0,3,,10.0,30.109253,1019.0,,TRUE,TRUE,,,,,,,CLR,,,,,,,,VFR,,,,,,,,,,,,METAR,100.0
KCRP 271351Z 15011KT 10SM SCT015 BKN250 28/24 A3001 RMK AO2 SLP161 T02780244,KCRP,2015-05-27T13:51:00Z,27.77,-97.5,27.8,24.4,150,11,,10.0,30.008858,1016.1,,,TRUE,,,,,,,SCT,1500,BKN,25000,,,,,VFR,,,,,,,,,,,,METAR,14.0
KCON 271351Z AUTO 14007KT 10SM CLR 25/18 A3011 RMK AO2 SLP194 T02500178,KCON,2015-05-27T13:51:00Z,43.2,-71.5,25.0,17.8,140,7,,10.0,30.109253,1019.4,,TRUE,TRUE,,,,,,,CLR,,,,,,,,VFR,,,,,,,,,,,,METAR,103.0
KCMH 271351Z 20007KT 10SM SCT018 BKN029 22/18 A3011 RMK AO2 SLP192 T02220183,KCMH,2015-05-27T13:51:00Z,40.0,-82.88,22.2,18.3,200,7,,10.0,30.109253,1019.2,,,TRUE,,,,,,,SCT,1800,BKN,2900,,,,,MVFR,,,,,,,,,,,,METAR,247.0
KCLE 271351Z 21009KT 10SM SCT019 SCT250 23/18 A3007 RMK AO2 SLP179 T02280178,KCLE,2015-05-27T13:51:00Z,41.42,-81.85,22.8,17.8,210,9,,10.0,30.070866,1017.9,,,TRUE,,,,,,,SCT,1900,SCT,25000,,,,,VFR,,,,,,,,,,,,METAR,233.0
KGDP 271351Z AUTO 17003KT 10SM CLR 21/07 A3019 RMK AO2 SLP142 T02110067 $,KGDP,2015-05-27T13:51:00Z,31.83,-104.82,21.1,6.7,170,3,,10.0,30.188976,1014.2,,TRUE,TRUE,TRUE,,,,,,CLR,,,,,,,,VFR,,,,,,,,,,,,METAR,1692.0
KSAD 271351Z AUTO 13004KT 10SM CLR 19/M01 A3001 RMK AO2 SLP115 T01891006,KSAD,2015-05-27T13:51:00Z,32.85,-109.63,18.9,-0.6,130,4,,10.0,30.008858,1011.5,,TRUE,TRUE,,,,,,,CLR,,,,,,,,VFR,,,,,,,,,,,,METAR,962.0
KATT 271351Z AUTO 13005KT 10SM OVC019 21/18 A3009 RMK AO2 SLP178 T02110178,KATT,2015-05-27T13:51:00Z,30.32,-97.77,21.1,17.8,130,5,,10.0,30.088583,1017.8,,TRUE,TRUE,,,,,,,OVC,1900,,,,,,,MVFR,,,,,,,,,,,,METAR,201.0
KBVE 271351Z AUTO 13006KT 10SM FEW012 27/24 A3015 RMK AO2 SLP209 T02720239,KBVE,2015-05-27T13:51:00Z,29.32,-89.4,27.2,23.9,130,6,,10.0,30.15059,1020.9,,TRUE,TRUE,,,,,,,FEW,1200,,,,,,,VFR,,,,,,,,,,,,METAR,1.0
PTKR 271351Z 00000KT 15SM FEW016 SCT290 27/26 A2986 RMK SLP111 T02720257,PTKR,2015-05-27T13:51:00Z,7.33,134.48,27.2,25.7,0,0,,15.0,29.861221,1011.1,,,,,,,,,,FEW,1600,SCT,29000,,,,,VFR,,,,,,,,,,,,METAR,30.0
KNYC 271351Z AUTO VRB05KT 8SM OVC016 24/19 A3020 RMK AO2 SLP216 T02440189,KNYC,2015-05-27T13:51:00Z,40.78,-73.97,24.4,18.9,0,5,,8.0,30.200787,1021.6,,TRUE,TRUE,,,,,,,OVC,1600,,,,,,,MVFR,,,,,,,,,,,,METAR,11.0
KSNT 271351Z AUTO 15004KT 06/03 A3010 RMK AO1 SLP134 T00610028,KSNT,2015-05-27T13:51:00Z,44.17,-114.93,6.1,2.8,150,4,,,30.100393,1013.4,,TRUE,TRUE,,,,,,,,,,,,,,,,,,,,,,,,,,,METAR,1980.0
KALB 271351Z 16007KT 10SM FEW085 BKN110 BKN140 OVC260 25/18 A3009 RMK AO2 SLP187 BINOVC T02500183,KALB,2015-05-27T13:51:00Z,42.75,-73.8,25.0,18.3,160,7,,10.0,30.088583,1018.7,,,TRUE,,,,,,,FEW,8500,BKN,11000,BKN,14000,OVC,26000,VFR,,,,,,,,,,,,METAR,92.0
KBYH 271351Z 23010KT 10SM FEW010 SCT150 BKN250 25/21 A3013,KBYH,2015-05-27T13:51:00Z,35.97,-89.95,25.0,21.0,230,10,,10.0,30.129921,,,,,,,,,,,FEW,1000,SCT,15000,BKN,25000,,,VFR,,,,,,,,,,,,METAR,78.0
KP59 271351Z AUTO 35005KT 12/10 A2974 RMK AO1 SLP074 T01220100,KP59,2015-05-27T13:51:00Z,47.47,-87.88,12.2,10.0,350,5,,,29.740158,1007.4,,TRUE,TRUE,,,,,,,,,,,,,,,,,,,,,,,,,,,SPECI,190.0
MUCU 271351Z 02009KT 360V070 9000 FEW020 29/18 Q1017,MUCU,2015-05-27T13:51:00Z,19.97,-75.83,29.0,18.0,20,9,,5.59,30.029528,,,,,,,,,,,FEW,2000,,,,,,,VFR,,,,,,,,,,,,METAR,76.0
MUVR 271351Z 07012KT 9999 FEW020 28/17 Q1019,MUVR,2015-05-27T13:51:00Z,23.03,-81.43,28.0,17.0,70,12,,6.21,30.088583,,,,,,,,,,,FEW,2000,,,,,,,VFR,,,,,,,,,,,,METAR,65.0
KCAK 271351Z 23012KT 10SM BKN022 BKN250 22/17 A3011 RMK AO2 SLP188 T02220167,KCAK,2015-05-27T13:51:00Z,40.92,-81.45,22.2,16.7,230,12,,10.0,30.109253,1018.8,,,TRUE,,,,,,,BKN,2200,BKN,25000,,,,,MVFR,,,,,,,,,,,,METAR,377.0
KBHK 271351Z AUTO 14005KT 10SM CLR 16/11 A2995 RMK AO2 SLP129 T01610106,KBHK,2015-05-27T13:51:00Z,46.35,-104.25,16.1,10.6,140,5,,10.0,29.949802,1012.9,,TRUE,TRUE,,,,,,,CLR,,,,,,,,VFR,,,,,,,,,,,,METAR,902.0
KBGD 271351Z AUTO 00000KT 10SM CLR 19/14 A3008 RMK AO2 SLP151 T01940144,KBGD,2015-05-27T13:51:00Z,35.7,-101.4,19.4,14.4,0,0,,10.0,30.079725,1015.1,,TRUE,TRUE,,,,,,,CLR,,,,,,,,VFR,,,,,,,,,,,,METAR,927.0
KBDL 271351Z 19012G18KT 10SM FEW020 FEW150 BKN250 24/17 A3014 RMK AO2 SLP206 T02440172,KBDL,2015-05-27T13:51:00Z,41.93,-72.68,24.4,17.2,190,12,18,10.0,30.138779,1020.6,,,TRUE,,,,,,,FEW,2000,FEW,15000,BKN,25000,,,VFR,,,,,,,,,,,,METAR,60.0
KAVX 271351Z AUTO 00000KT 6SM BR OVC003 11/11 A3000 RMK AO2 SLP156 T01110106,KAVX,2015-05-27T13:51:00Z,33.4,-118.42,11.1,10.6,0,0,,6.0,30.0,1015.6,,TRUE,TRUE,,,,,,BR,OVC,300,,,,,,,LIFR,,,,,,,,,,,,METAR,482.0
KASH 271351Z VRB05KT 10SM CLR 26/19 A3013 RMK AO2 T02610188 SLP446 $,KASH,2015-05-27T13:51:00Z,42.78,-71.52,26.1,18.8,0,5,,10.0,30.129921,1044.6,,,TRUE,TRUE,,,,,,CLR,,,,,,,,VFR,,,,,,,,,,,,METAR,61.0
KAHN 271351Z 00000KT 10SM OVC011 22/18 A3027 RMK AO2 SLP244 T02170178,KAHN,2015-05-27T13:51:00Z,33.95,-83.33,21.7,17.8,0,0,,10.0,30.268702,1024.4,,,TRUE,,,,,,,OVC,1100,,,,,,,MVFR,,,,,,,,,,,,METAR,244.0
KACT 271351Z 17010KT 10SM CLR 21/18 A3009 RMK AO2 SLP181 T02060178,KACT,2015-05-27T13:51:00Z,31.62,-97.23,20.6,17.8,170,10,,10.0,30.088583,1018.1,,,TRUE,,,,,,,CLR,,,,,,,,VFR,,,,,,,,,,,,METAR,151.0
KABE 271351Z 20008KT 9SM BKN022 OVC028 25/20 A3016 RMK AO2 SLP209 T02500200,KABE,2015-05-27T13:51:00Z,40.65,-75.45,25.0,20.0,200,8,,9.0,30.159449,1020.9,,,TRUE,,,,,,,BKN,2200,OVC,2800,,,,,MVFR,,,,,,,,,,,,METAR,114.0
LGZA 271350Z 28007KT 9999 FEW025 23/11 Q1007,LGZA,2015-05-27T13:50:00Z,37.75,20.87,23.0,11.0,280,7,,6.21,29.734253,,,,,,,,,,,FEW,2500,,,,,,,VFR,,,,,,,,,,,,METAR,3.0
LGSR 271350Z 26009KT 230V300 9999 FEW020 24/13 Q1005,LGSR,2015-05-27T13:50:00Z,36.4,25.48,24.0,13.0,260,9,,6.21,29.675198,,,,,,,,,,,FEW,2000,,,,,,,VFR,,,,,,,,,,,,METAR,40.0
LGRX 271350Z 27006KT 9999 FEW025 22/13 Q1007 RMK FEW080 BLU,LGRX,2015-05-27T13:50:00Z,38.17,21.42,22.0,13.0,270,6,,6.21,29.734253,,,,,,,,,,,FEW,2500,,,,,,,VFR,,,,,,,,,,,,METAR,15.0
LGPZ 271350Z 26011KT 9999 FEW020TCU BKN030 BKN080 19/13 Q1008,LGPZ,2015-05-27T13:50:00Z,38.92,20.77,19.0,13.0,260,11,,6.21,29.763779,,,,,,,,,,,FEW,2000,BKN,3000,BKN,8000,,,MVFR,,,,,,,,,,,,METAR,4.0
LGMT 271350Z 11004KT 050V150 9999 VCTS FEW020CB SCT025 BKN130 23/17 Q1006,LGMT,2015-05-27T13:50:00Z,39.05,26.6,23.0,17.0,110,4,,6.21,29.704725,,,,,,,,,,VCTS,FEW,2000,SCT,2500,BKN,13000,,,VFR,,,,,,,,,,,,METAR,17.0
LGKV 271350Z 23006KT 9999 FEW020TCU SCT030 24/15 Q1004,LGKV,2015-05-27T13:50:00Z,40.92,24.62,24.0,15.0,230,6,,6.21,29.64567,,,,,,,,,,,FEW,2000,SCT,3000,,,,,VFR,,,,,,,,,,,,METAR,5.0
LGIO 271350Z AUTO 11007KT //// // ////// 17/12 Q1007 RE//,LGIO,2015-05-27T13:50:00Z,39.7,20.82,17.0,12.0,110,7,,,29.734253,,,TRUE,,,,,,,,,,,,,,,,,,,,,,,,,,,,METAR,476.0
LGEL 271350Z 19006KT 9999 SCT025TCU BKN070 OVC180 24/13 Q1005,LGEL,2015-05-27T13:50:00Z,38.07,23.55,24.0,13.0,190,6,,6.21,29.675198,,,,,,,,,,,SCT,2500,BKN,7000,OVC,18000,,,VFR,,,,,,,,,,,,METAR,31.0
LGAL 271350Z 22008KT 9999 TS FEW014 FEW020CB FEW025TCU 22/16 Q1004,LGAL,2015-05-27T13:50:00Z,40.85,25.95,22.0,16.0,220,8,,6.21,29.64567,,,,,,,,,,TS,FEW,1400,FEW,2000,FEW,2500,,,VFR,,,,,,,,,,,,METAR,3.0
LGRP 271350Z 26009KT 9999 FEW020 24/19 Q1004 NOSIG,LGRP,2015-05-27T13:50:00Z,36.4,28.08,24.0,19.0,260,9,,6.21,29.64567,,,,,,TRUE,,,,,FEW,2000,,,,,,,VFR,,,,,,,,,,,,METAR,5.0
LGKR 271350Z VRB03KT 9999 FEW020 SCT030 BKN080 22/15 Q1006 NOSIG,LGKR,2015-05-27T13:50:00Z,39.62,19.92,22.0,15.0,0,3,,6.21,29.704725,,,,,,TRUE,,,,,FEW,2000,SCT,3000,BKN,8000,,,VFR,,,,,,,,,,,,METAR,2.0
LGIR 271350Z 34008KT 9999 FEW025 24/16 Q1006 NOSIG,LGIR,2015-05-27T13:50:00Z,35.32,25.17,24.0,16.0,340,8,,6.21,29.704725,,,,,,TRUE,,,,,FEW,2500,,,,,,,VFR,,,,,,,,,,,,METAR,39.0
LGAV 271350Z 22012KT 190V250 9999 TS FEW020CB BKN030 BKN100 24/13 Q1006 NOSIG,LGAV,2015-05-27T13:50:00Z,37.93,23.95,24.0,13.0,220,12,,6.21,29.704725,,,,,,TRUE,,,,TS,FEW,2000,BKN,3000,BKN,10000,,,MVFR,,,,,,,,,,,,METAR,94.0
LGTS 271350Z 25007KT 9999 FEW025TCU BKN035 BKN180 25/11 Q1005 NOSIG,LGTS,2015-05-27T13:50:00Z,40.52,22.97,25.0,11.0,250,7,,6.21,29.675198,,,,,,TRUE,,,,,FEW,2500,BKN,3500,BKN,18000,,,VFR,,,,,,,,,,,,METAR,7.0
LGSM 271350Z 15006KT 9999 SCT025 24/18 Q1005,LGSM,2015-05-27T13:50:00Z,37.68,26.92,24.0,18.0,150,6,,6.21,29.675198,,,,,,,,,,,SCT,2500,,,,,,,VFR,,,,,,,,,,,,METAR,6.0
LGSA 271350Z 31014KT 9999 FEW015 SCT020 23/16 Q1007,LGSA,2015-05-27T13:50:00Z,35.53,24.13,23.0,16.0,310,14,,6.21,29.734253,,,,,,,,,,,FEW,1500,SCT,2000,,,,,VFR,,,,,,,,,,,,METAR,135.0
LGKL 271350Z 01004KT 9999 SCT025TCU BKN080 25/10 Q1006,LGKL,2015-05-27T13:50:00Z,37.07,22.02,25.0,10.0,10,4,,6.21,29.704725,,,,,,,,,,,SCT,2500,BKN,8000,,,,,VFR,,,,,,,,,,,,METAR,8.0
LGPA 271350Z 33005KT 9999 FEW030 23/15 Q1005,LGPA,2015-05-27T13:50:00Z,37.0,25.13,23.0,15.0,330,5,,6.21,29.675198,,,,,,,,,,,FEW,3000,,,,,,,VFR,,,,,,,,,,,,METAR,36.0
LGBL 271350Z 24013KT 6000 TSRA FEW018CB SCT040 BKN080 17/14 Q1006,LGBL,2015-05-27T13:50:00Z,39.22,22.8,17.0,14.0,240,13,,3.73,29.704725,,,,,,,,,,TSRA,FEW,1800,SCT,4000,BKN,8000,,,MVFR,,,,,,,,,,,,METAR,26.0
LGSO 271350Z AUTO 28004KT //// // ////// 24/15 Q1005 RE//,LGSO,2015-05-27T13:50:00Z,37.42,24.95,24.0,15.0,280,4,,,29.675198,,,TRUE,,,,,,,,,,,,,,,,,,,,,,,,,,,,METAR,72.0
LGNX 271350Z 33010KT 9999 FEW018 SCT080 23/16 Q1005,LGNX,2015-05-27T13:50:00Z,37.08,25.37,23.0,16.0,330,10,,6.21,29.675198,,,,,,,,,,,FEW,1800,SCT,8000,,,,,VFR,,,,,,,,,,,,METAR,4.0
LGMK 271350Z 28006KT 9999 FEW018 SCT180 23/17 Q1005,LGMK,2015-05-27T13:50:00Z,37.43,25.35,23.0,17.0,280,6,,6.21,29.675198,,,,,,,,,,,FEW,1800,SCT,18000,,,,,VFR,,,,,,,,,,,,METAR,123.0
LGKZ 271350Z 00000KT 9999 FEW020TCU SCT025 BKN070 16/14 Q1008,LGKZ,2015-05-27T13:50:00Z,40.28,21.83,16.0,14.0,0,0,,6.21,29.763779,,,,,,,,,,,FEW,2000,SCT,2500,BKN,7000,,,VFR,,,,,,,,,,,,METAR,628.0
LGKP 271350Z 28017KT 9999 FEW018 24/18 Q1004,LGKP,2015-05-27T13:50:00Z,35.42,27.15,24.0,18.0,280,17,,6.21,29.64567,,,,,,,,,,,FEW,1800,,,,,,,VFR,,,,,,,,,,,,METAR,20.0
LGKF 271350Z 28007KT 9999 SCT020 21/14 Q1008,LGKF,2015-05-27T13:50:00Z,38.12,20.5,21.0,14.0,280,7,,6.21,29.763779,,,,,,,,,,,SCT,2000,,,,,,,VFR,,,,,,,,,,,,METAR,18.0
LGHI 271350Z 04006KT 9999 SCT025 22/16 Q1004,LGHI,2015-05-27T13:50:00Z,38.32,26.12,22.0,16.0,40,6,,6.21,29.64567,,,,,,,,,,,SCT,2500,,,,,,,VFR,,,,,,,,,,,,METAR,4.0
EFKT 271350Z AUTO 10007G18KT 040V200 9999 -RA OVC039 10/08 Q1004,EFKT,2015-05-27T13:50:00Z,67.7,24.85,10.0,8.0,100,7,18,6.21,29.64567,,,TRUE,,,,,,,-RA,OVC,3900,,,,,,,VFR,,,,,,,,,,,,METAR,643.0
EFKS 271350Z AUTO 09010KT 060V150 5000 -RA OVC005 09/09 Q1004,EFKS,2015-05-27T13:50:00Z,66.0,29.23,9.0,9.0,90,10,,3.11,29.64567,,,TRUE,,,,,,,-RA,OVC,500,,,,,,,IFR,,,,,,,,,,,,METAR,263.0
EFKI 271350Z 26008KT 150V300 9999 SCT032 SCT068 15/06 Q1004,EFKI,2015-05-27T13:50:00Z,64.27,27.67,15.0,6.0,260,8,,6.21,29.64567,,,,,,,,,,,SCT,3200,SCT,6800,,,,,VFR,,,,,,,,,,,,METAR,136.0
EFKE 271350Z AUTO 19012KT 160V220 9999 OVC003 07/07 Q1002,EFKE,2015-05-27T13:50:00Z,65.77,24.57,7.0,7.0,190,12,,6.21,29.586615,,,TRUE,,,,,,,,OVC,300,,,,,,,LIFR,,,,,,,,,,,,METAR,15.0
EFIV 271350Z AUTO 07008KT 020V110 CAVOK 15/04 Q1006,EFIV,2015-05-27T13:50:00Z,68.62,27.42,15.0,4.0,70,8,,6.21,29.704725,,,TRUE,,,,,,,,CAVOK,,,,,,,,VFR,,,,,,,,,,,,METAR,148.0
EFET 271350Z AUTO 11008KT 070V140 9999 -RA BKN062 11/06 Q1004,EFET,2015-05-27T13:50:00Z,68.37,23.43,11.0,6.0,110,8,,6.21,29.64567,,,TRUE,,,,,,,-RA,BKN,6200,,,,,,,VFR,,,,,,,,,,,,METAR,306.0
MMZC 271350Z 18010KT 10SM SCT200 18/06 A3032 RMK 8/001,MMZC,2015-05-27T13:50:00Z,22.9,-102.68,18.0,6.0,180,10,,10.0,30.318897,,,,,,,,,,,SCT,20000,,,,,,,VFR,,,,,,,,,,,,METAR,2177.0
MMCN 271350Z 10004KT 10SM SKC 22/05 A2989 RMK FULYR 4QUAD,MMCN,2015-05-27T13:50:00Z,27.4,-109.83,22.0,5.0,100,4,,10.0,29.890747,,,,,,,,,,,SKC,,,,,,,,VFR,,,,,,,,,,,,METAR,43.0
EGNS 271350Z 20019KT 8000 RA SCT004 SCT025 10/10 Q1016 NOSIG,EGNS,2015-05-27T13:50:00Z,54.08,-4.63,10.0,10.0,200,19,,4.97,30.0,,,,,,TRUE,,,,RA,SCT,400,SCT,2500,,,,,MVFR,,,,,,,,,,,,METAR,17.0
ENLA 271350Z AUTO 20012KT 9999NDV NCD 09/07 Q1016 W///S3,ENLA,2015-05-27T13:50:00Z,59.1,2.83,9.0,7.0,200,12,,,30.0,,,TRUE,,,,,,,,,,,,,,,,,,,,,,,,,,,,METAR,4.0
ENVH 271350Z AUTO 20008KT 170V230 9999NDV FEW017/// 10/07 Q1017 W///S3,ENVH,2015-05-27T13:50:00Z,56.27,3.38,10.0,7.0,200,8,,,30.029528,,,TRUE,,,,,,,,,,,,,,,,,,,,,,,,,,,,METAR,4.0
ENHM 271350Z 22018KT 9999 SCT040 08/07 Q1013 W09/S4,ENHM,2015-05-27T13:50:00Z,59.57,2.23,8.0,7.0,220,18,,6.21,29.911417,,,,,,,,,,,SCT,4000,,,,,,,VFR,,,,,,,,,,,,METAR,10.0
ENQA 271350Z AUTO 22018KT 9999NDV OVC010/// 09/07 Q1013 W07/S4,ENQA,2015-05-27T13:50:00Z,60.65,3.72,9.0,7.0,220,18,,,29.911417,,,TRUE,,,,,,,,,,,,,,,,,,,,,,,,,,,,METAR,20.0
ENQC 271350Z AUTO 21018KT 9999NDV BKN008/// 09/07 Q1012 W///S4,ENQC,2015-05-27T13:50:00Z,60.88,3.62,9.0,7.0,210,18,,,29.88189,,,TRUE,,,,,,,,,,,,,,,,,,,,,,,,,,,,METAR,20.0
ENSE 271350Z AUTO 22023KT 9999NDV FEW008/// SCT010/// BKN015/// 10/07 Q1009 W///S4,ENSE,2015-05-27T13:50:00Z,61.45,2.15,10.0,7.0,220,23,,,29.793306,,,TRUE,,,,,,,,,,,,,,,,,,,,,,,,,,,,METAR,10.0
ENQR 271350Z AUTO 21023KT 9999NDV BKN010/// 09/07 Q1009 W///S5,ENQR,2015-05-27T13:50:00Z,61.35,2.22,9.0,7.0,210,23,,,29.793306,,,TRUE,,,,,,,,,,,,,,,,,,,,,,,,,,,,METAR,10.0
EGPU 271350Z 20017KT 9000 -RADZ FEW010 BKN042 08/06 Q1012,EGPU,2015-05-27T13:50:00Z,56.5,-6.87,8.0,6.0,200,17,,5.59,29.88189,,,,,,,,,,-RA -DZ,FEW,1000,BKN,4200,,,,,VFR,,,,,,,,,,,,METAR,12.0
ENTO 271350Z VRB02KT 9999 -SHRA FEW040 SCT080 15/M00 Q1010,ENTO,2015-05-27T13:50:00Z,59.2,10.27,15.0,0.0,0,2,,6.21,29.822834,,,,,,,,,,-SHRA,FEW,4000,SCT,8000,,,,,VFR,,,,,,,,,,,,METAR,88.0
ENTC 271350Z 01013KT CAVOK 15/03 Q1006 NOSIG RMK WIND 2600FT 10009KT,ENTC,2015-05-27T13:50:00Z,69.68,18.92,15.0,3.0,10,13,,6.21,29.704725,,,,,,TRUE,,,,,CAVOK,,,,,,,,VFR,,0.9,,,,,,,,,,METAR,10.0
ENSB 271350Z 03004KT 350V070 9999 FEW030 02/M05 Q1021 RMK WIND 1400FT 05004KT,ENSB,2015-05-27T13:50:00Z,78.25,15.47,2.0,-5.0,30,4,,6.21,30.147638,,,,,,,,,,,FEW,3000,,,,,,,VFR,,,,,,,,,,,,METAR,29.0
ENRY 271350Z 20013KT CAVOK 15/05 Q1011,ENRY,2015-05-27T13:50:00Z,59.37,10.77,15.0,5.0,200,13,,6.21,29.852362,,,,,,,,,,,CAVOK,,,,,,,,VFR,,,,,,,,,,,,METAR,53.0
ENHD 271350Z 24009KT 9999 VCSH FEW015TCU SCT025 BKN050 10/07 Q1015,ENHD,2015-05-27T13:50:00Z,59.35,5.22,10.0,7.0,240,9,,6.21,29.970472,,,,,,,,,,VCSH,FEW,1500,SCT,2500,BKN,5000,,,VFR,,,,,,,,,,,,METAR,24.0
ENCN 271350Z 27012KT 240V310 CAVOK 15/04 Q1013,ENCN,2015-05-27T13:50:00Z,58.2,8.07,15.0,4.0,270,12,,6.21,29.911417,,,,,,,,,,,CAVOK,,,,,,,,VFR,,,,,,,,,,,,METAR,17.0
ENAL 271350Z 23011KT 9999 SCT030TCU 11/05 Q1011,ENAL,2015-05-27T13:50:00Z,62.57,6.12,11.0,5.0,230,11,,6.21,29.852362,,,,,,,,,,,SCT,3000,,,,,,,VFR,,,,,,,,,,,,METAR,22.0
ENSN 271350Z 28006KT 170V340 CAVOK 17/M03 Q1011,ENSN,2015-05-27T13:50:00Z,59.17,9.57,17.0,-3.0,280,6,,6.21,29.852362,,,,,,,,,,,CAVOK,,,,,,,,VFR,,,,,,,,,,,,METAR,14.0
ENSG 271350Z 24009KT 9999 -SHRA FEW030 BKN040 07/01 Q1012 RMK WIND 3901FT 23009KT,ENSG,2015-05-27T13:50:00Z,61.13,7.12,7.0,1.0,240,9,,6.21,29.88189,,,,,,,,,,-SHRA,FEW,3000,BKN,4000,,,,,VFR,,,,,,,,,,,,METAR,497.0
ENOV 271350Z 05004KT 9999 VCSH FEW025 BKN030 10/05 Q1011 RMK WIND 2175FT 18013KT,ENOV,2015-05-27T13:50:00Z,62.17,6.07,10.0,5.0,50,4,,6.21,29.852362,,,,,,,,,,VCSH,FEW,2500,BKN,3000,,,,,MVFR,,,,,,,,,,,,METAR,74.0
ENNO 271350Z 28010KT 250V320 CAVOK 17/M00 Q1011,ENNO,2015-05-27T13:50:00Z,59.57,9.22,17.0,0.0,280,10,,6.21,29.852362,,,,,,,,,,,CAVOK,,,,,,,,VFR,,,,,,,,,,,,METAR,19.0
EGAE 271350Z 21009KT 9999 -RA SCT014 BKN023 11/09 Q1013,EGAE,2015-05-27T13:50:00Z,55.03,-7.15,11.0,9.0,210,9,,6.21,29.911417,,,,,,,,,,-RA,SCT,1400,BKN,2300,,,,,MVFR,,,,,,,,,,,,METAR,9.0
EFVR 271350Z AUTO 24005KT 210V300 CAVOK 17/04 Q1006,EFVR,2015-05-27T13:50:00Z,62.17,27.87,17.0,4.0,240,5,,6.21,29.704725,,,TRUE,,,,,,,,CAVOK,,,,,,,,VFR,,,,,,,,,,,,METAR,87.0
EFUT 271350Z AUTO 33005KT 270V360 CAVOK 18/03 Q1006,EFUT,2015-05-27T13:50:00Z,60.88,26.92,18.0,3.0,330,5,,6.21,29.704725,,,TRUE,,,,,,,,CAVOK,,,,,,,,VFR,,,,,,,,,,,,METAR,100.0
EFSA 271350Z AUTO 17005KT 140V230 9999 FEW031 16/10 Q1006,EFSA,2015-05-27T13:50:00Z,61.95,28.93,16.0,10.0,170,5,,6.21,29.704725,,,TRUE,,,,,,,,FEW,3100,,,,,,,VFR,,,,,,,,,,,,METAR,95.0
EFMI 271350Z 29006KT 250V340 CAVOK 17/04 Q1006,EFMI,2015-05-27T13:50:00Z,61.68,27.2,17.0,4.0,290,6,,6.21,29.704725,,,,,,,,,,,CAVOK,,,,,,,,VFR,,,,,,,,,,,,METAR,138.0
EFLP 271350Z AUTO 25006KT 210V290 CAVOK 17/05 Q1006,EFLP,2015-05-27T13:50:00Z,61.07,28.13,17.0,5.0,250,6,,6.21,29.704725,,,TRUE,,,,,,,,CAVOK,,,,,,,,VFR,,,,,,,,,,,,METAR,106.0
EFJO 271350Z 23006KT 180V300 9999 BKN026 16/11 Q1006,EFJO,2015-05-27T13:50:00Z,62.67,29.62,16.0,11.0,230,6,,6.21,29.704725,,,,,,,,,,,BKN,2600,,,,,,,MVFR,,,,,,,,,,,,METAR,117.0
KEFD 271350Z 04007KT 4SM -TSRA SCT009 BKN020CB OVC070 19/19 A3016 RMK TS W E MOV E CB ALQDS,KEFD,2015-05-27T13:50:00Z,29.6,-95.17,19.0,19.0,40,7,,4.0,30.159449,,,,,,,,,,-TSRA,SCT,900,BKN,2000,OVC,7000,,,MVFR,,,,,,,,,,,,METAR,10.0
KOXC 271350Z 23008KT 6SM HZ SCT015 BKN250 23/18 A3020,KOXC,2015-05-27T13:50:00Z,41.47,-73.13,23.0,18.0,230,8,,6.0,30.200787,,,,,,,,,,HZ,SCT,1500,BKN,25000,,,,,VFR,,,,,,,,,,,,METAR,222.0
EDTY 271350Z 31007KT 270V350 9999 SCT036 BKN047 12/04 Q1023,EDTY,2015-05-27T13:50:00Z,49.12,9.78,12.0,4.0,310,7,,6.21,30.206694,,,,,,,,,,,SCT,3600,BKN,4700,,,,,VFR,,,,,,,,,,,,METAR,400.0
LIMW 271350Z AUTO 31011G24KT 260V350 CAVOK 25/M01 Q1013,LIMW,2015-05-27T13:50:00Z,45.73,7.37,25.0,-1.0,310,11,24,6.21,29.911417,,,TRUE,,,,,,,,CAVOK,,,,,,,,VFR,,,,,,,,,,,,METAR,546.0
LIPZ 271350Z 15009KT 110V170 9999 FEW030 20/07 Q1015,LIPZ,2015-05-27T13:50:00Z,45.5,12.35,20.0,7.0,150,9,,6.21,29.970472,,,,,,,,,,,FEW,3000,,,,,,,VFR,,,,,,,,,,,,METAR,6.0
LIPQ 271350Z 10012KT 9999 SCT050 20/04 Q1015,LIPQ,2015-05-27T13:50:00Z,45.82,13.47,20.0,4.0,100,12,,6.21,29.970472,,,,,,,,,,,SCT,5000,,,,,,,VFR,,,,,,,,,,,,METAR,12.0
LIPK 271350Z VRB02KT 9999 FEW040 BKN060 16/12 Q1016,LIPK,2015-05-27T13:50:00Z,44.2,12.07,16.0,12.0,0,2,,6.21,30.0,,,,,,,,,,,FEW,4000,BKN,6000,,,,,VFR,,,,,,,,,,,,METAR,32.0
LIPE 271350Z 17009KT 9999 FEW015TCU SCT035 17/11 Q1016,LIPE,2015-05-27T13:50:00Z,44.52,11.3,17.0,11.0,170,9,,6.21,30.0,,,,,,,,,,,FEW,1500,SCT,3500,,,,,VFR,,,,,,,,,,,,METAR,42.0
LIPB 271350Z 02009G22KT 270V080 9999 FEW080 23/M04 Q1015,LIPB,2015-05-27T13:50:00Z,46.47,11.32,23.0,-4.0,20,9,22,6.21,29.970472,,,,,,,,,,,FEW,8000,,,,,,,VFR,,,,,,,,,,,,METAR,241.0
LICJ 271350Z 34008KT 9999 SCT020 20/15 Q1013,LICJ,2015-05-27T13:50:00Z,38.17,13.08,20.0,15.0,340,8,,6.21,29.911417,,,,,,,,,,,SCT,2000,,,,,,,VFR,,,,,,,,,,,,METAR,34.0
LICC 271350Z 06010KT 030V090 9999 SCT030 SCT080 21/10 Q1010,LICC,2015-05-27T13:50:00Z,37.47,15.05,21.0,10.0,60,10,,6.21,29.822834,,,,,,,,,,,SCT,3000,SCT,8000,,,,,VFR,,,,,,,,,,,,METAR,17.0
LIBD 271350Z 36016KT 9999 FEW035 21/11 Q1011,LIBD,2015-05-27T13:50:00Z,41.12,16.77,21.0,11.0,360,16,,6.21,29.852362,,,,,,,,,,,FEW,3500,,,,,,,VFR,,,,,,,,,,,,METAR,44.0
LIRQ 271350Z 02006G16KT 330V060 9999 BKN060 24/10 Q1015,LIRQ,2015-05-27T13:50:00Z,43.78,11.18,24.0,10.0,20,6,16,6.21,29.970472,,,,,,,,,,,BKN,6000,,,,,,,VFR,,,,,,,,,,,,METAR,38.0
LIRN 271350Z 30006KT 280V340 9999 -RA FEW020CB BKN050 19/14 Q1012,LIRN,2015-05-27T13:50:00Z,40.88,14.3,19.0,14.0,300,6,,6.21,29.88189,,,,,,,,,,-RA,FEW,2000,BKN,5000,,,,,VFR,,,,,,,,,,,,METAR,72.0
LIRF 271350Z 01014KT 9999 FEW015CB SCT020 BKN040 17/14 Q1013 TEMPO 3000 TSRA BKN014CB,LIRF,2015-05-27T13:50:00Z,41.78,12.22,17.0,14.0,10,14,,6.21,29.911417,,,,,,,,,,,FEW,1500,SCT,2000,BKN,4000,,,VFR,,,,,,,,,,,,METAR,3.0
LIML 271350Z 19007KT 150V250 9999 FEW030 23/10 Q1014 NOSIG,LIML,2015-05-27T13:50:00Z,45.47,9.27,23.0,10.0,190,7,,6.21,29.940945,,,,,,TRUE,,,,,FEW,3000,,,,,,,VFR,,,,,,,,,,,,METAR,103.0
LIMJ 271350Z 34009KT 310V020 9999 SCT040 26/04 Q1013,LIMJ,2015-05-27T13:50:00Z,44.42,8.83,26.0,4.0,340,9,,6.21,29.911417,,,,,,,,,,,SCT,4000,,,,,,,VFR,,,,,,,,,,,,METAR,3.0
LIMF 271350Z 12005KT CAVOK 23/08 Q1015,LIMF,2015-05-27T13:50:00Z,45.22,7.65,23.0,8.0,120,5,,6.21,29.970472,,,,,,,,,,,CAVOK,,,,,,,,VFR,,,,,,,,,,,,METAR,287.0
LIME 271350Z 19007KT 130V230 9999 SCT045 22/09 Q1014,LIME,2015-05-27T13:50:00Z,45.67,9.68,22.0,9.0,190,7,,6.21,29.940945,,,,,,,,,,,SCT,4500,,,,,,,VFR,,,,,,,,,,,,METAR,237.0
LIMC 271350Z 22009KT 170V260 9999 FEW025 22/08 Q1015 NOSIG,LIMC,2015-05-27T13:50:00Z,45.62,8.72,22.0,8.0,220,9,,6.21,29.970472,,,,,,TRUE,,,,,FEW,2500,,,,,,,VFR,,,,,,,,,,,,METAR,211.0
LIEO 271350Z 20006KT 150V220 9999 FEW030CB BKN035 17/14 Q1015 WS RWY 23 RMK VIS MIN 9000SW,LIEO,2015-05-27T13:50:00Z,40.88,9.52,17.0,14.0,200,6,,6.21,29.970472,,,,,,,,,,,FEW,3000,BKN,3500,,,,,VFR,,,,,,,,,,,,METAR,13.0
LIEE 271350Z 10015KT 9999 FEW020TCU SCT025 21/15 Q1013,LIEE,2015-05-27T13:50:00Z,39.25,9.07,21.0,15.0,100,15,,6.21,29.911417,,,,,,,,,,,FEW,2000,SCT,2500,,,,,VFR,,,,,,,,,,,,METAR,4.0
LIEA 271350Z 29009KT 250V330 9999 FEW030 23/14 Q1015,LIEA,2015-05-27T13:50:00Z,40.62,8.27,23.0,14.0,290,9,,6.21,29.970472,,,,,,,,,,,FEW,3000,,,,,,,VFR,,,,,,,,,,,,METAR,23.0
ENVD 271350Z 05020KT 9999 FEW012 08/04 Q1011,ENVD,2015-05-27T13:50:00Z,70.07,29.85,8.0,4.0,50,20,,6.21,29.852362,,,,,,,,,,,FEW,1200,,,,,,,VFR,,,,,,,,,,,,METAR,39.0
ENST 271350Z 29006KT 250V330 9999 FEW015TCU SCT020 11/05 Q1008 RMK WIND 300FT 26008KT,ENST,2015-05-27T13:50:00Z,65.97,12.47,11.0,5.0,290,6,,6.21,29.763779,,,,,,,,,,,FEW,1500,SCT,2000,,,,,VFR,,,,,,,,,,,,METAR,17.0
ENSO 271350Z 25009KT 9999 VCSH FEW018 SCT022TCU SCT050 14/08 Q1015,ENSO,2015-05-27T13:50:00Z,59.78,5.33,14.0,8.0,250,9,,6.21,29.970472,,,,,,,,,,VCSH,FEW,1800,SCT,2200,SCT,5000,,,VFR,,,,,,,,,,,,METAR,49.0
ENSK 271350Z 27006KT 240V350 9999 FEW010 BKN085 12/06 Q1005,ENSK,2015-05-27T13:50:00Z,68.57,15.02,12.0,6.0,270,6,,6.21,29.675198,,,,,,,,,,,FEW,1000,BKN,8500,,,,,VFR,,,,,,,,,,,,METAR,3.0
ENRM 271350Z 25013KT 9999 FEW025 SCT040 11/05 Q1009,ENRM,2015-05-27T13:50:00Z,64.83,11.13,11.0,5.0,250,13,,6.21,29.793306,,,,,,,,,,,FEW,2500,SCT,4000,,,,,VFR,,,,,,,,,,,,METAR,14.0
ENMS 271350Z 34008KT 9999 VCSH FEW033 BKN050 10/03 Q1007 RMK WIND 412FT 32009KT 240V010,ENMS,2015-05-27T13:50:00Z,65.78,13.22,10.0,3.0,340,8,,6.21,29.734253,,,,,,,,,,VCSH,FEW,3300,BKN,5000,,,,,VFR,,,,,,,,,,,,METAR,70.0
ENSL 271350Z 21016KT 9999 BKN050 09/07 Q1015 W07/S3,ENSL,2015-05-27T13:50:00Z,58.37,1.9,9.0,7.0,210,16,,6.21,29.970472,,,,,,,,,,,BKN,5000,,,,,,,VFR,,,,,,,,,,,,METAR,50.0
ENOA 271350Z 22020KT 9999 -SHRA SCT012 BKN040 08/07 Q1012 W///S4,ENOA,2015-05-27T13:50:00Z,60.5,2.83,8.0,7.0,220,20,,6.21,29.88189,,,,,,,,,,-SHRA,SCT,1200,BKN,4000,,,,,VFR,,,,,,,,,,,,METAR,5.0
ENHE 271350Z 24009KT 9999 SCT020 08/04 Q1009 W///S3,ENHE,2015-05-27T13:50:00Z,65.33,2.33,8.0,4.0,240,9,,6.21,29.793306,,,,,,,,,,,SCT,2000,,,,,,,VFR,,,,,,,,,,,,METAR,1.0
ENGC 271350Z 23024KT 9999 BKN010 08/07 Q1010 W08/S4,ENGC,2015-05-27T13:50:00Z,61.02,2.02,8.0,7.0,230,24,,6.21,29.822834,,,,,,,,,,,BKN,1000,,,,,,,MVFR,,,,,,,,,,,,METAR,10.0
ENEK 271350Z 15010KT 9999 FEW025 11/06 Q1018 W10/S3,ENEK,2015-05-27T13:50:00Z,56.53,3.25,11.0,6.0,150,10,,6.21,30.059055,,,,,,,,,,,FEW,2500,,,,,,,VFR,,,,,,,,,,,,METAR,3.0
ENDR 271350Z AUTO 24012KT 08/04 Q1010,ENDR,2015-05-27T13:50:00Z,64.35,7.8,8.0,4.0,240,12,,,29.822834,,,TRUE,,,,,,,,,,,,,,,,,,,,,,,,,,,,METAR,50.0
ENVR 271350Z 30009KT 260V340 FEW020 SCT175 10/04 Q1007,ENVR,2015-05-27T13:50:00Z,67.65,12.72,10.0,4.0,300,9,,,29.734253,,,,,,,,,,,FEW,2000,SCT,17500,,,,,,,,,,,,,,,,,METAR,4.0
ENSH 271350Z 34011KT 9999 FEW020 SCT060 BKN090 12/05 Q1005,ENSH,2015-05-27T13:50:00Z,68.25,14.67,12.0,5.0,340,11,,6.21,29.675198,,,,,,,,,,,FEW,2000,SCT,6000,BKN,9000,,,VFR,,,,,,,,,,,,METAR,9.0
ENRA 271350Z 25007KT 9999 -RA FEW008 SCT018 BKN028 08/05 Q1006,ENRA,2015-05-27T13:50:00Z,66.37,14.3,8.0,5.0,250,7,,6.21,29.704725,,,,,,,,,,-RA,FEW,800,SCT,1800,BKN,2800,,,MVFR,,,,,,,,,,,,METAR,70.0
ENHF 271350Z 15006KT 110V200 CAVOK 13/03 Q1008 RMK WIND 1254FT 10007KT,ENHF,2015-05-27T13:50:00Z,70.67,23.67,13.0,3.0,150,6,,6.21,29.763779,,,,,,,,,,,CAVOK,,,,,,,,VFR,,0.7,,,,,,,,,,METAR,81.0
ENFG 271350Z 28013KT 230V330 9999 FEW040 SCT060 08/M05 Q1010,ENFG,2015-05-27T13:50:00Z,61.0,9.3,8.0,-5.0,280,13,,6.21,29.822834,,,,,,,,,,,FEW,4000,SCT,6000,,,,,VFR,,,,,,,,,,,,METAR,822.0
ENBV 271350Z 10020KT CAVOK 07/02 Q1012,ENBV,2015-05-27T13:50:00Z,70.87,29.02,7.0,2.0,100,20,,6.21,29.88189,,,,,,,,,,,CAVOK,,,,,,,,VFR,,,,,,,,,,,,METAR,13.0
EETU 271350Z 35004KT 310V020 9999 SCT031 11/07 Q1008,EETU,2015-05-27T13:50:00Z,58.32,26.68,11.0,7.0,350,4,,6.21,29.763779,,,,,,,,,,,SCT,3100,,,,,,,VFR,,,,,,,,,,,,METAR,67.0
EEKE 271350Z 30011KT 250V330 9999 FEW040 15/05 Q1010,EEKE,2015-05-27T13:50:00Z,58.23,22.52,15.0,5.0,300,11,,6.21,29.822834,,,,,,,,,,,FEW,4000,,,,,,,VFR,,,,,,,,,,,,METAR,4.0
EEKA 271350Z 32012KT 9999 FEW033 14/08 Q1009,EEKA,2015-05-27T13:50:00Z,58.98,22.83,14.0,8.0,320,12,,6.21,29.793306,,,,,,,,,,,FEW,3300,,,,,,,VFR,,,,,,,,,,,,METAR,4.0
ELLX 271350Z 06004KT 010V140 9999 SCT047 15/03 Q1023 NOSIG,ELLX,2015-05-27T13:50:00Z,49.63,6.2,15.0,3.0,60,4,,6.21,30.206694,,,,,,TRUE,,,,,SCT,4700,,,,,,,VFR,,,,,,,,,,,,METAR,379.0
EBOS 271350Z 29009KT 260V320 9999 FEW025 14/07 Q1023 NOSIG,EBOS,2015-05-27T13:50:00Z,51.2,2.87,14.0,7.0,290,9,,6.21,30.206694,,,,,,TRUE,,,,,FEW,2500,,,,,,,VFR,,,,,,,,,,,,METAR,5.0
EBLG 271350Z VRB05KT CAVOK 17/04 Q1023 NOSIG,EBLG,2015-05-27T13:50:00Z,50.63,5.45,17.0,4.0,0,5,,6.21,30.206694,,,,,,TRUE,,,,,CAVOK,,,,,,,,VFR,,,,,,,,,,,,METAR,178.0
EBCI 271350Z 26005KT 220V310 CAVOK 19/06 Q1022 NOSIG,EBCI,2015-05-27T13:50:00Z,50.47,4.45,19.0,6.0,260,5,,6.21,30.177166,,,,,,TRUE,,,,,CAVOK,,,,,,,,VFR,,,,,,,,,,,,METAR,192.0
EBBR 271350Z 26009KT 230V300 CAVOK 18/06 Q1022 NOSIG,EBBR,2015-05-27T13:50:00Z,50.9,4.5,18.0,6.0,260,9,,6.21,30.177166,,,,,,TRUE,,,,,CAVOK,,,,,,,,VFR,,,,,,,,,,,,METAR,58.0
EBAW 271350Z 31006KT 250V360 9999 SCT045 19/09 Q1021 NOSIG,EBAW,2015-05-27T13:50:00Z,51.2,4.47,19.0,9.0,310,6,,6.21,30.147638,,,,,,TRUE,,,,,SCT,4500,,,,,,,VFR,,,,,,,,,,,,METAR,14.0
LOXZ 271350Z 27011KT 30KM FEW050SC BKN060SC 11/01 Q1019 NOSIG RMK BKN,LOXZ,2015-05-27T13:50:00Z,47.2,14.75,11.0,1.0,270,11,,18.64,30.088583,,,,,,TRUE,,,,,,,,,,,,,,,,,,,,,,,,,METAR,682.0
EDLV 271350Z 23007KT 180V290 CAVOK 18/05 Q1022,EDLV,2015-05-27T13:50:00Z,51.6,6.15,18.0,5.0,230,7,,6.21,30.177166,,,,,,,,,,,CAVOK,,,,,,,,VFR,,,,,,,,,,,,METAR,32.0
EDFM 271350Z 35004KT 300V040 9999 OVC047 14/03 Q1024,EDFM,2015-05-27T13:50:00Z,49.47,8.52,14.0,3.0,350,4,,6.21,30.236221,,,,,,,,,,,OVC,4700,,,,,,,VFR,,,,,,,,,,,,METAR,100.0
EDFE 271350Z 23004KT 9999 FEW041 BKN052 14/02 Q1023,EDFE,2015-05-27T13:50:00Z,49.97,8.63,14.0,2.0,230,4,,6.21,30.206694,,,,,,,,,,,FEW,4100,BKN,5200,,,,,VFR,,,,,,,,,,,,METAR,118.0
EDHL 271350Z 29005KT 230V020 CAVOK 14/06 Q1020 RMK ATIS TAN,EDHL,2015-05-27T13:50:00Z,53.8,10.72,14.0,6.0,290,5,,6.21,30.11811,,,,,,,,,,,CAVOK,,,,,,,,VFR,,,,,,,,,,,,METAR,16.0
EDGS 271350Z 23006KT 180V280 9999 FEW036 BKN045 12/03 Q1024,EDGS,2015-05-27T13:50:00Z,50.7,8.08,12.0,3.0,230,6,,6.21,30.236221,,,,,,,,,,,FEW,3600,BKN,4500,,,,,VFR,,,,,,,,,,,,METAR,602.0
EDBC 271350Z 31009KT 280V340 9999 SCT036 BKN047 BKN055 13/04 Q1021,EDBC,2015-05-27T13:50:00Z,51.85,11.42,13.0,4.0,310,9,,6.21,30.147638,,,,,,,,,,,SCT,3600,BKN,4700,BKN,5500,,,VFR,,,,,,,,,,,,METAR,181.0
ENML 271350Z 26011KT 9999 FEW035 SCT050 12/05 Q1011,ENML,2015-05-27T13:50:00Z,62.75,7.27,12.0,5.0,260,11,,6.21,29.852362,,,,,,,,,,,FEW,3500,SCT,5000,,,,,VFR,,,,,,,,,,,,METAR,3.0
ENKR 271350Z 05013KT CAVOK 11/03 Q1010 RMK WIND 731FT 06014KT,ENKR,2015-05-27T13:50:00Z,69.72,29.88,11.0,3.0,50,13,,6.21,29.822834,,,,,,,,,,,CAVOK,,,,,,,,VFR,,,,,,,,,,,,METAR,91.0
ENKB 271350Z 24011KT 9999 FEW030TCU SCT045 11/05 Q1010,ENKB,2015-05-27T13:50:00Z,63.12,7.82,11.0,5.0,240,11,,6.21,29.822834,,,,,,,,,,,FEW,3000,SCT,4500,,,,,VFR,,,,,,,,,,,,METAR,62.0
ENEV 271350Z 10011KT 9999 FEW044 BKN064 14/03 Q1005 RMK WIND 1400FT 08012KT,ENEV,2015-05-27T13:50:00Z,68.52,16.67,14.0,3.0,100,11,,6.21,29.675198,,,,,,,,,,,FEW,4400,BKN,6400,,,,,VFR,,,,,,,,,,,,METAR,26.0
ENBL 271350Z 19008KT 140V240 9999 VCSH SCT015 BKN025 08/04 Q1012,ENBL,2015-05-27T13:50:00Z,61.4,5.77,8.0,4.0,190,8,,6.21,29.88189,,,,,,,,,,VCSH,SCT,1500,BKN,2500,,,,,MVFR,,,,,,,,,,,,METAR,150.0
ENAT 271350Z 32012KT CAVOK 12/04 Q1007 RMK WIND 700FT 32011KT,ENAT,2015-05-27T13:50:00Z,69.97,23.37,12.0,4.0,320,12,,6.21,29.734253,,,,,,,,,,,CAVOK,,,,,,,,VFR,,,,,,,,,,,,METAR,3.0
ENZV 271350Z 27009KT 9999 VCSH SCT014CB BKN038 10/08 Q1016 TEMPO SHRA,ENZV,2015-05-27T13:50:00Z,58.87,5.62,10.0,8.0,270,9,,6.21,30.0,,,,,,,,,,VCSH,SCT,1400,BKN,3800,,,,,VFR,,,,,,,,,,,,METAR,9.0
ENVA 271350Z 29015KT 9999 SCT032TCU SCT060 11/04 Q1011 TEMPO SHRA SCT014CB BKN020 RMK WIND 670FT 31017KT,ENVA,2015-05-27T13:50:00Z,63.47,10.92,11.0,4.0,290,15,,6.21,29.852362,,,,,,,,,,,SCT,3200,SCT,6000,,,,,VFR,,,,,,,,,,,,METAR,17.0
ENOL 271350Z 25011KT 9999 VCSH FEW012CB FEW030 SCT045 09/05 Q1011 TEMPO SHRA SCT012CB,ENOL,2015-05-27T13:50:00Z,63.7,9.58,9.0,5.0,250,11,,6.21,29.852362,,,,,,,,,,VCSH,FEW,1200,FEW,3000,SCT,4500,,,VFR,,,,,,,,,,,,METAR,7.0
ENGM 271350Z VRB04KT 9999 VCSH SCT065TCU SCT100 14/01 Q1009 TEMPO SHRA,ENGM,2015-05-27T13:50:00Z,60.2,11.1,14.0,1.0,0,4,,6.21,29.793306,,,,,,,,,,VCSH,SCT,6500,SCT,10000,,,,,VFR,,,,,,,,,,,,METAR,204.0
ENBO 271350Z 25010KT 9999 FEW015 SCT030 BKN060 09/06 Q1007 NOSIG,ENBO,2015-05-27T13:50:00Z,67.27,14.37,9.0,6.0,250,10,,6.21,29.734253,,,,,,TRUE,,,,,FEW,1500,SCT,3000,BKN,6000,,,VFR,,,,,,,,,,,,METAR,13.0
ENBR 271350Z 23008KT 190V260 9999 FEW015 SCT040 11/06 Q1014 NOSIG RMK WIND 1200FT 22012KT,ENBR,2015-05-27T13:50:00Z,60.28,5.22,11.0,6.0,230,8,,6.21,29.940945,,,,,,TRUE,,,,,FEW,1500,SCT,4000,,,,,VFR,,,,,,,,,,,,METAR,50.0
ENAN 271350Z 02012KT 9999 FEW025 SCT200 10/06 Q1006 NOSIG,ENAN,2015-05-27T13:50:00Z,69.28,16.13,10.0,6.0,20,12,,6.21,29.704725,,,,,,TRUE,,,,,FEW,2500,SCT,20000,,,,,VFR,,,,,,,,,,,,METAR,14.0
ENNM 271350Z 27012KT 9999 VCSH SCT020 BKN030 09/04 Q1010,ENNM,2015-05-27T13:50:00Z,64.47,11.57,9.0,4.0,270,12,,6.21,29.822834,,,,,,,,,,VCSH,SCT,2000,BKN,3000,,,,,MVFR,,,,,,,,,,,,METAR,2.0
ENNK 271350Z 03012KT 040V100 -RA 9999 BKN050 13/05 Q1005,ENNK,2015-05-27T13:50:00Z,68.47,17.38,13.0,5.0,30,12,,6.21,29.675198,,,,,,,,,,-RA,BKN,5000,,,,,,,VFR,,,,,,,,,,,,METAR,23.0
ENHV 271350Z 07008KT 240V110 9999 FEW010 08/02 Q1010,ENHV,2015-05-27T13:50:00Z,71.02,25.97,8.0,2.0,70,8,,6.21,29.822834,,,,,,,,,,,FEW,1000,,,,,,,VFR,,,,,,,,,,,,METAR,14.0
ENHK 271350Z 10014KT CAVOK 13/04 Q1008,ENHK,2015-05-27T13:50:00Z,70.47,22.13,13.0,4.0,100,14,,6.21,29.763779,,,,,,,,,,,CAVOK,,,,,,,,VFR,,,,,,,,,,,,METAR,10.0
ENBS 271350Z 12012KT 9999 FEW018 06/M02 Q1011,ENBS,2015-05-27T13:50:00Z,70.62,29.72,6.0,-2.0,120,12,,6.21,29.852362,,,,,,,,,,,FEW,1800,,,,,,,VFR,,,,,,,,,,,,METAR,10.0
LOWK 271350Z 36011KT 330V030 9999 FEW065 BKN090 15/00 Q1019 NOSIG,LOWK,2015-05-27T13:50:00Z,46.65,14.32,15.0,0.0,360,11,,6.21,30.088583,,,,,,TRUE,,,,,FEW,6500,BKN,9000,,,,,VFR,,,,,,,,,,,,METAR,441.0
LOWG 271350Z 35007KT 300V010 9999 SCT065 BKN100 14/02 Q1018 NOSIG,LOWG,2015-05-27T13:50:00Z,47.0,15.42,14.0,2.0,350,7,,6.21,30.059055,,,,,,TRUE,,,,,SCT,6500,BKN,10000,,,,,VFR,,,,,,,,,,,,METAR,347.0
LOWI 271350Z 10007KT 050V140 9999 FEW035 BKN080 13/03 Q1022 NOSIG,LOWI,2015-05-27T13:50:00Z,47.27,11.33,13.0,3.0,100,7,,6.21,30.177166,,,,,,TRUE,,,,,FEW,3500,BKN,8000,,,,,VFR,,,,,,,,,,,,METAR,581.0
LOWS 271350Z 27006KT 200V300 9999 SCT040 BKN060 12/05 Q1022 NOSIG,LOWS,2015-05-27T13:50:00Z,47.78,13.02,12.0,5.0,270,6,,6.21,30.177166,,,,,,TRUE,,,,,SCT,4000,BKN,6000,,,,,VFR,,,,,,,,,,,,METAR,450.0
LOWL 271350Z 30013KT 9999 FEW035 SCT050 BKN080 13/05 Q1021 NOSIG,LOWL,2015-05-27T13:50:00Z,48.22,14.18,13.0,5.0,300,13,,6.21,30.147638,,,,,,TRUE,,,,,FEW,3500,SCT,5000,BKN,8000,,,VFR,,,,,,,,,,,,METAR,313.0
LOWW 271350Z 34014KT 9999 -SHRA FEW040 SCT050 BKN060 13/05 Q1018 NOSIG,LOWW,2015-05-27T13:50:00Z,48.12,16.57,13.0,5.0,340,14,,6.21,30.059055,,,,,,TRUE,,,,-SHRA,FEW,4000,SCT,5000,BKN,6000,,,VFR,,,,,,,,,,,,METAR,190.0
HLLM 271350Z 30010KT 9999 FEW040 24/11 Q1017,HLLM,2015-05-27T13:50:00Z,32.9,13.28,24.0,11.0,300,10,,6.21,30.029528,,,,,,,,,,,FEW,4000,,,,,,,VFR,,,,,,,,,,,,METAR,11.0
LXGB 271350Z 08010KT 9999 FEW035 23/15 Q1017 NOSIG,LXGB,2015-05-27T13:50:00Z,36.13,-5.33,23.0,15.0,80,10,,6.21,30.029528,,,,,,TRUE,,,,,FEW,3500,,,,,,,VFR,,,,,,,,,,,,METAR,5.0
ESIB 271350Z VRB03KT 9999 FEW040TCU 14/06 Q1011,ESIB,2015-05-27T13:50:00Z,58.42,12.68,14.0,6.0,0,3,,6.21,29.852362,,,,,,,,,,,FEW,4000,,,,,,,VFR,,,,,,,,,,,,METAR,74.0
EGHE 271350Z 25015KT 9999 FEW005 SCT008 BKN010 14/// Q1025,EGHE,2015-05-27T13:50:00Z,49.92,-6.28,,,250,15,,6.21,30.265747,,,,,,,,,,,FEW,500,SCT,800,BKN,1000,,,MVFR,,,,,,,,,,,,METAR,31.0
MMMY 271350Z 08005KT 3SM BR BKN007 OVC010 24/22 A2997 RMK 8/6// BINOVC,MMMY,2015-05-27T13:50:00Z,25.77,-100.08,24.0,22.0,80,5,,3.0,29.970472,,,,,,,,,,BR,BKN,700,OVC,1000,,,,,IFR,,,,,,,,,,,,METAR,387.0
EDTL 271350Z 29005KT 210V360 CAVOK 17/04 Q1023,EDTL,2015-05-27T13:50:00Z,48.37,7.83,17.0,4.0,290,5,,6.21,30.206694,,,,,,,,,,,CAVOK,,,,,,,,VFR,,,,,,,,,,,,METAR,156.0
ESSV 271350Z 24012KT CAVOK 15/05 Q1010,ESSV,2015-05-27T13:50:00Z,57.67,18.35,15.0,5.0,240,12,,6.21,29.822834,,,,,,,,,,,CAVOK,,,,,,,,VFR,,,,,,,,,,,,METAR,47.0
ESSP 271350Z 33009KT 9999 SCT057CB 13/05 Q1010,ESSP,2015-05-27T13:50:00Z,58.57,16.25,13.0,5.0,330,9,,6.21,29.822834,,,,,,,,,,,SCT,5700,,,,,,,VFR,,,,,,,,,,,,METAR,8.0
ESSD 271350Z 29008KT 270V330 9999 SCT060TCU 15/M01 Q1008,ESSD,2015-05-27T13:50:00Z,60.42,15.5,15.0,-1.0,290,8,,6.21,29.763779,,,,,,,,,,,SCT,6000,,,,,,,VFR,,,,,,,,,,,,METAR,161.0
ESSB 271350Z 29010KT CAVOK 16/04 Q1009,ESSB,2015-05-27T13:50:00Z,59.35,17.93,16.0,4.0,290,10,,6.21,29.793306,,,,,,,,,,,CAVOK,,,,,,,,VFR,,,,,,,,,,,,METAR,11.0
ESSA 271350Z 32009KT CAVOK 14/06 Q1009 RESHRA NOSIG,ESSA,2015-05-27T13:50:00Z,59.63,17.93,14.0,6.0,320,9,,6.21,29.793306,,,,,,TRUE,,,,,CAVOK,,,,,,,,VFR,,,,,,,,,,,,METAR,61.0
ESOW 271350Z 22009G23KT 190V280 9999 VCSH NSC 14/04 Q1009,ESOW,2015-05-27T13:50:00Z,59.57,16.62,14.0,4.0,220,9,23,6.21,29.793306,,,,,,,,,,VCSH,,,,,,,,,,,,,,,,,,,,,METAR,31.0
ESOK 271350Z 27003G18KT 170V320 9999 VCSH SCT042CB 13/05 Q1010,ESOK,2015-05-27T13:50:00Z,59.45,13.33,13.0,5.0,270,3,18,6.21,29.822834,,,,,,,,,,VCSH,SCT,4200,,,,,,,VFR,,,,,,,,,,,,METAR,107.0
ESOE 271350Z 35009KT 9999 FEW052CB SCT095 15/07 Q1010,ESOE,2015-05-27T13:50:00Z,59.22,15.05,15.0,7.0,350,9,,6.21,29.822834,,,,,,,,,,,FEW,5200,SCT,9500,,,,,VFR,,,,,,,,,,,,METAR,57.0
ESKN 271350Z 29007KT 260V330 9999 VCSH BKN055CB 14/04 Q1009,ESKN,2015-05-27T13:50:00Z,58.78,16.9,14.0,4.0,290,7,,6.21,29.793306,,,,,,,,,,VCSH,BKN,5500,,,,,,,VFR,,,,,,,,,,,,METAR,43.0
LSMS 271350Z 25016KT 9999 FEW080 21/04 Q1017,LSMS,2015-05-27T13:50:00Z,46.22,7.32,21.0,4.0,250,16,,6.21,30.029528,,,,,,,,,,,FEW,8000,,,,,,,VFR,,,,,,,,,,,,METAR,481.0
LSZL 271350Z 11014KT 060V140 CAVOK 24/01 Q1014 RMK BLU,LSZL,2015-05-27T13:50:00Z,46.17,8.88,24.0,1.0,110,14,,6.21,29.940945,,,,,,,,,,,CAVOK,,,,,,,,VFR,,,,,,,,,,,,METAR,600.0
LSZC 271350Z AUTO VRB06KT 9999 NCD 16/04 Q1022,LSZC,2015-05-27T13:50:00Z,46.97,8.38,16.0,4.0,0,6,,6.21,30.177166,,,TRUE,,,,,,,,,,,,,,,,,,,,,,,,,,,,METAR,450.0
LSZS 271350Z VRB08KT 9999 FEW080 09/M05 Q1020,LSZS,2015-05-27T13:50:00Z,46.53,9.88,9.0,-5.0,0,8,,6.21,30.11811,,,,,,,,,,,FEW,8000,,,,,,,VFR,,,,,,,,,,,,METAR,1706.0
LSZR 271350Z VRB05KT 9999 SCT070 14/03 Q1023 NOSIG RMK K,LSZR,2015-05-27T13:50:00Z,47.48,9.57,14.0,3.0,0,5,,6.21,30.206694,,,,,,TRUE,,,,,SCT,7000,,,,,,,VFR,,,,,,,,,,,,METAR,398.0
LSZG 271350Z VRB03KT 9999 SCT054 17/06 Q1022 NOSIG,LSZG,2015-05-27T13:50:00Z,47.17,7.42,17.0,6.0,0,3,,6.21,30.177166,,,,,,TRUE,,,,,SCT,5400,,,,,,,VFR,,,,,,,,,,,,METAR,430.0
LSGS 271350Z 25016KT 9999 FEW080 21/04 Q1017,LSGS,2015-05-27T13:50:00Z,46.22,7.32,21.0,4.0,250,16,,6.21,30.029528,,,,,,,,,,,FEW,8000,,,,,,,VFR,,,,,,,,,,,,METAR,481.0
LSGC 271350Z 03006KT 310V090 9999 SCT040 13/04 Q1023,LSGC,2015-05-27T13:50:00Z,47.08,6.8,13.0,4.0,30,6,,6.21,30.206694,,,,,,,,,,,SCT,4000,,,,,,,VFR,,,,,,,,,,,,METAR,1027.0
LSMP 271350Z 09007KT 020V150 CAVOK 17/04 Q1022 RMK BLU,LSMP,2015-05-27T13:50:00Z,46.82,6.92,17.0,4.0,90,7,,6.21,30.177166,,,,,,,,,,,CAVOK,,,,,,,,VFR,,,,,,,,,,,,METAR,491.0
LSMM 271350Z VRB06KT 9999 FEW055 16/05 Q1022 RMK BLU,LSMM,2015-05-27T13:50:00Z,46.75,8.12,16.0,5.0,0,6,,6.21,30.177166,,,,,,,,,,,FEW,5500,,,,,,,VFR,,,,,,,,,,,,METAR,577.0
LSME 271350Z VRB03KT 9999 FEW050 16/03 Q1023 RMK BLU,LSME,2015-05-27T13:50:00Z,47.1,8.3,16.0,3.0,0,3,,6.21,30.206694,,,,,,,,,,,FEW,5000,,,,,,,VFR,,,,,,,,,,,,METAR,427.0
LSMD 271350Z VRB03KT 9999 FEW050 SCT060 16/02 Q1023 RMK WHT,LSMD,2015-05-27T13:50:00Z,47.4,8.65,16.0,2.0,0,3,,6.21,30.206694,,,,,,,,,,,FEW,5000,SCT,6000,,,,,VFR,,,,,,,,,,,,METAR,448.0
LSMA 271350Z 04010KT 360V070 CAVOK 16/04 Q1022 RMK BLU,LSMA,2015-05-27T13:50:00Z,46.95,8.28,16.0,4.0,40,10,,6.21,30.177166,,,,,,,,,,,CAVOK,,,,,,,,VFR,,,,,,,,,,,,METAR,444.0
ESSL 271350Z 30012KT CAVOK 16/05 Q1010,ESSL,2015-05-27T13:50:00Z,58.38,15.67,16.0,5.0,300,12,,6.21,29.822834,,,,,,,,,,,CAVOK,,,,,,,,VFR,,,,,,,,,,,,METAR,52.0
ESPE 271350Z VRB01KT 9999 RA FEW005 SCT008 BKN016 08/07 Q0999,ESPE,2015-05-27T13:50:00Z,65.88,20.15,8.0,7.0,0,1,,6.21,29.498032,,,,,,,,,,RA,FEW,500,SCT,800,BKN,1600,,,MVFR,,,,,,,,,,,,METAR,182.0
ESPA 271350Z 17008KT 0500 R14/0650N R32/0900V1400U FG VV002 06/06 Q0999,ESPA,2015-05-27T13:50:00Z,65.53,22.12,6.0,6.0,170,8,,0.31,29.498032,,,,,,,,,,FG,OVX,0,,,,,,,LIFR,,,,,,,,,,,200,METAR,34.0
ESDF 271350Z 28013KT 240V310 CAVOK 16/05 Q1012,ESDF,2015-05-27T13:50:00Z,56.27,15.27,16.0,5.0,280,13,,6.21,29.88189,,,,,,,,,,,CAVOK,,,,,,,,VFR,,,,,,,,,,,,METAR,74.0
ESCF 271350Z 31009KT 9999 FEW047TCU FEW110 15/06 Q1010,ESCF,2015-05-27T13:50:00Z,58.38,15.52,15.0,6.0,310,9,,6.21,29.822834,,,,,,,,,,,FEW,4700,FEW,11000,,,,,VFR,,,,,,,,,,,,METAR,117.0
ESUT 271350Z AUTO 30007KT 9999 DZ OVC021/// 05/02 Q1004 REDZ,ESUT,2015-05-27T13:50:00Z,65.8,15.08,5.0,2.0,300,7,,6.21,29.64567,,,TRUE,,,,,,,DZ,,,,,,,,,,,,,,,,,,,,,METAR,463.0
ESNZ 271350Z 31019KT 9999 FEW036 SCT049 10/02 Q1007,ESNZ,2015-05-27T13:50:00Z,63.17,14.5,10.0,2.0,310,19,,6.21,29.734253,,,,,,,,,,,FEW,3600,SCT,4900,,,,,VFR,,,,,,,,,,,,METAR,370.0
ESNU 271350Z 23013KT 9999 FEW025 SCT038 BKN047 12/05 Q1002,ESNU,2015-05-27T13:50:00Z,63.78,20.27,12.0,5.0,230,13,,6.21,29.586615,,,,,,,,,,,FEW,2500,SCT,3800,BKN,4700,,,VFR,,,,,,,,,,,,METAR,14.0
ESNS 271350Z 21008KT 9999 FEW006 SCT031 BKN042 10/08 Q1000,ESNS,2015-05-27T13:50:00Z,64.62,21.07,10.0,8.0,210,8,,6.21,29.52756,,,,,,,,,,,FEW,600,SCT,3100,BKN,4200,,,VFR,,,,,,,,,,,,METAR,49.0
ESNQ 271350Z AUTO 03008KT 9999 -RA FEW019/// BKN027/// OVC037/// 08/08 Q1002,ESNQ,2015-05-27T13:50:00Z,67.82,20.32,8.0,8.0,30,8,,6.21,29.586615,,,TRUE,,,,,,,-RA,,,,,,,,,,,,,,,,,,,,,METAR,452.0
ESNO 271350Z 28016KT 9999 BKN030 11/05 Q1003,ESNO,2015-05-27T13:50:00Z,63.38,18.97,11.0,5.0,280,16,,6.21,29.616142,,,,,,,,,,,BKN,3000,,,,,,,MVFR,,,,,,,,,,,,METAR,103.0
ESNN 271350Z 31007KT 250V330 9999 BKN047 14/03 Q1006,ESNN,2015-05-27T13:50:00Z,62.52,17.43,14.0,3.0,310,7,,6.21,29.704725,,,,,,,,,,,BKN,4700,,,,,,,VFR,,,,,,,,,,,,METAR,10.0
ESNK 271350Z AUTO 31008KT 9999 OVC041/// 13/05 Q1005,ESNK,2015-05-27T13:50:00Z,63.03,17.77,13.0,5.0,310,8,,6.21,29.675198,,,TRUE,,,,,,,,,,,,,,,,,,,,,,,,,,,,METAR,19.0
ESNG 271350Z 06010KT 7000 RA BR FEW011 SCT015 BKN021 09/08 Q1000,ESNG,2015-05-27T13:50:00Z,67.13,20.82,9.0,8.0,60,10,,4.35,29.52756,,,,,,,,,,RA BR,FEW,1100,SCT,1500,BKN,2100,,,MVFR,,,,,,,,,,,,METAR,310.0
ESUD 271350Z AUTO 30010KT 9999 DZ ////// 06/04 Q1002,ESUD,2015-05-27T13:50:00Z,64.97,17.7,6.0,4.0,300,10,,6.21,29.586615,,,TRUE,,,,,,,DZ,,,,,,,,,,,,,,,,,,,,,METAR,279.0
ESNX 271350Z AUTO 27007KT 9999NDV RA FEW009/// SCT015/// OVC026/// 07/06 Q0999,ESNX,2015-05-27T13:50:00Z,65.58,19.28,7.0,6.0,270,7,,,29.498032,,,TRUE,,,,,,,RA,,,,,,,,,,,,,,,,,,,,,METAR,379.0
ESGR 271350Z AUTO 27010KT 240V310 9999 FEW039/// BKN053/// 15/06 Q1011,ESGR,2015-05-27T13:50:00Z,58.45,13.97,15.0,6.0,270,10,,6.21,29.852362,,,TRUE,,,,,,,,,,,,,,,,,,,,,,,,,,,,METAR,105.0
EFSI 271350Z AUTO 24009KT 190V350 //// ////// 14/06 Q1005,EFSI,2015-05-27T13:50:00Z,62.7,22.83,14.0,6.0,240,9,,,29.675198,,,TRUE,,,,,,,,,,,,,,,,,,,,,,,,,,,,METAR,91.0
EFPO 271350Z AUTO 28008KT 230V310 CAVOK 11/07 Q1007,EFPO,2015-05-27T13:50:00Z,61.47,21.8,11.0,7.0,280,8,,6.21,29.734253,,,TRUE,,,,,,,,CAVOK,,,,,,,,VFR,,,,,,,,,,,,METAR,17.0
EFMA 271350Z 35005KT 310V020 9999 FEW027 BKN054 13/07 Q1009,EFMA,2015-05-27T13:50:00Z,60.12,19.88,13.0,7.0,350,5,,6.21,29.793306,,,,,,,,,,,FEW,2700,BKN,5400,,,,,VFR,,,,,,,,,,,,METAR,6.0
EFKK 271350Z 22012KT 170V260 9999 SCT031 BKN040 13/06 Q1003,EFKK,2015-05-27T13:50:00Z,63.72,23.13,13.0,6.0,220,12,,6.21,29.616142,,,,,,,,,,,SCT,3100,BKN,4000,,,,,VFR,,,,,,,,,,,,METAR,25.0
EFHF 271350Z 17010KT 150V220 CAVOK 16/06 Q1007,EFHF,2015-05-27T13:50:00Z,60.25,25.05,16.0,6.0,170,10,,6.21,29.734253,,,,,,,,,,,CAVOK,,,,,,,,VFR,,,,,,,,,,,,METAR,28.0
EFHA 271350Z AUTO 24008KT 200V280 CAVOK 16/03 Q1006,EFHA,2015-05-27T13:50:00Z,61.85,24.8,16.0,3.0,240,8,,6.21,29.704725,,,TRUE,,,,,,,,CAVOK,,,,,,,,VFR,,,,,,,,,,,,METAR,145.0
EGPN 271350Z 24016KT 9999 -RA FEW030 SCT038 11/08 Q1014,EGPN,2015-05-27T13:50:00Z,56.45,-3.02,11.0,8.0,240,16,,6.21,29.940945,,,,,,,,,,-RA,FEW,3000,SCT,3800,,,,,VFR,,,,,,,,,,,,METAR,4.0
EGPI 271350Z 21011KT 190V260 7000 RA FEW027 BKN035 08/06 Q1014,EGPI,2015-05-27T13:50:00Z,55.68,-6.25,8.0,6.0,210,11,,4.35,29.940945,,,,,,,,,,RA,FEW,2700,BKN,3500,,,,,MVFR,,,,,,,,,,,,METAR,18.0
EGPE 271350Z 22011KT 9999 FEW015 SCT048 11/06 Q1012,EGPE,2015-05-27T13:50:00Z,57.52,-4.03,11.0,6.0,220,11,,6.21,29.88189,,,,,,,,,,,FEW,1500,SCT,4800,,,,,VFR,,,,,,,,,,,,METAR,9.0
EGNR 271350Z 24014KT 9999 SCT032 15/08 Q1019,EGNR,2015-05-27T13:50:00Z,53.17,-2.97,15.0,8.0,240,14,,6.21,30.088583,,,,,,,,,,,SCT,3200,,,,,,,VFR,,,,,,,,,,,,METAR,10.0
EGNJ 271350Z 20009KT 9999 SCT032 15/07 Q1019,EGNJ,2015-05-27T13:50:00Z,53.57,-0.35,15.0,7.0,200,9,,6.21,30.088583,,,,,,,,,,,SCT,3200,,,,,,,VFR,,,,,,,,,,,,METAR,31.0
EGNH 271350Z 22006KT 9999 -RA FEW035 11/08 1018,EGNH,2015-05-27T13:50:00Z,53.77,-3.02,11.0,8.0,220,6,,6.21,,,,,,,,,,,-RA,FEW,3500,,,,,,,VFR,,,,,,,,,,,,METAR,10.0
EGNC 271350Z 24008KT 9999 VCSH FEW015 SCT021 BKN028 11/06 Q1016,EGNC,2015-05-27T13:50:00Z,54.93,-2.82,11.0,6.0,240,8,,6.21,30.0,,,,,,,,,,VCSH,FEW,1500,SCT,2100,BKN,2800,,,MVFR,,,,,,,,,,,,METAR,26.0
EGPO 271350Z 21014KT 9999 -RA FEW015 SCT028 BKN039 09/06 Q1009,EGPO,2015-05-27T13:50:00Z,58.22,-6.32,9.0,6.0,210,14,,6.21,29.793306,,,,,,,,,,-RA,FEW,1500,SCT,2800,BKN,3900,,,VFR,,,,,,,,,,,,METAR,13.0
EGPM 271350Z 23018KT 9999 FEW012 SCT017 11/08 Q1009,EGPM,2015-05-27T13:50:00Z,60.42,-1.3,11.0,8.0,230,18,,6.21,29.793306,,,,,,,,,,,FEW,1200,SCT,1700,,,,,VFR,,,,,,,,,,,,METAR,22.0
EGPL 271350Z 19017KT 9999 -RA FEW008 BKN027 08/06 Q1010,EGPL,2015-05-27T13:50:00Z,57.47,-7.37,8.0,6.0,190,17,,6.21,29.822834,,,,,,,,,,-RA,FEW,800,BKN,2700,,,,,MVFR,,,,,,,,,,,,METAR,6.0
EGPC 271350Z 22010KT 190V260 9999 FEW018 10/06 Q1011,EGPC,2015-05-27T13:50:00Z,58.45,-3.07,10.0,6.0,220,10,,6.21,29.852362,,,,,,,,,,,FEW,1800,,,,,,,VFR,,,,,,,,,,,,METAR,39.0
EGPA 271350Z 21009KT 180V240 9999 -SHRA FEW016 SCT030 BKN042 10/07 Q1011,EGPA,2015-05-27T13:50:00Z,58.95,-2.88,10.0,7.0,210,9,,6.21,29.852362,,,,,,,,,,-SHRA,FEW,1600,SCT,3000,BKN,4200,,,VFR,,,,,,,,,,,,METAR,21.0
EGNO 271350Z 27006KT 9999 FEW030 SCT042 12/08 Q1018,EGNO,2015-05-27T13:50:00Z,53.75,-2.88,12.0,8.0,270,6,,6.21,30.059055,,,,,,,,,,,FEW,3000,SCT,4200,,,,,VFR,,,,,,,,,,,,METAR,17.0
EGTK 271350Z 23010KT 9999 FEW042 18/08 Q1021,EGTK,2015-05-27T13:50:00Z,51.83,-1.32,18.0,8.0,230,10,,6.21,30.147638,,,,,,,,,,,FEW,4200,,,,,,,VFR,,,,,,,,,,,,METAR,82.0
EGTC 271350Z 21011KT 9999 FEW036 16/08 Q1021,EGTC,2015-05-27T13:50:00Z,52.07,-0.62,16.0,8.0,210,11,,6.21,30.147638,,,,,,,,,,,FEW,3600,,,,,,,VFR,,,,,,,,,,,,METAR,111.0
EGMD 271350Z 22018KT 9999 FEW045 16/10 Q1023,EGMD,2015-05-27T13:50:00Z,50.95,0.92,16.0,10.0,220,18,,6.21,30.206694,,,,,,,,,,,FEW,4500,,,,,,,VFR,,,,,,,,,,,,METAR,3.0
EGMC 271350Z 24011KT CAVOK 19/04 Q1021,EGMC,2015-05-27T13:50:00Z,51.57,0.7,19.0,4.0,240,11,,6.21,30.147638,,,,,,,,,,,CAVOK,,,,,,,,VFR,,,,,,,,,,,,METAR,15.0
EGLF 271350Z 25011KT 200V300 9999 FEW042 18/08 Q1022,EGLF,2015-05-27T13:50:00Z,51.28,-0.77,18.0,8.0,250,11,,6.21,30.177166,,,,,,,,,,,FEW,4200,,,,,,,VFR,,,,,,,,,,,,METAR,65.0
EGKB 271350Z 23009KT 170V250 CAVOK 18/07 Q1022,EGKB,2015-05-27T13:50:00Z,51.32,0.02,18.0,7.0,230,9,,6.21,30.177166,,,,,,,,,,,CAVOK,,,,,,,,VFR,,,,,,,,,,,,METAR,183.0
EGKA 271350Z 21012KT CAVOK 14/10 Q1023,EGKA,2015-05-27T13:50:00Z,50.83,-0.3,14.0,10.0,210,12,,6.21,30.206694,,,,,,,,,,,CAVOK,,,,,,,,VFR,,,,,,,,,,,,METAR,2.0
EGHH 271350Z 19010KT 160V230 9999 FEW030 15/09 Q1023,EGHH,2015-05-27T13:50:00Z,50.78,-1.83,15.0,9.0,190,10,,6.21,30.206694,,,,,,,,,,,FEW,3000,,,,,,,VFR,,,,,,,,,,,,METAR,11.0
EGLL 271350Z 26011KT 230V290 CAVOK 20/05 Q1021 NOSIG,EGLL,2015-05-27T13:50:00Z,51.48,-0.45,20.0,5.0,260,11,,6.21,30.147638,,,,,,TRUE,,,,,CAVOK,,,,,,,,VFR,,,,,,,,,,,,METAR,24.0
EGSS 271350Z 22009KT 170V270 CAVOK 17/07 Q1021,EGSS,2015-05-27T13:50:00Z,51.88,0.22,17.0,7.0,220,9,,6.21,30.147638,,,,,,,,,,,CAVOK,,,,,,,,VFR,,,,,,,,,,,,METAR,106.0
EGPK 271350Z 21006KT 7000 -RA SCT020 BKN032 09/07 Q1015,EGPK,2015-05-27T13:50:00Z,55.5,-4.57,9.0,7.0,210,6,,4.35,29.970472,,,,,,,,,,-RA,SCT,2000,BKN,3200,,,,,MVFR,,,,,,,,,,,,METAR,20.0
EGPH 271350Z 22014KT 7000 RA FEW022 BKN029 OVC035 09/07 Q1015,EGPH,2015-05-27T13:50:00Z,55.95,-3.35,9.0,7.0,220,14,,4.35,29.970472,,,,,,,,,,RA,FEW,2200,BKN,2900,OVC,3500,,,MVFR,,,,,,,,,,,,METAR,41.0
EGPF 271350Z 22015KT 9999 7000SW -RA FEW017 SCT022 BKN025 08/07 Q1015,EGPF,2015-05-27T13:50:00Z,55.87,-4.42,8.0,7.0,220,15,,6.21,29.970472,,,,,,,,,,-RA,FEW,1700,SCT,2200,BKN,2500,,,MVFR,,,,,,,,,,,,METAR,8.0
EGKK 271350Z 21008KT 160V250 9999 FEW036 19/10 Q1022,EGKK,2015-05-27T13:50:00Z,51.13,-0.17,19.0,10.0,210,8,,6.21,30.177166,,,,,,,,,,,FEW,3600,,,,,,,VFR,,,,,,,,,,,,METAR,62.0
EGCC 271350Z 25012KT 9999 SCT036 BKN045 15/08 Q1018,EGCC,2015-05-27T13:50:00Z,53.35,-2.27,15.0,8.0,250,12,,6.21,30.059055,,,,,,,,,,,SCT,3600,BKN,4500,,,,,VFR,,,,,,,,,,,,METAR,78.0
EGBB 271350Z 21010KT 170V260 9999 FEW039 16/06 Q1020,EGBB,2015-05-27T13:50:00Z,52.47,-1.75,16.0,6.0,210,10,,6.21,30.11811,,,,,,,,,,,FEW,3900,,,,,,,VFR,,,,,,,,,,,,METAR,99.0
EGPB 271350Z 21013KT 9000 FEW010 10/08 Q1011,EGPB,2015-05-27T13:50:00Z,59.87,-1.3,10.0,8.0,210,13,,5.59,29.852362,,,,,,,,,,,FEW,1000,,,,,,,VFR,,,,,,,,,,,,METAR,5.0
EGNV 271350Z 24010KT 9999 SCT034 13/05 Q1018,EGNV,2015-05-27T13:50:00Z,54.52,-1.42,13.0,5.0,240,10,,6.21,30.059055,,,,,,,,,,,SCT,3400,,,,,,,VFR,,,,,,,,,,,,METAR,37.0
EGNT 271350Z 23008KT 170V280 9999 FEW027 12/06 Q1016 RERA,EGNT,2015-05-27T13:50:00Z,55.02,-1.7,12.0,6.0,230,8,,6.21,30.0,,,,,,,,,,,FEW,2700,,,,,,,VFR,,,,,,,,,,,,METAR,81.0
EGHI 271350Z 22014KT 200V260 9999 FEW038 16/07 Q1023,EGHI,2015-05-27T13:50:00Z,50.95,-1.35,16.0,7.0,220,14,,6.21,30.206694,,,,,,,,,,,FEW,3800,,,,,,,VFR,,,,,,,,,,,,METAR,14.0
EGGP 271350Z 27007KT 9999 SCT044 15/09 Q1018,EGGP,2015-05-27T13:50:00Z,53.32,-2.85,15.0,9.0,270,7,,6.21,30.059055,,,,,,,,,,,SCT,4400,,,,,,,VFR,,,,,,,,,,,,METAR,26.0
EGGD 271350Z 24012KT 210V270 9999 FEW035 18/09 Q1022,EGGD,2015-05-27T13:50:00Z,51.37,-2.72,18.0,9.0,240,12,,6.21,30.177166,,,,,,,,,,,FEW,3500,,,,,,,VFR,,,,,,,,,,,,METAR,189.0
EGTE 271350Z 19011KT 160V220 9999 FEW028 17/12 Q1022,EGTE,2015-05-27T13:50:00Z,50.72,-3.42,17.0,12.0,190,11,,6.21,30.177166,,,,,,,,,,,FEW,2800,,,,,,,VFR,,,,,,,,,,,,METAR,30.0
EGJJ 271350Z 25006KT 210V290 9999 FEW014 17/11 Q1024 NOSIG,EGJJ,2015-05-27T13:50:00Z,49.22,-2.2,17.0,11.0,250,6,,6.21,30.236221,,,,,,TRUE,,,,,FEW,1400,,,,,,,VFR,,,,,,,,,,,,METAR,84.0
EGJB 271350Z 24009KT 210V270 9999 FEW024 17/12 Q1024,EGJB,2015-05-27T13:50:00Z,49.42,-2.6,17.0,12.0,240,9,,6.21,30.236221,,,,,,,,,,,FEW,2400,,,,,,,VFR,,,,,,,,,,,,METAR,102.0
EGHQ 271350Z 25018KT 9999 FEW030 14/10 Q1024,EGHQ,2015-05-27T13:50:00Z,50.43,-5.0,14.0,10.0,250,18,,6.21,30.236221,,,,,,,,,,,FEW,3000,,,,,,,VFR,,,,,,,,,,,,METAR,119.0
EGSH 271350Z 22008KT 180V270 9999 SCT042 17/06 Q1020 NOSIG,EGSH,2015-05-27T13:50:00Z,52.68,1.28,17.0,6.0,220,8,,6.21,30.11811,,,,,,TRUE,,,,,SCT,4200,,,,,,,VFR,,,,,,,,,,,,METAR,36.0
EGPD 271350Z 22011KT 9999 SCT033 12/05 Q1013 BECMG RA,EGPD,2015-05-27T13:50:00Z,57.2,-2.22,12.0,5.0,220,11,,6.21,29.911417,,,,,,,,,,,SCT,3300,,,,,,,VFR,,,,,,,,,,,,METAR,65.0
EGNX 271350Z 22011KT 9999 FEW042 16/07 Q1019,EGNX,2015-05-27T13:50:00Z,52.82,-1.32,16.0,7.0,220,11,,6.21,30.088583,,,,,,,,,,,FEW,4200,,,,,,,VFR,,,,,,,,,,,,METAR,94.0
EGNM 271350Z 23009KT 200V290 9999 SCT029 13/05 Q1018,EGNM,2015-05-27T13:50:00Z,53.87,-1.63,13.0,5.0,230,9,,6.21,30.059055,,,,,,,,,,,SCT,2900,,,,,,,VFR,,,,,,,,,,,,METAR,208.0
EGLC 271350Z 24009KT 190V270 CAVOK 20/05 Q1021,EGLC,2015-05-27T13:50:00Z,51.5,0.05,20.0,5.0,240,9,,6.21,30.147638,,,,,,,,,,,CAVOK,,,,,,,,VFR,,,,,,,,,,,,METAR,5.0
EGGW 271350Z 22010KT 190V250 9999 FEW041 18/08 Q1021,EGGW,2015-05-27T13:50:00Z,51.87,-0.37,18.0,8.0,220,10,,6.21,30.147638,,,,,,,,,,,FEW,4100,,,,,,,VFR,,,,,,,,,,,,METAR,160.0
EGFF 271350Z 28013KT 9999 FEW028 17/10 Q1022,EGFF,2015-05-27T13:50:00Z,51.38,-3.35,17.0,10.0,280,13,,6.21,30.177166,,,,,,,,,,,FEW,2800,,,,,,,VFR,,,,,,,,,,,,METAR,67.0
EGAC 271350Z 20010KT 9999 -RA FEW012 SCT018 BKN032 10/06 Q1015,EGAC,2015-05-27T13:50:00Z,54.62,-5.87,10.0,6.0,200,10,,6.21,29.970472,,,,,,,,,,-RA,FEW,1200,SCT,1800,BKN,3200,,,VFR,,,,,,,,,,,,METAR,5.0
EGAA 271350Z 23010KT 9999 -RA SCT011 SCT016 BKN021 09/08 Q1015,EGAA,2015-05-27T13:50:00Z,54.63,-6.22,9.0,8.0,230,10,,6.21,29.970472,,,,,,,,,,-RA,SCT,1100,SCT,1600,BKN,2100,,,MVFR,,,,,,,,,,,,METAR,81.0
EGSC 271350Z 22009KT 130V270 9999 FEW040 17/07 Q1021,EGSC,2015-05-27T13:50:00Z,52.2,0.17,17.0,7.0,220,9,,6.21,30.147638,,,,,,,,,,,FEW,4000,,,,,,,VFR,,,,,,,,,,,,METAR,15.0
EGCN 271350Z 22012KT 9999 BKN039 17/07 Q1019,EGCN,2015-05-27T13:50:00Z,53.48,-1.0,17.0,7.0,220,12,,6.21,30.088583,,,,,,,,,,,BKN,3900,,,,,,,VFR,,,,,,,,,,,,METAR,17.0
EGBJ 271350Z 24012KT 9999 FEW035 18/07 Q1021,EGBJ,2015-05-27T13:50:00Z,51.9,-2.17,18.0,7.0,240,12,,6.21,30.147638,,,,,,,,,,,FEW,3500,,,,,,,VFR,,,,,,,,,,,,METAR,29.0
EGBE 271350Z 24014KT 9999 FEW040 17/08 Q1020,EGBE,2015-05-27T13:50:00Z,52.37,-1.47,17.0,8.0,240,14,,6.21,30.11811,,,,,,,,,,,FEW,4000,,,,,,,VFR,,,,,,,,,,,,METAR,82.0
BGKK 271350Z 22006KT 170V250 9999 FEW064 SCT086 03/M01 Q1015,BGKK,2015-05-27T13:50:00Z,65.57,-37.13,3.0,-1.0,220,6,,6.21,29.970472,,,,,,,,,,,FEW,6400,SCT,8600,,,,,VFR,,,,,,,,,,,,METAR,34.0
BGJN 271350Z 04009KT 9999 FEW200 04/M09 Q1009,BGJN,2015-05-27T13:50:00Z,69.25,-51.07,4.0,-9.0,40,9,,6.21,29.793306,,,,,,,,,,,FEW,20000,,,,,,,VFR,,,,,,,,,,,,METAR,25.0
BGGH 271350Z 20020KT 0700 SN VV004 M01/M01 Q1008,BGGH,2015-05-27T13:50:00Z,64.2,-51.68,-1.0,-1.0,200,20,,0.43,29.763779,,,,,,,,,,SN,OVX,0,,,,,,,LIFR,,,,,,,,,,,400,METAR,70.0
BGBW 271350Z 24005KT 220V290 9999 FEW020 SCT058 BKN070 05/00 Q1017,BGBW,2015-05-27T13:50:00Z,61.17,-45.42,5.0,0.0,240,5,,6.21,30.029528,,,,,,,,,,,FEW,2000,SCT,5800,BKN,7000,,,VFR,,,,,,,,,,,,METAR,26.0
BGSF 271350Z VRB05KT 9999 FEW050 BKN180 09/M06 Q1007,BGSF,2015-05-27T13:50:00Z,67.0,-50.72,9.0,-6.0,0,5,,6.21,29.734253,,,,,,,,,,,FEW,5000,BKN,18000,,,,,VFR,,,,,,,,,,,,METAR,53.0
EKRN 271350Z AUTO 27017KT 9999NDV NCD 13/07 Q1016,EKRN,2015-05-27T13:50:00Z,55.07,14.75,13.0,7.0,270,17,,,30.0,,,TRUE,,,,,,,,,,,,,,,,,,,,,,,,,,,,METAR,16.0
EKEB 271350Z AUTO 29011KT 260V320 9999NDV FEW028/// SCT075/// 13/05 Q1019,EKEB,2015-05-27T13:50:00Z,55.52,8.55,13.0,5.0,290,11,,,30.088583,,,TRUE,,,,,,,,,,,,,,,,,,,,,,,,,,,,METAR,29.0
EKAH 271350Z AUTO 29016KT 9999NDV FEW057/// 14/03 Q1017,EKAH,2015-05-27T13:50:00Z,56.28,10.62,14.0,3.0,290,16,,,30.029528,,,TRUE,,,,,,,,,,,,,,,,,,,,,,,,,,,,METAR,25.0
EKRK 271350Z AUTO 30015KT 9999NDV FEW033/// BKN050/// 13/05 Q1017,EKRK,2015-05-27T13:50:00Z,55.57,12.12,13.0,5.0,300,15,,,30.029528,,,TRUE,,,,,,,,,,,,,,,,,,,,,,,,,,,,METAR,44.0
EKYT 271350Z 28016KT 9999 FEW028 14/05 Q1016,EKYT,2015-05-27T13:50:00Z,57.1,9.87,14.0,5.0,280,16,,6.21,30.0,,,,,,,,,,,FEW,2800,,,,,,,VFR,,,,,,,,,,,,METAR,3.0
EKBI 271350Z 29014KT 9999 SCT032TCU SCT042 13/05 Q1019,EKBI,2015-05-27T13:50:00Z,55.72,9.15,13.0,5.0,290,14,,6.21,30.088583,,,,,,,,,,,SCT,3200,SCT,4200,,,,,VFR,,,,,,,,,,,,METAR,66.0
EKCH 271350Z 29014KT 9999 FEW038 BKN056 13/04 Q1016 NOSIG,EKCH,2015-05-27T13:50:00Z,55.62,12.67,13.0,4.0,290,14,,6.21,30.0,,,,,,TRUE,,,,,FEW,3800,BKN,5600,,,,,VFR,,,,,,,,,,,,METAR,5.0
EKOD 271350Z 29014KT 240V320 9999 FEW038 SCT060 14/08 Q1018,EKOD,2015-05-27T13:50:00Z,55.47,10.32,14.0,8.0,290,14,,6.21,30.059055,,,,,,,,,,,FEW,3800,SCT,6000,,,,,VFR,,,,,,,,,,,,METAR,17.0
EKVD 271350Z 29013KT 9999 SCT035 13/05 Q1019,EKVD,2015-05-27T13:50:00Z,55.42,9.32,13.0,5.0,290,13,,6.21,30.088583,,,,,,,,,,,SCT,3500,,,,,,,VFR,,,,,,,,,,,,METAR,45.0
EKSN 271350Z 28014KT 9999 FEW030 13/07 Q1014,EKSN,2015-05-27T13:50:00Z,57.5,10.22,13.0,7.0,280,14,,6.21,29.940945,,,,,,,,,,,FEW,3000,,,,,,,VFR,,,,,,,,,,,,METAR,28.0
EKSB 271350Z 28013KT 250V310 9999 FEW020 SCT040 13/05 Q1019,EKSB,2015-05-27T13:50:00Z,54.97,9.8,13.0,5.0,280,13,,6.21,30.088583,,,,,,,,,,,FEW,2000,SCT,4000,,,,,VFR,,,,,,,,,,,,METAR,23.0
EKVJ 271350Z 30016KT 260V340 9999 BKN025 12/07 Q1020,EKVJ,2015-05-27T13:50:00Z,55.97,8.33,12.0,7.0,300,16,,6.21,30.11811,,,,,,,,,,,BKN,2500,,,,,,,MVFR,,,,,,,,,,,,METAR,5.0
KISM 271350Z 14006KT 10SM SCT027 BKN043 27/21 A3021,KISM,2015-05-27T13:50:00Z,28.28,-81.43,27.0,21.0,140,6,,10.0,30.209646,,,,,,,,,,,SCT,2700,BKN,4300,,,,,VFR,,,,,,,,,,,,METAR,25.0
KFWS 271350Z 14006KT 20SM SKC 22/17 A3008,KFWS,2015-05-27T13:50:00Z,32.57,-97.3,22.0,17.0,140,6,,20.0,30.079725,,,,,,,,,,,SKC,,,,,,,,VFR,,,,,,,,,,,,METAR,208.0
EDDG 271350Z 24008KT 9999 FEW040 SCT050 BKN120 16/04 Q1022 NOSIG,EDDG,2015-05-27T13:50:00Z,52.13,7.7,16.0,4.0,240,8,,6.21,30.177166,,,,,,TRUE,,,,,FEW,4000,SCT,5000,BKN,12000,,,VFR,,,,,,,,,,,,METAR,52.0
EDDE 271350Z 29008KT 9999 SCT040 BKN053 12/04 Q1022 NOSIG,EDDE,2015-05-27T13:50:00Z,50.98,10.97,12.0,4.0,290,8,,6.21,30.177166,,,,,,TRUE,,,,,SCT,4000,BKN,5300,,,,,VFR,,,,,,,,,,,,METAR,323.0
EDDC 271350Z 31008KT 260V340 9999 SCT040 BKN058 11/05 Q1021 NOSIG,EDDC,2015-05-27T13:50:00Z,51.13,13.75,11.0,5.0,310,8,,6.21,30.147638,,,,,,TRUE,,,,,SCT,4000,BKN,5800,,,,,VFR,,,,,,,,,,,,METAR,226.0
EDDB 271350Z 29015KT 9999 SCT027 BKN047 13/03 Q1020 TEMPO 30015G25KT,EDDB,2015-05-27T13:50:00Z,52.38,13.53,13.0,3.0,290,15,,6.21,30.11811,,,,,,,,,,,SCT,2700,BKN,4700,,,,,VFR,,,,,,,,,,,,METAR,48.0
EDDV 271350Z 30009KT 9999 FEW035 BKN060 13/06 Q1022 NOSIG,EDDV,2015-05-27T13:50:00Z,52.47,9.68,13.0,6.0,300,9,,6.21,30.177166,,,,,,TRUE,,,,,FEW,3500,BKN,6000,,,,,VFR,,,,,,,,,,,,METAR,54.0
EDDT 271350Z 30009KT 9999 FEW040 BKN052 13/03 Q1020 NOSIG,EDDT,2015-05-27T13:50:00Z,52.57,13.32,13.0,3.0,300,9,,6.21,30.11811,,,,,,TRUE,,,,,FEW,4000,BKN,5200,,,,,VFR,,,,,,,,,,,,METAR,37.0
EDDS 271350Z 34007KT 290V050 9999 FEW043 SCT055 14/05 Q1023 NOSIG,EDDS,2015-05-27T13:50:00Z,48.67,9.22,14.0,5.0,340,7,,6.21,30.206694,,,,,,TRUE,,,,,FEW,4300,SCT,5500,,,,,VFR,,,,,,,,,,,,METAR,419.0
EDDN 271350Z VRB05KT 9999 FEW045 BKN050 12/01 Q1023 NOSIG,EDDN,2015-05-27T13:50:00Z,49.5,11.08,12.0,1.0,0,5,,6.21,30.206694,,,,,,TRUE,,,,,FEW,4500,BKN,5000,,,,,VFR,,,,,,,,,,,,METAR,312.0
EDDM 271350Z VRB04KT 9999 SCT042 BKN060 13/04 Q1022 NOSIG,EDDM,2015-05-27T13:50:00Z,48.35,11.82,13.0,4.0,0,4,,6.21,30.177166,,,,,,TRUE,,,,,SCT,4200,BKN,6000,,,,,VFR,,,,,,,,,,,,METAR,447.0
EDDL 271350Z 22005KT CAVOK 17/04 Q1022 NOSIG,EDDL,2015-05-27T13:50:00Z,51.3,6.77,17.0,4.0,220,5,,6.21,30.177166,,,,,,TRUE,,,,,CAVOK,,,,,,,,VFR,,,,,,,,,,,,METAR,44.0
EDDK 271350Z VRB03KT CAVOK 16/02 Q1023 NOSIG,EDDK,2015-05-27T13:50:00Z,50.87,7.15,16.0,2.0,0,3,,6.21,30.206694,,,,,,TRUE,,,,,CAVOK,,,,,,,,VFR,,,,,,,,,,,,METAR,99.0
EDDH 271350Z 30012KT 260V330 9999 FEW039 BKN074 15/03 Q1020 TEMPO 31015G25KT,EDDH,2015-05-27T13:50:00Z,53.63,10.0,15.0,3.0,300,12,,6.21,30.11811,,,,,,,,,,,FEW,3900,BKN,7400,,,,,VFR,,,,,,,,,,,,METAR,16.0
EDDF 271350Z 23005KT 180V280 9999 FEW048 BKN054 15/02 Q1023 NOSIG,EDDF,2015-05-27T13:50:00Z,50.05,8.6,15.0,2.0,230,5,,6.21,30.206694,,,,,,TRUE,,,,,FEW,4800,BKN,5400,,,,,VFR,,,,,,,,,,,,METAR,113.0
ESTL 271350Z 31016KT 9999 FEW020 SCT036 BKN045 13/06 Q1015,ESTL,2015-05-27T13:50:00Z,56.07,13.2,13.0,6.0,310,16,,6.21,29.970472,,,,,,,,,,,FEW,2000,SCT,3600,BKN,4500,,,VFR,,,,,,,,,,,,METAR,43.0
ESTA 271350Z 29017KT 9999 SCT030 13/06 Q1015,ESTA,2015-05-27T13:50:00Z,56.28,12.83,13.0,6.0,290,17,,6.21,29.970472,,,,,,,,,,,SCT,3000,,,,,,,VFR,,,,,,,,,,,,METAR,47.0
ESMX 271350Z 22015KT 9999 FEW050 16/04 Q1012,ESMX,2015-05-27T13:50:00Z,56.92,14.72,16.0,4.0,220,15,,6.21,29.88189,,,,,,,,,,,FEW,5000,,,,,,,VFR,,,,,,,,,,,,METAR,186.0
ESMT 271350Z 28018KT 9999 SCT026 BKN087 12/05 Q1015,ESMT,2015-05-27T13:50:00Z,56.67,12.82,12.0,5.0,280,18,,6.21,29.970472,,,,,,,,,,,SCT,2600,BKN,8700,,,,,VFR,,,,,,,,,,,,METAR,30.0
ESMS 271350Z 31016KT 9999 FEW036 13/05 Q1016,ESMS,2015-05-27T13:50:00Z,55.53,13.37,13.0,5.0,310,16,,6.21,30.0,,,,,,,,,,,FEW,3600,,,,,,,VFR,,,,,,,,,,,,METAR,106.0
ESMQ 271350Z 29010KT 260V320 CAVOK 16/03 Q1011,ESMQ,2015-05-27T13:50:00Z,56.68,16.3,16.0,3.0,290,10,,6.21,29.852362,,,,,,,,,,,CAVOK,,,,,,,,VFR,,,,,,,,,,,,METAR,16.0
ESMK 271350Z 28014G25KT 250V320 9999 SCT049 14/04 Q1014,ESMK,2015-05-27T13:50:00Z,55.92,14.07,14.0,4.0,280,14,25,6.21,29.940945,,,,,,,,,,,SCT,4900,,,,,,,VFR,,,,,,,,,,,,METAR,23.0
ESGT 271350Z 27014KT 16/03 Q1011,ESGT,2015-05-27T13:50:00Z,58.32,12.33,16.0,3.0,270,14,,,29.852362,,,,,,,,,,,,,,,,,,,,,,,,,,,,,,,METAR,41.0
ESGP 271350Z 26014KT CAVOK 12/07 Q1013,ESGP,2015-05-27T13:50:00Z,57.77,11.87,12.0,7.0,260,14,,6.21,29.911417,,,,,,,,,,,CAVOK,,,,,,,,VFR,,,,,,,,,,,,METAR,53.0
ESGJ 271350Z 32016KT 9999 BKN054CB BKN081 13/04 Q1011,ESGJ,2015-05-27T13:50:00Z,57.77,14.07,13.0,4.0,320,16,,6.21,29.852362,,,,,,,,,,,BKN,5400,BKN,8100,,,,,VFR,,,,,,,,,,,,METAR,232.0
ESGG 271350Z 25013KT 9999 FEW040 13/03 Q1013,ESGG,2015-05-27T13:50:00Z,57.67,12.3,13.0,3.0,250,13,,6.21,29.911417,,,,,,,,,,,FEW,4000,,,,,,,VFR,,,,,,,,,,,,METAR,169.0
KLBE 271350Z 23011KT 10SM SCT030 BKN040 20/20 A3018,KLBE,2015-05-27T13:50:00Z,40.27,-79.4,20.0,20.0,230,11,,10.0,30.180119,,,,,,,,,,,SCT,3000,BKN,4000,,,,,VFR,,,,,,,,,,,,METAR,361.0
KFIN 271350Z 11008KT 7SM BKN032 28/19 A3022,KFIN,2015-05-27T13:50:00Z,29.47,-81.2,28.0,19.0,110,8,,7.0,30.221457,,,,,,,,,,,BKN,3200,,,,,,,VFR,,,,,,,,,,,,METAR,10.0
EVVA 271350Z AUTO 28007KT CAVOK 14/08 Q1011,EVVA,2015-05-27T13:50:00Z,57.35,21.55,14.0,8.0,280,7,,6.21,29.852362,,,TRUE,,,,,,,,CAVOK,,,,,,,,VFR,,,,,,,,,,,,METAR,6.0
NSTU 271350Z 14009KT 10SM FEW023 SCT100 BKN250 27/24 A2989 RMK SLP124 T02700236,NSTU,2015-05-27T13:50:00Z,-14.33,-170.72,27.0,23.6,140,9,,10.0,29.890747,1012.4,,,,,,,,,,FEW,2300,SCT,10000,BKN,25000,,,VFR,,,,,,,,,,,,METAR,3.0
EKSP 271350Z 28015KT 250V310 9999 SCT034 SCT075 14/05 Q1019,EKSP,2015-05-27T13:50:00Z,55.22,9.27,14.0,5.0,280,15,,6.21,30.088583,,,,,,,,,,,SCT,3400,SCT,7500,,,,,VFR,,,,,,,,,,,,METAR,40.0
EKKA 271350Z AUTO 28015KT 9999NDV FEW030/// SCT035/// BKN047/// 12/06 Q1018 TEMPO 29012G22KT,EKKA,2015-05-27T13:50:00Z,56.3,9.12,12.0,6.0,280,15,,,30.059055,,,TRUE,,,,,,,,,,,,,,,,,,,,,,,,,,,,METAR,52.0
KESN 271350Z 21009KT 10SM BKN014 26/22 A3023,KESN,2015-05-27T13:50:00Z,38.8,-76.07,26.0,22.0,210,9,,10.0,30.230314,,,,,,,,,,,BKN,1400,,,,,,,MVFR,,,,,,,,,,,,METAR,22.0
KDAG 271350Z AUTO 25009KT 10SM CLR 18/02 A2994 RMK AO2 SLP115 T01780022,KDAG,2015-05-27T13:50:00Z,34.85,-116.78,17.8,2.2,250,9,,10.0,29.940945,1011.5,,TRUE,TRUE,,,,,,,CLR,,,,,,,,VFR,,,,,,,,,,,,METAR,587.0
LLSD 271350Z VRB01KT CAVOK 39/08 Q1004,LLSD,2015-05-27T13:50:00Z,32.12,34.78,39.0,8.0,0,1,,6.21,29.64567,,,,,,,,,,,CAVOK,,,,,,,,VFR,,,,,,,,,,,,METAR,14.0
LLIB 271350Z 16008KT 130V200 CAVOK 35/02 Q1008,LLIB,2015-05-27T13:50:00Z,32.98,35.57,35.0,2.0,160,8,,6.21,29.763779,,,,,,,,,,,CAVOK,,,,,,,,VFR,,,,,,,,,,,,METAR,282.0
LLHA 271350Z 20008KT CAVOK 41/06 Q1004,LLHA,2015-05-27T13:50:00Z,32.78,35.02,41.0,6.0,200,8,,6.21,29.64567,,,,,,,,,,,CAVOK,,,,,,,,VFR,,,,,,,,,,,,METAR,8.0
LLET 271350Z 19009KT CAVOK 40/10 Q1007,LLET,2015-05-27T13:50:00Z,29.55,34.95,40.0,10.0,190,9,,6.21,29.734253,,,,,,,,,,,CAVOK,,,,,,,,VFR,,,,,,,,,,,,METAR,13.0
EDSB 271350Z 36004KT 250V050 9999 BKN049 16/02 Q1023,EDSB,2015-05-27T13:50:00Z,48.78,8.08,16.0,2.0,360,4,,6.21,30.206694,,,,,,,,,,,BKN,4900,,,,,,,VFR,,,,,,,,,,,,METAR,124.0
EDOP 271350Z 29010KT 260V320 9999 FEW042 BKN062 13/05 Q1020 RMK ATIS T,EDOP,2015-05-27T13:50:00Z,53.43,11.78,13.0,5.0,290,10,,6.21,30.11811,,,,,,,,,,,FEW,4200,BKN,6200,,,,,VFR,,,,,,,,,,,,METAR,51.0
EDNY 271350Z VRB03KT 9999 FEW046 15/M00 Q1023 RMK ATIS T,EDNY,2015-05-27T13:50:00Z,47.67,9.52,15.0,0.0,0,3,,6.21,30.206694,,,,,,,,,,,FEW,4600,,,,,,,VFR,,,,,,,,,,,,METAR,424.0
EDMO 271350Z 27009KT 9999 SCT036 BKN070 12/04 Q1022,EDMO,2015-05-27T13:50:00Z,48.07,11.27,12.0,4.0,270,9,,6.21,30.177166,,,,,,,,,,,SCT,3600,BKN,7000,,,,,VFR,,,,,,,,,,,,METAR,600.0
EDMA 271350Z 32007KT 290V360 9999 FEW040 BKN065 14/03 Q1023 RMK ATIS ALF,EDMA,2015-05-27T13:50:00Z,48.42,10.92,14.0,3.0,320,7,,6.21,30.206694,,,,,,,,,,,FEW,4000,BKN,6500,,,,,VFR,,,,,,,,,,,,METAR,463.0
EDLP 271350Z 26005KT 170V330 CAVOK 14/M00 Q1022 RMK ATIS IND,EDLP,2015-05-27T13:50:00Z,51.62,8.62,14.0,0.0,260,5,,6.21,30.177166,,,,,,,,,,,CAVOK,,,,,,,,VFR,,,,,,,,,,,,METAR,213.0
EDLN 271350Z 25005KT 180V340 CAVOK 18/05 Q1022 RMK ATIS Q,EDLN,2015-05-27T13:50:00Z,51.23,6.5,18.0,5.0,250,5,,6.21,30.177166,,,,,,,,,,,CAVOK,,,,,,,,VFR,,,,,,,,,,,,METAR,38.0
EDHI 271350Z 31012KT 9999 FEW043 BKN077 15/05 Q1020,EDHI,2015-05-27T13:50:00Z,53.53,9.83,15.0,5.0,310,12,,6.21,30.11811,,,,,,,,,,,FEW,4300,BKN,7700,,,,,VFR,,,,,,,,,,,,METAR,13.0
EDFH 271350Z VRB05KT 9999 SCT040 12/02 Q1023,EDFH,2015-05-27T13:50:00Z,49.95,7.27,12.0,2.0,0,5,,6.21,30.206694,,,,,,,,,,,SCT,4000,,,,,,,VFR,,,,,,,,,,,,METAR,498.0
EDAH 271350Z 29007KT 250V330 9999 BKN037 13/04 Q1018,EDAH,2015-05-27T13:50:00Z,53.87,14.15,13.0,4.0,290,7,,6.21,30.059055,,,,,,,,,,,BKN,3700,,,,,,,VFR,,,,,,,,,,,,METAR,28.0
EYVI 271350Z 35015KT 7000 -SHRA SCT009CB OVC033 09/08 Q1008 NOSIG,EYVI,2015-05-27T13:50:00Z,54.63,25.28,9.0,8.0,350,15,,4.35,29.763779,,,,,,TRUE,,,,-SHRA,SCT,900,OVC,3300,,,,,MVFR,,,,,,,,,,,,METAR,197.0
EYSA 271350Z 32013KT 9999 SCT045 BKN120 16/05 Q1010,EYSA,2015-05-27T13:50:00Z,55.9,23.4,16.0,5.0,320,13,,6.21,29.822834,,,,,,,,,,,SCT,4500,BKN,12000,,,,,VFR,,,,,,,,,,,,METAR,135.0
LLBG 271350Z 21006KT 190V250 CAVOK 43/08 Q1004 NOSIG,LLBG,2015-05-27T13:50:00Z,32.0,34.88,43.0,8.0,210,6,,6.21,29.64567,,,,,,TRUE,,,,,CAVOK,,,,,,,,VFR,,,,,,,,,,,,METAR,49.0
LSZA 271350Z 02012KT CAVOK 23/00 Q1014 NOSIG,LSZA,2015-05-27T13:50:00Z,46.0,8.92,23.0,0.0,20,12,,6.21,29.940945,,,,,,TRUE,,,,,CAVOK,,,,,,,,VFR,,,,,,,,,,,,METAR,276.0
LSZB 271350Z VRB04KT 9999 FEW050 17/04 Q1022 NOSIG,LSZB,2015-05-27T13:50:00Z,46.92,7.5,17.0,4.0,0,4,,6.21,30.177166,,,,,,TRUE,,,,,FEW,5000,,,,,,,VFR,,,,,,,,,,,,METAR,505.0
LSGG 271350Z 05016KT 9999 FEW045 18/02 Q1021 NOSIG,LSGG,2015-05-27T13:50:00Z,46.25,6.12,18.0,2.0,50,16,,6.21,30.147638,,,,,,TRUE,,,,,FEW,4500,,,,,,,VFR,,,,,,,,,,,,METAR,416.0
LSZH 271350Z VRB03KT 9999 SCT055 15/03 Q1023 NOSIG,LSZH,2015-05-27T13:50:00Z,47.48,8.53,15.0,3.0,0,3,,6.21,30.206694,,,,,,TRUE,,,,,SCT,5500,,,,,,,VFR,,,,,,,,,,,,METAR,432.0
EDXW 271350Z 27011KT 240V300 9999 FEW020 SCT082 12/07 Q1020 RMK ATIS ECH,EDXW,2015-05-27T13:50:00Z,54.92,8.33,12.0,7.0,270,11,,6.21,30.11811,,,,,,,,,,,FEW,2000,SCT,8200,,,,,VFR,,,,,,,,,,,,METAR,20.0
EDVK 271350Z 31008KT 9999 FEW041 BKN061 13/04 Q1022 RMK ATIS U,EDVK,2015-05-27T13:50:00Z,51.38,9.37,13.0,4.0,310,8,,6.21,30.177166,,,,,,,,,,,FEW,4100,BKN,6100,,,,,VFR,,,,,,,,,,,,METAR,285.0
KTZR 271350Z 22013KT 10SM BKN020 22/18 A3013,KTZR,2015-05-27T13:50:00Z,39.9,-83.13,22.0,18.0,220,13,,10.0,30.129921,,,,,,,,,,,BKN,2000,,,,,,,MVFR,,,,,,,,,,,,METAR,276.0
KHOB 271350Z COR 12009KT 3SM BR BKN007 OVC013 19/19 A3012,KHOB,2015-05-27T13:50:00Z,32.67,-103.22,19.0,19.0,120,9,,3.0,30.121063,,TRUE,,,,,,,,BR,BKN,700,OVC,1300,,,,,IFR,,,,,,,,,,,,SPECI,1115.0
ETNG 271350Z 23007KT CAVOK 18/04 Q1023 NOSIG,ETNG,2015-05-27T13:50:00Z,50.97,6.03,18.0,4.0,230,7,,6.21,30.206694,,,,,,TRUE,,,,,CAVOK,,,,,,,,VFR,,,,,,,,,,,,METAR,98.0
EYPA 271350Z 30007KT 240V340 9999 BKN008 12/09 Q1013,EYPA,2015-05-27T13:50:00Z,55.97,21.08,12.0,9.0,300,7,,6.21,29.911417,,,,,,,,,,,BKN,800,,,,,,,IFR,,,,,,,,,,,,METAR,10.0
VGEG 271350Z 24007KT 6000 FEW100 31/27 Q1004 NOSIG,VGEG,2015-05-27T13:50:00Z,22.27,91.82,31.0,27.0,240,7,,3.73,29.64567,,,,,,TRUE,,,,,FEW,10000,,,,,,,MVFR,,,,,,,,,,,,METAR,6.0
EYKA 271350Z VRB03KT 9999 FEW040 OVC100 14/06 Q1009,EYKA,2015-05-27T13:50:00Z,54.97,24.08,14.0,6.0,0,3,,6.21,29.793306,,,,,,,,,,,FEW,4000,OVC,10000,,,,,VFR,,,,,,,,,,,,METAR,77.0
MMPA 271350Z 00000KT 4SM SCT010 SCT090 BKN280 28/25 A2999 RMK 8/138 HZY,MMPA,2015-05-27T13:50:00Z,20.5,-97.47,28.0,25.0,0,0,,4.0,29.991142,,,,,,,,,,,SCT,1000,SCT,9000,BKN,28000,,,MVFR,,,,,,,,,,,,METAR,142.0
KOMN 271350Z 11008KT 10SM SCT030 27/19 A3021,KOMN,2015-05-27T13:50:00Z,29.3,-81.12,27.0,19.0,110,8,,10.0,30.209646,,,,,,,,,,,SCT,3000,,,,,,,VFR,,,,,,,,,,,,METAR,9.0
KLAL 271350Z 13008KT 10SM BKN027 27/20 A3020,KLAL,2015-05-27T13:50:00Z,27.97,-82.02,27.0,20.0,130,8,,10.0,30.200787,,,,,,,,,,,BKN,2700,,,,,,,MVFR,,,,,,,,,,,,METAR,43.0
FDSK 271350Z 17011KT 9999 30/07 Q1017,FDSK,2015-05-27T13:50:00Z,-26.35,31.72,30.0,7.0,170,11,,6.21,30.029528,,,,,,,,,,,,,,,,,,,,,,,,,,,,,,,METAR,324.0
EETN 271350Z 31010KT CAVOK 14/05 Q1009 NOSIG,EETN,2015-05-27T13:50:00Z,59.4,24.82,14.0,5.0,310,10,,6.21,29.793306,,,,,,TRUE,,,,,CAVOK,,,,,,,,VFR,,,,,,,,,,,,METAR,40.0
EVRA 271350Z 36012KT CAVOK 13/06 Q1010 NOSIG,EVRA,2015-05-27T13:50:00Z,56.92,23.97,13.0,6.0,360,12,,6.21,29.822834,,,,,,TRUE,,,,,CAVOK,,,,,,,,VFR,,,,,,,,,,,,METAR,10.0
TJIG 271350Z 07004KT 10SM SCT040 28/22 A3002 RMK RWY09 IN USE ATIS D,TJIG,2015-05-27T13:50:00Z,18.45,-66.1,28.0,22.0,70,4,,10.0,30.02067,,,,,,,,,,,SCT,4000,,,,,,,VFR,,,,,,,,,,,,SPECI,3.0
KCWF 271350Z 35014G20KT 6SM -TSRABR BKN080 OVC100 19/18 A3017 RMK OCNL LTGCG ALQDS,KCWF,2015-05-27T13:50:00Z,30.22,-93.15,19.0,18.0,350,14,20,6.0,30.171259,,,,,,,,,,-TSRA BR,BKN,8000,OVC,10000,,,,,VFR,,,,,,,,,,,,SPECI,4.0
VECC 271350Z 17009KT 3200 HZ FEW020 32/26 Q1003 NOSIG,VECC,2015-05-27T13:50:00Z,22.65,88.43,32.0,26.0,170,9,,1.99,29.616142,,,,,,TRUE,,,,HZ,FEW,2000,,,,,,,IFR,,,,,,,,,,,,METAR,6.0
KNQA 271350Z 22005KT 10SM SCT048 BKN150 BKN250 26/21 A3014,KNQA,2015-05-27T13:50:00Z,35.35,-89.87,26.0,21.0,220,5,,10.0,30.138779,,,,,,,,,,,SCT,4800,BKN,15000,BKN,25000,,,VFR,,,,,,,,,,,,METAR,86.0
KGTR 271350Z 15007KT 2SM BR OVC004 22/21 A3016,KGTR,2015-05-27T13:50:00Z,33.45,-88.57,22.0,21.0,150,7,,2.0,30.159449,,,,,,,,,,BR,OVC,400,,,,,,,LIFR,,,,,,,,,,,,METAR,80.0
MSSS 271350Z 36002KT CAVOK 25/21 Q1016 A3002,MSSS,2015-05-27T13:50:00Z,13.7,-89.12,25.0,21.0,360,2,,6.21,30.0,,,,,,,,,,,CAVOK,,,,,,,,VFR,,,,,,,,,,,,METAR,616.0
MSLP 271350Z 01005KT CAVOK 28/23 Q1013 A2991,MSLP,2015-05-27T13:50:00Z,13.43,-89.05,28.0,23.0,10,5,,6.21,29.911417,,,,,,,,,,,CAVOK,,,,,,,,VFR,,,,,,,,,,,,METAR,25.0
KVQQ 271350Z VRB05KT 10SM BKN030 27/19 A3023,KVQQ,2015-05-27T13:50:00Z,30.22,-81.88,27.0,19.0,0,5,,10.0,30.230314,,,,,,,,,,,BKN,3000,,,,,,,MVFR,,,,,,,,,,,,METAR,25.0
TJBQ 271350Z 05011KT 10SM FEW033 28/20 A3002 RMK RWY08 ATIS G,TJBQ,2015-05-27T13:50:00Z,18.5,-67.13,28.0,20.0,50,11,,10.0,30.02067,,,,,,,,,,,FEW,3300,,,,,,,VFR,,,,,,,,,,,,METAR,72.0
OAKB 271350Z 05003KT 9999 SCT090 BKN180 25/M07 Q1015 NOSIG RMK BLU BLU,OAKB,2015-05-27T13:50:00Z,34.55,69.22,25.0,-7.0,50,3,,6.21,29.970472,,,,,,TRUE,,,,,SCT,9000,BKN,18000,,,,,VFR,,,,,,,,,,,,SPECI,1791.0
LGKO 271350Z 30010KT 9999 FEW018 24/14 Q1005,LGKO,2015-05-27T13:50:00Z,36.8,27.08,24.0,14.0,300,10,,6.21,29.675198,,,,,,,,,,,FEW,1800,,,,,,,VFR,,,,,,,,,,,,METAR,125.0
EGEC 271350Z 23008KT 210V270 8000 RA FEW030 BKN042 08/06 Q1014,EGEC,2015-05-27T13:50:00Z,55.43,-5.68,8.0,6.0,230,8,,4.97,29.940945,,,,,,,,,,RA,FEW,3000,BKN,4200,,,,,MVFR,,,,,,,,,,,,METAR,13.0
EGYP 271350Z 34017KT 9999 SCT004 SCT015 OVC090 07/05 Q1010 YLO2 TEMPO FEW004 BKN012 GRN,EGYP,2015-05-27T13:50:00Z,-51.82,-58.45,7.0,5.0,340,17,,6.21,29.822834,,,,,,,,,,,SCT,400,SCT,1500,OVC,9000,,,VFR,,,,,,,,,,,,METAR,74.0
KBAK 271350Z 20008KT 10SM SCT017 22/17 A3011,KBAK,2015-05-27T13:50:00Z,39.27,-85.9,22.0,17.0,200,8,,10.0,30.109253,,,,,,,,,,,SCT,1700,,,,,,,VFR,,,,,,,,,,,,METAR,200.0
EDJA 271350Z 28008KT 9999 BKN060 13/03 Q1022,EDJA,2015-05-27T13:50:00Z,47.98,10.23,13.0,3.0,280,8,,6.21,30.177166,,,,,,,,,,,BKN,6000,,,,,,,VFR,,,,,,,,,,,,METAR,633.0
EDHK 271350Z 28014KT 9999 SCT041 BKN071 13/04 Q1020,EDHK,2015-05-27T13:50:00Z,54.38,10.15,13.0,4.0,280,14,,6.21,30.11811,,,,,,,,,,,SCT,4100,BKN,7100,,,,,VFR,,,,,,,,,,,,METAR,31.0
EDLW 271350Z 25006KT CAVOK 15/03 Q1022 RMK ATIS V,EDLW,2015-05-27T13:50:00Z,51.52,7.62,15.0,3.0,250,6,,6.21,30.177166,,,,,,,,,,,CAVOK,,,,,,,,VFR,,,,,,,,,,,,METAR,127.0
LCRA 271350Z 09008KT CAVOK 26/13 Q1006 NOSIG,LCRA,2015-05-27T13:50:00Z,34.57,32.97,26.0,13.0,90,8,,6.21,29.704725,,,,,,TRUE,,,,,CAVOK,,,,,,,,VFR,,,,,,,,,,,,METAR,23.0
LGAD 271350Z 21006KT 9999 FEW020 23/10 Q1007,LGAD,2015-05-27T13:50:00Z,37.92,21.27,23.0,10.0,210,6,,6.21,29.734253,,,,,,,,,,,FEW,2000,,,,,,,VFR,,,,,,,,,,,,METAR,12.0
EGUW 271350Z 23011KT 9999 FEW032 SCT250 17/07 Q1020 BLU NOSIG,EGUW,2015-05-27T13:50:00Z,52.12,0.97,17.0,7.0,230,11,,6.21,30.11811,,,,,,TRUE,,,,,FEW,3200,SCT,25000,,,,,VFR,,,,,,,,,,,,METAR,87.0
EGYM 271350Z 24011KT 9999 FEW038 BKN150 17/08 Q1020 BLU NOSIG,EGYM,2015-05-27T13:50:00Z,52.63,0.57,17.0,8.0,240,11,,6.21,30.11811,,,,,,TRUE,,,,,FEW,3800,BKN,15000,,,,,VFR,,,,,,,,,,,,METAR,23.0
EGYD 271350Z 23011KT 9999 FEW039 BKN150 OVC170 16/06 Q1019 BLU NOSIG,EGYD,2015-05-27T13:50:00Z,53.03,-0.5,16.0,6.0,230,11,,6.21,30.088583,,,,,,TRUE,,,,,FEW,3900,BKN,15000,OVC,17000,,,VFR,,,,,,,,,,,,METAR,67.0
EGXW 271350Z 23011KT 9999 FEW040 OVC150 16/05 Q1019 BLU NOSIG,EGXW,2015-05-27T13:50:00Z,53.18,-0.52,16.0,5.0,230,11,,6.21,30.088583,,,,,,TRUE,,,,,FEW,4000,OVC,15000,,,,,VFR,,,,,,,,,,,,METAR,70.0
EGXV 271350Z AUTO 24009KT 9999 SCT034/// 14/07 Q1018,EGXV,2015-05-27T13:50:00Z,53.87,-0.45,14.0,7.0,240,9,,6.21,30.059055,,,TRUE,,,,,,,,,,,,,,,,,,,,,,,,,,,,METAR,6.0
EGXU 271350Z 24009KT 9999 SCT032 OVC110 15/06 Q1018 BLU NOSIG,EGXU,2015-05-27T13:50:00Z,54.05,-1.25,15.0,6.0,240,9,,6.21,30.059055,,,,,,TRUE,,,,,SCT,3200,OVC,11000,,,,,VFR,,,,,,,,,,,,METAR,16.0
EGXT 271350Z 22011KT 9999 FEW040 BKN150 17/08 Q1019 BLU,EGXT,2015-05-27T13:50:00Z,52.62,-0.47,17.0,8.0,220,11,,6.21,30.088583,,,,,,,,,,,FEW,4000,BKN,15000,,,,,VFR,,,,,,,,,,,,METAR,84.0
EGXP 271350Z 22010KT 9999 SCT030 BKN080 15/06 Q1019 BLU,EGXP,2015-05-27T13:50:00Z,53.3,-0.55,15.0,6.0,220,10,,6.21,30.088583,,,,,,,,,,,SCT,3000,BKN,8000,,,,,VFR,,,,,,,,,,,,METAR,61.0
EGXD 271350Z 25012KT 9999 SCT038 OVC100 14/05 Q1018 BLU NOSIG,EGXD,2015-05-27T13:50:00Z,54.13,-1.42,14.0,5.0,250,12,,6.21,30.059055,,,,,,TRUE,,,,,SCT,3800,OVC,10000,,,,,VFR,,,,,,,,,,,,METAR,35.0
EGXC 271350Z 22008KT 9999 FEW038 BKN150 16/07 Q1019 BLU NOSIG,EGXC,2015-05-27T13:50:00Z,53.1,-0.17,16.0,7.0,220,8,,6.21,30.088583,,,,,,TRUE,,,,,FEW,3800,BKN,15000,,,,,VFR,,,,,,,,,,,,METAR,7.0
EGWU 271350Z 25009KT 9999 FEW048 SCT170 BKN250 19/08 Q1021 BLU NOSIG,EGWU,2015-05-27T13:50:00Z,51.55,-0.42,19.0,8.0,250,9,,6.21,30.147638,,,,,,TRUE,,,,,FEW,4800,SCT,17000,BKN,25000,,,VFR,,,,,,,,,,,,METAR,40.0
EGVP 271350Z 21012KT 9999 FEW038 BKN220 18/08 Q1022 BLU NOSIG,EGVP,2015-05-27T13:50:00Z,51.13,-1.57,18.0,8.0,210,12,,6.21,30.177166,,,,,,TRUE,,,,,FEW,3800,BKN,22000,,,,,VFR,,,,,,,,,,,,METAR,91.0
EGVO 271350Z 22011KT 9999 FEW044 SCT160 19/08 Q1021 BLU NOSIG,EGVO,2015-05-27T13:50:00Z,51.23,-0.95,19.0,8.0,220,11,,6.21,30.147638,,,,,,TRUE,,,,,FEW,4400,SCT,16000,,,,,VFR,,,,,,,,,,,,METAR,123.0
EGVN 271350Z 25007KT 9999 FEW040 SCT150 BKN180 18/07 Q1021 BLU NOSIG,EGVN,2015-05-27T13:50:00Z,51.77,-1.58,18.0,7.0,250,7,,6.21,30.147638,,,,,,TRUE,,,,,FEW,4000,SCT,15000,BKN,18000,,,VFR,,,,,,,,,,,,METAR,88.0
EGUB 271350Z 22011KT 9999 FEW040 BKN140 18/08 Q1021 BLU NOSIG,EGUB,2015-05-27T13:50:00Z,51.62,-1.07,18.0,8.0,220,11,,6.21,30.147638,,,,,,TRUE,,,,,FEW,4000,BKN,14000,,,,,VFR,,,,,,,,,,,,METAR,63.0
EGQS 271350Z 22012KT 9999 FEW040 OVC100 12/03 Q1011 BLU TEMPO -RA SCT022 WHT,EGQS,2015-05-27T13:50:00Z,57.72,-3.32,12.0,3.0,220,12,,6.21,29.852362,,,,,,,,,,,FEW,4000,OVC,10000,,,,,VFR,,,,,,,,,,,,METAR,13.0
EGQM 271350Z AUTO 20011KT 9999 BKN048/// 12/06 Q1016 RERA,EGQM,2015-05-27T13:50:00Z,55.42,-1.6,12.0,6.0,200,11,,6.21,30.0,,,TRUE,,,,,,,,,,,,,,,,,,,,,,,,,,,,METAR,23.0
EGQL 271350Z 24011KT 9999 SCT031 BKN036 BKN050 11/06 Q1014 BLU,EGQL,2015-05-27T13:50:00Z,56.38,-2.87,11.0,6.0,240,11,,6.21,29.940945,,,,,,,,,,,SCT,3100,BKN,3600,BKN,5000,,,VFR,,,,,,,,,,,,METAR,12.0
EGQK 271350Z 22011KT 9999 FEW022 BKN055 12/04 Q1011 BLU,EGQK,2015-05-27T13:50:00Z,57.65,-3.57,12.0,4.0,220,11,,6.21,29.852362,,,,,,,,,,,FEW,2200,BKN,5500,,,,,VFR,,,,,,,,,,,,METAR,7.0
EGOW 271350Z 23007KT 9999 FEW030 BKN050 13/07 Q1018 BLU,EGOW,2015-05-27T13:50:00Z,53.58,-3.05,13.0,7.0,230,7,,6.21,30.059055,,,,,,,,,,,FEW,3000,BKN,5000,,,,,VFR,,,,,,,,,,,,METAR,12.0
EGOV 271350Z 19025KT 6000 RA FEW006 OVC060 11/11 Q1018 WHT TEMPO 8000 -RA BLU,EGOV,2015-05-27T13:50:00Z,53.25,-4.53,11.0,11.0,190,25,,3.73,30.059055,,,,,,,,,,RA,FEW,600,OVC,6000,,,,,MVFR,,,,,,,,,,,,METAR,11.0
EGOS 271350Z 22014KT 9999 FEW035 SCT045 OVC120 17/08 Q1018 BLU NOSIG,EGOS,2015-05-27T13:50:00Z,52.8,-2.67,17.0,8.0,220,14,,6.21,30.059055,,,,,,TRUE,,,,,FEW,3500,SCT,4500,OVC,12000,,,VFR,,,,,,,,,,,,METAR,76.0
EGOP 271350Z 21018KT 9999 BKN007 SCT100 14/11 Q1022 GRN,EGOP,2015-05-27T13:50:00Z,51.72,-4.32,14.0,11.0,210,18,,6.21,30.177166,,,,,,,,,,,BKN,700,SCT,10000,,,,,IFR,,,,,,,,,,,,METAR,6.0
EGDX 271350Z 28016KT 9999 FEW020 SCT150 16/08 Q1021 BLU,EGDX,2015-05-27T13:50:00Z,51.4,-3.43,16.0,8.0,280,16,,6.21,30.147638,,,,,,,,,,,FEW,2000,SCT,15000,,,,,VFR,,,,,,,,,,,,METAR,50.0
EGDM 271350Z 20012KT 9999 FEW035 BKN160 17/08 Q1022 BLU NOSIG,EGDM,2015-05-27T13:50:00Z,51.17,-1.75,17.0,8.0,200,12,,6.21,30.177166,,,,,,TRUE,,,,,FEW,3500,BKN,16000,,,,,VFR,,,,,,,,,,,,METAR,124.0
EGYE 271350Z 23012KT 9999 FEW030 BKN150 ///// Q1019 BLU,EGYE,2015-05-27T13:50:00Z,52.97,-0.57,,,230,12,,6.21,30.088583,,,,,,,,,,,FEW,3000,BKN,15000,,,,,VFR,,,,,,,,,,,,METAR,112.0
OAMS 271350Z 07006KT 9999 FEW250 33/M03 Q1008 BLU+ BLU+,OAMS,2015-05-27T13:50:00Z,36.7,67.2,33.0,-3.0,70,6,,6.21,29.763779,,,,,,,,,,,FEW,25000,,,,,,,VFR,,,,,,,,,,,,METAR,378.0
ENFL 271350Z 21011KT 9999 FEW012 SCT020TCU BKN090 11/06 Q1012,ENFL,2015-05-27T13:50:00Z,61.57,5.02,11.0,6.0,210,11,,6.21,29.88189,,,,,,,,,,,FEW,1200,SCT,2000,BKN,9000,,,VFR,,,,,,,,,,,,METAR,9.0
KEKM 271350Z 24010G15KT 10SM SCT100 22/17 A2999 RMK AO2,KEKM,2015-05-27T13:50:00Z,41.72,-86.0,22.0,17.0,240,10,15,10.0,29.991142,,,,TRUE,,,,,,,SCT,10000,,,,,,,VFR,,,,,,,,,,,,METAR,237.0
ENBN 271350Z 28007KT 250V310 9999 FEW025 BKN045 10/04 Q1008,ENBN,2015-05-27T13:50:00Z,65.47,12.22,10.0,4.0,280,7,,6.21,29.763779,,,,,,,,,,,FEW,2500,BKN,4500,,,,,VFR,,,,,,,,,,,,METAR,9.0
PTRO 271350Z 31003KT 14SM SCT016 BNK300 24/24 A2987,PTRO,2015-05-27T13:50:00Z,7.37,134.55,24.0,24.0,310,3,,14.0,29.870079,,,,,,,,,,,SCT,1600,,,,,,,VFR,,,,,,,,,,,,METAR,54.0
KMDS 271350Z AUTO 31010KT 10SM CLR 19/12 A3000 RMK AO2,KMDS,2015-05-27T13:50:00Z,44.02,-97.08,19.0,12.0,310,10,,10.0,30.0,,,TRUE,TRUE,,,,,,,CLR,,,,,,,,VFR,,,,,,,,,,,,METAR,524.0
EEEI 271350Z 29013KT CAVOK 13/06 Q1009 NOSIG,EEEI,2015-05-27T13:50:00Z,59.27,24.2,13.0,6.0,290,13,,6.21,29.793306,,,,,,TRUE,,,,,CAVOK,,,,,,,,VFR,,,,,,,,,,,,METAR,20.0
KSCH 271350Z 00000KT 10SM SCT110 24/18 A3009,KSCH,2015-05-27T13:50:00Z,42.85,-73.92,24.0,18.0,0,0,,10.0,30.088583,,,,,,,,,,,SCT,11000,,,,,,,VFR,,,,,,,,,,,,METAR,115.0
ENDU 271350Z 10010KT 9999 FEW040 SCT060 BKN090 14/03 Q1005 TEMPO 10015G25KT,ENDU,2015-05-27T13:50:00Z,69.03,18.55,14.0,3.0,100,10,,6.21,29.675198,,,,,,,,,,,FEW,4000,SCT,6000,BKN,9000,,,VFR,,1.5,,,,,,,,,,METAR,79.0
KHXD 271350Z 16006KT 10SM SCT025 27/20 A3028,KHXD,2015-05-27T13:50:00Z,32.22,-80.7,27.0,20.0,160,6,,10.0,30.280512,,,,,,,,,,,SCT,2500,,,,,,,VFR,,,,,,,,,,,,METAR,6.0
LTFJ 271350Z 24006KT 220V280 9999 SCT035 BKN100 20/14 Q1005 NOSIG,LTFJ,2015-05-27T13:50:00Z,40.9,29.3,20.0,14.0,240,6,,6.21,29.675198,,,,,,TRUE,,,,,SCT,3500,BKN,10000,,,,,VFR,,,,,,,,,,,,METAR,98.0
LTFE 271350Z VRB02KT 9999 SCT035 BKN100 26/15 Q1004 NOSIG,LTFE,2015-05-27T13:50:00Z,37.25,27.67,26.0,15.0,0,2,,6.21,29.64567,,,,,,TRUE,,,,,SCT,3500,BKN,10000,,,,,VFR,,,,,,,,,,,,METAR,6.0
LTFC 271350Z 16019KT 9999 FEW025CB BKN030 21/11 Q1005,LTFC,2015-05-27T13:50:00Z,37.87,30.38,21.0,11.0,160,19,,6.21,29.675198,,,,,,,,,,,FEW,2500,BKN,3000,,,,,MVFR,,,,,,,,,,,,METAR,864.0
LTCS 271350Z 36005KT 320V040 9999 FEW040 BKN090 27/10 Q1013,LTCS,2015-05-27T13:50:00Z,37.45,38.9,27.0,10.0,360,5,,6.21,29.911417,,,,,,,,,,,FEW,4000,BKN,9000,,,,,VFR,,,,,,,,,,,,METAR,825.0
LTCG 271350Z 09005KT 9999 BKN100 20/18 Q1006 NOSIG,LTCG,2015-05-27T13:50:00Z,41.0,39.8,20.0,18.0,90,5,,6.21,29.704725,,,,,,TRUE,,,,,BKN,10000,,,,,,,VFR,,,,,,,,,,,,METAR,30.0
LTBS 271350Z 36006KT 310V040 9999 SCT030 BKN100 22/17 Q1004 NOSIG,LTBS,2015-05-27T13:50:00Z,36.7,28.77,22.0,17.0,360,6,,6.21,29.64567,,,,,,TRUE,,,,,SCT,3000,BKN,10000,,,,,VFR,,,,,,,,,,,,METAR,2.0
LTBR 271350Z 33006KT 300V360 9999 BKN030 BKN090 20/14 Q1004 TEMPO FM1500 26015G25KT TSRA,LTBR,2015-05-27T13:50:00Z,40.25,29.57,20.0,14.0,330,6,,6.21,29.64567,,,,,,,,,,,BKN,3000,BKN,9000,,,,,MVFR,,,,,,,,,,,,METAR,232.0
LTBJ 271350Z 01010KT 9999 SCT030 BKN100 24/13 Q1004 TEMPO TL1500 -TSRA,LTBJ,2015-05-27T13:50:00Z,38.28,27.15,24.0,13.0,10,10,,6.21,29.64567,,,,,,,,,,,SCT,3000,BKN,10000,,,,,VFR,,,,,,,,,,,,METAR,120.0
LTBA 271350Z 23006KT 210V270 9999 SCT032 BKN090 20/15 Q1006 NOSIG,LTBA,2015-05-27T13:50:00Z,40.97,28.82,20.0,15.0,230,6,,6.21,29.704725,,,,,,TRUE,,,,,SCT,3200,BKN,9000,,,,,VFR,,,,,,,,,,,,METAR,37.0
LTAZ 271350Z 20026G38KT 9999 SCT040 BKN100 29/M01 Q1004,LTAZ,2015-05-27T13:50:00Z,38.77,34.55,29.0,-1.0,200,26,38,6.21,29.64567,,,,,,,,,,,SCT,4000,BKN,10000,,,,,VFR,,,,,,,,,,,,METAR,945.0
LTAJ 271350Z 21004KT 9999 SCT040 BKN100 28/09 Q1011 NOSIG,LTAJ,2015-05-27T13:50:00Z,36.95,37.48,28.0,9.0,210,4,,6.21,29.852362,,,,,,TRUE,,,,,SCT,4000,BKN,10000,,,,,VFR,,,,,,,,,,,,METAR,855.0
LTAI 271350Z 18009KT 150V210 9999 SCT030 BKN100 25/17 Q1005 NOSIG,LTAI,2015-05-27T13:50:00Z,36.9,30.8,25.0,17.0,180,9,,6.21,29.675198,,,,,,TRUE,,,,,SCT,3000,BKN,10000,,,,,VFR,,,,,,,,,,,,METAR,54.0
LTAF 271350Z 03005KT 350V110 9999 SCT035 BKN100 28/15 Q1006 NOSIG,LTAF,2015-05-27T13:50:00Z,36.97,35.28,28.0,15.0,30,5,,6.21,29.704725,,,,,,TRUE,,,,,SCT,3500,BKN,10000,,,,,VFR,,,,,,,,,,,,METAR,20.0
LTAC 271350Z 01005KT 9999 SCT035 BKN090 17/12 Q1006 TEMPO 22015KT,LTAC,2015-05-27T13:50:00Z,40.12,32.97,17.0,12.0,10,5,,6.21,29.704725,,,,,,,,,,,SCT,3500,BKN,9000,,,,,VFR,,,,,,,,,,,,METAR,949.0
LTCJ 271350Z 20004KT 170V240 9999 FEW040 BKN120 30/07 Q1011,LTCJ,2015-05-27T13:50:00Z,37.93,41.12,30.0,7.0,200,4,,6.21,29.852362,,,,,,,,,,,FEW,4000,BKN,12000,,,,,VFR,,,,,,,,,,,,METAR,540.0
LTCE 271350Z 24008KT 180V260 9999 SCT030 BKN080 18/05 Q1017 NOSIG,LTCE,2015-05-27T13:50:00Z,39.95,41.17,18.0,5.0,240,8,,6.21,30.029528,,,,,,TRUE,,,,,SCT,3000,BKN,8000,,,,,VFR,,,,,,,,,,,,METAR,1758.0
LTCC 271350Z VRB01KT 9999 FEW040 BKN100 29/10 Q1011 NOSIG,LTCC,2015-05-27T13:50:00Z,37.87,40.2,29.0,10.0,0,1,,6.21,29.852362,,,,,,TRUE,,,,,FEW,4000,BKN,10000,,,,,VFR,,,,,,,,,,,,METAR,677.0
LTBQ 271350Z 00000KT 8000 -SHRA FEW025CB BKN030 19/16 Q1005 TEMPO 27015KT 5000 -TSRA BR,LTBQ,2015-05-27T13:50:00Z,40.72,30.07,19.0,16.0,0,0,,4.97,29.675198,,,,,,,,,,-SHRA,FEW,2500,BKN,3000,,,,,MVFR,,,,,,,,,,,,METAR,50.0
LTAU 271350Z 14015KT 110V170 9999 SCT040 25/08 Q1007 NOSIG,LTAU,2015-05-27T13:50:00Z,38.77,35.47,25.0,8.0,140,15,,6.21,29.734253,,,,,,TRUE,,,,,SCT,4000,,,,,,,VFR,,,,,,,,,,,,METAR,1054.0
LTAT 271350Z 01006KT 9999 SCT040 BKN100 23/13 Q1012 TEMPO 210125G25KT -TSRA,LTAT,2015-05-27T13:50:00Z,38.42,38.07,23.0,13.0,10,6,,6.21,29.88189,,,,,,,,,,,SCT,4000,BKN,10000,,,,,VFR,,,-1.2,,,,,,,,,METAR,849.0
LTAN 271350Z 23020KT CAVOK 26/01 Q1005 NOSIG,LTAN,2015-05-27T13:50:00Z,37.97,32.53,26.0,1.0,230,20,,6.21,29.675198,,,,,,TRUE,,,,,CAVOK,,,,,,,,VFR,,,,,,,,,,,,METAR,1006.0
LTAG 271350Z 05002KT 9999 SCT030 BKN100 28/16 Q1007 TEMPO 16010KT,LTAG,2015-05-27T13:50:00Z,37.0,35.42,28.0,16.0,50,2,,6.21,29.734253,,,,,,,,,,,SCT,3000,BKN,10000,,,,,VFR,,,,,,,,,,,,METAR,66.0
LTFH 271350Z 09006KT 9999 SCT036 BKN100 21/16 Q1004 RESHRA NOSIG,LTFH,2015-05-27T13:50:00Z,41.27,36.55,21.0,16.0,90,6,,6.21,29.64567,,,,,,TRUE,,,,,SCT,3600,BKN,10000,,,,,VFR,,,,,,,,,,,,METAR,5.0
LTDA 271350Z VRB02KT 9999 TS FEW025CB SCT030 31/10 Q1007,LTDA,2015-05-27T13:50:00Z,36.37,36.28,31.0,10.0,0,2,,6.21,29.734253,,,,,,,,,,TS,FEW,2500,SCT,3000,,,,,VFR,,,,,,,,,,,,METAR,82.0
LTCI 271350Z VRB02KT 9999 SCT035 BKN090 18/09 Q1018 NOSIG,LTCI,2015-05-27T13:50:00Z,38.45,43.32,18.0,9.0,0,2,,6.21,30.059055,,,,,,TRUE,,,,,SCT,3500,BKN,9000,,,,,VFR,,,,,,,,,,,,METAR,1661.0
LTCF 271350Z 21012KT 9999 BKN035 18/06 Q1017,LTCF,2015-05-27T13:50:00Z,40.57,43.12,18.0,6.0,210,12,,6.21,30.029528,,,,,,,,,,,BKN,3500,,,,,,,VFR,,,,,,,,,,,,METAR,1795.0
LTCD 271350Z 12008KT 090V160 9999 SCT040 BKN120 23/10 Q1013 NOSIG,LTCD,2015-05-27T13:50:00Z,39.72,39.5,23.0,10.0,120,8,,6.21,29.911417,,,,,,TRUE,,,,,SCT,4000,BKN,12000,,,,,VFR,,,,,,,,,,,,METAR,1215.0
LTCA 271350Z 07002KT 9999 FEW035 BKN100 24/07 Q1013 NOSIG,LTCA,2015-05-27T13:50:00Z,38.6,39.27,24.0,7.0,70,2,,6.21,29.911417,,,,,,TRUE,,,,,FEW,3500,BKN,10000,,,,,VFR,,,,,,,,,,,,METAR,882.0
LTBZ 271350Z 34003KT 270V010 9999 SCT020 BKN090 12/11 Q1007,LTBZ,2015-05-27T13:50:00Z,38.63,27.35,12.0,11.0,340,3,,6.21,29.734253,,,,,,,,,,,SCT,2000,BKN,9000,,,,,VFR,,,,,,,,,,,,METAR,73.0
LTBY 271350Z 09004KT 9999 BKN030 BKN080 15/13 Q1007 RESHRA,LTBY,2015-05-27T13:50:00Z,39.82,30.52,15.0,13.0,90,4,,6.21,29.734253,,,,,,,,,,,BKN,3000,BKN,8000,,,,,MVFR,,,,,,,,,,,,METAR,789.0
LTAY 271350Z 29013KT 270V330 7000 BKN028 BKN090 13/11 Q1007 RESHRA,LTAY,2015-05-27T13:50:00Z,37.77,29.68,13.0,11.0,290,13,,4.35,29.734253,,,,,,,,,,,BKN,2800,BKN,9000,,,,,MVFR,,,,,,,,,,,,METAR,849.0
LTAR 271350Z 13015KT 9999 SCT035 BKN090 15/11 Q1013,LTAR,2015-05-27T13:50:00Z,39.8,36.9,15.0,11.0,130,15,,6.21,29.911417,,,,,,,,,,,SCT,3500,BKN,9000,,,,,VFR,,,,,,,,,,,,METAR,1271.0
LTFG 271350Z 23008KT 180V260 9999 SCT035 BKN100 30/16 Q1004,LTFG,2015-05-27T13:50:00Z,36.3,32.3,30.0,16.0,230,8,,6.21,29.64567,,,,,,,,,,,SCT,3500,BKN,10000,,,,,VFR,,,,,,,,,,,,METAR,95.0
LTFD 271350Z 30007KT 9999 TS FEW023CB SCT028 BKN100 21/16 Q1005,LTFD,2015-05-27T13:50:00Z,39.55,27.02,21.0,16.0,300,7,,6.21,29.675198,,,,,,,,,,TS,FEW,2300,SCT,2800,BKN,10000,,,VFR,,,,,,,,,,,,METAR,16.0
LTCV 271350Z VRB01KT 5000 DU FEW040 BKN100 30/06 Q1011,LTCV,2015-05-27T13:50:00Z,37.37,42.07,30.0,6.0,0,1,,3.11,29.852362,,,,,,,,,,DU,FEW,4000,BKN,10000,,,,,MVFR,,,,,,,,,,,,METAR,621.0
LTCT 271350Z 11003KT 080V160 9999 SCT036 BKN070 26/06 Q1012,LTCT,2015-05-27T13:50:00Z,39.98,43.87,26.0,6.0,110,3,,6.21,29.88189,,,,,,,,,,,SCT,3600,BKN,7000,,,,,VFR,,,,,,,,,,,,METAR,946.0
LTCR 271350Z 24006KT 200V270 CAVOK 30/10 Q1011,LTCR,2015-05-27T13:50:00Z,37.22,40.63,30.0,10.0,240,6,,6.21,29.852362,,,,,,,,,,,CAVOK,,,,,,,,VFR,,,,,,,,,,,,METAR,527.0
LTCP 271350Z 04004KT 290V070 9999 SCT040 BKN100 26/12 Q1011 RESHRA,LTCP,2015-05-27T13:50:00Z,37.73,38.47,26.0,12.0,40,4,,6.21,29.852362,,,,,,,,,,,SCT,4000,BKN,10000,,,,,VFR,,,,,,,,,,,,METAR,676.0
LTCN 271350Z 23003KT 9999 SCT035 BKN100 27/13 Q1010,LTCN,2015-05-27T13:50:00Z,37.53,36.95,27.0,13.0,230,3,,6.21,29.822834,,,,,,,,,,,SCT,3500,BKN,10000,,,,,VFR,,,,,,,,,,,,METAR,526.0
LTCL 271350Z 30003KT 8000 NSC 30/09 Q1011,LTCL,2015-05-27T13:50:00Z,37.98,41.83,30.0,9.0,300,3,,4.97,29.852362,,,,,,,,,,,,,,,,,,,,,,,,,,,,,,,METAR,610.0
LTCK 271350Z 21006KT 160V280 9000 SCT035 BKN080 23/05 Q1015,LTCK,2015-05-27T13:50:00Z,38.75,41.67,23.0,5.0,210,6,,5.59,29.970472,,,,,,,,,,,SCT,3500,BKN,8000,,,,,VFR,,,,,,,,,,,,METAR,1266.0
LTCB 271350Z 06003KT 8000 SCT035 BKN100 19/17 Q1005,LTCB,2015-05-27T13:50:00Z,39.72,43.03,19.0,17.0,60,3,,4.97,29.675198,,,,,,,,,,,SCT,3500,BKN,10000,,,,,MVFR,,,,,,,,,,,,METAR,1632.0
LTBO 271350Z 28005KT 9999 -SHRA FEW030CB SCT040 BKN090 15/12 Q1007,LTBO,2015-05-27T13:50:00Z,38.67,29.47,15.0,12.0,280,5,,6.21,29.734253,,,,,,,,,,-SHRA,FEW,3000,SCT,4000,BKN,9000,,,VFR,,,,,,,,,,,,METAR,919.0
LTBH 271350Z 10003KT 060V140 9999 SCT035 BKN100 20/18 Q1005 R221///66,LTBH,2015-05-27T13:50:00Z,40.13,26.42,20.0,18.0,100,3,,6.21,29.675198,,,,,,,,,,,SCT,3500,BKN,10000,,,,,VFR,,,,,,,,,,,,METAR,3.0
LTBD 271350Z 08010KT 9999 SCT033 21/16 Q1005,LTBD,2015-05-27T13:50:00Z,37.82,27.88,21.0,16.0,80,10,,6.21,29.675198,,,,,,,,,,,SCT,3300,,,,,,,VFR,,,,,,,,,,,,METAR,57.0
LTAS 271350Z 36004KT 330V030 9999 FEW015 SCT027 BKN090 19/16 Q1005 RESHRA,LTAS,2015-05-27T13:50:00Z,41.52,32.08,19.0,16.0,360,4,,6.21,29.675198,,,,,,,,,,,FEW,1500,SCT,2700,BKN,9000,,,VFR,,,,,,,,,,,,METAR,136.0
LCEN 271350Z 11012KT 9999 TS FEW020CB SCT030 BKN100 27/17 Q1005 NOSIG,LCEN,2015-05-27T13:50:00Z,35.13,33.5,27.0,17.0,110,12,,6.21,29.675198,,,,,,TRUE,,,,TS,FEW,2000,SCT,3000,BKN,10000,,,VFR,,,,,,,,,,,,METAR,91.0
MUCF 271350Z 08023G35KT 9999 FEW020 28/21 Q1018,MUCF,2015-05-27T13:50:00Z,22.13,-80.4,28.0,21.0,80,23,35,6.21,30.059055,,,,,,,,,,,FEW,2000,,,,,,,VFR,,,,,,,,,,,,METAR,39.0
MUHG 271350Z 07011KT 9000 SCT020 28/19 Q1017,MUHG,2015-05-27T13:50:00Z,20.77,-76.32,28.0,19.0,70,11,,5.59,30.029528,,,,,,,,,,,SCT,2000,,,,,,,VFR,,,,,,,,,,,,METAR,106.0
MUCM 271350Z 06012KT 9000 SCT020 27/19 Q1018,MUCM,2015-05-27T13:50:00Z,21.42,-77.85,27.0,19.0,60,12,,5.59,30.059055,,,,,,,,,,,SCT,2000,,,,,,,VFR,,,,,,,,,,,,METAR,122.0
MUSC 271350Z 06013KT 9000 SCT020 28/18 Q1019,MUSC,2015-05-27T13:50:00Z,22.5,-79.95,28.0,18.0,60,13,,5.59,30.088583,,,,,,,,,,,SCT,2000,,,,,,,VFR,,,,,,,,,,,,METAR,103.0
EFVA 271350Z AUTO 21011KT 170V240 9999 FEW014/// BKN016/// 11/06 Q1005,EFVA,2015-05-27T13:50:00Z,63.03,21.77,11.0,6.0,210,11,,6.21,29.675198,,,TRUE,,,,,,,,,,,,,,,,,,,,,,,,,,,,METAR,4.0
EFTU 271350Z AUTO 30011KT 9999 FEW031/// BKN039/// BKN045/// 13/06 Q1007,EFTU,2015-05-27T13:50:00Z,60.52,22.27,13.0,6.0,300,11,,6.21,29.734253,,,TRUE,,,,,,,,,,,,,,,,,,,,,,,,,,,,METAR,59.0
EFTP 271350Z AUTO 24009KT 200V280 9999 SCT047 BKN065 15/05 Q1007,EFTP,2015-05-27T13:50:00Z,61.42,23.62,15.0,5.0,240,9,,6.21,29.734253,,,TRUE,,,,,,,,SCT,4700,BKN,6500,,,,,VFR,,,,,,,,,,,,METAR,112.0
EFRO 271350Z AUTO 08010KT 9999 -RA FEW004 SCT011 BKN019 OVC028CB 09/09 Q1002,EFRO,2015-05-27T13:50:00Z,66.57,25.82,9.0,9.0,80,10,,6.21,29.586615,,,TRUE,,,,,,,-RA,FEW,400,SCT,1100,BKN,1900,OVC,2800,MVFR,,,,,,,,,,,,METAR,201.0
EFOU 271350Z AUTO 27010KT 9999 FEW030/// SCT045/// BKN072/// 13/08 Q1003,EFOU,2015-05-27T13:50:00Z,64.92,25.37,13.0,8.0,270,10,,6.21,29.616142,,,TRUE,,,,,,,,,,,,,,,,,,,,,,,,,,,,METAR,15.0
EFKU 271350Z AUTO 24009KT CAVOK 17/05 Q1005,EFKU,2015-05-27T13:50:00Z,63.02,27.8,17.0,5.0,240,9,,6.21,29.675198,,,TRUE,,,,,,,,CAVOK,,,,,,,,VFR,,,,,,,,,,,,METAR,102.0
EFJY 271350Z AUTO 24008KT 160V280 CAVOK 16/04 Q1005,EFJY,2015-05-27T13:50:00Z,62.4,25.68,16.0,4.0,240,8,,6.21,29.675198,,,TRUE,,,,,,,,CAVOK,,,,,,,,VFR,,,,,,,,,,,,METAR,145.0
EFHK 271350Z 16014KT CAVOK 17/05 Q1007 NOSIG,EFHK,2015-05-27T13:50:00Z,60.32,24.97,17.0,5.0,160,14,,6.21,29.734253,,,,,,TRUE,,,,,CAVOK,,,,,,,,VFR,,,,,,,,,,,,METAR,56.0
EDDW 271350Z 26006KT 220V300 9999 FEW034 BKN070 15/05 Q1021 NOSIG,EDDW,2015-05-27T13:50:00Z,53.03,8.8,15.0,5.0,260,6,,6.21,30.147638,,,,,,TRUE,,,,,FEW,3400,BKN,7000,,,,,VFR,,,,,,,,,,,,METAR,5.0
EDDR 271350Z VRB03KT 9999 FEW035 SCT046 14/01 Q1023 NOSIG,EDDR,2015-05-27T13:50:00Z,49.22,7.1,14.0,1.0,0,3,,6.21,30.206694,,,,,,TRUE,,,,,FEW,3500,SCT,4600,,,,,VFR,,,,,,,,,,,,METAR,320.0
EDDP 271350Z 32011KT 9999 FEW037TCU BKN048 12/06 Q1021 NOSIG,EDDP,2015-05-27T13:50:00Z,51.43,12.23,12.0,6.0,320,11,,6.21,30.147638,,,,,,TRUE,,,,,FEW,3700,BKN,4800,,,,,VFR,,,,,,,,,,,,METAR,149.0
EGQA 271350Z 19014KT 9999 FEW013 SCT017 BKN090 10/// Q1011 WHT,EGQA,2015-05-27T13:50:00Z,57.83,-3.95,,,190,14,,6.21,29.852362,,,,,,,,,,,FEW,1300,SCT,1700,BKN,9000,,,VFR,,,,,,,,,,,,METAR,4.0
OOSA 271350Z 19010KT 9999 FEW025 32/24 Q1008 NOSIG RMK01 RH64,OOSA,2015-05-27T13:50:00Z,17.02,54.07,32.0,24.0,190,10,,6.21,29.763779,,,,,,TRUE,,,,,FEW,2500,,,,,,,VFR,,,,,,,,,,,,METAR,20.0
KSUA 271350Z 09012G18KT 7SM SCT025 29/18 A3017,KSUA,2015-05-27T13:50:00Z,27.18,-80.22,29.0,18.0,90,12,18,7.0,30.171259,,,,,,,,,,,SCT,2500,,,,,,,VFR,,,,,,,,,,,,METAR,6.0
KHUM 271350Z 15008KT 7SM SCT017 27/24 A3015 RMK ATIS X VA RY18...RJ,KHUM,2015-05-27T13:50:00Z,29.57,-90.67,27.0,24.0,150,8,,7.0,30.15059,,,,,,,,,,,SCT,1700,,,,,,,VFR,,,,,,,,,,,,METAR,3.0
ENRS 271350Z 31010KT CAVOK 07/03 Q1007,ENRS,2015-05-27T13:50:00Z,67.52,12.08,7.0,3.0,310,10,,6.21,29.734253,,,,,,,,,,,CAVOK,,,,,,,,VFR,,,,,,,,,,,,METAR,4.0
VNKT 271350Z 30007KT 260V330 8000 FEW020 SCT100 26/17 Q1012 NOSIG,VNKT,2015-05-27T13:50:00Z,27.68,85.37,26.0,17.0,300,7,,4.97,29.88189,,,,,,TRUE,,,,,FEW,2000,SCT,10000,,,,,MVFR,,,,,,,,,,,,METAR,1337.0
VEPT 271350Z 08010KT 5000 HZ SCT100 34/24 Q1000 NOSIG,VEPT,2015-05-27T13:50:00Z,25.6,85.08,34.0,24.0,80,10,,3.11,29.52756,,,,,,TRUE,,,,HZ,SCT,10000,,,,,,,MVFR,,,,,,,,,,,,METAR,60.0
LICR 271350Z 36013KT 9999 BKN025 22/13 Q1011,LICR,2015-05-27T13:50:00Z,38.07,15.65,22.0,13.0,360,13,,6.21,29.852362,,,,,,,,,,,BKN,2500,,,,,,,MVFR,,,,,,,,,,,,METAR,21.0
EGYH 271350Z 26012KT 9999 FEW040 BKN150 17/08 Q1019 BLU,EGYH,2015-05-27T13:50:00Z,52.87,0.15,17.0,8.0,260,12,,6.21,30.088583,,,,,,,,,,,FEW,4000,BKN,15000,,,,,VFR,,,,,,,,,,,,METAR,3.0
EGXS 271350Z AUTO 21011KT 9999 // BKN035/// 14/06 Q1019,EGXS,2015-05-27T13:50:00Z,53.48,0.15,14.0,6.0,210,11,,6.21,30.088583,,,TRUE,,,,,,,,,,,,,,,,,,,,,,,,,,,,METAR,3.0
EGWC 271350Z 21011KT 9999 FEW035 SCT050 16/07 Q1020 BLU,EGWC,2015-05-27T13:50:00Z,52.62,-2.28,16.0,7.0,210,11,,6.21,30.11811,,,,,,,,,,,FEW,3500,SCT,5000,,,,,VFR,,,,,,,,,,,,METAR,83.0
EGUO 271350Z 22011KT 9999 FEW035 16/08 Q1022 BLU,EGUO,2015-05-27T13:50:00Z,51.43,-2.28,16.0,8.0,220,11,,6.21,30.177166,,,,,,,,,,,FEW,3500,,,,,,,VFR,,,,,,,,,,,,METAR,13.0
EGOM 271350Z AUTO 22011KT 9999 BKN018/// SCT060/// 09/06 Q1015 RERA,EGOM,2015-05-27T13:50:00Z,55.05,-2.55,9.0,6.0,220,11,,6.21,29.970472,,,TRUE,,,,,,,,,,,,,,,,,,,,,,,,,,,,SPECI,325.0
EGDR 271350Z AUTO 23015KT 9999 // OVC006/// 14/12 Q1024,EGDR,2015-05-27T13:50:00Z,50.08,-5.25,14.0,12.0,230,15,,6.21,30.236221,,,TRUE,,,,,,,,,,,,,,,,,,,,,,,,,,,,SPECI,82.0
KAIG 271350Z AUTO 30007KT 7SM -RA BKN007 BKN017 OVC060 13/12 A2988 RMK AO2 P0002 T01250122,KAIG,2015-05-27T13:50:00Z,45.15,-89.12,12.5,12.2,300,7,,7.0,29.878937,,,TRUE,TRUE,,,,,,-RA,BKN,700,BKN,1700,OVC,6000,,,IFR,,,,,,0.02,,,,,,METAR,464.0
KBWP 271350Z AUTO 32007KT 10SM CLR 17/10 A2994 RMK AO1,KBWP,2015-05-27T13:50:00Z,46.25,-96.62,17.0,10.0,320,7,,10.0,29.940945,,,TRUE,TRUE,,,,,,,CLR,,,,,,,,VFR,,,,,,,,,,,,METAR,295.0
KEGV 271350Z AUTO 25004KT 10SM SCT004 BKN047 OVC055 13/13 A2985 RMK AO2 T01270125,KEGV,2015-05-27T13:50:00Z,45.93,-89.27,12.7,12.5,250,4,,10.0,29.84941,,,TRUE,TRUE,,,,,,,SCT,400,BKN,4700,OVC,5500,,,VFR,,,,,,,,,,,,METAR,500.0
KGLW 271350Z AUTO 21008KT 10SM BKN014 OVC021 23/20 A3018 RMK AO2 T02330199,KGLW,2015-05-27T13:50:00Z,37.03,-85.95,23.3,19.9,210,8,,10.0,30.180119,,,TRUE,TRUE,,,,,,,BKN,1400,OVC,2100,,,,,MVFR,,,,,,,,,,,,METAR,218.0
KRWV 271350Z AUTO 00000KT 10SM FEW006 21/21 A3012 RMK AO2,KRWV,2015-05-27T13:50:00Z,30.52,-96.7,21.0,21.0,0,0,,10.0,30.121063,,,TRUE,TRUE,,,,,,,FEW,600,,,,,,,VFR,,,,,,,,,,,,METAR,119.0
KRZN 271350Z AUTO 24007KT 10SM CLR 17/13 A2990 RMK AO2 T01720130,KRZN,2015-05-27T13:50:00Z,45.82,-92.37,17.2,13.0,240,7,,10.0,29.899607,,,TRUE,TRUE,,,,,,,CLR,,,,,,,,VFR,,,,,,,,,,,,METAR,301.0
KTMA 271350Z AUTO 00000KT BKN008 24/22 A3024 RMK AO2 T02370219 PWINO,KTMA,2015-05-27T13:50:00Z,31.43,-83.48,23.7,21.9,0,0,,,30.239174,,,TRUE,TRUE,,,,,TRUE,,BKN,800,,,,,,,,,,,,,,,,,,,METAR,109.0
EGXE 271350Z 23011KT 9999 SCT040 BKN100 OVC180 13/04 Q1018 BLU NOSIG,EGXE,2015-05-27T13:50:00Z,54.28,-1.52,13.0,4.0,230,11,,6.21,30.059055,,,,,,TRUE,,,,,SCT,4000,BKN,10000,OVC,18000,,,VFR,,,,,,,,,,,,METAR,40.0
EGDY 271350Z 20011KT 9999 FEW025 BKN200 15/09 Q1022 BLU NOSIG,EGDY,2015-05-27T13:50:00Z,51.0,-2.62,15.0,9.0,200,11,,6.21,30.177166,,,,,,TRUE,,,,,FEW,2500,BKN,20000,,,,,VFR,,,,,,,,,,,,METAR,23.0
KMTN 271350Z 13010KT 10SM BKN018 25/23 A3018,KMTN,2015-05-27T13:50:00Z,39.32,-76.42,25.0,23.0,130,10,,10.0,30.180119,,,,,,,,,,,BKN,1800,,,,,,,MVFR,,,,,,,,,,,,METAR,7.0
LGLM 271350Z 17004KT 9999 SCT025 BKN080 BKN180 21/16 Q1005,LGLM,2015-05-27T13:50:00Z,39.92,25.23,21.0,16.0,170,4,,6.21,29.675198,,,,,,,,,,,SCT,2500,BKN,8000,BKN,18000,,,VFR,,,,,,,,,,,,METAR,5.0
KHSA 271350Z 15006KTS 7SM SCT016 BKN032 27/21 A3014,KHSA,2015-05-27T13:50:00Z,30.37,-89.45,27.0,21.0,150,6,,7.0,30.138779,,,,,,,,,,,SCT,1600,BKN,3200,,,,,VFR,,,,,,,,,,,,METAR,7.0
LIPY 271350Z 35006KT 9999 FEW020 19/12 Q1015,LIPY,2015-05-27T13:50:00Z,43.62,13.37,19.0,12.0,350,6,,6.21,29.970472,,,,,,,,,,,FEW,2000,,,,,,,VFR,,,,,,,,,,,,METAR,10.0
LIPO 271350Z 21008KT 180V310 9999 SCT040TCU 22/08 Q1014,LIPO,2015-05-27T13:50:00Z,45.42,10.33,22.0,8.0,210,8,,6.21,29.940945,,,,,,,,,,,SCT,4000,,,,,,,VFR,,,,,,,,,,,,METAR,109.0
LIMZ 271350Z 11004KT 060V190 CAVOK 22/08 Q1015,LIMZ,2015-05-27T13:50:00Z,44.53,7.62,22.0,8.0,110,4,,6.21,29.970472,,,,,,,,,,,CAVOK,,,,,,,,VFR,,,,,,,,,,,,METAR,380.0
LIMP 271350Z 04008KT 9999 SCT030 22/10 Q1015,LIMP,2015-05-27T13:50:00Z,44.82,10.3,22.0,10.0,40,8,,6.21,29.970472,,,,,,,,,,,SCT,3000,,,,,,,VFR,,,,,,,,,,,,METAR,50.0
LIMG 271350Z 01006G18KT 300V090 CAVOK 26/02 Q1014,LIMG,2015-05-27T13:50:00Z,44.03,8.12,26.0,2.0,10,6,18,6.21,29.940945,,,,,,,,,,,CAVOK,,,,,,,,VFR,,,,,,,,,,,,METAR,49.0
LIMA 271350Z VRB03KT CAVOK 23/05 Q1015,LIMA,2015-05-27T13:50:00Z,45.08,7.6,23.0,5.0,0,3,,6.21,29.970472,,,,,,,,,,,CAVOK,,,,,,,,VFR,,,,,,,,,,,,METAR,287.0
ENNE 271350Z 26008KT 9999 FEW020 08/04 Q1009 W///S4,ENNE,2015-05-27T13:50:00Z,66.03,8.08,8.0,4.0,260,8,,6.21,29.793306,,,,,,,,,,,FEW,2000,,,,,,,VFR,,,,,,,,,,,,METAR,10.0
ENLK 271350Z 29017KT 9999 FEW012 SCT065 09/06 Q1006,ENLK,2015-05-27T13:50:00Z,68.15,13.62,9.0,6.0,290,17,,6.21,29.704725,,,,,,,,,,,FEW,1200,SCT,6500,,,,,VFR,,,,,,,,,,,,METAR,26.0
K1F0 271350Z AUTO 00000KT 10SM CLR 22/15 A3008 RMK AO2,K1F0,2015-05-27T13:50:00Z,34.15,-97.12,22.0,15.0,0,0,,10.0,30.079725,,,TRUE,TRUE,,,,,,,CLR,,,,,,,,VFR,,,,,,,,,,,,METAR,257.0
OOMS 271350Z AUTO 34005KT 9999 41/07 Q1004,OOMS,2015-05-27T13:50:00Z,23.57,58.27,41.0,7.0,340,5,,6.21,29.64567,,,TRUE,,,,,,,,,,,,,,,,,,,,,,,,,,,,METAR,8.0
LIQN 271350Z 11005KT 9999 SCT048 18/10 Q1013,LIQN,2015-05-27T13:50:00Z,42.42,12.83,18.0,10.0,110,5,,6.21,29.911417,,,,,,,,,,,SCT,4800,,,,,,,VFR,,,,,,,,,,,,METAR,389.0
LIRZ 271350Z 04015KT 9999 FEW040 SCT050 20/09 Q1014,LIRZ,2015-05-27T13:50:00Z,43.1,12.5,20.0,9.0,40,15,,6.21,29.940945,,,,,,,,,,,FEW,4000,SCT,5000,,,,,VFR,,,,,,,,,,,,METAR,205.0
LIBP 271350Z 36008KT 9999 FEW030 SCT070 20/09 Q1014,LIBP,2015-05-27T13:50:00Z,42.42,14.18,20.0,9.0,360,8,,6.21,29.940945,,,,,,,,,,,FEW,3000,SCT,7000,,,,,VFR,,,,,,,,,,,,METAR,11.0
LIBG 271350Z 02018KT 330V040 9999 FEW025 23/11 Q1008,LIBG,2015-05-27T13:50:00Z,40.52,17.38,23.0,11.0,20,18,,6.21,29.763779,,,,,,,,,,,FEW,2500,,,,,,,VFR,,,,,,,,,,,,METAR,69.0
LIBC 271350Z 02008KT 350V060 9999 SCT030 21/12 Q1009,LIBC,2015-05-27T13:50:00Z,39.0,17.07,21.0,12.0,20,8,,6.21,29.793306,,,,,,,,,,,SCT,3000,,,,,,,VFR,,,,,,,,,,,,METAR,161.0
LICA 271350Z 27017KT 9999 FEW020 21/16 Q1010,LICA,2015-05-27T13:50:00Z,38.88,16.25,21.0,16.0,270,17,,6.21,29.822834,,,,,,,,,,,FEW,2000,,,,,,,VFR,,,,,,,,,,,,METAR,15.0
LIBF 271350Z 35013KT 9999 SCT025 SCT030 22/10 1011,LIBF,2015-05-27T13:50:00Z,41.42,15.52,22.0,10.0,350,13,,6.21,,,,,,,,,,,,SCT,2500,SCT,3000,,,,,VFR,,,,,,,,,,,,METAR,80.0
LICD 271350Z 30014KT CAVOK 21/15 Q1014,LICD,2015-05-27T13:50:00Z,35.5,12.62,21.0,15.0,300,14,,6.21,29.940945,,,,,,,,,,,CAVOK,,,,,,,,VFR,,,,,,,,,,,,METAR,20.0
LICB 271350Z 27011KT 9999 SCT025 20/14 Q1012,LICB,2015-05-27T13:50:00Z,37.0,14.62,20.0,14.0,270,11,,6.21,29.88189,,,,,,,,,,,SCT,2500,,,,,,,VFR,,,,,,,,,,,,METAR,220.0
FHAW 271350Z 13017KT 9999 SCT025 28/20 Q1014 BLU NOSIG,FHAW,2015-05-27T13:50:00Z,-7.97,-14.4,28.0,20.0,130,17,,6.21,29.940945,,,,,,TRUE,,,,,SCT,2500,,,,,,,VFR,,,,,,,,,,,,METAR,79.0
LIPU 271350Z 17005KT 120V240 9999 FEW050 22/10 Q1014,LIPU,2015-05-27T13:50:00Z,45.38,11.83,22.0,10.0,170,5,,6.21,29.940945,,,,,,,,,,,FEW,5000,,,,,,,VFR,,,,,,,,,,,,METAR,14.0
MMCL 271348Z 00000KT 10SM SCT250 24/11 A2992 RMK 8/004,MMCL,2015-05-27T13:48:00Z,24.77,-107.47,24.0,11.0,0,0,,10.0,29.920275,,,,,,,,,,,SCT,25000,,,,,,,VFR,,,,,,,,,,,,METAR,39.0
KFDK 271348Z 20009KT 10SM OVC018 26/22 A3018,KFDK,2015-05-27T13:48:00Z,39.42,-77.37,26.0,22.0,200,9,,10.0,30.180119,,,,,,,,,,,OVC,1800,,,,,,,MVFR,,,,,,,,,,,,METAR,92.0
KPVU 271348Z 09004KT 10SM FEW080 11/07 A3011,KPVU,2015-05-27T13:48:00Z,40.22,-111.72,11.0,7.0,90,4,,10.0,30.109253,,,,,,,,,,,FEW,8000,,,,,,,VFR,,,,,,,,,,,,SPECI,1369.0
KSDB 271348Z AUTO 35015G21KT 10SM CLR 15/08 A3003 RMK AO2 SLP126 T01500078,KSDB,2015-05-27T13:48:00Z,34.75,-118.72,15.0,7.8,350,15,21,10.0,30.029528,1012.6,,TRUE,TRUE,,,,,,,CLR,,,,,,,,VFR,,,,,,,,,,,,SPECI,1377.0
KASG 271348Z 00000KT 10SM SCT250 23/14 A3013,KASG,2015-05-27T13:48:00Z,36.17,-94.12,23.0,14.0,0,0,,10.0,30.129921,,,,,,,,,,,SCT,25000,,,,,,,VFR,,,,,,,,,,,,METAR,412.0
KJDN 271348Z AUTO 27005KT 16/12 A2994 RMK AO1 SLP135 T01560122,KJDN,2015-05-27T13:48:00Z,47.33,-106.95,15.6,12.2,270,5,,,29.940945,1013.5,,TRUE,TRUE,,,,,,,,,,,,,,,,,,,,,,,,,,,SPECI,801.0
MMPN 271347Z 00000KT 5SM SCT030 OVC100 18/17 A3024 RMK 8/43/ HZY BR LWR ST BINOVC,MMPN,2015-05-27T13:47:00Z,19.38,-102.02,18.0,17.0,0,0,,5.0,30.239174,,,,,,,,,,,SCT,3000,OVC,10000,,,,,MVFR,,,,,,,,,,,,METAR,1593.0
MMAA 271347Z 00000KT 6SM SCT080 SCT300 29/23 A2990 RMK 8/032 HZY,MMAA,2015-05-27T13:47:00Z,16.75,-99.75,29.0,23.0,0,0,,6.0,29.899607,,,,,,,,,,,SCT,8000,SCT,30000,,,,,VFR,,,,,,,,,,,,METAR,5.0
MMTG 271347Z 36003KT 6SM FEW010 BKN070 BKN300 23/20 A3003 RMK 8/632 ST OVR MT,MMTG,2015-05-27T13:47:00Z,16.57,-93.03,23.0,20.0,360,3,,6.0,30.029528,,,,,,,,,,,FEW,1000,BKN,7000,BKN,30000,,,VFR,,,,,,,,,,,,METAR,528.0
MMCZ 271347Z 00000KT 8SM SCT015 28/23 A3004 RMK 8/400 VC TCU,MMCZ,2015-05-27T13:47:00Z,20.52,-86.92,28.0,23.0,0,0,,8.0,30.041338,,,,,,,,,,,SCT,1500,,,,,,,VFR,,,,,,,,,,,,METAR,5.0
KMWN 271347Z 27027KT 1/16SM FG BKN000 BKN180 12/12 RMK FG BKN000 FG INTMT,KMWN,2015-05-27T13:47:00Z,44.27,-71.3,12.0,12.0,270,27,,0.06,,,,,,,,,,,FG,BKN,0,BKN,18000,,,,,LIFR,,,,,,,,,,,,SPECI,1910.0
KRYY 271347Z 00000KT 5SM BR OVC009 20/18 A3026,KRYY,2015-05-27T13:47:00Z,34.02,-84.6,20.0,18.0,0,0,,5.0,30.259842,,,,,,,,,,BR,OVC,900,,,,,,,IFR,,,,,,,,,,,,METAR,317.0
KIWA 271347Z 11005KT 45SM BKN250 21/05 A2994,KIWA,2015-05-27T13:47:00Z,33.3,-111.65,21.0,5.0,110,5,,45.0,29.940945,,,,,,,,,,,BKN,25000,,,,,,,VFR,,,,,,,,,,,,METAR,412.0
KPAO 271347Z 27006KT 10SM OVC020 13/10 A3001,KPAO,2015-05-27T13:47:00Z,37.47,-122.12,13.0,10.0,270,6,,10.0,30.008858,,,,,,,,,,,OVC,2000,,,,,,,MVFR,,,,,,,,,,,,METAR,2.0
KHYI 271347Z 07006KT 5SM BR BKN010 BKN015 OVC022 21/19 A3006 RMK VIS W 3,KHYI,2015-05-27T13:47:00Z,29.88,-97.87,21.0,19.0,70,6,,5.0,30.059055,,,,,,,,,,BR,BKN,1000,BKN,1500,OVC,2200,,,MVFR,,,,,,,,,,,,SPECI,182.0
KGYH 271347Z 21004KT 10SM BKN009 OVC018 20/20 A3027,KGYH,2015-05-27T13:47:00Z,34.75,-82.38,20.0,20.0,210,4,,10.0,30.268702,,,,,,,,,,,BKN,900,OVC,1800,,,,,IFR,,,,,,,,,,,,METAR,292.0
KCQT 271347Z AUTO 00000KT 6SM HZ OVC017 16/12 A2998 RMK AO2 SLP151 T01560122,KCQT,2015-05-27T13:47:00Z,34.02,-118.28,15.6,12.2,0,0,,6.0,29.97933,1015.1,,TRUE,TRUE,,,,,,HZ,OVC,1700,,,,,,,MVFR,,,,,,,,,,,,SPECI,56.0
KSAW 271347Z 32011KT 5SM RA SCT027 BKN033 OVC080 12/11 A2977,KSAW,2015-05-27T13:47:00Z,46.35,-87.4,12.0,11.0,320,11,,5.0,29.769686,,,,,,,,,,RA,SCT,2700,BKN,3300,OVC,8000,,,MVFR,,,,,,,,,,,,METAR,372.0
KFFZ 271347Z 01005KT 40SM BKN200 22/04 A2992 RMK WIND ESTIMATED,KFFZ,2015-05-27T13:47:00Z,33.47,-111.72,22.0,4.0,10,5,,40.0,29.920275,,,,,,,,,,,BKN,20000,,,,,,,VFR,,,,,,,,,,,,SPECI,424.0
KGYR 271347Z VRB04KT 10SM BKN180 BKN250 22/03 A2992,KGYR,2015-05-27T13:47:00Z,33.42,-112.37,22.0,3.0,0,4,,10.0,29.920275,,,,,,,,,,,BKN,18000,BKN,25000,,,,,VFR,,,,,,,,,,,,METAR,295.0
KEVB 271347Z 09009G14KT 10SM SCT030 28/19 A3022,KEVB,2015-05-27T13:47:00Z,29.05,-80.95,28.0,19.0,90,9,14,10.0,30.221457,,,,,,,,,,,SCT,3000,,,,,,,VFR,,,,,,,,,,,,METAR,3.0
KCHD 271347Z 00000KT 40SM OVC200 22/06 A2992,KCHD,2015-05-27T13:47:00Z,33.27,-111.82,22.0,6.0,0,0,,40.0,29.920275,,,,,,,,,,,OVC,20000,,,,,,,VFR,,,,,,,,,,,,METAR,379.0
KBVI 271347Z 20009KT 10SM BKN012 OVC024 20/18 A3014,KBVI,2015-05-27T13:47:00Z,40.77,-80.4,20.0,18.0,200,9,,10.0,30.138779,,,,,,,,,,,BKN,1200,OVC,2400,,,,,MVFR,,,,,,,,,,,,METAR,382.0
KAEG 271347Z 36008KT 10SM BKN160 14/07 A3019,KAEG,2015-05-27T13:47:00Z,35.13,-106.8,14.0,7.0,360,8,,10.0,30.188976,,,,,,,,,,,BKN,16000,,,,,,,VFR,,,,,,,,,,,,METAR,1779.0
KTOA 271347Z 28005KT 10SM OVC020 16/13 A3000,KTOA,2015-05-27T13:47:00Z,33.78,-118.32,16.0,13.0,280,5,,10.0,30.0,,,,,,,,,,,OVC,2000,,,,,,,MVFR,,,,,,,,,,,,METAR,31.0
KSUN 271347Z 28004KT 10SM SCT060 BKN090 09/06 A3007,KSUN,2015-05-27T13:47:00Z,43.5,-114.28,9.0,6.0,280,4,,10.0,30.070866,,,,,,,,,,,SCT,6000,BKN,9000,,,,,VFR,,,,,,,,,,,,METAR,1620.0
KPOC 271347Z 00000KT 6SM BR OVC010 14/12 A3001,KPOC,2015-05-27T13:47:00Z,34.1,-117.77,14.0,12.0,0,0,,6.0,30.008858,,,,,,,,,,BR,OVC,1000,,,,,,,MVFR,,,,,,,,,,,,METAR,308.0
MMEP 271346Z 00000KT 12SM SCT080 18/11 A3005 RMK 8/030,MMEP,2015-05-27T13:46:00Z,21.42,-104.85,18.0,11.0,0,0,,12.0,30.050198,,,,,,,,,,,SCT,8000,,,,,,,VFR,,,,,,,,,,,,METAR,922.0
MMRX 271346Z 16006KT 8SM SCT010 BKN015 25/22 A3000 RMK 8/500 HZY,MMRX,2015-05-27T13:46:00Z,26.02,-98.22,25.0,22.0,160,6,,8.0,30.0,,,,,,,,,,,SCT,1000,BKN,1500,,,,,MVFR,,,,,,,,,,,,METAR,39.0
MMVR 271346Z 31003KT 5SM SCT070 BKN250 26/23 A2997 RMK 8/038 HZY,MMVR,2015-05-27T13:46:00Z,19.15,-96.18,26.0,23.0,310,3,,5.0,29.970472,,,,,,,,,,,SCT,7000,BKN,25000,,,,,MVFR,,,,,,,,,,,,METAR,16.0
MMMX 271346Z 08005KT 5SM SKC 16/11 A3039 NOSIG RMK HZY,MMMX,2015-05-27T13:46:00Z,19.42,-99.08,16.0,11.0,80,5,,5.0,30.389763,,,,,,TRUE,,,,,SKC,,,,,,,,MVFR,,,,,,,,,,,,METAR,2238.0
LIPX 271345Z 22007KT 9999 FEW035 SCT050 23/06 Q1015 RMK BKN VIS MIN 9999 BLU,LIPX,2015-05-27T13:45:00Z,45.38,10.87,23.0,6.0,220,7,,6.21,29.970472,,,,,,,,,,,FEW,3500,SCT,5000,,,,,VFR,,,,,,,,,,,,METAR,68.0
LIPR 271345Z 35003KT 9999 FEW030 18/14 Q1016 RMK OVC BKN080 VIS MIN 9999 WIND THR31 01002KT BLU,LIPR,2015-05-27T13:45:00Z,44.02,12.62,18.0,14.0,350,3,,6.21,30.0,,,,,,,,,,,FEW,3000,,,,,,,VFR,,,,,,,,,,,,METAR,13.0
LIPH 271345Z /////KT 9999 FEW015CB SCT030 21/10 Q1015 RMK BKN VIS MIN 9999 WIND THR07 18008KT BLU,LIPH,2015-05-27T13:45:00Z,45.63,12.17,21.0,10.0,,,,6.21,29.970472,,,,,,,,,,,FEW,1500,SCT,3000,,,,,VFR,,,,,,,,,,,,METAR,23.0
LIBR 271345Z 34011KT CAVOK 23/15 Q1009 NOSIG RMK SCT SCT200 VIS MIN 9999 WIND THR13 /////KT WIND THR31 34016KT BLU,LIBR,2015-05-27T13:45:00Z,40.65,17.95,23.0,15.0,340,11,,6.21,29.793306,,,,,,TRUE,,,,,CAVOK,,,,,,,,VFR,,,,,,,,,,,,METAR,10.0
LIRP 271345Z 10010KT 9999 FEW035 SCT040 21/08 Q1014 NOSIG,LIRP,2015-05-27T13:45:00Z,43.67,10.37,21.0,8.0,100,10,,6.21,29.940945,,,,,,TRUE,,,,,FEW,3500,SCT,4000,,,,,VFR,,,,,,,,,,,,METAR,2.0
LIRA 271345Z 06010KT 9999 -TSRA FEW015 SCT016CB 17/11 Q1012,LIRA,2015-05-27T13:45:00Z,41.8,12.58,17.0,11.0,60,10,,6.21,29.88189,,,,,,,,,,-TSRA,FEW,1500,SCT,1600,,,,,VFR,,,,,,,,,,,,METAR,101.0
MMMV 271345Z 00000KT 4SM BKN040 OVC050 23/21 A2998 RMK 8/5// HZY,MMMV,2015-05-27T13:45:00Z,26.95,-101.47,23.0,21.0,0,0,,4.0,29.97933,,,,,,,,,,,BKN,4000,OVC,5000,,,,,MVFR,,,,,,,,,,,,METAR,615.0
MMCV 271345Z 14013KT 6SM SKC 26/22 A2998 RMK HZ,MMCV,2015-05-27T13:45:00Z,23.72,-98.97,26.0,22.0,140,13,,6.0,29.97933,,,,,,,,,,,SKC,,,,,,,,VFR,,,,,,,,,,,,METAR,238.0
LHKE 271345Z 16006KT 9999 FEW025 OVC050 14/11 Q1014 NOSIG RMK BLU,LHKE,2015-05-27T13:45:00Z,46.92,19.75,14.0,11.0,160,6,,6.21,29.940945,,,,,,TRUE,,,,,FEW,2500,OVC,5000,,,,,VFR,,,,,,,,,,,,METAR,115.0
KATW 271345Z 29013G18KT 10SM BKN017 16/12 A2987,KATW,2015-05-27T13:45:00Z,44.27,-88.52,16.0,12.0,290,13,18,10.0,29.870079,,,,,,,,,,,BKN,1700,,,,,,,MVFR,,,,,,,,,,,,METAR,280.0
MMZH 271345Z 00000KT 5SM SCT100 BKN250 29/23 A2991 RMK 8/032 HZY,MMZH,2015-05-27T13:45:00Z,17.6,-101.47,29.0,23.0,0,0,,5.0,29.911417,,,,,,,,,,,SCT,10000,BKN,25000,,,,,MVFR,,,,,,,,,,,,METAR,6.0
MMQT 271345Z 06004KT 3SM HZ FEW020 16/14 A3036 RMK 8/500,MMQT,2015-05-27T13:45:00Z,20.62,-100.18,16.0,14.0,60,4,,3.0,30.360237,,,,,,,,,,HZ,FEW,2000,,,,,,,MVFR,,,,,,,,,,,,METAR,1813.0
MMBT 271345Z 09006KT 5SM BKN025CB BKN090 OVC200 27/22 A2997 RMK 8/361 BINOVC HZY,MMBT,2015-05-27T13:45:00Z,15.77,-96.27,27.0,22.0,90,6,,5.0,29.970472,,,,,,,,,,,BKN,2500,BKN,9000,OVC,20000,,,MVFR,,,,,,,,,,,,METAR,143.0
SEMC 271345Z 08001KT 6000 2000S BCFG SCT003 OVC100 19/19 Q020,SEMC,2015-05-27T13:45:00Z,-2.3,-78.12,19.0,19.0,80,1,,3.73,,,,,,,,,,,BCFG SQ,SCT,300,OVC,10000,,,,,MVFR,,,0.0,,,,,,,,,SPECI,1052.0
KCGF 271345Z 23014KT 10SM SCT016 BKN200 24/19 A3007,KCGF,2015-05-27T13:45:00Z,41.57,-81.47,24.0,19.0,230,14,,10.0,30.070866,,,,,,,,,,,SCT,1600,BKN,20000,,,,,VFR,,,,,,,,,,,,METAR,268.0
MMUN 271345Z 09004KT 7SM SCT015TCU 29/24 A3004 RMK 8/200 OCNL RA CI,MMUN,2015-05-27T13:45:00Z,21.02,-86.85,29.0,24.0,90,4,,7.0,30.041338,,,,,,,,,,,SCT,1500,,,,,,,VFR,,,,,,,,,,,,METAR,10.0
LMML 271345Z 30019KT 9999 BKN013 21/15 Q1012 TEMPO 29018G28KT,LMML,2015-05-27T13:45:00Z,35.85,14.47,21.0,15.0,300,19,,6.21,29.88189,,,,,,,,,,,BKN,1300,,,,,,,MVFR,,,,,,,,,,,,METAR,91.0
KRYN 271345Z 00000KT 10SM 18/02 A3000,KRYN,2015-05-27T13:45:00Z,32.15,-111.17,18.0,2.0,0,0,,10.0,30.0,,,,,,,,,,,,,,,,,,,,,,,,,,,,,,,METAR,737.0
KMHR 271345Z 19004KT 10SM OVC009 12/11 A2998,KMHR,2015-05-27T13:45:00Z,38.53,-121.28,12.0,11.0,190,4,,10.0,29.97933,,,,,,,,,,,OVC,900,,,,,,,IFR,,,,,,,,,,,,METAR,29.0
KJVL 271345Z 26011KT 10SM BKN010 BKN065 18/16 A2993 RMK RAE17,KJVL,2015-05-27T13:45:00Z,42.62,-89.05,18.0,16.0,260,11,,10.0,29.929134,,,,,,,,,,,BKN,1000,BKN,6500,,,,,MVFR,,,,,,,,,,,,SPECI,246.0
KANE 271345Z 21004KT 10SM OVC250 18/16 A2991,KANE,2015-05-27T13:45:00Z,45.15,-93.22,18.0,16.0,210,4,,10.0,29.911417,,,,,,,,,,,OVC,25000,,,,,,,VFR,,,,,,,,,,,,METAR,278.0
KMER 271345Z 33008KT 5SM HZ SKC 12/12 A2996,KMER,2015-05-27T13:45:00Z,37.38,-120.57,12.0,12.0,330,8,,5.0,29.958662,,,,,,,,,,HZ,SKC,,,,,,,,MVFR,,,,,,,,,,,,METAR,57.0
KBBG 271345Z 00000KT 10SM FEW075 BKN250 22/18 A3012,KBBG,2015-05-27T13:45:00Z,36.53,-93.2,22.0,18.0,0,0,,10.0,30.121063,,,,,,,,,,,FEW,7500,BKN,25000,,,,,VFR,,,,,,,,,,,,METAR,397.0
KMMU 271345Z 22006KT 6SM HZ OVC010 23/20 A3018,KMMU,2015-05-27T13:45:00Z,40.78,-74.42,23.0,20.0,220,6,,6.0,30.180119,,,,,,,,,,HZ,OVC,1000,,,,,,,MVFR,,,,,,,,,,,,METAR,57.0
KMYR 271345Z 19008KT 10SM SCT018 BKN050 28/22 A3030,KMYR,2015-05-27T13:45:00Z,33.67,-78.92,28.0,22.0,190,8,,10.0,30.301182,,,,,,,,,,,SCT,1800,BKN,5000,,,,,VFR,,,,,,,,,,,,METAR,8.0
KUES 271345Z 25008KT 10SM BKN013 BKN020 BKN070 16/14 A2992,KUES,2015-05-27T13:45:00Z,43.05,-88.25,16.0,14.0,250,8,,10.0,29.920275,,,,,,,,,,,BKN,1300,BKN,2000,BKN,7000,,,MVFR,,,,,,,,,,,,METAR,278.0
KCWA 271345Z 26005KT 10SM -RA SCT009 BKN029 OVC047 13/13 2991,KCWA,2015-05-27T13:45:00Z,44.78,-89.67,13.0,13.0,260,5,,10.0,,,,,,,,,,,-RA,SCT,900,BKN,2900,OVC,4700,,,MVFR,,,,,,,,,,,,SPECI,389.0
PALP 271345Z 07004KT 2SM BR OVC005 02/00 A3028,PALP,2015-05-27T13:45:00Z,70.33,-150.93,2.0,0.0,70,4,,2.0,30.280512,,,,,,,,,,BR,OVC,500,,,,,,,IFR,,,,,,,,,,,,METAR,5.0
KSWF 271345Z 24006KT 20SM BKN025 23/20 A3016,KSWF,2015-05-27T13:45:00Z,41.5,-74.08,23.0,20.0,240,6,,20.0,30.159449,,,,,,,,,,,BKN,2500,,,,,,,MVFR,,,,,,,,,,,,METAR,150.0
KMWC 271345Z AUTO 24010KT 10SM BKN016 OVC025 18/13 A2990,KMWC,2015-05-27T13:45:00Z,43.12,-88.03,18.0,13.0,240,10,,10.0,29.899607,,,TRUE,,,,,,,,BKN,1600,OVC,2500,,,,,MVFR,,,,,,,,,,,,METAR,227.0
KLZU 271345Z 00000KT 7SM BKN006 21/16 A3025 RMK ATIS B ; RWY 25 ; OO,KLZU,2015-05-27T13:45:00Z,33.98,-83.97,21.0,16.0,0,0,,7.0,30.250984,,,,,,,,,,,BKN,600,,,,,,,IFR,,,,,,,,,,,,METAR,323.0
KTRK 271345Z 00000KT 10SM SKC 02/02 A3015 RMK NOFIRST 24HR MAX 0222 MIN 0022,KTRK,2015-05-27T13:45:00Z,39.32,-120.12,2.0,2.0,0,0,,10.0,30.15059,,,,,,,,,,,SKC,,,,,,,,VFR,,,,,,,,,,,,SPECI,1798.0
LHSN 271345Z 04008KT 020V090 9999 SCT013 OVC033 11/09 Q1014 RESHRA TEMPO SHRA RMK BLU,LHSN,2015-05-27T13:45:00Z,47.12,20.23,11.0,9.0,40,8,,6.21,29.940945,,,,,,,,,,,SCT,1300,OVC,3300,,,,,VFR,,,,,,,,,,,,METAR,98.0
LHUD 271345Z 10004KT 9999 FEW020 BKN033 12/10 Q1014,LHUD,2015-05-27T13:45:00Z,46.25,20.1,12.0,10.0,100,4,,6.21,29.940945,,,,,,,,,,,FEW,2000,BKN,3300,,,,,VFR,,,,,,,,,,,,METAR,84.0
LHSM 271345Z 32018KT 9999 FEW033 BKN083 14/06 Q1018 NOSIG,LHSM,2015-05-27T13:45:00Z,46.68,17.17,14.0,6.0,320,18,,6.21,30.059055,,,,,,TRUE,,,,,FEW,3300,BKN,8300,,,,,VFR,,,,,,,,,,,,METAR,125.0
LHPR 271345Z 33019KT 9999 SCT040 BKN083 14/05 Q1017,LHPR,2015-05-27T13:45:00Z,47.63,17.82,14.0,5.0,330,19,,6.21,30.029528,,,,,,,,,,,SCT,4000,BKN,8300,,,,,VFR,,,,,,,,,,,,METAR,129.0
LHPP 271345Z 35016G29KT 9999 SQ SCT040 BKN083 15/05 Q1016,LHPP,2015-05-27T13:45:00Z,45.98,18.23,15.0,5.0,350,16,29,6.21,30.0,,,,,,,,,,SQ,SCT,4000,BKN,8300,,,,,VFR,,,,,,,,,,,,METAR,305.0
LHPA 271345Z 33007MPS 9999 SCT040 BKN067 14/07 Q1017 NOSIG RMK BLU,LHPA,2015-05-27T13:45:00Z,47.35,17.5,14.0,7.0,330,14,,6.21,30.029528,,,,,,TRUE,,,,,SCT,4000,BKN,6700,,,,,VFR,,,,,,,,,,,,METAR,148.0
LHDC 271345Z 35015G25KT 9999 BKN030 12/04 Q1013 NOSIG,LHDC,2015-05-27T13:45:00Z,47.47,21.62,12.0,4.0,350,15,25,6.21,29.911417,,,,,,TRUE,,,,,BKN,3000,,,,,,,MVFR,,,,,,,,,,,,METAR,112.0
MMPR 271344Z 00000KT 15SM SCT080 23/19 A2992 RMK 8/030,MMPR,2015-05-27T13:44:00Z,20.67,-105.25,23.0,19.0,0,0,,15.0,29.920275,,,,,,,,,,,SCT,8000,,,,,,,VFR,,,,,,,,,,,,METAR,6.0
MMMZ 271344Z 04003KT 15SM FEW230 18/12 A2989 RMK 8/002 FULYR 3QUAD,MMMZ,2015-05-27T13:44:00Z,23.17,-106.27,18.0,12.0,40,3,,15.0,29.890747,,,,,,,,,,,FEW,23000,,,,,,,VFR,,,,,,,,,,,,METAR,10.0
MMMD 271344Z 11014KT 7SM FEW010 30/23 A3003 RMK 8/100 HZY,MMMD,2015-05-27T13:44:00Z,20.95,-89.65,30.0,23.0,110,14,,7.0,30.029528,,,,,,,,,,,FEW,1000,,,,,,,VFR,,,,,,,,,,,,METAR,10.0
MMCE 271344Z 11012KT 7SM SCT280 29/23 A2998 RMK 8/001 CU,MMCE,2015-05-27T13:44:00Z,18.65,-91.8,29.0,23.0,110,12,,7.0,29.97933,,,,,,,,,,,SCT,28000,,,,,,,VFR,,,,,,,,,,,,METAR,2.0
KAVL 271344Z 00000KT 3SM BR OVC004 18/16 A3030 RMK AO2 T01780156 $,KAVL,2015-05-27T13:44:00Z,35.43,-82.53,17.8,15.6,0,0,,3.0,30.301182,,,,TRUE,TRUE,,,,,BR,OVC,400,,,,,,,LIFR,,,,,,,,,,,,SPECI,670.0
MMLO 271343Z 00000KT 8SM SKC 19/13 A3035 RMK HZY,MMLO,2015-05-27T13:43:00Z,21.0,-101.47,19.0,13.0,0,0,,8.0,30.351377,,,,,,,,,,,SKC,,,,,,,,VFR,,,,,,,,,,,,METAR,1819.0
MMCS 271343Z 00000KT 10SM FEW200 21/05 A3004 RMK 8/001,MMCS,2015-05-27T13:43:00Z,31.62,-106.42,21.0,5.0,0,0,,10.0,30.041338,,,,,,,,,,,FEW,20000,,,,,,,VFR,,,,,,,,,,,,METAR,1171.0
MMCU 271343Z 00000KT 10SM SKC 19/M05 A3014,MMCU,2015-05-27T13:43:00Z,28.7,-105.97,19.0,-5.0,0,0,,10.0,30.138779,,,,,,,,,,,SKC,,,,,,,,VFR,,,,,,,,,,,,METAR,1372.0
MMMM 271342Z 14003KT 6SM SKC 17/14 A3029 RMK HZY SC,MMMM,2015-05-27T13:42:00Z,19.85,-101.02,17.0,14.0,140,3,,6.0,30.28937,,,,,,,,,,,SKC,,,,,,,,VFR,,,,,,,,,,,,METAR,1833.0
MMAS 271342Z 03002KT 8SM SKC 18/10 A3031 RMK HZY,MMAS,2015-05-27T13:42:00Z,21.7,-102.32,18.0,10.0,30,2,,8.0,30.31004,,,,,,,,,,,SKC,,,,,,,,VFR,,,,,,,,,,,,METAR,1863.0
MMTJ 271342Z 29005KT 1 1/2SM BR OVC006 14/12 A3000 RMK 8/6//,MMTJ,2015-05-27T13:42:00Z,32.53,-116.97,14.0,12.0,290,5,,1.5,30.0,,,,,,,,,,BR,OVC,600,,,,,,,IFR,,,,,,,,,,,,METAR,152.0
MMDO 271342Z 00000KT 14SM SKC 15/04 A3028 RMK ISOL AC CI FULYR S,MMDO,2015-05-27T13:42:00Z,24.12,-104.52,15.0,4.0,0,0,,14.0,30.280512,,,,,,,,,,,SKC,,,,,,,,VFR,,,,,,,,,,,,METAR,1857.0
MMTO 271342Z 00000KT 5SM BKN200 13/07 A3048 RMK 8/002 HZ,MMTO,2015-05-27T13:42:00Z,19.35,-99.57,13.0,7.0,0,0,,5.0,30.481298,,,,,,,,,,,BKN,20000,,,,,,,MVFR,,,,,,,,,,,,METAR,2576.0
MMPS 271342Z 09005KT 9SM BKN090 28/23 A3003 RMK 8/030 DSNT CBS S HZY,MMPS,2015-05-27T13:42:00Z,15.87,-97.07,28.0,23.0,90,5,,9.0,30.029528,,,,,,,,,,,BKN,9000,,,,,,,VFR,,,,,,,,,,,,METAR,88.0
MMCP 271342Z 12015KT 7SM FEW025 28/23 A2997 RMK 8/100 HZY,MMCP,2015-05-27T13:42:00Z,19.82,-90.5,28.0,23.0,120,15,,7.0,29.970472,,,,,,,,,,,FEW,2500,,,,,,,VFR,,,,,,,,,,,,METAR,5.0
MMML 271342Z 12004KT 10SM FEW100 BKN200 19/10 A2986 RMK 8/038 RTS,MMML,2015-05-27T13:42:00Z,32.62,-115.23,19.0,10.0,120,4,,10.0,29.861221,,,,,,,,,,,FEW,10000,BKN,20000,,,,,VFR,,,,,,,,,,,,METAR,22.0
MMTC 271341Z 00000KT 8SM SKC 24/11 A3009 RMK HZY,MMTC,2015-05-27T13:41:00Z,25.57,-103.4,24.0,11.0,0,0,,8.0,30.088583,,,,,,,,,,,SKC,,,,,,,,VFR,,,,,,,,,,,,METAR,1124.0
MMTM 271341Z 11004KT 7SM FEW010 28/24 A2998 RMK 8/100 HZY,MMTM,2015-05-27T13:41:00Z,22.27,-97.87,28.0,24.0,110,4,,7.0,29.97933,,,,,,,,,,,FEW,1000,,,,,,,VFR,,,,,,,,,,,,METAR,24.0
MMOX 271341Z 33003KT 6SM BKN090 19/16 A3028 RMK 8/030 HZY ISOL CI,MMOX,2015-05-27T13:41:00Z,17.0,-96.72,19.0,16.0,330,3,,6.0,30.280512,,,,,,,,,,,BKN,9000,,,,,,,VFR,,,,,,,,,,,,METAR,1528.0
MMTP 271341Z 00000KT 10SM BKN250 25/24 A2994 RMK 8/006 HZY,MMTP,2015-05-27T13:41:00Z,14.77,-92.37,25.0,24.0,0,0,,10.0,29.940945,,,,,,,,,,,BKN,25000,,,,,,,VFR,,,,,,,,,,,,METAR,29.0
KPQN 271341Z AUTO 29009KT 10SM CLR 17/11 A2998 RMK AO2,KPQN,2015-05-27T13:41:00Z,43.97,-96.32,17.0,11.0,290,9,,10.0,29.97933,,,TRUE,TRUE,,,,,,,CLR,,,,,,,,VFR,,,,,,,,,,,,SPECI,529.0
MMSP 271340Z 00000KT 4SM SKC 18/13 A3030 RMK HZY,MMSP,2015-05-27T13:40:00Z,22.25,-100.93,18.0,13.0,0,0,,4.0,30.301182,,,,,,,,,,,SKC,,,,,,,,MVFR,,,,,,,,,,,,METAR,1903.0
MMIA 271340Z 00000KT 8SM BKN150 23/16 A3006 RMK 8/050,MMIA,2015-05-27T13:40:00Z,19.27,-103.57,23.0,16.0,0,0,,8.0,30.059055,,,,,,,,,,,BKN,15000,,,,,,,VFR,,,,,,,,,,,,METAR,723.0
MMHO 271340Z 12004KT 10SM FEW100 23/07 A2993 RMK 8/030 HZY,MMHO,2015-05-27T13:40:00Z,29.08,-111.05,23.0,7.0,120,4,,10.0,29.929134,,,,,,,,,,,FEW,10000,,,,,,,VFR,,,,,,,,,,,,METAR,184.0
MMNL 271340Z 15010KT 4SM SKC 27/23 A2997 RMK HZ,MMNL,2015-05-27T13:40:00Z,27.42,-99.57,27.0,23.0,150,10,,4.0,29.970472,,,,,,,,,,,SKC,,,,,,,,MVFR,,,,,,,,,,,,METAR,148.0
MMMA 271340Z 12012KT 6SM SCT015TCU 28/26 A2999 RMK 8/200 HZ LWR CU,MMMA,2015-05-27T13:40:00Z,25.77,-97.52,28.0,26.0,120,12,,6.0,29.991142,,,,,,,,,,,SCT,1500,,,,,,,VFR,,,,,,,,,,,,METAR,8.0
MMAN 271340Z 08004KT 1SM BR HZ BKN003 OVC008 25/24 A3001 RMK 8/6//,MMAN,2015-05-27T13:40:00Z,25.87,-100.23,25.0,24.0,80,4,,1.0,30.008858,,,,,,,,,,BR HZ,BKN,300,OVC,800,,,,,LIFR,,,,,,,,,,,,METAR,448.0
MMPQ 271340Z 00000KT 4SM SCT200 26/22 A2995 RMK 8/001 HZY MSGTX MMMD,MMPQ,2015-05-27T13:40:00Z,17.53,-91.98,26.0,22.0,0,0,,4.0,29.949802,,,,,,,,,,,SCT,20000,,,,,,,MVFR,,,,,,,,,,,,METAR,61.0
MMVA 271340Z 12009KT 7SM SCT120 28/21 A2998 RMK 8/020,MMVA,2015-05-27T13:40:00Z,18.0,-92.82,28.0,21.0,120,9,,7.0,29.97933,,,,,,,,,,,SCT,12000,,,,,,,VFR,,,,,,,,,,,,METAR,13.0
MMMT 271340Z 00000KT 7SM BKN016 26/21 A2991 RMK 8/100 VCHZ,MMMT,2015-05-27T13:40:00Z,18.1,-94.57,26.0,21.0,0,0,,7.0,29.911417,,,,,,,,,,,BKN,1600,,,,,,,MVFR,,,,,,,,,,,,METAR,40.0
MMCM 271340Z 10006KT 7SM SCT020 28/22 A3000 RMK 8/500,MMCM,2015-05-27T13:40:00Z,18.5,-88.33,28.0,22.0,100,6,,7.0,30.0,,,,,,,,,,,SCT,2000,,,,,,,VFR,,,,,,,,,,,,METAR,12.0
VOTV 271340Z 25010KT 4000 HZ FEW015 SCT090 29/24 Q1007 NOSIG,VOTV,2015-05-27T13:40:00Z,8.47,76.95,29.0,24.0,250,10,,2.49,29.734253,,,,,,TRUE,,,,HZ,FEW,1500,SCT,9000,,,,,IFR,,,,,,,,,,,,METAR,8.0
VOTR 271340Z 00000KT 6000 SCT016 FEW025CB BKN100 34/22 Q1005 TEMPO 5000 DZ,VOTR,2015-05-27T13:40:00Z,10.77,78.72,34.0,22.0,0,0,,3.73,29.675198,,,,,,,,,,,SCT,1600,FEW,2500,BKN,10000,,,MVFR,,,,,,,,,,,,METAR,88.0
VOMM 271340Z 17006KT 5000 HZ SCT020 BKN100 30/24 Q1005 NOSIG,VOMM,2015-05-27T13:40:00Z,13.0,80.17,30.0,24.0,170,6,,3.11,29.675198,,,,,,TRUE,,,,HZ,SCT,2000,BKN,10000,,,,,MVFR,,,,,,,,,,,,METAR,16.0
VOHS 271340Z 34004KT 6000 NSC 39/13 Q1007 NOSIG,VOHS,2015-05-27T13:40:00Z,17.23,78.43,39.0,13.0,340,4,,3.73,29.734253,,,,,,TRUE,,,,,,,,,,,,,,,,,,,,,,,,,METAR,1.0
VANP 271340Z 31008KT 5000 DU FEW025 FEW030CB(NE) 40/15 Q1002 NOSIG,VANP,2015-05-27T13:40:00Z,21.08,79.05,40.0,15.0,310,8,,3.11,29.586615,,,,,,TRUE,,,,DU,FEW,2500,,,,,,,MVFR,,,,,,,,,,,,METAR,310.0
VABB 271340Z 27009KT 6000 FEW020 SCT025 31/26 Q1008 BECMG 5000 HZ,VABB,2015-05-27T13:40:00Z,19.1,72.87,31.0,26.0,270,9,,3.73,29.763779,,,,,,,,,,,FEW,2000,SCT,2500,,,,,MVFR,,,,,,,,,,,,METAR,8.0
MMIO 271340Z 16008KT 10SM SKC 24/15 A3016,MMIO,2015-05-27T13:40:00Z,25.55,-100.93,24.0,15.0,160,8,,10.0,30.159449,,,,,,,,,,,SKC,,,,,,,,VFR,,,,,,,,,,,,METAR,1790.0
VAAH 271340Z 29007KT 5000 FU NSC 41/20 Q1003 NOSIG,VAAH,2015-05-27T13:40:00Z,23.07,72.62,41.0,20.0,290,7,,3.11,29.616142,,,,,,TRUE,,,,FU,,,,,,,,,,,,,,,,,,,,,METAR,55.0
LFCK 271339Z AUTO 30011KT 270V340 9999 ////// 21/05 Q1022,LFCK,2015-05-27T13:39:00Z,43.55,2.28,21.0,5.0,300,11,,6.21,30.177166,,,TRUE,,,,,,,,,,,,,,,,,,,,,,,,,,,,METAR,240.0
K8S0 271335Z 30003KT ,K8S0,2015-05-27T13:35:00Z,48.6,-113.12,,,300,3,,,,,,,,,,,,,,,,,,,,,,,,,,,,,,,,,,METAR,1419.0
K28J 271335Z AUTO 15006KT 10SM BKN033 27/19 A3023 RMK AO2 TSNO,K28J,2015-05-27T13:35:00Z,29.65,-81.58,27.0,19.0,150,6,,10.0,30.230314,,,TRUE,TRUE,,,TRUE,,,,BKN,3300,,,,,,,VFR,,,,,,,,,,,,SPECI,15.0
VLVT 271330Z 32002KT 5000 BR SCT020 BKN050 26/24 Q1007,VLVT,2015-05-27T13:30:00Z,17.98,102.57,26.0,24.0,320,2,,3.11,29.734253,,,,,,,,,,BR,SCT,2000,BKN,5000,,,,,MVFR,,,,,,,,,,,,METAR,171.0
KFBR 271330Z AUTO 26007KT 10SM CLR 09/06 A3018 RMK AO2 T00870061,KFBR,2015-05-27T13:30:00Z,41.4,-110.4,8.7,6.1,260,7,,10.0,30.180119,,,TRUE,TRUE,,,,,,,CLR,,,,,,,,VFR,,,,,,,,,,,,METAR,2144.0
WAHS 271330Z 32003KT 7000 SCT018 29/25 Q1011 NOSIG,WAHS,2015-05-27T13:30:00Z,,,29.0,25.0,320,3,,4.35,29.852362,,,,,,TRUE,,,,,SCT,1800,,,,,,,MVFR,,,,,,,,,,,,METAR,
VIBN 271330Z 01005KT 5000 HZ NSC 38/20 Q0999,VIBN,2015-05-27T13:30:00Z,25.43,82.87,38.0,20.0,10,5,,3.11,29.498032,,,,,,,,,,HZ,,,,,,,,,,,,,,,,,,,,,SPECI,85.0
VIJP 271330Z VRB04KT 6000 NSC 40/M07 Q1004 NOSIG,VIJP,2015-05-27T13:30:00Z,26.82,75.78,40.0,-7.0,0,4,,3.73,29.64567,,,,,,TRUE,,,,,,,,,,,,,,,,,,,,,,,,,METAR,390.0
LFML 271330Z 26010KT 9999 FEW050 24/07 Q1015 NOSIG,LFML,2015-05-27T13:30:00Z,43.45,5.22,24.0,7.0,260,10,,6.21,29.970472,,,,,,TRUE,,,,,FEW,5000,,,,,,,VFR,,,,,,,,,,,,METAR,36.0
VOML 271330Z 35010KT 8000 SCT015 30/25 Q1008 NOSIG,VOML,2015-05-27T13:30:00Z,12.97,74.88,30.0,25.0,350,10,,4.97,29.763779,,,,,,TRUE,,,,,SCT,1500,,,,,,,MVFR,,,,,,,,,,,,METAR,103.0
SPZA 271330Z VRB02KT 6000 BKN012 OVC016 17/14 Q1016,SPZA,2015-05-27T13:30:00Z,-14.87,-74.95,17.0,14.0,0,2,,3.73,30.0,,,,,,,,,,,BKN,1200,OVC,1600,,,,,MVFR,,,,,,,,,,,,SPECI,765.0
OICK 271330Z 23006KT 4000 DU SCT040TCU 31/M03 Q1014,OICK,2015-05-27T13:30:00Z,33.43,48.28,31.0,-3.0,230,6,,2.49,29.940945,,,,,,,,,,DU,SCT,4000,,,,,,,IFR,,,,,,,,,,,,METAR,1155.0
DTTJ 271330Z 22006KT 200V260 CAVOK 27/09 Q1014 NOSIG,DTTJ,2015-05-27T13:30:00Z,33.87,10.77,27.0,9.0,220,6,,6.21,29.940945,,,,,,TRUE,,,,,CAVOK,,,,,,,,VFR,,,,,,,,,,,,METAR,4.0
DTNH 271330Z AUTO 32017KT CAVOK 25/09 Q1014,DTNH,2015-05-27T13:30:00Z,36.07,10.43,25.0,9.0,320,17,,6.21,29.940945,,,TRUE,,,,,,,,CAVOK,,,,,,,,VFR,,,,,,,,,,,,METAR,2.0
EIDL 271330Z 20014KT 9999 OVC019 10/08 Q1014,EIDL,2015-05-27T13:30:00Z,55.05,-8.33,10.0,8.0,200,14,,6.21,29.940945,,,,,,,,,,,OVC,1900,,,,,,,MVFR,,,,,,,,,,,,METAR,9.0
UMBB 271330Z 33006G09MPS 5000 -SHRA BR OVC010CB 09/08 Q1010 R29/290050 NOSIG,UMBB,2015-05-27T13:30:00Z,52.12,23.9,9.0,8.0,330,12,17,3.11,29.822834,,,,,,TRUE,,,,-SHRA BR,OVC,1000,,,,,,,MVFR,,,,,,,,,,,,METAR,143.0
LTAP 271320Z VRB02KT 9999 SCT040 BKN090 21/14 Q1005 TEMPO TL1400 22018G30KT -TSRA,LTAP,2015-05-27T13:20:00Z,40.83,35.52,21.0,14.0,0,2,,6.21,29.675198,,,,,,,,,,,SCT,4000,BKN,9000,,,,,VFR,,,,,,,,,,,,METAR,535.0
ENSS 271320Z 10011KT 9999 BKN011 06/03 Q1013 RMK WIND 500FT 10017KT,ENSS,2015-05-27T13:20:00Z,70.33,31.05,6.0,3.0,100,11,,6.21,29.911417,,,,,,,,,,,BKN,1100,,,,,,,MVFR,,1.7,,,,,,,,,,SPECI,12.0
ETWM 271320Z AUTO 22007KT 9999 // ////// 15/03 Q1021 ///,ETWM,2015-05-27T13:20:00Z,52.72,7.33,15.0,3.0,220,7,,6.21,30.147638,,,TRUE,,,,,,,,,,,,,,,,,,,,,,,,,,,,METAR,21.0
ETNW 271320Z 27004KT 9999 FEW035 BKN050 13/05 Q1022 BLU BLU,ETNW,2015-05-27T13:20:00Z,52.45,9.42,13.0,5.0,270,4,,6.21,30.177166,,,,,,,,,,,FEW,3500,BKN,5000,,,,,VFR,,,,,,,,,,,,METAR,70.0
ETNT 271320Z 23008KT 9999 SCT038 BKN060 15/06 Q1021 BLU BLU,ETNT,2015-05-27T13:20:00Z,53.53,7.67,15.0,6.0,230,8,,6.21,30.147638,,,,,,,,,,,SCT,3800,BKN,6000,,,,,VFR,,,,,,,,,,,,METAR,12.0
ETNS 271320Z 28015KT 9999 SCT030 BKN070 13/06 Q1020 BLU BLU,ETNS,2015-05-27T13:20:00Z,54.47,9.52,13.0,6.0,280,15,,6.21,30.11811,,,,,,,,,,,SCT,3000,BKN,7000,,,,,VFR,,,,,,,,,,,,METAR,25.0
ETNL 271320Z 29018KT 9999 SCT034 BKN060 13/05 Q1019 BLU BLU,ETNL,2015-05-27T13:20:00Z,53.92,12.27,13.0,5.0,290,18,,6.21,30.088583,,,,,,,,,,,SCT,3400,BKN,6000,,,,,VFR,,,,,,,,,,,,METAR,40.0
ETNH 271320Z 28017KT 9999 FEW035 BKN070 14/05 Q1020 BLU BLU,ETNH,2015-05-27T13:20:00Z,54.32,9.55,14.0,5.0,280,17,,6.21,30.11811,,,,,,,,,,,FEW,3500,BKN,7000,,,,,VFR,,,,,,,,,,,,METAR,17.0
ETMN 271320Z 30009KT 9999 FEW035 BKN070 13/04 Q1021 BLU BLU,ETMN,2015-05-27T13:20:00Z,53.77,8.67,13.0,4.0,300,9,,6.21,30.147638,,,,,,,,,,,FEW,3500,BKN,7000,,,,,VFR,,,,,,,,,,,,METAR,31.0
ETML 271320Z AUTO 28013KT //// // ////// 14/07 Q1019 ///,ETML,2015-05-27T13:20:00Z,,,14.0,7.0,280,13,,,30.088583,,,TRUE,,,,,,,,,,,,,,,,,,,,,,,,,,,,METAR,
ETHS 271320Z 33011KT 9999 SCT050 BKN070 16/03 Q1021 BLU BLU TEMPO BLU+,ETHS,2015-05-27T13:20:00Z,52.92,10.18,16.0,3.0,330,11,,6.21,30.147638,,,,,,,,,,,SCT,5000,BKN,7000,,,,,VFR,,,,,,,,,,,,METAR,88.0
ETHF 271320Z 29005KT 9999 FEW045 BKN060 14/03 Q1023 BLU BLU,ETHF,2015-05-27T13:20:00Z,51.12,9.27,14.0,3.0,290,5,,6.21,30.206694,,,,,,,,,,,FEW,4500,BKN,6000,,,,,VFR,,,,,,,,,,,,METAR,181.0
ETHE 271320Z 24006KT 9999 FEW044 BKN060 15/04 Q1022 BLU,ETHE,2015-05-27T13:20:00Z,52.28,7.37,15.0,4.0,240,6,,6.21,30.177166,,,,,,,,,,,FEW,4400,BKN,6000,,,,,VFR,,,,,,,,,,,,METAR,49.0
ETHC 271320Z 30009KT 9999 FEW047 BKN070 14/03 Q1021 BLU BLU,ETHC,2015-05-27T13:20:00Z,52.6,10.02,14.0,3.0,300,9,,6.21,30.147638,,,,,,,,,,,FEW,4700,BKN,7000,,,,,VFR,,,,,,,,,,,,METAR,52.0
ETHB 271320Z 30010KT 9999 SCT040 BKN070 14/05 Q1022 BLU BLU,ETHB,2015-05-27T13:20:00Z,52.27,9.07,14.0,5.0,300,10,,6.21,30.177166,,,,,,,,,,,SCT,4000,BKN,7000,,,,,VFR,,,,,,,,,,,,METAR,78.0
ETGG 271320Z 28020KT 9999 SCT030 SCT050 13/06 Q1020 BLU+,ETGG,2015-05-27T13:20:00Z,54.83,9.5,13.0,6.0,280,20,,6.21,30.11811,,,,,,,,,,,SCT,3000,SCT,5000,,,,,VFR,,,,,,,,,,,,METAR,33.0
ETSN 271320Z 29008KT 9999 FEW035 BKN060 13/04 Q1022 BLACKBLU,ETSN,2015-05-27T13:20:00Z,48.72,11.22,13.0,4.0,290,8,,6.21,30.177166,,,,,,,,,,,FEW,3500,BKN,6000,,,,,VFR,,,,,,,,,,,,METAR,387.0
ETSL 271320Z 27010KT 9999 FEW040 BKN060 12/04 Q1023 BLU BLU,ETSL,2015-05-27T13:20:00Z,48.17,10.87,12.0,4.0,270,10,,6.21,30.206694,,,,,,,,,,,FEW,4000,BKN,6000,,,,,VFR,,,,,,,,,,,,METAR,562.0
ETSI 271320Z 33010KT 9999 FEW040 BKN060 13/04 Q1022 BLU BLU+ TEMPO BLU,ETSI,2015-05-27T13:20:00Z,48.72,11.52,13.0,4.0,330,10,,6.21,30.177166,,,,,,,,,,,FEW,4000,BKN,6000,,,,,VFR,,,,,,,,,,,,METAR,370.0
ETSB 271320Z 28004KT 9999 FEW030 BKN045 12/02 Q1023 BLU BLU,ETSB,2015-05-27T13:20:00Z,50.17,7.07,12.0,2.0,280,4,,6.21,30.206694,,,,,,,,,,,FEW,3000,BKN,4500,,,,,VFR,,,,,,,,,,,,METAR,486.0
ETSA 271320Z 26011KT 9999 SCT035 SCT060 12/03 Q1023 BLU+BLU+,ETSA,2015-05-27T13:20:00Z,48.07,10.9,12.0,3.0,260,11,,6.21,30.206694,,,,,,,,,,,SCT,3500,SCT,6000,,,,,VFR,,,,,,,,,,,,METAR,628.0
ETNN 271320Z VRB02KT 9999 SCT047 BKN064 16/04 Q1023 BLU BLU TEMPO BLU+,ETNN,2015-05-27T13:20:00Z,50.82,6.67,16.0,4.0,0,2,,6.21,30.206694,,,,,,,,,,,SCT,4700,BKN,6400,,,,,VFR,,,,,,,,,,,,METAR,135.0
ETHN 271320Z 32005KT 9999 SCT030 BKN048 11/03 Q1023 BLU BLU,ETHN,2015-05-27T13:20:00Z,49.38,9.97,11.0,3.0,320,5,,6.21,30.206694,,,,,,,,,,,SCT,3000,BKN,4800,,,,,VFR,,,,,,,,,,,,METAR,473.0
ETHL 271320Z 26004KT 9999 FEW040 BKN060 13/04 Q1023 BLU BLU TEMPO BLU+,ETHL,2015-05-27T13:20:00Z,48.22,9.92,13.0,4.0,260,4,,6.21,30.206694,,,,,,,,,,,FEW,4000,BKN,6000,,,,,VFR,,,,,,,,,,,,METAR,549.0
ETHA 271320Z 30010KT 9999 SCT036 BKN060 12/05 Q1022 BLU BLU,ETHA,2015-05-27T13:20:00Z,47.82,10.87,12.0,5.0,300,10,,6.21,30.177166,,,,,,,,,,,SCT,3600,BKN,6000,,,,,VFR,,,,,,,,,,,,METAR,760.0
ENSD 271320Z 35006KT 9999 FEW020 SCT035 BKN050 09/04 Q1012 RMK WIND 1138FT 31005KT,ENSD,2015-05-27T13:20:00Z,61.82,6.12,9.0,4.0,350,6,,6.21,29.88189,,,,,,,,,,,FEW,2000,SCT,3500,BKN,5000,,,VFR,,,,,,,,,,,,SPECI,60.0
ENRO 271320Z 33015KT 300V010 9999 VCSH FEW015CB SCT030 BKN080 07/M01 Q1008,ENRO,2015-05-27T13:20:00Z,62.57,11.33,7.0,-1.0,330,15,,6.21,29.763779,,,,,,,,,,VCSH,FEW,1500,SCT,3000,BKN,8000,,,VFR,,,,,,,,,,,,METAR,626.0
ENNA 271320Z 33012KT CAVOK 13/03 Q1008 RMK WIND 1800FT 08009KT,ENNA,2015-05-27T13:20:00Z,70.07,24.97,13.0,3.0,330,12,,6.21,29.763779,,,,,,,,,,,CAVOK,,,,,,,,VFR,,,,,,,,,,,,SPECI,8.0
EDAC 271320Z 31007KT 9999 BKN042 12/05 Q1022,EDAC,2015-05-27T13:20:00Z,50.98,12.5,12.0,5.0,310,7,,6.21,30.177166,,,,,,,,,,,BKN,4200,,,,,,,VFR,,,,,,,,,,,,METAR,195.0
ESNL 271320Z AUTO 27010KT 9999 -RA FEW016/// BKN020/// 08/06 Q1001,ESNL,2015-05-27T13:20:00Z,64.55,18.72,8.0,6.0,270,10,,6.21,29.557087,,,TRUE,,,,,,,-RA,,,,,,,,,,,,,,,,,,,,,SPECI,214.0
EGJA 271320Z 26007KT 9999 FEW035 14/11 Q1024,EGJA,2015-05-27T13:20:00Z,49.72,-2.2,14.0,11.0,260,7,,6.21,30.236221,,,,,,,,,,,FEW,3500,,,,,,,VFR,,,,,,,,,,,,METAR,71.0
SAWC 271319Z 18002KT 1500 BR SCT002 M01/M02 Q1012,SAWC,2015-05-27T13:19:00Z,,,-1.0,-2.0,180,2,,0.93,29.88189,,,,,,,,,,BR,SCT,200,,,,,,,LIFR,,,,,,,,,,,,SPECI,
PAFM 271316Z AUTO 03008KT 10SM BKN120 09/04 A3018 RMK AO1,PAFM,2015-05-27T13:16:00Z,67.1,-157.85,9.0,4.0,30,8,,10.0,30.180119,,,TRUE,TRUE,,,,,,,BKN,12000,,,,,,,VFR,,,,,,,,,,,,SPECI,88.0
KAUO 271315Z AUTO 15004KT 10SM SCT026 OVC033 21/17 A3024 RMK AO1,KAUO,2015-05-27T13:15:00Z,32.62,-85.42,21.0,17.0,150,4,,10.0,30.239174,,,TRUE,TRUE,,,,,,,SCT,2600,OVC,3300,,,,,VFR,,,,,,,,,,,,SPECI,236.0
KBBD 271315Z AUTO 13006KT 9SM BKN007 22/22 A3005 RMK,KBBD,2015-05-27T13:15:00Z,31.18,-99.32,22.0,22.0,130,6,,9.0,30.050198,,,TRUE,,,,,,,,BKN,700,,,,,,,IFR,,,,,,,,,,,,METAR,557.0
VCRI 271310Z 23008KT 9999 FEW016 BKN280 29/25 Q1007 NOSIG,VCRI,2015-05-27T13:10:00Z,6.28,81.13,29.0,25.0,230,8,,6.21,29.734253,,,,,,TRUE,,,,,FEW,1600,BKN,28000,,,,,VFR,,,,,,,,,,,,METAR,7.0
VCBI 271310Z 22011KT 9999 FEW012 SCT016 29/25 Q1008 NOSIG,VCBI,2015-05-27T13:10:00Z,7.17,79.87,29.0,25.0,220,11,,6.21,29.763779,,,,,,TRUE,,,,,FEW,1200,SCT,1600,,,,,VFR,,,,,,,,,,,,METAR,8.0
EGVA 271309Z AUTO 26014KT 9999 FEW038 SCT150 SCT170 18/09 A3015 RMK AO2 WSHFT 01,EGVA,2015-05-27T13:09:00Z,51.67,-1.77,18.0,9.0,260,14,,6.21,30.15059,,,TRUE,TRUE,,,,,,,FEW,3800,SCT,15000,SCT,17000,,,VFR,,,,,,,,,,,,METAR,87.0
MMLM 271306Z RTD 00000KT 8SM SKC 19/13 A2990 RMK VCBR HZY RTS,MMLM,2015-05-27T13:06:00Z,25.67,-109.07,19.0,13.0,0,0,,8.0,29.899607,,,,,,,,,,,SKC,,,,,,,,VFR,,,,,,,,,,,,METAR,4.0
