No errors
No warnings
217 ms
data source=metars
4712 results
raw_text,station_id,observation_time,latitude,longitude,temp_c,dewpoint_c,wind_dir_degrees,wind_speed_kt,wind_gust_kt,visibility_statute_mi,altim_in_hg,sea_level_pressure_mb,corrected,auto,auto_station,maintenance_indicator_on,no_signal,lightning_sensor_off,freezing_rain_sensor_off,present_weather_sensor_off,wx_string,sky_cover,cloud_base_ft_agl,sky_cover,cloud_base_ft_agl,sky_cover,cloud_base_ft_agl,sky_cover,cloud_base_ft_agl,flight_category,three_hr_pressure_tendency_mb,maxT_c,minT_c,maxT24hr_c,minT24hr_c,precip_in,pcp3hr_in,pcp6hr_in,pcp24hr_in,snow_in,vert_vis_ft,metar_type,elevation_m
KDLZ 151001Z AUTO 21003KT 10SM SCT060 SCT080 OVC110 21/20 A3003 RMK AO2,KDLZ,2015-06-15T10:01:00Z,40.28,-83.12,21.0,20.0,210,3,,10.0,30.029528,,,TRUE,TRUE,,,,,,,SCT,6000,SCT,8000,OVC,11000,,,VFR,,,,,,,,,,,,METAR,289.0
SBSV 151000Z 27002KT 9999 SCT017 FEW020TCU SCT070 25/23 Q1016,SBSV,2015-06-15T10:00:00Z,-12.9,-38.32,25.0,23.0,270,2,,6.21,30.0,,,,,,,,,,,SCT,1700,FEW,2000,SCT,7000,,,VFR,,,,,,,,,,,,METAR,6.0
BIHN 151000Z 17009KT 9999 -SHRA FEW020 SCT035 BKN045 09/// Q1017,BIHN,2015-06-15T10:00:00Z,64.3,-15.23,,,170,9,,6.21,30.029528,,,,,,,,,,-SHRA,FEW,2000,SCT,3500,BKN,4500,,,VFR,,,,,,,,,,,,METAR,7.0
SBCF 151000Z 24001KT CAVOK 15/13 Q1019,SBCF,2015-06-15T10:00:00Z,-19.63,-43.97,15.0,13.0,240,1,,6.21,30.088583,,,,,,,,,,,CAVOK,,,,,,,,VFR,,,,,,,,,,,,METAR,828.0
NFNA 151000Z 00000KT 9999 BKN020 BKN045 24/22 Q1014 ,NFNA,2015-06-15T10:00:00Z,-18.05,178.57,24.0,22.0,0,0,,6.21,29.940945,,,,,,,,,,,BKN,2000,BKN,4500,,,,,MVFR,,,,,,,,,,,,METAR,5.0
TVSV 151000Z 09010KT 9999 BKN017 SCT280 27/23 Q1015/HZ,TVSV,2015-06-15T10:00:00Z,13.13,-61.2,27.0,23.0,90,10,,6.21,,,,,,,,,,,HZ,BKN,1700,SCT,28000,,,,,MVFR,,,,,,,,,,,,METAR,9.0
SBFL 151000Z 20007KT 9999 FEW015 SCT040 16/09 Q1015,SBFL,2015-06-15T10:00:00Z,-27.67,-48.53,16.0,9.0,200,7,,6.21,29.970472,,,,,,,,,,,FEW,1500,SCT,4000,,,,,VFR,,,,,,,,,,,,METAR,5.0
SBCG 151000Z 18015G26KT 9000 -RA SCT006 BKN008 14/13 Q1018,SBCG,2015-06-15T10:00:00Z,-20.47,-54.67,14.0,13.0,180,15,26,5.59,30.059055,,,,,,,,,,-RA,SCT,600,BKN,800,,,,,IFR,,,,,,,,,,,,METAR,567.0
OSKL 151000Z 21014KT 8000 33/16 Q1004,OSKL,2015-06-15T10:00:00Z,37.03,41.2,33.0,16.0,210,14,,4.97,29.64567,,,,,,,,,,,,,,,,,,,,,,,,,,,,,,,METAR,455.0
OSLK 151000Z 23014KT 8000 SCT026 BKN030 27/21 Q1009,OSLK,2015-06-15T10:00:00Z,35.4,35.95,27.0,21.0,230,14,,4.97,29.793306,,,,,,,,,,,SCT,2600,BKN,3000,,,,,MVFR,,,,,,,,,,,,METAR,7.0
OSDI 151000Z 17009KT CAVOK 31/12 Q1010,OSDI,2015-06-15T10:00:00Z,33.42,36.52,31.0,12.0,170,9,,6.21,29.822834,,,,,,,,,,,CAVOK,,,,,,,,VFR,,,,,,,,,,,,METAR,605.0
AGGH 151000Z 11004KT 9999 -RA FEW016 FEW017CB BKN029 24/24 Q1010,AGGH,2015-06-15T10:00:00Z,-9.42,160.05,24.0,24.0,110,4,,6.21,29.822834,,,,,,,,,,-RA,FEW,1600,FEW,1700,BKN,2900,,,MVFR,,,,,,,,,,,,METAR,9.0
NFTF 151000Z 12005KT 9999 FEW008 SCT014 BKN040 22/21 Q1016 RESH,NFTF,2015-06-15T10:00:00Z,-21.23,-175.15,22.0,21.0,120,5,,6.21,30.0,,,,,,,,,,,FEW,800,SCT,1400,BKN,4000,,,VFR,,,,,,,,,,,,METAR,38.0
SBGL 151000Z 24011KT CAVOK 25/17 Q1011,SBGL,2015-06-15T10:00:00Z,-22.82,-43.25,25.0,17.0,240,11,,6.21,29.852362,,,,,,,,,,,CAVOK,,,,,,,,VFR,,,,,,,,,,,,METAR,6.0
SMZO 151000Z 00000KT 9999 FEW012 FEW020CB 24/23 Q1012 NOSIG,SMZO,2015-06-15T10:00:00Z,5.82,-55.18,24.0,23.0,0,0,,6.21,29.88189,,,,,,TRUE,,,,,FEW,1200,FEW,2000,,,,,VFR,,,,,,,,,,,,METAR,10.0
SMJP 151000Z VRB01KT 9999 BKN004 24/23 Q1013 NOSIG,SMJP,2015-06-15T10:00:00Z,5.45,-55.17,24.0,23.0,0,1,,6.21,29.911417,,,,,,TRUE,,,,,BKN,400,,,,,,,LIFR,,,,,,,,,,,,METAR,16.0
LFVP 151000Z 02017KT 9999 BKN022 BKN080 07/04 Q1016 NOSIG,LFVP,2015-06-15T10:00:00Z,46.77,-56.18,7.0,4.0,20,17,,6.21,30.0,,,,,,TRUE,,,,,BKN,2200,BKN,8000,,,,,MVFR,,,,,,,,,,,,METAR,8.0
FQCH 151000Z /////KT 9999 FEW015 23/11 Q1023,FQCH,2015-06-15T10:00:00Z,-19.15,33.43,23.0,11.0,,,,6.21,30.206694,,,,,,,,,,,FEW,1500,,,,,,,VFR,,,,,,,,,,,,METAR,732.0
NFFN 151000Z 14006KT 9999 FEW030 24/20 Q1013 NOSIG,NFFN,2015-06-15T10:00:00Z,-17.75,177.45,24.0,20.0,140,6,,6.21,29.911417,,,,,,TRUE,,,,,FEW,3000,,,,,,,VFR,,,,,,,,,,,,METAR,18.0
WAJJ 151000Z 05002KT 9999 FEW014 SCT020 28/24 Q1006,WAJJ,2015-06-15T10:00:00Z,-2.58,140.52,28.0,24.0,50,2,,6.21,29.704725,,,,,,,,,,,FEW,1400,SCT,2000,,,,,VFR,,,,,,,,,,,,METAR,88.0
HRYR 151000Z 17005KT 9999 SCT026 26/17 Q1021 NOSIG,HRYR,2015-06-15T10:00:00Z,-1.97,30.12,26.0,17.0,170,5,,6.21,30.147638,,,,,,TRUE,,,,,SCT,2600,,,,,,,VFR,,,,,,,,,,,,METAR,1497.0
MGGT 151000Z 36004KT 9999 SCT012 18/17 Q1023 A3021,MGGT,2015-06-15T10:00:00Z,14.57,-90.53,18.0,17.0,360,4,,6.21,30.206694,,,,,,,,,,,SCT,1200,,,,,,,VFR,,,,,,,,,,,,METAR,1509.0
SBBR 151000Z 23002KT CAVOK 13/10 Q1021,SBBR,2015-06-15T10:00:00Z,-15.87,-47.92,13.0,10.0,230,2,,6.21,30.147638,,,,,,,,,,,CAVOK,,,,,,,,VFR,,,,,,,,,,,,METAR,1061.0
TBPB 151000Z 07022KT 9999 FEW018 SCT100 27/22 Q1015 NOSIG,TBPB,2015-06-15T10:00:00Z,13.07,-59.48,27.0,22.0,70,22,,6.21,29.970472,,,,,,TRUE,,,,,FEW,1800,SCT,10000,,,,,VFR,,,,,,,,,,,,METAR,52.0
SBAR 151000Z 28003KT 9999 SCT017 24/23 Q1016,SBAR,2015-06-15T10:00:00Z,-10.97,-37.07,24.0,23.0,280,3,,6.21,30.0,,,,,,,,,,,SCT,1700,,,,,,,VFR,,,,,,,,,,,,METAR,9.0
SBPA 151000Z 28010KT CAVOK 09/06 Q1017,SBPA,2015-06-15T10:00:00Z,-30.0,-51.17,9.0,6.0,280,10,,6.21,30.029528,,,,,,,,,,,CAVOK,,,,,,,,VFR,,,,,,,,,,,,METAR,3.0
SBUG 151000Z 25003KT CAVOK 06/04 Q1020,SBUG,2015-06-15T10:00:00Z,-29.77,-57.02,6.0,4.0,250,3,,6.21,30.11811,,,,,,,,,,,CAVOK,,,,,,,,VFR,,,,,,,,,,,,METAR,74.0
SVBC 151000Z /////KT 9999 SCT010 24/24 1013,SVBC,2015-06-15T10:00:00Z,10.12,-64.67,24.0,24.0,,,,6.21,,,,,,,,,,,,SCT,1000,,,,,,,VFR,,,,,,,,,,,,METAR,7.0
MDPC 151000Z 00000KT 9999 FEW018 25/24 Q1016,MDPC,2015-06-15T10:00:00Z,18.57,-68.37,25.0,24.0,0,0,,6.21,30.0,,,,,,,,,,,FEW,1800,,,,,,,VFR,,,,,,,,,,,,METAR,12.0
MDST 151000Z 09004KT 9999 SCT019 BKN300 24/23 Q1016,MDST,2015-06-15T10:00:00Z,19.4,-70.6,24.0,23.0,90,4,,6.21,30.0,,,,,,,,,,,SCT,1900,BKN,30000,,,,,VFR,,,,,,,,,,,,METAR,184.0
GVBA 151000Z 02015KT 9999 BKN015 24/19 Q1017 NOSIG,GVBA,2015-06-15T10:00:00Z,16.13,-22.88,24.0,19.0,20,15,,6.21,30.029528,,,,,,TRUE,,,,,BKN,1500,,,,,,,MVFR,,,,,,,,,,,,METAR,22.0
MDSD 151000Z 04004KT 9999 FEW018 24/22 Q1016 NOSIG,MDSD,2015-06-15T10:00:00Z,18.42,-69.67,24.0,22.0,40,4,,6.21,30.0,,,,,,TRUE,,,,,FEW,1800,,,,,,,VFR,,,,,,,,,,,,METAR,18.0
SVMI 151000Z 00000KT 9999 FEW016 26/22 Q1013 NOSIG,SVMI,2015-06-15T10:00:00Z,10.58,-67.0,26.0,22.0,0,0,,6.21,29.911417,,,,,,TRUE,,,,,FEW,1600,,,,,,,VFR,,,,,,,,,,,,METAR,48.0
SBRF 151000Z 34003KT 9999 SCT023 26/24 Q1015,SBRF,2015-06-15T10:00:00Z,-8.13,-34.92,26.0,24.0,340,3,,6.21,29.970472,,,,,,,,,,,SCT,2300,,,,,,,VFR,,,,,,,,,,,,METAR,19.0
SBNT 151000Z 16004KT 9999 FEW023 23/23 Q1015,SBNT,2015-06-15T10:00:00Z,-5.92,-35.25,23.0,23.0,160,4,,6.21,29.970472,,,,,,,,,,,FEW,2300,,,,,,,VFR,,,,,,,,,,,,METAR,49.0
MGMM 151000Z 00000KT 9999 SCT014 SCT090 23/23 Q1012 A2988,MGMM,2015-06-15T10:00:00Z,16.97,-89.87,23.0,23.0,0,0,,6.21,29.88189,,,,,,,,,,,SCT,1400,SCT,9000,,,,,VFR,,,,,,,,,,,,METAR,123.0
MGHT 151000Z 00000KT 3000 BR OVC018 16/15 QFE817/1,MGHT,2015-06-15T10:00:00Z,15.32,-91.5,16.0,15.0,0,0,,1.86,,,,,,,,,,,BR,OVC,1800,,,,,,,IFR,,,,,,,,,,,,METAR,1901.0
MGPB 151000Z 00000KT 9999 SCT016 BKN090 26/25 Q1010 A2983,MGPB,2015-06-15T10:00:00Z,15.72,-88.58,26.0,25.0,0,0,,6.21,29.822834,,,,,,,,,,,SCT,1600,BKN,9000,,,,,VFR,,,,,,,,,,,,METAR,10.0
SBCR 151000Z 25008KT 4000 -DZ BR BKN005 19/18 Q1015,SBCR,2015-06-15T10:00:00Z,-19.0,-57.67,19.0,18.0,250,8,,2.49,29.970472,,,,,,,,,,-DZ BR,BKN,500,,,,,,,IFR,,,,,,,,,,,,METAR,141.0
SKBQ 151000Z 07003KT CAVOK 27/26 A2980,SKBQ,2015-06-15T10:00:00Z,10.9,-74.77,27.0,26.0,70,3,,6.21,29.799213,,,,,,,,,,,CAVOK,,,,,,,,VFR,,,,,,,,,,,,METAR,10.0
ORBI 151000Z 36009KT 310V040 CAVOK 40/08 Q1002 NOSIG,ORBI,2015-06-15T10:00:00Z,33.27,44.23,40.0,8.0,360,9,,6.21,29.586615,,,,,,TRUE,,,,,CAVOK,,,,,,,,VFR,,,,,,,,,,,,METAR,35.0
SKSP 151000Z 07010KT 9999 FEW014 SCT080 28/25 A2982,SKSP,2015-06-15T10:00:00Z,12.57,-81.72,28.0,25.0,70,10,,6.21,29.819881,,,,,,,,,,,FEW,1400,SCT,8000,,,,,VFR,,,,,,,,,,,,METAR,-2.0
SKRG 151000Z 00000KT 4000 BR BKN004 BKN080 15/14 A3027,SKRG,2015-06-15T10:00:00Z,6.17,-75.42,15.0,14.0,0,0,,2.49,30.268702,,,,,,,,,,BR,BKN,400,BKN,8000,,,,,LIFR,,,,,,,,,,,,METAR,2137.0
SKCG 151000Z 15005KT 9999 FEW017 SCT200 28/26 A2976,SKCG,2015-06-15T10:00:00Z,10.43,-75.52,28.0,26.0,150,5,,6.21,29.760826,,,,,,,,,,,FEW,1700,SCT,20000,,,,,VFR,,,,,,,,,,,,METAR,1.0
SKCL 151000Z 00000KT 9999 SCT030 BKN100 21/19 A2995,SKCL,2015-06-15T10:00:00Z,3.53,-76.37,21.0,19.0,0,0,,6.21,29.949802,,,,,,,,,,,SCT,3000,BKN,10000,,,,,VFR,,,,,,,,,,,,METAR,969.0
SKBO 151000Z VRB02KT 9999 BKN020 11/10 A3031,SKBO,2015-06-15T10:00:00Z,4.7,-74.12,11.0,10.0,0,2,,6.21,30.31004,,,,,,,,,,,BKN,2000,,,,,,,MVFR,,,,,,,,,,,,METAR,2548.0
ORSU 151000Z 27013KT CAVOK 37/M02 Q1008,ORSU,2015-06-15T10:00:00Z,35.57,45.32,37.0,-2.0,270,13,,6.21,29.763779,,,,,,,,,,,CAVOK,,,,,,,,VFR,,,,,,,,,,,,METAR,761.0
MHLM 151000Z 00000KT 9999 FEW024 BKN250 26/26 Q1010 A2983 NOSIG,MHLM,2015-06-15T10:00:00Z,15.45,-87.93,26.0,26.0,0,0,,6.21,29.822834,,,,,,TRUE,,,,,FEW,2400,BKN,25000,,,,,VFR,,,,,,,,,,,,METAR,26.0
MHLC 151000Z 00000KT 9999 FEW028 SCT200 24/23 Q1010 A2983 NOSIG,MHLC,2015-06-15T10:00:00Z,15.75,-86.85,24.0,23.0,0,0,,6.21,29.822834,,,,,,TRUE,,,,,FEW,2800,SCT,20000,,,,,VFR,,,,,,,,,,,,METAR,15.0
GVAC 151000Z 04016KT 9999 BKN014 24/19 Q1017 NOSIG,GVAC,2015-06-15T10:00:00Z,16.72,-22.93,24.0,19.0,40,16,,6.21,30.029528,,,,,,TRUE,,,,,BKN,1400,,,,,,,MVFR,,,,,,,,,,,,METAR,55.0
WADL 151000Z 14009KT 9999 SCT016 26/22 Q1010 NOSIG,WADL,2015-06-15T10:00:00Z,-8.75,116.28,26.0,22.0,140,9,,6.21,29.822834,,,,,,TRUE,,,,,SCT,1600,,,,,,,VFR,,,,,,,,,,,,METAR,97.0
SBPS 151000Z 32006KT 9999 FEW020 SCT100 23/21 Q1016,SBPS,2015-06-15T10:00:00Z,-16.43,-39.07,23.0,21.0,320,6,,6.21,30.0,,,,,,,,,,,FEW,2000,SCT,10000,,,,,VFR,,,,,,,,,,,,METAR,51.0
FMMI 151000Z VRB02KT CAVOK 21/09 Q1021 NOSIG,FMMI,2015-06-15T10:00:00Z,-18.8,47.47,21.0,9.0,0,2,,6.21,30.147638,,,,,,TRUE,,,,,CAVOK,,,,,,,,VFR,,,,,,,,,,,,METAR,1276.0
ZMUB 151000Z 04003MPS 360V070 9999 SCT030CB SCT033 23/06 Q1006 NOSIG RMK QFE648.2 36 MOP,ZMUB,2015-06-15T10:00:00Z,47.83,106.78,23.0,6.0,40,6,,6.21,29.704725,,,,,,TRUE,,,,,SCT,3000,SCT,3300,,,,,VFR,,,,,,,,,,,,METAR,1330.0
MHCA 151000Z 12003KT 9999 SCT026 BKN070 24/23 Q1014 HZ,MHCA,2015-06-15T10:00:00Z,14.9,-85.78,24.0,23.0,120,3,,6.21,29.940945,,,,,,,,,,HZ,SCT,2600,BKN,7000,,,,,VFR,,,,,,,,,,,,METAR,442.0
TLPC 151000Z 09009KT 9999 FEW023 BKN280 27/23 Q1015 NOSIG,TLPC,2015-06-15T10:00:00Z,14.02,-61.0,27.0,23.0,90,9,,6.21,29.970472,,,,,,TRUE,,,,,FEW,2300,BKN,28000,,,,,VFR,,,,,,,,,,,,METAR,2.0
GQPP 151000Z 02024KT 6000 NSC 24/15 Q1016 NOSIG,GQPP,2015-06-15T10:00:00Z,20.92,-17.02,24.0,15.0,20,24,,3.73,30.0,,,,,,TRUE,,,,,,,,,,,,,,,,,,,,,,,,,METAR,3.0
SAVC 151000Z 27032G43KT CAVOK 13/01 Q0992,SAVC,2015-06-15T10:00:00Z,-45.77,-67.47,13.0,1.0,270,32,43,6.21,29.291338,,,,,,,,,,,CAVOK,,,,,,,,VFR,,,,,,,,,,,,METAR,46.0
SARP 151000Z 18004KT CAVOK 09/05 Q1021,SARP,2015-06-15T10:00:00Z,-27.38,-55.97,9.0,5.0,180,4,,6.21,30.147638,,,,,,,,,,,CAVOK,,,,,,,,VFR,,,,,,,,,,,,METAR,125.0
SARI 151000Z 18008KT CAVOK 10/09 Q1020,SARI,2015-06-15T10:00:00Z,-25.72,-54.47,10.0,9.0,180,8,,6.21,30.11811,,,,,,,,,,,CAVOK,,,,,,,,VFR,,,,,,,,,,,,METAR,270.0
SANT 151000Z 32010KT CAVOK 10/07 Q1022,SANT,2015-06-15T10:00:00Z,-26.85,-65.08,10.0,7.0,320,10,,6.21,30.177166,,,,,,,,,,,CAVOK,,,,,,,,VFR,,,,,,,,,,,,METAR,450.0
SAME 151000Z 00000KT CAVOK M00/M10 Q1017,SAME,2015-06-15T10:00:00Z,-32.82,-68.77,0.0,-10.0,0,0,,6.21,30.029528,,,,,,,,,,,CAVOK,,,,,,,,VFR,,,,,,,,,,,,METAR,704.0
SAEZ 151000Z 29005KT CAVOK 03/M03 Q1016,SAEZ,2015-06-15T10:00:00Z,-34.82,-58.52,3.0,-3.0,290,5,,6.21,30.0,,,,,,,,,,,CAVOK,,,,,,,,VFR,,,,,,,,,,,,METAR,20.0
SACO 151000Z 32005KT CAVOK M01/M03 Q1021,SACO,2015-06-15T10:00:00Z,-31.32,-64.22,-1.0,-3.0,320,5,,6.21,30.147638,,,,,,,,,,,CAVOK,,,,,,,,VFR,,,,,,,,,,,,METAR,474.0
SAAR 151000Z 29004KT CAVOK 04/M02 Q1018,SAAR,2015-06-15T10:00:00Z,-32.92,-60.77,4.0,-2.0,290,4,,6.21,30.059055,,,,,,,,,,,CAVOK,,,,,,,,VFR,,,,,,,,,,,,METAR,25.0
VOCB 151000Z 19013KT 8000 SCT015 FEW020TCU 32/20 Q1007 NOSIG,VOCB,2015-06-15T10:00:00Z,11.02,77.03,32.0,20.0,190,13,,4.97,29.734253,,,,,,TRUE,,,,,SCT,1500,FEW,2000,,,,,MVFR,,,,,,,,,,,,METAR,399.0
KNEL 151000Z AUTO 9SM BKN007 OVC013 21/21 A2996 RMK AO2 SLP144 T02110206 PWINO $,KNEL,2015-06-15T10:00:00Z,40.02,-74.33,21.1,20.6,,,,9.0,29.958662,1014.4,,TRUE,TRUE,TRUE,,,,TRUE,,BKN,700,OVC,1300,,,,,IFR,,,,,,,,,,,,METAR,31.0
VHHH 151000Z 14010KT 100V160 9999 FEW025 31/24 Q1007 NOSIG,VHHH,2015-06-15T10:00:00Z,22.32,113.92,31.0,24.0,140,10,,6.21,29.734253,,,,,,TRUE,,,,,FEW,2500,,,,,,,VFR,,,,,,,,,,,,METAR,9.0
OPRN 151000Z 18014KT 9999 FEW040 33/18 Q1004.0/29.64,OPRN,2015-06-15T10:00:00Z,33.62,73.08,33.0,18.0,180,14,,6.21,,,,,,,,,,,,FEW,4000,,,,,,,VFR,,,,,,,,,,,,METAR,508.0
WIII 151000Z 36006KT 9000 FEW022 29/21 Q1007 NOSIG,WIII,2015-06-15T10:00:00Z,-6.13,106.67,29.0,21.0,360,6,,5.59,29.734253,,,,,,TRUE,,,,,FEW,2200,,,,,,,VFR,,,,,,,,,,,,METAR,8.0
UKDR 151000Z 16002MPS 090V230 9999 SCT066 31/12 Q1011 3609//70 NOSIG,UKDR,2015-06-15T10:00:00Z,48.05,33.22,31.0,12.0,160,4,,6.21,29.852362,,,,,,TRUE,,,,,SCT,6600,,,,,,,VFR,,,,,,,,,,,,METAR,124.0
UKLL 151000Z 01004MPS 330V040 9999 SCT033CB BKN100 18/16 Q1013 31250365 TEMPO -TSRAGR,UKLL,2015-06-15T10:00:00Z,49.82,23.93,18.0,16.0,10,8,,6.21,29.911417,,,,,,,,,,,SCT,3300,BKN,10000,,,,,VFR,,,,,,,,,,,,METAR,325.0
UKDD 151000Z 18003MPS 140V210 9999 FEW033CB BKN050 30/13 Q1011 08090070 NOSIG,UKDD,2015-06-15T10:00:00Z,48.37,35.1,30.0,13.0,180,6,,6.21,29.852362,,,,,,TRUE,,,,,FEW,3300,BKN,5000,,,,,VFR,,,,,,,,,,,,METAR,149.0
UKDE 151000Z 16003MPS 130V200 9999 FEW050CB BKN100 29/12 Q1012 20CLRD70 NOSIG,UKDE,2015-06-15T10:00:00Z,47.87,35.32,29.0,12.0,160,6,,6.21,29.88189,,,,,,TRUE,,,,,FEW,5000,BKN,10000,,,,,VFR,,,,,,,,,,,,METAR,113.0
UKOO 151000Z 19005MPS 150V220 CAVOK 27/13 Q1012 16090065 NOSIG,UKOO,2015-06-15T10:00:00Z,46.42,30.68,27.0,13.0,190,10,,6.21,29.88189,,,,,,TRUE,,,,,CAVOK,,,,,,,,VFR,,,,,,,,,,,,METAR,35.0
UKHH 151000Z 26004MPS 230V290 9999 BKN040 31/10 Q1012 250///65 NOSIG,UKHH,2015-06-15T10:00:00Z,49.92,36.28,31.0,10.0,260,8,,6.21,29.88189,,,,,,TRUE,,,,,BKN,4000,,,,,,,VFR,,,,,,,,,,,,METAR,155.0
UKBB 151000Z 26005MPS 230V290 CAVOK 29/12 Q1010 88CLRD95 NOSIG,UKBB,2015-06-15T10:00:00Z,50.33,30.9,29.0,12.0,260,10,,6.21,29.822834,,,,,,TRUE,,,,,CAVOK,,,,,,,,VFR,,,,,,,,,,,,METAR,119.0
SBKP 151000Z 01006KT 9999 SCT030 BKN070 19/15 Q1015,SBKP,2015-06-15T10:00:00Z,-23.0,-47.12,19.0,15.0,10,6,,6.21,29.970472,,,,,,,,,,,SCT,3000,BKN,7000,,,,,VFR,,,,,,,,,,,,METAR,661.0
HKJK 151000Z 13004KT 060V200 9999 FEW025 23/15 Q1021 NOSIG,HKJK,2015-06-15T10:00:00Z,-1.32,36.92,23.0,15.0,130,4,,6.21,30.147638,,,,,,TRUE,,,,,FEW,2500,,,,,,,VFR,,,,,,,,,,,,METAR,1624.0
UTAA 151000Z 09007G12MPS 9999 SKC 34/M01 Q1010 NOSIG,UTAA,2015-06-15T10:00:00Z,37.98,58.37,34.0,-1.0,90,14,23,6.21,29.822834,,,,,,TRUE,,,,,SKC,,,,,,,,VFR,,,,,,,,,,,,METAR,210.0
SBPL 151000Z 13004KT 9999 SCT023 25/20 Q1018,SBPL,2015-06-15T10:00:00Z,-9.37,-40.57,25.0,20.0,130,4,,6.21,30.059055,,,,,,,,,,,SCT,2300,,,,,,,VFR,,,,,,,,,,,,METAR,375.0
TKPK 151000Z 07015KT 9999 FEW020 26/22 Q1017,TKPK,2015-06-15T10:00:00Z,17.3,-62.72,26.0,22.0,70,15,,6.21,30.029528,,,,,,,,,,,FEW,2000,,,,,,,VFR,,,,,,,,,,,,METAR,48.0
MMNL 151000Z RTD 00000KT 8SM BKN015 26/23 A2987 RMK 8/500 RTS,MMNL,2015-06-15T10:00:00Z,27.42,-99.57,26.0,23.0,0,0,,8.0,29.870079,,,,,,,,,,,BKN,1500,,,,,,,MVFR,,,,,,,,,,,,METAR,148.0
VOBL 151000Z 29014KT 9999 SCT015 SCT080 31/20 Q1009 NOSIG,VOBL,2015-06-15T10:00:00Z,13.2,77.7,31.0,20.0,290,14,,6.21,29.793306,,,,,,TRUE,,,,,SCT,1500,SCT,8000,,,,,VFR,,,,,,,,,,,,METAR,915.0
KQFX 151000Z AUTO 33002KT 9999 CLR 27/17 A2970 RMK A02 TSNO,KQFX,2015-06-15T10:00:00Z,100.65,-1000.65,27.0,17.0,330,2,,6.21,29.698818,,,TRUE,TRUE,,,TRUE,,,,CLR,,,,,,,,VFR,,,,,,,,,,,,METAR,999.0
KQFV 151000Z AUTO 33004KT 9999 CLR 26/15 A2972 RMK A02 TSNO,KQFV,2015-06-15T10:00:00Z,100.65,-1000.65,26.0,15.0,330,4,,6.21,29.719488,,,TRUE,TRUE,,,TRUE,,,,CLR,,,,,,,,VFR,,,,,,,,,,,,METAR,999.0
KQFT 151000Z AUTO 27004G10KT 9999 BKN017 27/16 A2968 RMK A02 TSNO,KQFT,2015-06-15T10:00:00Z,100.65,-1000.65,27.0,16.0,270,4,10,6.21,29.681103,,,TRUE,TRUE,,,TRUE,,,,BKN,1700,,,,,,,MVFR,,,,,,,,,,,,METAR,999.0
KQFB 151000Z AUTO 11002KT 9999 CLR 25/18 A2976 RMK A02 TSNO,KQFB,2015-06-15T10:00:00Z,100.65,-1000.65,25.0,18.0,110,2,,6.21,29.760826,,,TRUE,TRUE,,,TRUE,,,,CLR,,,,,,,,VFR,,,,,,,,,,,,METAR,999.0
KQEY 151000Z AUTO 28004KT 8000 HZ BKN024 25/17 A2974 RMK A02 TSNO,KQEY,2015-06-15T10:00:00Z,100.65,-1000.65,25.0,17.0,280,4,,4.97,29.740158,,,TRUE,TRUE,,,TRUE,,,HZ,BKN,2400,,,,,,,MVFR,,,,,,,,,,,,METAR,999.0
KQEX 151000Z AUTO 22007G10KT 8000 HZ CLR 28/17 A2972 RMK A02 TSNO,KQEX,2015-06-15T10:00:00Z,100.65,-1000.65,28.0,17.0,220,7,10,4.97,29.719488,,,TRUE,TRUE,,,TRUE,,,HZ,CLR,,,,,,,,MVFR,,,,,,,,,,,,METAR,999.0
KQEW 151000Z AUTO 21002KT 9999 SCT050 28/17 A2968 RMK A02 TSNO,KQEW,2015-06-15T10:00:00Z,100.65,-1000.65,28.0,17.0,210,2,,6.21,29.681103,,,TRUE,TRUE,,,TRUE,,,,SCT,5000,,,,,,,VFR,,,,,,,,,,,,METAR,999.0
KQEV 151000Z AUTO 33003KT 9999 CLR 26/17 A2972 RMK A02 TSNO,KQEV,2015-06-15T10:00:00Z,100.65,-1000.65,26.0,17.0,330,3,,6.21,29.719488,,,TRUE,TRUE,,,TRUE,,,,CLR,,,,,,,,VFR,,,,,,,,,,,,METAR,999.0
KQES 151000Z AUTO 9999 CLR 17/15 A2976 RMK A02 TSNO,KQES,2015-06-15T10:00:00Z,100.65,-1000.65,17.0,15.0,,,,6.21,29.760826,,,TRUE,TRUE,,,TRUE,,,,CLR,,,,,,,,VFR,,,,,,,,,,,,METAR,999.0
KQER 151000Z AUTO 27002KT 8000 /OVC016 27/15 A2970 RMK A02 TSNO,KQER,2015-06-15T10:00:00Z,100.65,-1000.65,27.0,15.0,270,2,,4.97,29.698818,,,TRUE,TRUE,,,TRUE,,,,OVC,1600,,,,,,,MVFR,,,,,,,,,,,,METAR,999.0
KQEP 151000Z AUTO 28003KT 9999 CLR 26/16 A2966 RMK A02 TSNO,KQEP,2015-06-15T10:00:00Z,100.65,-1000.65,26.0,16.0,280,3,,6.21,29.660433,,,TRUE,TRUE,,,TRUE,,,,CLR,,,,,,,,VFR,,,,,,,,,,,,METAR,999.0
KQEL 151000Z AUTO 33001KT 9999 CLR 29/14 A2973 RMK A02 TSNO,KQEL,2015-06-15T10:00:00Z,100.65,-1000.65,29.0,14.0,330,1,,6.21,29.731298,,,TRUE,TRUE,,,TRUE,,,,CLR,,,,,,,,VFR,,,,,,,,,,,,METAR,999.0
KQEJ 151000Z AUTO 02003KT 9999 FEW065 BKN110 BKN150 26/15 A2969 RMK A02 TSNO,KQEJ,2015-06-15T10:00:00Z,100.65,-1000.65,26.0,15.0,20,3,,6.21,29.68996,,,TRUE,TRUE,,,TRUE,,,,FEW,6500,BKN,11000,BKN,15000,,,VFR,,,,,,,,,,,,METAR,999.0
OPPS 151000Z 05014KT 4000 HZ FEW030TCU SCT040 34/16 Q1001,OPPS,2015-06-15T10:00:00Z,34.02,71.52,34.0,16.0,50,14,,2.49,29.557087,,,,,,,,,,HZ,FEW,3000,SCT,4000,,,,,IFR,,,,,,,,,,,,METAR,360.0
LUBM 151000Z 23005KT 9999 SCT049 32/15 Q1010 R25/CLRD65,LUBM,2015-06-15T10:00:00Z,47.87,28.22,32.0,15.0,230,5,,6.21,29.822834,,,,,,,,,,,SCT,4900,,,,,,,VFR,,,,,,,,,,,,METAR,95.0
SBTE 151000Z 00000KT 9999 FEW007 25/24 Q1014,SBTE,2015-06-15T10:00:00Z,-5.03,-42.82,25.0,24.0,0,0,,6.21,29.940945,,,,,,,,,,,FEW,700,,,,,,,VFR,,,,,,,,,,,,METAR,69.0
WSAP 151000Z 21006KT 9999 FEW018 BKN270 30/25 Q1007,WSAP,2015-06-15T10:00:00Z,1.37,103.92,30.0,25.0,210,6,,6.21,29.734253,,,,,,,,,,,FEW,1800,BKN,27000,,,,,VFR,,,,,,,,,,,,METAR,32.0
TFFR 151000Z AUTO 11004KT 9999 FEW041/// BKN049/// 25/21 Q1016,TFFR,2015-06-15T10:00:00Z,16.27,-61.53,25.0,21.0,110,4,,6.21,30.0,,,TRUE,,,,,,,,,,,,,,,,,,,,,,,,,,,,METAR,11.0
ORNI 151000Z 34010KT 8000 NSC 40/04 Q1002 NOSIG,ORNI,2015-06-15T10:00:00Z,31.98,44.4,40.0,4.0,340,10,,4.97,29.586615,,,,,,TRUE,,,,,,,,,,,,,,,,,,,,,,,,,METAR,53.0
ORMM 151000Z 32016KT CAVOK 45/01 Q1000 NOSIG,ORMM,2015-06-15T10:00:00Z,30.57,47.67,45.0,1.0,320,16,,6.21,29.52756,,,,,,TRUE,,,,,CAVOK,,,,,,,,VFR,,,,,,,,,,,,METAR,2.0
LZTT 151000Z 15005KT 110V210 9999 SCT056 23/14 Q1011 NOSIG,LZTT,2015-06-15T10:00:00Z,49.07,20.25,23.0,14.0,150,5,,6.21,29.852362,,,,,,TRUE,,,,,SCT,5600,,,,,,,VFR,,,,,,,,,,,,METAR,707.0
LZKZ 151000Z 16008KT 130V200 CAVOK 24/17 Q1011 NOSIG,LZKZ,2015-06-15T10:00:00Z,48.67,21.23,24.0,17.0,160,8,,6.21,29.852362,,,,,,TRUE,,,,,CAVOK,,,,,,,,VFR,,,,,,,,,,,,METAR,232.0
LZIB 151000Z 25004KT 180V300 9999 SCT025 BKN040 22/15 Q1010 NOSIG,LZIB,2015-06-15T10:00:00Z,48.17,17.22,22.0,15.0,250,4,,6.21,29.822834,,,,,,TRUE,,,,,SCT,2500,BKN,4000,,,,,VFR,,,,,,,,,,,,METAR,134.0
LZZI 151000Z VRB03KT 9999 FEW040CB FEW045 25/15 Q1010,LZZI,2015-06-15T10:00:00Z,49.23,18.62,25.0,15.0,0,3,,6.21,29.822834,,,,,,,,,,,FEW,4000,FEW,4500,,,,,VFR,,,,,,,,,,,,METAR,311.0
LZSL 151000Z VRB01KT 9999 FEW039 SCT044 26/17 Q1010,LZSL,2015-06-15T10:00:00Z,48.63,19.13,26.0,17.0,0,1,,6.21,29.822834,,,,,,,,,,,FEW,3900,SCT,4400,,,,,VFR,,,,,,,,,,,,METAR,313.0
LZPP 151000Z 17006KT 120V210 9999 SCT040 26/13 Q1010,LZPP,2015-06-15T10:00:00Z,48.62,17.83,26.0,13.0,170,6,,6.21,29.822834,,,,,,,,,,,SCT,4000,,,,,,,VFR,,,,,,,,,,,,METAR,161.0
LHBP 151000Z 21011KT 180V260 9999 SCT042 27/16 Q1010 NOSIG,LHBP,2015-06-15T10:00:00Z,47.42,19.27,27.0,16.0,210,11,,6.21,29.822834,,,,,,TRUE,,,,,SCT,4200,,,,,,,VFR,,,,,,,,,,,,METAR,185.0
UBBG 151000Z 05009KT 020V080 9999 SCT100 30/05 Q1010 R12/CLRD70 NOSIG,UBBG,2015-06-15T10:00:00Z,40.73,46.32,30.0,5.0,50,9,,6.21,29.822834,,,,,,TRUE,,,,,SCT,10000,,,,,,,VFR,,,,,,,,,,,,METAR,330.0
RPLC 151000Z 11004KT 9999 FEW020 SCT300 32/21 Q1008 RMK NOSIG A2978,RPLC,2015-06-15T10:00:00Z,15.17,120.58,32.0,21.0,110,4,,6.21,29.763779,,,,,,,,,,,FEW,2000,SCT,30000,,,,,VFR,,,,,,,,,,,,METAR,196.0
NWWW 151000Z AUTO 10003KT 060V120 CAVOK 17/14 Q1020,NWWW,2015-06-15T10:00:00Z,-22.02,166.22,17.0,14.0,100,3,,6.21,30.11811,,,TRUE,,,,,,,,CAVOK,,,,,,,,VFR,,,,,,,,,,,,METAR,16.0
LBGO 151000Z AUTO VRB02KT 9999 FEW230/// 30/18 Q1011 NOSIG,LBGO,2015-06-15T10:00:00Z,43.15,25.72,30.0,18.0,0,2,,6.21,29.852362,,,TRUE,,,TRUE,,,,,,,,,,,,,,,,,,,,,,,,,METAR,86.0
LBPD 151000Z AUTO VRB03KT 9999 NCD 32/16 Q1011 NOSIG,LBPD,2015-06-15T10:00:00Z,42.13,24.8,32.0,16.0,0,3,,6.21,29.852362,,,TRUE,,,TRUE,,,,,,,,,,,,,,,,,,,,,,,,,METAR,185.0
LBBG 151000Z 16010KT CAVOK 31/18 Q1011 BECMG 12012KT,LBBG,2015-06-15T10:00:00Z,42.57,27.52,31.0,18.0,160,10,,6.21,29.852362,,,,,,,,,,,CAVOK,,,,,,,,VFR,,,,,,,,,,,,METAR,28.0
LBWN 151000Z VRB05KT CAVOK 32/17 Q1010 BECMG 12012KT,LBWN,2015-06-15T10:00:00Z,43.22,27.82,32.0,17.0,0,5,,6.21,29.822834,,,,,,,,,,,CAVOK,,,,,,,,VFR,,,,,,,,,,,,METAR,43.0
LBSF 151000Z 30008KT 270V340 9999 FEW056 29/13 Q1014 NOSIG,LBSF,2015-06-15T10:00:00Z,42.65,23.38,29.0,13.0,300,8,,6.21,29.940945,,,,,,TRUE,,,,,FEW,5600,,,,,,,VFR,,,,,,,,,,,,METAR,595.0
FMCZ 151000Z 16008KT 9999 FEW025 29/20 Q1013 NOSIG,FMCZ,2015-06-15T10:00:00Z,-12.8,45.27,29.0,20.0,160,8,,6.21,29.911417,,,,,,TRUE,,,,,FEW,2500,,,,,,,VFR,,,,,,,,,,,,METAR,7.0
SBMN 151000Z 06005KT CAVOK 25/23 Q1012,SBMN,2015-06-15T10:00:00Z,-3.13,-59.97,25.0,23.0,60,5,,6.21,29.88189,,,,,,,,,,,CAVOK,,,,,,,,VFR,,,,,,,,,,,,METAR,84.0
SBGO 151000Z 34003KT CAVOK 15/14 Q1019,SBGO,2015-06-15T10:00:00Z,-16.62,-49.22,15.0,14.0,340,3,,6.21,30.088583,,,,,,,,,,,CAVOK,,,,,,,,VFR,,,,,,,,,,,,METAR,747.0
TFFF 151000Z AUTO 07011KT 040V100 9999 FEW024 26/22 Q1015,TFFF,2015-06-15T10:00:00Z,14.6,-61.0,26.0,22.0,70,11,,6.21,29.970472,,,TRUE,,,,,,,,FEW,2400,,,,,,,VFR,,,,,,,,,,,,METAR,5.0
FQLC 151000Z 15007KT 9999 SCT015 19/08 Q1023,FQLC,2015-06-15T10:00:00Z,-13.27,35.25,19.0,8.0,150,7,,6.21,30.206694,,,,,,,,,,,SCT,1500,,,,,,,VFR,,,,,,,,,,,,METAR,1365.0
YCOM 151000Z AUTO 03011KT 3500 // BKN006 OVC009 08/08 Q1025,YCOM,2015-06-15T10:00:00Z,-36.3,148.97,8.0,8.0,30,11,,2.17,30.265747,,,TRUE,,,,,,,,BKN,600,OVC,900,,,,,IFR,,,,,,,,,,,,SPECI,941.0
YMIA 151000Z AUTO 32004KT 9999 // BKN004 OVC014 13/13 Q1018,YMIA,2015-06-15T10:00:00Z,-34.23,142.08,13.0,13.0,320,4,,6.21,30.059055,,,TRUE,,,,,,,,BKN,400,OVC,1400,,,,,LIFR,,,,,,,,,,,,SPECI,51.0
MNMG 151000Z 00000KT 9999 FEW020 SCT300 24/22 Q1009 A2980,MNMG,2015-06-15T10:00:00Z,12.15,-86.17,24.0,22.0,0,0,,6.21,29.793306,,,,,,,,,,,FEW,2000,SCT,30000,,,,,VFR,,,,,,,,,,,,METAR,59.0
SBGR 151000Z 19005KT 7000 BKN040 BKN080 18/17 Q1016,SBGR,2015-06-15T10:00:00Z,-23.42,-46.47,18.0,17.0,190,5,,4.35,30.0,,,,,,,,,,,BKN,4000,BKN,8000,,,,,MVFR,,,,,,,,,,,,METAR,750.0
SBRJ 151000Z 21008KT 9999 FEW015 26/20 Q1010,SBRJ,2015-06-15T10:00:00Z,-22.88,-43.17,26.0,20.0,210,8,,6.21,29.822834,,,,,,,,,,,FEW,1500,,,,,,,VFR,,,,,,,,,,,,METAR,3.0
LUBL 151000Z AUTO VRB04KT 9999 ///120 23/18 Q1011,LUBL,2015-06-15T10:00:00Z,47.83,27.78,23.0,18.0,0,4,,6.21,29.852362,,,TRUE,,,,,,,,,,,,,,,,,,,,,,,,,,,,METAR,232.0
SOCA 151000Z AUTO 00000KT 9999 FEW029/// SCT084/// BKN100/// 24/23 Q1013,SOCA,2015-06-15T10:00:00Z,4.82,-52.37,24.0,23.0,0,0,,6.21,29.911417,,,TRUE,,,,,,,,,,,,,,,,,,,,,,,,,,,,METAR,9.0
LDSB 151000Z 17005KT 110V220 9999 SCT020 24/19 Q1017,LDSB,2015-06-15T10:00:00Z,43.28,16.68,24.0,19.0,170,5,,6.21,30.029528,,,,,,,,,,,SCT,2000,,,,,,,VFR,,,,,,,,,,,,METAR,542.0
LDOS 151000Z 25012KT 9999 FEW033 30/16 Q1012,LDOS,2015-06-15T10:00:00Z,45.47,18.82,30.0,16.0,250,12,,6.21,29.88189,,,,,,,,,,,FEW,3300,,,,,,,VFR,,,,,,,,,,,,METAR,89.0
LDRI 151000Z VRB03KT 9999 -RA VCTS FEW013 FEW030CB SCT040 24/19 Q1013,LDRI,2015-06-15T10:00:00Z,45.22,14.57,24.0,19.0,0,3,,6.21,29.911417,,,,,,,,,,-RA VCTS,FEW,1300,FEW,3000,SCT,4000,,,VFR,,,,,,,,,,,,METAR,85.0
LDZD 151000Z 28008KT 240V340 9999 FEW040 25/17 Q1015 NOSIG,LDZD,2015-06-15T10:00:00Z,44.1,15.37,25.0,17.0,280,8,,6.21,29.970472,,,,,,TRUE,,,,,FEW,4000,,,,,,,VFR,,,,,,,,,,,,METAR,84.0
LDZA 151000Z 25011KT 200V320 9999 FEW045 27/14 Q1011 NOSIG,LDZA,2015-06-15T10:00:00Z,45.72,16.07,27.0,14.0,250,11,,6.21,29.852362,,,,,,TRUE,,,,,FEW,4500,,,,,,,VFR,,,,,,,,,,,,METAR,107.0
LDDU 151000Z 15013KT 120V200 9999 FEW023 26/20 Q1016 NOSIG,LDDU,2015-06-15T10:00:00Z,42.57,18.27,26.0,20.0,150,13,,6.21,30.0,,,,,,TRUE,,,,,FEW,2300,,,,,,,VFR,,,,,,,,,,,,METAR,165.0
LDPL 151000Z 26010KT 230V300 9999 FEW025 25/17 Q1014 NOSIG,LDPL,2015-06-15T10:00:00Z,44.88,13.92,25.0,17.0,260,10,,6.21,29.940945,,,,,,TRUE,,,,,FEW,2500,,,,,,,VFR,,,,,,,,,,,,METAR,63.0
LDSP 151000Z 23007KT 170V280 9999 FEW040 27/19 Q1014 NOSIG,LDSP,2015-06-15T10:00:00Z,43.52,16.3,27.0,19.0,230,7,,6.21,29.940945,,,,,,TRUE,,,,,FEW,4000,,,,,,,VFR,,,,,,,,,,,,METAR,21.0
FWKI 151000Z 11010KT 9999 SCT030 21/07 Q1022 NOSIG,FWKI,2015-06-15T10:00:00Z,-13.77,33.77,21.0,7.0,110,10,,6.21,30.177166,,,,,,TRUE,,,,,SCT,3000,,,,,,,VFR,,,,,,,,,,,,METAR,1229.0
SBCP 151000Z 34009KT CAVOK 24/19 Q1011,SBCP,2015-06-15T10:00:00Z,-21.7,-41.3,24.0,19.0,340,9,,6.21,29.852362,,,,,,,,,,,CAVOK,,,,,,,,VFR,,,,,,,,,,,,METAR,11.0
TGPY 151000Z 07017KT 8000 FEW018 SCT040 26/24 Q1013 NOSIG ,TGPY,2015-06-15T10:00:00Z,12.0,-61.78,26.0,24.0,70,17,,4.97,29.911417,,,,,,TRUE,,,,,FEW,1800,SCT,4000,,,,,MVFR,,,,,,,,,,,,METAR,7.0
YCDU 151000Z AUTO 00000KT 7000 // SCT006 OVC087 14/13 Q1018,YCDU,2015-06-15T10:00:00Z,-32.12,133.7,14.0,13.0,0,0,,4.35,30.059055,,,TRUE,,,,,,,,SCT,600,OVC,8700,,,,,MVFR,,,,,,,,,,,,SPECI,15.0
YBCG 151000Z AUTO 21006KT 9999 // SCT014 BKN027 OVC040 18/16 Q1024,YBCG,2015-06-15T10:00:00Z,-28.17,153.5,18.0,16.0,210,6,,6.21,30.236221,,,TRUE,,,,,,,,SCT,1400,BKN,2700,OVC,4000,,,MVFR,,,,,,,,,,,,METAR,6.0
YSRI 151000Z AUTO 00000KT 1200 -SHRA SCT002 BKN006 OVC014 14/14 Q1025,YSRI,2015-06-15T10:00:00Z,-33.6,150.77,14.0,14.0,0,0,,0.75,30.265747,,,TRUE,,,,,,,-SHRA,SCT,200,BKN,600,OVC,1400,,,LIFR,,,,,,,,,,,,SPECI,21.0
YMER 151000Z AUTO 00000KT 6000 // SCT037 12/12 Q1026,YMER,2015-06-15T10:00:00Z,-36.92,149.9,12.0,12.0,0,0,,3.73,30.295275,,,TRUE,,,,,,,,SCT,3700,,,,,,,MVFR,,,,,,,,,,,,SPECI,2.0
DXXX 151000Z 23006KT 190V260 9999 SCT013 28/24 Q1016 NOSIG,DXXX,2015-06-15T10:00:00Z,6.17,1.25,28.0,24.0,230,6,,6.21,30.0,,,,,,TRUE,,,,,SCT,1300,,,,,,,VFR,,,,,,,,,,,,METAR,25.0
OMSJ 151000Z 31010KT 8000 NSC 37/25 Q0998,OMSJ,2015-06-15T10:00:00Z,25.32,55.52,37.0,25.0,310,10,,4.97,29.468504,,,,,,,,,,,,,,,,,,,,,,,,,,,,,,,METAR,33.0
OMRK 151000Z 36011KT CAVOK 39/23 Q0998 A2949,OMRK,2015-06-15T10:00:00Z,25.62,55.92,39.0,23.0,360,11,,6.21,29.468504,,,,,,,,,,,CAVOK,,,,,,,,VFR,,,,,,,,,,,,METAR,31.0
OMFJ 151000Z 09010KT 060V130 8000 NSC 34/25 Q0999 A2951,OMFJ,2015-06-15T10:00:00Z,25.1,56.32,34.0,25.0,90,10,,4.97,29.498032,,,,,,,,,,,,,,,,,,,,,,,,,,,,,,,METAR,28.0
OMDW 151000Z 32014KT 280V350 7000 NSC 38/25 Q0999 TEMPO 33015G25KT,OMDW,2015-06-15T10:00:00Z,24.9,55.17,38.0,25.0,320,14,,4.35,29.498032,,,,,,,,,,,,,,,,,,,,,,,,,,,,,,,METAR,25.0
OMDB 151000Z 33014KT 8000 NSC 36/26 Q0998 NOSIG,OMDB,2015-06-15T10:00:00Z,25.25,55.37,36.0,26.0,330,14,,4.97,29.468504,,,,,,TRUE,,,,,,,,,,,,,,,,,,,,,,,,,METAR,5.0
OMAL 151000Z 32010KT 220V350 9999 FEW045TCU 44/18 Q0999 A2952 NOSIG,OMAL,2015-06-15T10:00:00Z,24.25,55.6,44.0,18.0,320,10,,6.21,29.498032,,,,,,TRUE,,,,,FEW,4500,,,,,,,VFR,,,,,,,,,,,,METAR,262.0
OMAD 151000Z 33015KT CAVOK 36/27 Q0998 A2948 NOSIG,OMAD,2015-06-15T10:00:00Z,24.42,54.47,36.0,27.0,330,15,,6.21,29.468504,,,,,,TRUE,,,,,CAVOK,,,,,,,,VFR,,,,,,,,,,,,METAR,3.0
OMAA 151000Z 31016KT 8000 NSC 38/27 Q0998 A2947 NOSIG,OMAA,2015-06-15T10:00:00Z,24.42,54.63,38.0,27.0,310,16,,4.97,29.468504,,,,,,TRUE,,,,,,,,,,,,,,,,,,,,,,,,,METAR,27.0
OKBK 151000Z 35013KT CAVOK 44/03 Q1001 NOSIG,OKBK,2015-06-15T10:00:00Z,29.22,47.97,44.0,3.0,350,13,,6.21,29.557087,,,,,,TRUE,,,,,CAVOK,,,,,,,,VFR,,,,,,,,,,,,METAR,55.0
OTHH 151000Z 09006KT CAVOK 36/20 Q0999 NOSIG,OTHH,2015-06-15T10:00:00Z,25.25,51.6,36.0,20.0,90,6,,6.21,29.498032,,,,,,TRUE,,,,,CAVOK,,,,,,,,VFR,,,,,,,,,,,,METAR,0.0
OTBD 151000Z 09009KT CAVOK 37/22 Q0999 NOSIG,OTBD,2015-06-15T10:00:00Z,25.25,51.57,37.0,22.0,90,9,,6.21,29.498032,,,,,,TRUE,,,,,CAVOK,,,,,,,,VFR,,,,,,,,,,,,METAR,10.0
OBBI 151000Z 35014KT 310V010 CAVOK 38/17 Q1000 NOSIG,OBBI,2015-06-15T10:00:00Z,26.27,50.63,38.0,17.0,350,14,,6.21,29.52756,,,,,,TRUE,,,,,CAVOK,,,,,,,,VFR,,,,,,,,,,,,METAR,2.0
LUKK 151000Z 20005KT 170V230 9999 FEW049 29/15 Q1010 R26/CLRD65 NOSIG,LUKK,2015-06-15T10:00:00Z,46.93,28.93,29.0,15.0,200,5,,6.21,29.822834,,,,,,TRUE,,,,,FEW,4900,,,,,,,VFR,,,,,,,,,,,,METAR,122.0
PKWA 151000Z AUTO 07009KT 10SM CLR 28/24 A2982 RMK AO2 T02760235,PKWA,2015-06-15T10:00:00Z,8.72,167.72,27.6,23.5,70,9,,10.0,29.819881,,,TRUE,TRUE,,,,,,,CLR,,,,,,,,VFR,,,,,,,,,,,,METAR,8.0
NCPY 151000Z AUTO 10011KT //// ////// 28/25 Q1007,NCPY,2015-06-15T10:00:00Z,-9.02,-158.07,28.0,25.0,100,11,,,29.734253,,,TRUE,,,,,,,,,,,,,,,,,,,,,,,,,,,,METAR,2.0
NCMH 151000Z AUTO NIL,NCMH,2015-06-15T10:00:00Z,-10.38,-161.0,,,,,,,,,,TRUE,,,,,,,,,,,,,,,,,,,,,,,,,,,,METAR,0.0
NCAI 151000Z AUTO NIL,NCAI,2015-06-15T10:00:00Z,-18.82,-159.77,,,,,,,,,,TRUE,,,,,,,,,,,,,,,,,,,,,,,,,,,,METAR,6.0
NCRG 151000Z 10010KT 9999 SCT012 BKN090 25/22 Q1015,NCRG,2015-06-15T10:00:00Z,-21.2,-159.82,25.0,22.0,100,10,,6.21,29.970472,,,,,,,,,,,SCT,1200,BKN,9000,,,,,VFR,,,,,,,,,,,,METAR,7.0
NTAA 151000Z 05005KT 010V100 9999 FEW023 26/19 Q1013 NOSIG,NTAA,2015-06-15T10:00:00Z,-17.55,-149.62,26.0,19.0,50,5,,6.21,29.911417,,,,,,TRUE,,,,,FEW,2300,,,,,,,VFR,,,,,,,,,,,,METAR,2.0
MYNN 151000Z 10004KT 9999 FEW016CB 26/23 A3006 RMK CB NW,MYNN,2015-06-15T10:00:00Z,25.03,-77.47,26.0,23.0,100,4,,6.21,30.059055,,,,,,,,,,,FEW,1600,,,,,,,VFR,,,,,,,,,,,,METAR,3.0
SBMO 151000Z 05002KT 6000 SCT008 SCT020 BKN070 22/22 Q1016,SBMO,2015-06-15T10:00:00Z,-9.52,-35.77,22.0,22.0,50,2,,3.73,30.0,,,,,,,,,,,SCT,800,SCT,2000,BKN,7000,,,MVFR,,,,,,,,,,,,METAR,115.0
FNHU 151000Z 09005KT CAVOK 20/05 Q1026,FNHU,2015-06-15T10:00:00Z,-12.82,15.77,20.0,5.0,90,5,,6.21,30.295275,,,,,,,,,,,CAVOK,,,,,,,,VFR,,,,,,,,,,,,METAR,1701.0
SBPK 151000Z 29006KT CAVOK 06/03 Q1015,SBPK,2015-06-15T10:00:00Z,-31.72,-52.33,6.0,3.0,290,6,,6.21,29.970472,,,,,,,,,,,CAVOK,,,,,,,,VFR,,,,,,,,,,,,METAR,13.0
SBMA 151000Z 00000KT CAVOK 22/22 Q1013,SBMA,2015-06-15T10:00:00Z,-5.37,-49.13,22.0,22.0,0,0,,6.21,29.911417,,,,,,,,,,,CAVOK,,,,,,,,VFR,,,,,,,,,,,,METAR,102.0
OERK 151000Z 29003KT CAVOK 41/M02 Q1007 NOSIG,OERK,2015-06-15T10:00:00Z,24.95,46.72,41.0,-2.0,290,3,,6.21,29.734253,,,,,,TRUE,,,,,CAVOK,,,,,,,,VFR,,,,,,,,,,,,METAR,612.0
OEMA 151000Z 28010KT CAVOK 41/M11 Q1009 NOSIG,OEMA,2015-06-15T10:00:00Z,24.55,39.7,41.0,-11.0,280,10,,6.21,29.793306,,,,,,TRUE,,,,,CAVOK,,,,,,,,VFR,,,,,,,,,,,,METAR,631.0
OEJN 151000Z 32014KT 9999 FEW040 SCT100 36/18 Q1004 NOSIG,OEJN,2015-06-15T10:00:00Z,21.68,39.15,36.0,18.0,320,14,,6.21,29.64567,,,,,,TRUE,,,,,FEW,4000,SCT,10000,,,,,VFR,,,,,,,,,,,,METAR,15.0
OEDR 151000Z 01019KT CAVOK 42/05 Q0999 NOSIG,OEDR,2015-06-15T10:00:00Z,26.27,50.17,42.0,5.0,10,19,,6.21,29.498032,,,,,,TRUE,,,,,CAVOK,,,,,,,,VFR,,,,,,,,,,,,METAR,17.0
OEDF 151000Z 36018KT CAVOK 42/02 Q1000 NOSIG,OEDF,2015-06-15T10:00:00Z,26.47,49.8,42.0,2.0,360,18,,6.21,29.52756,,,,,,TRUE,,,,,CAVOK,,,,,,,,VFR,,,,,,,,,,,,METAR,22.0
OPST 151000Z 05002KT 5000 HZ SCT040 SCT100 33/19 Q1002 TEMPO 05015G30KT 3000 -TSRA FEW030CB RH44,OPST,2015-06-15T10:00:00Z,32.53,74.37,33.0,19.0,50,2,,3.11,29.586615,,,,,,,,,,HZ,SCT,4000,SCT,10000,,,,,MVFR,,,,,,,,,,,,METAR,247.0
SBVT 151000Z 04006KT CAVOK 22/19 Q1012,SBVT,2015-06-15T10:00:00Z,-20.27,-40.27,22.0,19.0,40,6,,6.21,29.88189,,,,,,,,,,,CAVOK,,,,,,,,VFR,,,,,,,,,,,,METAR,4.0
GQNN 151000Z 04012KT 6000 NSC 35/09 Q1012 NOSIG,GQNN,2015-06-15T10:00:00Z,18.1,-15.93,35.0,9.0,40,12,,3.73,29.88189,,,,,,TRUE,,,,,,,,,,,,,,,,,,,,,,,,,METAR,3.0
FNBG 151000Z 34008KT 9999 FEW022 22/18 Q1016,FNBG,2015-06-15T10:00:00Z,-12.62,13.4,22.0,18.0,340,8,,6.21,30.0,,,,,,,,,,,FEW,2200,,,,,,,VFR,,,,,,,,,,,,METAR,36.0
SBSN 151000Z 07005KT 9999 SCT015 BKN100 25/24 Q1012,SBSN,2015-06-15T10:00:00Z,-2.42,-54.78,25.0,24.0,70,5,,6.21,29.88189,,,,,,,,,,,SCT,1500,BKN,10000,,,,,VFR,,,,,,,,,,,,METAR,72.0
UBBQ 151000Z 33007KT 9999 BKN100 31/10 Q1010 R34/CLRD70 NOSIG RMK MT OP,UBBQ,2015-06-15T10:00:00Z,40.82,47.72,31.0,10.0,330,7,,6.21,29.822834,,,,,,TRUE,,,,,BKN,10000,,,,,,,VFR,,,,,,,,,,,,METAR,338.0
GOOY 151000Z 32008KT 290V350 8000 FEW008 BKN230 27/22 Q1013 NOSIG,GOOY,2015-06-15T10:00:00Z,14.72,-17.5,27.0,22.0,320,8,,4.97,29.911417,,,,,,TRUE,,,,,FEW,800,BKN,23000,,,,,MVFR,,,,,,,,,,,,METAR,24.0
FWCL 151000Z 20006KT 9999 BKN030 23/09 Q1022 NOSIG,FWCL,2015-06-15T10:00:00Z,-15.67,34.97,23.0,9.0,200,6,,6.21,30.177166,,,,,,TRUE,,,,,BKN,3000,,,,,,,MVFR,,,,,,,,,,,,METAR,767.0
SBCY 151000Z 34005KT CAVOK 21/19 Q1014,SBCY,2015-06-15T10:00:00Z,-15.65,-56.12,21.0,19.0,340,5,,6.21,29.940945,,,,,,,,,,,CAVOK,,,,,,,,VFR,,,,,,,,,,,,METAR,182.0
SBCT 151000Z 26005KT 8000 SCT006 BKN009 BKN013 11/10 Q1017,SBCT,2015-06-15T10:00:00Z,-25.52,-49.17,11.0,10.0,260,5,,4.97,30.029528,,,,,,,,,,,SCT,600,BKN,900,BKN,1300,,,IFR,,,,,,,,,,,,METAR,908.0
SBMQ 151000Z 00000KT 9999 SCT013 25/25 Q1012,SBMQ,2015-06-15T10:00:00Z,0.05,-51.07,25.0,25.0,0,0,,6.21,29.88189,,,,,,,,,,,SCT,1300,,,,,,,VFR,,,,,,,,,,,,METAR,15.0
MHTG 151000Z 36004KT 9999 BKN026 SCT080 21/21 Q1016 A3000 NOSIG,MHTG,2015-06-15T10:00:00Z,14.07,-87.22,21.0,21.0,360,4,,6.21,30.0,,,,,,TRUE,,,,,BKN,2600,SCT,8000,,,,,MVFR,,,,,,,,,,,,METAR,1004.0
SAZS 151000Z 32022G32KT 9999 FEW025 06/01 Q1013,SAZS,2015-06-15T10:00:00Z,-41.13,-71.17,6.0,1.0,320,22,32,6.21,29.911417,,,,,,,,,,,FEW,2500,,,,,,,VFR,,,,,,,,,,,,METAR,840.0
SBSP 151000Z 18009KT 9999 OVC003 16/14 Q1017,SBSP,2015-06-15T10:00:00Z,-23.62,-46.63,16.0,14.0,180,9,,6.21,30.029528,,,,,,,,,,,OVC,300,,,,,,,LIFR,,,,,,,,,,,,METAR,803.0
UBBN 151000Z 13005KT 9999 NSC 30/06 Q1007 R14R/CLRD60 NOSIG RMK MT OP QFE681,UBBN,2015-06-15T10:00:00Z,39.18,45.45,30.0,6.0,130,5,,6.21,29.734253,,,,,,TRUE,,,,,,,,,,,,,,,,,,,,,,,,,METAR,873.0
OPNH 151000Z 23006KTS 7000M NSC 43/23 Q0995-,OPNH,2015-06-15T10:00:00Z,26.22,68.37,43.0,23.0,230,6,,4.35,,,,,,,,,,,,,,,,,,,,,,,,,,,,,,,,METAR,38.0
SBCB 151000Z 32002KT CAVOK 24/20 Q1010,SBCB,2015-06-15T10:00:00Z,-22.92,-42.08,24.0,20.0,320,2,,6.21,29.822834,,,,,,,,,,,CAVOK,,,,,,,,VFR,,,,,,,,,,,,METAR,4.0
FYWB 151000Z 27007KT CAVOK 19/06 Q1020,FYWB,2015-06-15T10:00:00Z,-22.98,14.65,19.0,6.0,270,7,,6.21,30.11811,,,,,,,,,,,CAVOK,,,,,,,,VFR,,,,,,,,,,,,METAR,46.0
FYWH 151000Z 35004KT CAVOK 20/M06 Q1028 NOSIG,FYWH,2015-06-15T10:00:00Z,-22.47,17.47,20.0,-6.0,350,4,,6.21,30.35433,,,,,,TRUE,,,,,CAVOK,,,,,,,,VFR,,,,,,,,,,,,METAR,1700.0
YCBA 151000Z AUTO 04008KT 8000 // BKN014 OVC019 15/15 Q1019,YCBA,2015-06-15T10:00:00Z,-31.53,145.8,15.0,15.0,40,8,,4.97,30.088583,,,TRUE,,,,,,,,BKN,1400,OVC,1900,,,,,MVFR,,,,,,,,,,,,SPECI,221.0
HECA 151000Z 32006KT 6000 NSC 30/17 Q1011 NOSIG,HECA,2015-06-15T10:00:00Z,30.12,31.38,30.0,17.0,320,6,,3.73,29.852362,,,,,,TRUE,,,,,,,,,,,,,,,,,,,,,,,,,METAR,74.0
FIMP 151000Z 24009KT 9999 SCT019 26/19 Q1012,FIMP,2015-06-15T10:00:00Z,-20.42,57.67,26.0,19.0,240,9,,6.21,29.88189,,,,,,,,,,,SCT,1900,,,,,,,VFR,,,,,,,,,,,,METAR,57.0
MROC 151000Z 09008KT CAVOK 21/16 A2992 NOSIG,MROC,2015-06-15T10:00:00Z,10.0,-84.22,21.0,16.0,90,8,,6.21,29.920275,,,,,,TRUE,,,,,CAVOK,,,,,,,,VFR,,,,,,,,,,,,METAR,920.0
LQMO 151000Z VRB04KT 9999 SCT050 28/15 Q1013,LQMO,2015-06-15T10:00:00Z,43.28,17.83,28.0,15.0,0,4,,6.21,29.911417,,,,,,,,,,,SCT,5000,,,,,,,VFR,,,,,,,,,,,,METAR,48.0
FDSK 151000Z 04007KT 360V060 CAVOK 28/01 Q1016 NOSIG,FDSK,2015-06-15T10:00:00Z,-26.35,31.72,28.0,1.0,40,7,,6.21,30.0,,,,,,TRUE,,,,,CAVOK,,,,,,,,VFR,,,,,,,,,,,,METAR,324.0
SVMG 151000Z /////KT 9999 BKN010 26/25 Q1013 NOSIG,SVMG,2015-06-15T10:00:00Z,10.92,-63.97,26.0,25.0,,,,6.21,29.911417,,,,,,TRUE,,,,,BKN,1000,,,,,,,MVFR,,,,,,,,,,,,METAR,23.0
OPSK 151000Z 09010KT 5000 HZ NSC 40/26 Q0995 RH47 PC,OPSK,2015-06-15T10:00:00Z,27.72,68.8,40.0,26.0,90,10,,3.11,29.379921,,,,,,,,,,HZ,,,,,,,,,,,,,,,,,,,,,METAR,58.0
SBFN 151000Z 13011KT 090V160 9999 SCT017 27/24 Q1015,SBFN,2015-06-15T10:00:00Z,-3.85,-32.42,27.0,24.0,130,11,,6.21,29.970472,,,,,,,,,,,SCT,1700,,,,,,,VFR,,,,,,,,,,,,METAR,56.0
SBEG 151000Z 00000KT CAVOK 23/22 Q1013,SBEG,2015-06-15T10:00:00Z,-3.02,-60.03,23.0,22.0,0,0,,6.21,29.911417,,,,,,,,,,,CAVOK,,,,,,,,VFR,,,,,,,,,,,,METAR,2.0
GBYD 151000Z 28010KT CAVOK 29/23 Q1012,GBYD,2015-06-15T10:00:00Z,13.33,-16.65,29.0,23.0,280,10,,6.21,29.88189,,,,,,,,,,,CAVOK,,,,,,,,VFR,,,,,,,,,,,,METAR,36.0
SBPV 151000Z 00000KT CAVOK 22/22 Q1012,SBPV,2015-06-15T10:00:00Z,-8.72,-63.9,22.0,22.0,0,0,,6.21,29.88189,,,,,,,,,,,CAVOK,,,,,,,,VFR,,,,,,,,,,,,METAR,88.0
FNLU 151000Z 00000KT 5000 BR BKN010 OVC022 21/18 Q1016,FNLU,2015-06-15T10:00:00Z,-8.83,13.22,21.0,18.0,0,0,,3.11,30.0,,,,,,,,,,BR,BKN,1000,OVC,2200,,,,,MVFR,,,,,,,,,,,,METAR,70.0
UBBL 151000Z 04008KT 9999 NSC 31/12 Q1009 R33/CLRD70 RMK MT OP,UBBL,2015-06-15T10:00:00Z,38.75,48.82,31.0,12.0,40,8,,6.21,29.793306,,,,,,,,,,,,,,,,,,,,,,,,,,,,,,,METAR,10.0
FNSU 151000Z 27005KT 9999 OVC010 21/18 Q1018,FNSU,2015-06-15T10:00:00Z,-11.17,13.85,21.0,18.0,270,5,,6.21,30.059055,,,,,,,,,,,OVC,1000,,,,,,,MVFR,,,,,,,,,,,,METAR,11.0
BIBD 151000Z 06002KT CAVOK 11/// Q1012,BIBD,2015-06-15T10:00:00Z,65.63,-23.55,,,60,2,,6.21,29.88189,,,,,,,,,,,CAVOK,,,,,,,,VFR,,0.0,,,,,,,,,,METAR,6.0
LWOH 151000Z 18005KT 120V220 CAVOK 25/12 Q1018,LWOH,2015-06-15T10:00:00Z,41.18,20.75,25.0,12.0,180,5,,6.21,30.059055,,,,,,,,,,,CAVOK,,,,,,,,VFR,,,,,,,,,,,,METAR,761.0
MPTO 151000Z 00000KT 9999 FEW020 25/24 Q1007 NOSIG,MPTO,2015-06-15T10:00:00Z,9.05,-79.37,25.0,24.0,0,0,,6.21,29.734253,,,,,,TRUE,,,,,FEW,2000,,,,,,,VFR,,,,,,,,,,,,METAR,45.0
SUMU 151000Z 32005KT CAVOK 05/01 Q1013 NOSIG,SUMU,2015-06-15T10:00:00Z,-34.82,-56.0,5.0,1.0,320,5,,6.21,29.911417,,,,,,TRUE,,,,,CAVOK,,,,,,,,VFR,,,,,,,,,,,,METAR,32.0
SBSL 151000Z 12002KT 9999 FEW017 26/23 Q1013,SBSL,2015-06-15T10:00:00Z,-2.6,-44.22,26.0,23.0,120,2,,6.21,29.911417,,,,,,,,,,,FEW,1700,,,,,,,VFR,,,,,,,,,,,,METAR,53.0
SBFI 151000Z 15006KT CAVOK 09/09 Q1019,SBFI,2015-06-15T10:00:00Z,-25.6,-54.48,9.0,9.0,150,6,,6.21,30.088583,,,,,,,,,,,CAVOK,,,,,,,,VFR,,,,,,,,,,,,METAR,243.0
LWSK 151000Z VRB02KT CAVOK 30/10 Q1013 NOSIG,LWSK,2015-06-15T10:00:00Z,41.97,21.63,30.0,10.0,0,2,,6.21,29.911417,,,,,,TRUE,,,,,CAVOK,,,,,,,,VFR,,,,,,,,,,,,METAR,239.0
SBRB 151000Z 00000KT CAVOK 22/21 Q1012,SBRB,2015-06-15T10:00:00Z,-10.0,-67.78,22.0,21.0,0,0,,6.21,29.88189,,,,,,,,,,,CAVOK,,,,,,,,VFR,,,,,,,,,,,,METAR,143.0
UBEE 151000Z 18007KT CAVOK 32/09 Q1009 R12/CLRD70 NOSIG,UBEE,2015-06-15T10:00:00Z,40.63,47.15,32.0,9.0,180,7,,6.21,29.793306,,,,,,TRUE,,,,,CAVOK,,,,,,,,VFR,,,,,,,,,,,,METAR,15.0
OJAM 151000Z 32013KT 5000 HZ NSC 27/09 Q1012 NOSIG,OJAM,2015-06-15T10:00:00Z,31.97,35.97,27.0,9.0,320,13,,3.11,29.88189,,,,,,TRUE,,,,HZ,,,,,,,,,,,,,,,,,,,,,METAR,773.0
MBGT 151000Z 10008KT 9000 SCT015 26/21 Q1016,MBGT,2015-06-15T10:00:00Z,21.43,-71.15,26.0,21.0,100,8,,5.59,30.0,,,,,,,,,,,SCT,1500,,,,,,,VFR,,,,,,,,,,,,METAR,4.0
OJAQ 151000Z 36010KT CAVOK 32/11 Q1008 NOSIG,OJAQ,2015-06-15T10:00:00Z,29.62,35.02,32.0,11.0,360,10,,6.21,29.763779,,,,,,TRUE,,,,,CAVOK,,,,,,,,VFR,,,,,,,,,,,,METAR,51.0
OJAI 151000Z 28012KT 8000 NSC 28/13 Q1012 NOSIG,OJAI,2015-06-15T10:00:00Z,31.72,36.0,28.0,13.0,280,12,,4.97,29.88189,,,,,,TRUE,,,,,,,,,,,,,,,,,,,,,,,,,METAR,730.0
BKPR 151000Z 22008KT 190V270 CAVOK 28/07 Q1015 NOSIG,BKPR,2015-06-15T10:00:00Z,42.58,21.03,28.0,7.0,220,8,,6.21,29.970472,,,,,,TRUE,,,,,CAVOK,,,,,,,,VFR,,,,,,,,,,,,METAR,576.0
FQMA 151000Z 35012KT CAVOK 30/05 Q1016 NOSIG,FQMA,2015-06-15T10:00:00Z,-25.92,32.57,30.0,5.0,350,12,,6.21,30.0,,,,,,TRUE,,,,,CAVOK,,,,,,,,VFR,,,,,,,,,,,,METAR,44.0
FDMS 151000Z 00000KT CAVOK 26/02 Q1017 NOSIG,FDMS,2015-06-15T10:00:00Z,-26.52,31.3,26.0,2.0,0,0,,6.21,30.029528,,,,,,TRUE,,,,,CAVOK,,,,,,,,VFR,,,,,,,,,,,,METAR,641.0
MBPV 151000Z 09008KT 9999 SCT012 27/23 Q1016,MBPV,2015-06-15T10:00:00Z,21.77,-72.27,27.0,23.0,90,8,,6.21,30.0,,,,,,,,,,,SCT,1200,,,,,,,VFR,,,,,,,,,,,,METAR,5.0
FNCA 151000Z 30004KT 9999 FEW010 BKN023 23/20 Q1016,FNCA,2015-06-15T10:00:00Z,-5.58,12.18,23.0,20.0,300,4,,6.21,30.0,,,,,,,,,,,FEW,1000,BKN,2300,,,,,MVFR,,,,,,,,,,,,METAR,20.0
SBFZ 151000Z 16008KT 9999 FEW019 25/22 Q1014,SBFZ,2015-06-15T10:00:00Z,-3.77,-38.52,25.0,22.0,160,8,,6.21,29.940945,,,,,,,,,,,FEW,1900,,,,,,,VFR,,,,,,,,,,,,METAR,25.0
SBBV 151000Z 11003KT 9999 -RA SCT025 BKN090 23/22 Q1013,SBBV,2015-06-15T10:00:00Z,2.85,-60.7,23.0,22.0,110,3,,6.21,29.911417,,,,,,,,,,-RA,SCT,2500,BKN,9000,,,,,VFR,,,,,,,,,,,,METAR,140.0
KHWV 150959Z AUTO 18007G16KT 2 1/2SM +RA BR BKN004 BKN010 OVC026 19/18 A3005 RMK AO2 PRESRR P0004 T01890178 TSNO,KHWV,2015-06-15T09:59:00Z,40.82,-72.87,18.9,17.8,180,7,16,2.5,30.050198,,,TRUE,TRUE,,,TRUE,,,+RA BR,BKN,400,BKN,1000,OVC,2600,,,LIFR,,,,,,0.04,,,,,,METAR,21.0
KLVL 150959Z AUTO 00000KT 7SM CLR 22/22 A3005 RMK AO2,KLVL,2015-06-15T09:59:00Z,36.78,-77.8,22.0,22.0,0,0,,7.0,30.050198,,,TRUE,TRUE,,,,,,,CLR,,,,,,,,VFR,,,,,,,,,,,,METAR,100.0
KNGU 150959Z 21004KT 7SM FEW150 SCT300 27/24 A3004 RMK AO2 SLP171 T02720239 $,KNGU,2015-06-15T09:59:00Z,36.92,-76.27,27.2,23.9,210,4,,7.0,30.041338,1017.1,,,TRUE,TRUE,,,,,,FEW,15000,SCT,30000,,,,,VFR,,,,,,,,,,,,METAR,5.0
KBDU 150958Z AUTO 15003KT 10SM SCT044 16/11 A3017 RMK AO2,KBDU,2015-06-15T09:58:00Z,40.03,-105.23,16.0,11.0,150,3,,10.0,30.171259,,,TRUE,TRUE,,,,,,,SCT,4400,,,,,,,VFR,,,,,,,,,,,,METAR,1612.0
CYPQ 150958Z AUTO 36002KT 6SM BR OVC006 17/17 A2993 RMK SLP134 DENSITY ALT 1000FT,CYPQ,2015-06-15T09:58:00Z,44.22,-78.37,17.0,17.0,360,2,,6.0,29.929134,1013.4,,TRUE,,,,,,,BR,OVC,600,,,,,,,IFR,,,,,,,,,,,,SPECI,191.0
ROTM 150958Z VRB06KT 9999 SCT025 BKN180 29/24 A2987 RMK SLP100 T02940239,ROTM,2015-06-15T09:58:00Z,26.27,127.75,29.4,23.9,0,6,,6.21,29.870079,1010.0,,,,,,,,,,SCT,2500,BKN,18000,,,,,VFR,,,,,,,,,,,,METAR,75.0
KIJD 150958Z AUTO 14006KT 3SM RA BR SCT021 BKN029 OVC055 16/14 A3006 RMK AO2 P0002 T01560139,KIJD,2015-06-15T09:58:00Z,41.75,-72.18,15.6,13.9,140,6,,3.0,30.059055,,,TRUE,TRUE,,,,,,RA BR,SCT,2100,BKN,2900,OVC,5500,,,MVFR,,,,,,0.02,,,,,,METAR,75.0
KQSA 150958Z 36027G33KT 9999 FEW070 30/01 A2978 RMK AO2A SLP982 T02980013 VISNO RWY21 CHINO RWY21 $,KQSA,2015-06-15T09:58:00Z,100.65,-1000.65,29.8,1.3,360,27,33,6.21,29.778543,998.2,,,TRUE,TRUE,,,,,,FEW,7000,,,,,,,VFR,,,,,,,,,,,,METAR,999.0
KQIR 150958Z VRB06KT 9999 CLR 43/08 A2950 RMK AO2A SLP990 T04320082,KQIR,2015-06-15T09:58:00Z,100.65,-1000.65,43.2,8.2,0,6,,6.21,29.500984,999.0,,,TRUE,,,,,,,CLR,,,,,,,,VFR,,,,,,,,,,,,METAR,999.0
KQGX 150958Z AUTO 31009KT 270V340 9999 CLR 42/22 A2949 RMK AO2 SLP987 T04210219 $,KQGX,2015-06-15T09:58:00Z,100.65,-1000.65,42.1,21.9,310,9,,6.21,29.489174,998.7,,TRUE,TRUE,TRUE,,,,,,CLR,,,,,,,,VFR,,,,,,,,,,,,METAR,999.0
PAED 150958Z 36003KT 10SM CLR 15/07 A3024 RMK AO2A SLP235 T01520065 $,PAED,2015-06-15T09:58:00Z,61.25,-149.8,15.2,6.5,360,3,,10.0,30.239174,1023.5,,,TRUE,TRUE,,,,,,CLR,,,,,,,,VFR,,,,,,,,,,,,METAR,59.0
KSZL 150958Z 19006KT 10SM FEW180 22/21 A2993 RMK AO2A SLP130 T02160206,KSZL,2015-06-15T09:58:00Z,38.72,-93.53,21.6,20.6,190,6,,10.0,29.929134,1013.0,,,TRUE,,,,,,,FEW,18000,,,,,,,VFR,,,,,,,,,,,,METAR,265.0
KTBN 150958Z AUTO 15005KT 10SM FEW180 22/22 A2999 RMK AO2 SLP147 T02150215 $,KTBN,2015-06-15T09:58:00Z,37.72,-92.12,21.5,21.5,150,5,,10.0,29.991142,1014.7,,TRUE,TRUE,TRUE,,,,,,FEW,18000,,,,,,,VFR,,,,,,,,,,,,METAR,353.0
KSKF 150958Z AUTO 07004KT 10SM SCT008 24/24 A2991 RMK AO2 SLP122 T02400236 $,KSKF,2015-06-15T09:58:00Z,29.37,-98.57,24.0,23.6,70,4,,10.0,29.911417,1012.2,,TRUE,TRUE,TRUE,,,,,,SCT,800,,,,,,,VFR,,,,,,,,,,,,METAR,210.0
KMCF 150958Z AUTO 10006KT 10SM CLR 24/24 A3007 RMK AO2 SLP186 T02410241,KMCF,2015-06-15T09:58:00Z,27.85,-82.52,24.1,24.1,100,6,,10.0,30.070866,1018.6,,TRUE,TRUE,,,,,,,CLR,,,,,,,,VFR,,,,,,,,,,,,METAR,4.0
KGRK 150958Z AUTO 15006KT 9SM BKN003 OVC007 23/22 A2995 RMK AO2 BKN V OVC SLP132 T02270224 $,KGRK,2015-06-15T09:58:00Z,31.07,-97.83,22.7,22.4,150,6,,9.0,29.949802,1013.2,,TRUE,TRUE,TRUE,,,,,,BKN,300,OVC,700,,,,,LIFR,,,,,,,,,,,,METAR,309.0
KEND 150958Z AUTO 25004KT 10SM SCT150 20/18 A2994 RMK AO2 SLP128 T01990183 $,KEND,2015-06-15T09:58:00Z,36.32,-97.92,19.9,18.3,250,4,,10.0,29.940945,1012.8,,TRUE,TRUE,TRUE,,,,,,SCT,15000,,,,,,,VFR,,,,,,,,,,,,METAR,398.0
KCBM 150958Z AUTO 00000KT 10SM CLR 20/20 A3007 RMK AO2 SLP183 T02020195 $,KCBM,2015-06-15T09:58:00Z,33.63,-88.45,20.2,19.5,0,0,,10.0,30.070866,1018.3,,TRUE,TRUE,TRUE,,,,,,CLR,,,,,,,,VFR,,,,,,,,,,,,METAR,67.0
BGTL 150958Z AUTO 28003KT 0800 FZFG UP VV001 M03/M04 A2982 RMK AO2 UPB52 SLP084 P0000 T10321044 RVRNO $,BGTL,2015-06-15T09:58:00Z,76.53,-68.7,-3.2,-4.4,280,3,,0.5,29.819881,1008.4,,TRUE,TRUE,TRUE,,,,,FZFG UP,OVX,0,,,,,,,LIFR,,,,,,0.0050,,,,,100,METAR,77.0
PHNY 150958Z AUTO 04006KT 10SM BKN015 22/19 A3002 RMK AO2 SLP144 T02170194 402500183,PHNY,2015-06-15T09:58:00Z,20.77,-156.93,21.7,19.4,40,6,,10.0,30.02067,1014.4,,TRUE,TRUE,,,,,,,BKN,1500,,,,,,,MVFR,,,,25.0,18.3,,,,,,,METAR,399.0
PFKT 150958Z AUTO 21019KT 10SM BKN009 OVC012 06/05 A3052 RMK AO2 CIG 007V011 SLP336 T00560050,PFKT,2015-06-15T09:58:00Z,65.33,-166.47,5.6,5.0,210,19,,10.0,30.519686,1033.6,,TRUE,TRUE,,,,,,,BKN,900,OVC,1200,,,,,IFR,,,,,,,,,,,,METAR,9.0
PAWM 150958Z AUTO 23005KT 6SM BR OVC003 06/06 A3054 RMK AO2 SLP354 T00560056,PAWM,2015-06-15T09:58:00Z,64.68,-163.42,5.6,5.6,230,5,,6.0,30.540354,1035.4,,TRUE,TRUE,,,,,,BR,OVC,300,,,,,,,LIFR,,,,,,,,,,,,METAR,82.0
PATE 150958Z AUTO 21009KT 10SM OVC008 07/05 A3050 RMK AO2 SLP342 T00670050,PATE,2015-06-15T09:58:00Z,65.23,-166.33,6.7,5.0,210,9,,10.0,30.499016,1034.2,,TRUE,TRUE,,,,,,,OVC,800,,,,,,,IFR,,,,,,,,,,,,METAR,90.0
PAIW 150958Z AUTO 18022G28KT 3SM BR OVC004 04/03 A3047 RMK AO2 PK WND 17029/0923 SLP317 T00390033,PAIW,2015-06-15T09:58:00Z,65.62,-168.1,3.9,3.3,180,22,28,3.0,30.469488,1031.7,,TRUE,TRUE,,,,,,BR,OVC,400,,,,,,,LIFR,,,,,,,,,,,,METAR,7.0
PAGA 150958Z AUTO 27004KT 10SM CLR 16/05 A3044 RMK AO2 SLP312 T01560050 PNO $,PAGA,2015-06-15T09:58:00Z,64.73,-156.93,15.6,5.0,270,4,,10.0,30.43996,1031.2,,TRUE,TRUE,TRUE,,,,,,CLR,,,,,,,,VFR,,,,,,,,,,,,METAR,46.0
PFSH 150958Z AUTO 21011KT 10SM OVC007 08/06 A3056 RMK AO2 SLP362 T00780061,PFSH,2015-06-15T09:58:00Z,64.37,-161.22,7.8,6.1,210,11,,10.0,30.561024,1036.2,,TRUE,TRUE,,,,,,,OVC,700,,,,,,,IFR,,,,,,,,,,,,METAR,7.0
PFNO 150958Z AUTO 30007KT 10SM CLR 11/08 A3045 RMK AO2 SLP314 T01110078,PFNO,2015-06-15T09:58:00Z,66.82,-161.02,11.1,7.8,300,7,,10.0,30.448818,1031.4,,TRUE,TRUE,,,,,,,CLR,,,,,,,,VFR,,,,,,,,,,,,METAR,17.0
PFEL 150958Z AUTO 25004KT 10SM CLR 09/04 A3051 RMK AO2 SLP338 T00890044,PFEL,2015-06-15T09:58:00Z,64.62,-162.27,8.9,4.4,250,4,,10.0,30.510826,1033.8,,TRUE,TRUE,,,,,,,CLR,,,,,,,,VFR,,,,,,,,,,,,METAR,49.0
KMRH 150958Z AUTO 00000KT 9SM CLR 24/24 A3004 RMK AO2 SLP171 T02440244 TSNO,KMRH,2015-06-15T09:58:00Z,34.73,-76.65,24.4,24.4,0,0,,9.0,30.041338,1017.1,,TRUE,TRUE,,,TRUE,,,,CLR,,,,,,,,VFR,,,,,,,,,,,,METAR,3.0
KMEI 150958Z AUTO 00000KT 3/4SM R01/1400V2200FT BR VV004 19/18 A3007 RMK AO2 SLP180 T01890183,KMEI,2015-06-15T09:58:00Z,32.33,-88.75,18.9,18.3,0,0,,0.75,30.070866,1018.0,,TRUE,TRUE,,,,,,BR,OVX,0,,,,,,,LIFR,,,,,,,,,,,400,METAR,89.0
KJFK 150958Z 13008KT 10SM -RA OVC009 21/18 A2999 RMK AO2 RAB54 P0000 $,KJFK,2015-06-15T09:58:00Z,40.63,-73.77,21.0,18.0,130,8,,10.0,29.991142,,,,TRUE,TRUE,,,,,-RA,OVC,900,,,,,,,IFR,,,,,,0.0050,,,,,,METAR,9.0
ETOU 150958Z AUTO VRB04KT 9999 FEW038 SCT055 SCT170 21/13 A3001 RMK AO2 SLP160 T02130125 $,ETOU,2015-06-15T09:58:00Z,50.03,8.32,21.3,12.5,0,4,,6.21,30.008858,1016.0,,TRUE,TRUE,TRUE,,,,,,FEW,3800,SCT,5500,SCT,17000,,,VFR,,,,,,,,,,,,METAR,141.0
ETIH 150958Z AUTO 06005KT 9999 OVC027 18/12 A2998 RMK AO2 SLP140,ETIH,2015-06-15T09:58:00Z,49.22,11.82,18.0,12.0,60,5,,6.21,29.97933,1014.0,,TRUE,TRUE,,,,,,,OVC,2700,,,,,,,MVFR,,,,,,,,,,,,METAR,442.0
ETIC 150958Z AUTO VRB04KT 9999 OVC030 18/12 A2998 RMK AO2 SLP144 T01800118 $,ETIC,2015-06-15T09:58:00Z,49.7,11.93,18.0,11.8,0,4,,6.21,29.97933,1014.4,,TRUE,TRUE,TRUE,,,,,,OVC,3000,,,,,,,MVFR,,,,,,,,,,,,METAR,415.0
ETEB 150958Z AUTO 02009KT 9999 OVC024 18/13 A2999 RMK AO2 OVC V BKN SLP153 T01820127,ETEB,2015-06-15T09:58:00Z,49.32,10.62,18.2,12.7,20,9,,6.21,29.991142,1015.3,,TRUE,TRUE,,,,,,,OVC,2400,,,,,,,MVFR,,,,,,,,,,,,METAR,467.0
KMMT 150958Z AUTO 00000KT 10SM CLR 21/20 A3009 RMK AO2 SLP189 T02100201,KMMT,2015-06-15T09:58:00Z,33.92,-80.78,21.0,20.1,0,0,,10.0,30.088583,1018.9,,TRUE,TRUE,,,,,,,CLR,,,,,,,,VFR,,,,,,,,,,,,METAR,77.0
KLHW 150958Z AUTO 00000KT 10SM CLR 21/19 A3008 RMK AO2 SLP189 T02090191,KLHW,2015-06-15T09:58:00Z,31.87,-81.57,20.9,19.1,0,0,,10.0,30.079725,1018.9,,TRUE,TRUE,,,,,,,CLR,,,,,,,,VFR,,,,,,,,,,,,METAR,14.0
KBKF 150958Z 00000KT 10SM FEW110 12/10 A3021 RMK AO2A SLP163 T01180099,KBKF,2015-06-15T09:58:00Z,39.72,-104.75,11.8,9.9,0,0,,10.0,30.209646,1016.3,,,TRUE,,,,,,,FEW,11000,,,,,,,VFR,,,,,,,,,,,,METAR,1726.0
KEUF 150958Z AUTO 00000KT 7SM CLR 21/20 A3009 RMK AO2 SLP184 T02110200,KEUF,2015-06-15T09:58:00Z,31.95,-85.13,21.1,20.0,0,0,,7.0,30.088583,1018.4,,TRUE,TRUE,,,,,,,CLR,,,,,,,,VFR,,,,,,,,,,,,METAR,87.0
K1J0 150958Z AUTO 00000KT 10SM CLR 22/22 A3009 RMK AO2 SLP147 T02220217,K1J0,2015-06-15T09:58:00Z,30.85,-85.6,22.2,21.7,0,0,,10.0,30.088583,1014.7,,TRUE,TRUE,,,,,,,CLR,,,,,,,,VFR,,,,,,,,,,,,METAR,26.0
KTTS 150958Z AUTO 00000KT 4SM BR CLR 21/21 A3008 RMK AO2 DZB23E24 SLP190 P0000 T02130205 $,KTTS,2015-06-15T09:58:00Z,28.62,-80.72,21.3,20.5,0,0,,4.0,30.079725,1019.0,,TRUE,TRUE,TRUE,,,,,BR,CLR,,,,,,,,MVFR,,,,,,0.0050,,,,,,METAR,3.0
KRDR 150958Z AUTO 30005KT 10SM CLR 10/07 A3004 RMK AO2 SLP178 T00960071,KRDR,2015-06-15T09:58:00Z,47.97,-97.4,9.6,7.1,300,5,,10.0,30.041338,1017.8,,TRUE,TRUE,,,,,,,CLR,,,,,,,,VFR,,,,,,,,,,,,METAR,278.0
KOZR 150958Z AUTO 00000KT 10SM CLR 23/22 A3009 RMK AO2 SLP188 T02260219 $,KOZR,2015-06-15T09:58:00Z,31.28,-85.72,22.6,21.9,0,0,,10.0,30.088583,1018.8,,TRUE,TRUE,TRUE,,,,,,CLR,,,,,,,,VFR,,,,,,,,,,,,METAR,93.0
KMTC 150958Z AUTO 25004KT 10SM CLR 21/21 A2993 RMK AO2 SLP136 T02120207 $,KMTC,2015-06-15T09:58:00Z,42.62,-82.82,21.2,20.7,250,4,,10.0,29.929134,1013.6,,TRUE,TRUE,TRUE,,,,,,CLR,,,,,,,,VFR,,,,,,,,,,,,METAR,177.0
KHUA 150958Z AUTO 00000KT 10SM CLR 21/20 A3010 RMK AO2 SLP187 T02130200,KHUA,2015-06-15T09:58:00Z,34.68,-86.68,21.3,20.0,0,0,,10.0,30.100393,1018.7,,TRUE,TRUE,,,,,,,CLR,,,,,,,,VFR,,,,,,,,,,,,METAR,209.0
KHOP 150958Z AUTO 18004KT 10SM CLR 23/20 A3007 RMK AO2 SLP179 T02310203,KHOP,2015-06-15T09:58:00Z,36.67,-87.5,23.1,20.3,180,4,,10.0,30.070866,1017.9,,TRUE,TRUE,,,,,,,CLR,,,,,,,,VFR,,,,,,,,,,,,METAR,174.0
KHLR 150958Z AUTO 16004KT 10SM OVC005 22/22 A2995 RMK AO2 SLP132 T02240221,KHLR,2015-06-15T09:58:00Z,31.13,-97.72,22.4,22.1,160,4,,10.0,29.949802,1013.2,,TRUE,TRUE,,,,,,,OVC,500,,,,,,,IFR,,,,,,,,,,,,METAR,283.0
KGUS 150958Z AUTO 23005KT 10SM BKN007 22/21 A2999 RMK AO2 BKN V OVC SLP153 T02190210,KGUS,2015-06-15T09:58:00Z,40.63,-86.15,21.9,21.0,230,5,,10.0,29.991142,1015.3,,TRUE,TRUE,,,,,,,BKN,700,,,,,,,IFR,,,,,,,,,,,,METAR,247.0
KFTK 150958Z AUTO 19004KT 10SM CLR 22/20 A3006 RMK AO2 SLP175 T02180204,KFTK,2015-06-15T09:58:00Z,37.88,-85.97,21.8,20.4,190,4,,10.0,30.059055,1017.5,,TRUE,TRUE,,,,,,,CLR,,,,,,,,VFR,,,,,,,,,,,,METAR,230.0
KFBG 150958Z AUTO 00000KT 10SM CLR 23/21 A3005 RMK AO2 SLP176 T02340214 $,KFBG,2015-06-15T09:58:00Z,35.12,-78.92,23.4,21.4,0,0,,10.0,30.050198,1017.6,,TRUE,TRUE,TRUE,,,,,,CLR,,,,,,,,VFR,,,,,,,,,,,,METAR,74.0
KEGI 150958Z AUTO 04003KT 5SM BR CLR 22/21 A3006 RMK AO2 SLP180 T02180211 $,KEGI,2015-06-15T09:58:00Z,30.63,-86.52,21.8,21.1,40,3,,5.0,30.059055,1018.0,,TRUE,TRUE,TRUE,,,,,BR,CLR,,,,,,,,MVFR,,,,,,,,,,,,METAR,59.0
KCOF 150958Z AUTO 14003KT 10SM CLR 26/23 A3008 RMK AO2 SLP190 T02550234 $,KCOF,2015-06-15T09:58:00Z,28.23,-80.6,25.5,23.4,140,3,,10.0,30.079725,1019.0,,TRUE,TRUE,TRUE,,,,,,CLR,,,,,,,,VFR,,,,,,,,,,,,METAR,3.0
KWRI 150958Z AUTO 20005KT 10SM OVC003 21/21 A2994 RMK AO2 RAE12RAB23E48 SLP137 P0002 T02100210,KWRI,2015-06-15T09:58:00Z,40.02,-74.58,21.0,21.0,200,5,,10.0,29.940945,1013.7,,TRUE,TRUE,,,,,,,OVC,300,,,,,,,LIFR,,,,,,0.02,,,,,,METAR,41.0
KPSM 150958Z 16003KT 10SM -RA FEW036 BKN070 OVC090 15/11 A3009 RMK AO2A SLP193 P0001 T01450114,KPSM,2015-06-15T09:58:00Z,43.07,-70.82,14.5,11.4,160,3,,10.0,30.088583,1019.3,,,TRUE,,,,,,-RA,FEW,3600,BKN,7000,OVC,9000,,,VFR,,,,,,0.01,,,,,,METAR,31.0
KPOB 150958Z AUTO 00000KT 10SM CLR 23/21 A3005 RMK AO2 SLP176 T02300208,KPOB,2015-06-15T09:58:00Z,35.17,-79.02,23.0,20.8,0,0,,10.0,30.050198,1017.6,,TRUE,TRUE,,,,,,,CLR,,,,,,,,VFR,,,,,,,,,,,,METAR,66.0
KMXF 150958Z AUTO 00000KT 10SM CLR 23/23 A3009 RMK AO2 SLP190 T02340228,KMXF,2015-06-15T09:58:00Z,32.37,-86.37,23.4,22.8,0,0,,10.0,30.088583,1019.0,,TRUE,TRUE,,,,,,,CLR,,,,,,,,VFR,,,,,,,,,,,,METAR,51.0
KMUI 150958Z AUTO 22003KT 4SM -DZ BR OVC003 21/21 A2997 RMK AO2 DZB54 SLP148 P0000 T02140214 $,KMUI,2015-06-15T09:58:00Z,40.42,-76.57,21.4,21.4,220,3,,4.0,29.970472,1014.8,,TRUE,TRUE,TRUE,,,,,-DZ BR,OVC,300,,,,,,,LIFR,,,,,,0.0050,,,,,,METAR,149.0
KMGE 150958Z AUTO 00000KT 10SM CLR 22/21 A3014 RMK AO2 SLP196 T02210208 $,KMGE,2015-06-15T09:58:00Z,33.92,-84.52,22.1,20.8,0,0,,10.0,30.138779,1019.6,,TRUE,TRUE,TRUE,,,,,,CLR,,,,,,,,VFR,,,,,,,,,,,,METAR,326.0
KLSF 150958Z AUTO 00000KT 3/4SM R33/1600FT BR CLR 21/21 A3009 RMK AO2 VIS 3/4V1 1/4 SLP190 T02070207 VISNO RWY15 CHINO RWY15 $,KLSF,2015-06-15T09:58:00Z,32.32,-84.97,20.7,20.7,0,0,,0.75,30.088583,1019.0,,TRUE,TRUE,TRUE,,,,,BR,CLR,,,,,,,,LIFR,,,,,,,,,,,,METAR,71.0
KLFI 150958Z AUTO 22004KT 7SM CLR 23/23 A3001 RMK AO2 SLP169 T02340225,KLFI,2015-06-15T09:58:00Z,37.07,-76.37,23.4,22.5,220,4,,7.0,30.008858,1016.9,,TRUE,TRUE,,,,,,,CLR,,,,,,,,VFR,,,,,,,,,,,,METAR,3.0
KIAB 150958Z AUTO 12001KT 10SM OVC007 22/21 A2992 RMK AO2 SLP121 T02210210,KIAB,2015-06-15T09:58:00Z,37.62,-97.27,22.1,21.0,120,1,,10.0,29.920275,1012.1,,TRUE,TRUE,,,,,,,OVC,700,,,,,,,IFR,,,,,,,,,,,,METAR,418.0
KGTB 150958Z AUTO 16006KT 4SM -DZ BR OVC003 18/18 A2987 RMK AO2 DZB21E32DZB34 CIG 003V005 SLP112 P0001 T01790179,KGTB,2015-06-15T09:58:00Z,44.07,-75.72,17.9,17.9,160,6,,4.0,29.870079,1011.2,,TRUE,TRUE,,,,,,-DZ BR,OVC,300,,,,,,,LIFR,,,,,,0.01,,,,,,METAR,207.0
KFFO 150958Z 18004KT 10SM FEW002 BKN160 22/22 A3003 RMK AO2A SLP165 P0010 T02220220,KFFO,2015-06-15T09:58:00Z,39.82,-84.03,22.2,22.0,180,4,,10.0,30.029528,1016.5,,,TRUE,,,,,,,FEW,200,BKN,16000,,,,,VFR,,,,,,0.1,,,,,,METAR,251.0
KFAF 150958Z AUTO VRB01KT 10SM CLR 24/24 A3000 RMK AO2 SLP162 T02390239 $,KFAF,2015-06-15T09:58:00Z,37.12,-76.62,23.9,23.9,0,1,,10.0,30.0,1016.2,,TRUE,TRUE,TRUE,,,,,,CLR,,,,,,,,VFR,,,,,,,,,,,,METAR,4.0
KDOV 150958Z AUTO 18003KT 4SM -RA BR FEW005 23/23 A2996 RMK AO2 DZB0859E01RAB01 SLP148 P0005 T02310231 VISNO RWY19 CHINO RWY19 $,KDOV,2015-06-15T09:58:00Z,39.12,-75.47,23.1,23.1,180,3,,4.0,29.958662,1014.8,,TRUE,TRUE,TRUE,,,,,-RA BR,FEW,500,,,,,,,MVFR,,,,,,0.05,,,,,,METAR,9.0
KCEF 150958Z AUTO VRB02KT 2SM -RA BR BKN002 BKN014 OVC032 16/15 A3004 RMK AO2 VIS 1 1/2V2 SLP177 P0050 T01580150,KCEF,2015-06-15T09:58:00Z,42.2,-72.52,15.8,15.0,0,2,,2.0,30.041338,1017.7,,TRUE,TRUE,,,,,,-RA BR,BKN,200,BKN,1400,OVC,3200,,,LIFR,,,,,,0.5,,,,,,METAR,75.0
K0J4 150958Z AUTO 00000KT 6SM BR CLR 22/21 A3010 RMK AO2 SLP188 T02170211,K0J4,2015-06-15T09:58:00Z,31.05,-86.32,21.7,21.1,0,0,,6.0,30.100393,1018.8,,TRUE,TRUE,,,,,,BR,CLR,,,,,,,,VFR,,,,,,,,,,,,METAR,96.0
KXMR 150958Z AUTO 00000KT 10SM CLR 22/22 A3008 RMK AO2 SLP189 T02210217 $,KXMR,2015-06-15T09:58:00Z,28.47,-80.57,22.1,21.7,0,0,,10.0,30.079725,1018.9,,TRUE,TRUE,TRUE,,,,,,CLR,,,,,,,,VFR,,,,,,,,,,,,METAR,3.0
KSVN 150958Z AUTO 00000KT 10SM CLR 23/20 A3008 RMK AO2 SLP189 T02250201,KSVN,2015-06-15T09:58:00Z,32.02,-81.15,22.5,20.1,0,0,,10.0,30.079725,1018.9,,TRUE,TRUE,,,,,,,CLR,,,,,,,,VFR,,,,,,,,,,,,METAR,13.0
KRND 150958Z AUTO 03003KT 10SM SCT017 BKN035 23/23 A2992 RMK AO2 SLP124 T02280228 $,KRND,2015-06-15T09:58:00Z,29.52,-98.27,22.8,22.8,30,3,,10.0,29.920275,1012.4,,TRUE,TRUE,TRUE,,,,,,SCT,1700,BKN,3500,,,,,VFR,,,,,,,,,,,,METAR,232.0
KRCA 150958Z AUTO 28002KT 10SM -RA SCT065 BKN080 OVC130 14/14 A3017 RMK AO2 SLP205 P0007 T01410138 $,KRCA,2015-06-15T09:58:00Z,44.13,-103.08,14.1,13.8,280,2,,10.0,30.171259,1020.5,,TRUE,TRUE,TRUE,,,,,-RA,SCT,6500,BKN,8000,OVC,13000,,,VFR,,,,,,0.07,,,,,,METAR,999.0
KOFF 150958Z AUTO 07004KT 9SM CLR 19/18 A2990 RMK AO2 CIG 038 RWY30 SLP121 P0011 T01920184 $,KOFF,2015-06-15T09:58:00Z,41.12,-95.92,19.2,18.4,70,4,,9.0,29.899607,1012.1,,TRUE,TRUE,TRUE,,,,,,CLR,,,,,,,,VFR,,,,,,0.11,,,,,,METAR,319.0
KHST 150958Z AUTO 10004KT 10SM CLR 27/24 A3003 RMK AO2 SLP172 T02690240 $,KHST,2015-06-15T09:58:00Z,25.47,-80.37,26.9,24.0,100,4,,10.0,30.029528,1017.2,,TRUE,TRUE,TRUE,,,,,,CLR,,,,,,,,VFR,,,,,,,,,,,,METAR,2.0
KHRT 150958Z AUTO 00000KT 1 1/2SM R18/2800FT BR CLR 23/21 A3005 RMK AO2 SLP177 T02280213 $,KHRT,2015-06-15T09:58:00Z,30.42,-86.67,22.8,21.3,0,0,,1.5,30.050198,1017.7,,TRUE,TRUE,TRUE,,,,,BR,CLR,,,,,,,,IFR,,,,,,,,,,,,METAR,12.0
KGSB 150958Z AUTO 00000KT 10SM CLR 24/23 A3002 RMK AO2 RAB51 SLP168 P0000 T02360226 $,KGSB,2015-06-15T09:58:00Z,35.32,-77.97,23.6,22.6,0,0,,10.0,30.02067,1016.8,,TRUE,TRUE,TRUE,,,,,,CLR,,,,,,,,VFR,,,,,,0.0050,,,,,,METAR,33.0
KDAA 150958Z AUTO 00000KT 1 3/4SM BR CLR 23/22 A2999 RMK AO2 VIS 1 3/4V3 SLP158 TSNO,KDAA,2015-06-15T09:58:00Z,38.72,-77.17,23.0,22.0,0,0,,1.75,29.991142,1015.8,,TRUE,TRUE,,,TRUE,,,BR,CLR,,,,,,,,IFR,,,,,,,,,,,,METAR,21.0
KBLV 150958Z AUTO 18005KT 10SM CLR 22/22 A2999 RMK AO2 SLP155 T02170217,KBLV,2015-06-15T09:58:00Z,38.53,-89.83,21.7,21.7,180,5,,10.0,29.991142,1015.5,,TRUE,TRUE,,,,,,,CLR,,,,,,,,VFR,,,,,,,,,,,,METAR,138.0
KADW 150958Z AUTO 16003KT 6SM BR CLR 23/22 A2999 RMK AO2 SLP160 T02250223 VISNO RWY19 $,KADW,2015-06-15T09:58:00Z,38.82,-76.87,22.5,22.3,160,3,,6.0,29.991142,1016.0,,TRUE,TRUE,TRUE,,,,,BR,CLR,,,,,,,,VFR,,,,,,,,,,,,METAR,86.0
KTIK 150958Z AUTO 17008KT 10SM BKN160 21/20 A2993 RMK AO2 DZB37E48 SLP131 P0000 T02120197,KTIK,2015-06-15T09:58:00Z,35.42,-97.37,21.2,19.7,170,8,,10.0,29.929134,1013.1,,TRUE,TRUE,,,,,,,BKN,16000,,,,,,,VFR,,,,,,0.0050,,,,,,METAR,394.0
PHHI 150958Z AUTO 31003KT 10SM CLR 20/18 A2997 RMK AO2 SLP138 T02020181 402890190 $,PHHI,2015-06-15T09:58:00Z,21.48,-158.05,20.2,18.1,310,3,,10.0,29.970472,1013.8,,TRUE,TRUE,TRUE,,,,,,CLR,,,,,,,,VFR,,,,28.9,19.0,,,,,,,METAR,255.0
KWRB 150958Z AUTO 15002KT 10SM CLR 21/21 A3011 RMK AO2 SLP196 T02090206,KWRB,2015-06-15T09:58:00Z,32.62,-83.58,20.9,20.6,150,2,,10.0,30.109253,1019.6,,TRUE,TRUE,,,,,,,CLR,,,,,,,,VFR,,,,,,,,,,,,METAR,90.0
KVBG 150958Z AUTO 33007KT 10SM OVC005 13/13 A2985 RMK AO2 SLP110 T01280128 TSNO $,KVBG,2015-06-15T09:58:00Z,34.73,-120.58,12.8,12.8,330,7,,10.0,29.84941,1011.0,,TRUE,TRUE,TRUE,,TRUE,,,,OVC,500,,,,,,,IFR,,,,,,,,,,,,METAR,112.0
KSUU 150958Z AUTO 24023G29KT 10SM CLR 12/10 A2974 RMK AO2 PK WND 24033/37 SLP077 T01210102 PNO $,KSUU,2015-06-15T09:58:00Z,38.27,-121.92,12.1,10.2,240,23,29,10.0,29.740158,1007.7,,TRUE,TRUE,TRUE,,,,,,CLR,,,,,,,,VFR,,,,,,,,,,,,METAR,19.0
KSKA 150958Z AUTO 02008KT 10SM CLR 13/03 A3001 RMK AO2 SLP154 T01280029,KSKA,2015-06-15T09:58:00Z,47.62,-117.65,12.8,2.9,20,8,,10.0,30.008858,1015.4,,TRUE,TRUE,,,,,,,CLR,,,,,,,,VFR,,,,,,,,,,,,METAR,750.0
KRIV 150958Z AUTO 30004KT 10SM CLR 16/14 A2983 RMK AO2 SLP089 T01560140 $,KRIV,2015-06-15T09:58:00Z,33.87,-117.27,15.6,14.0,300,4,,10.0,29.828741,1008.9,,TRUE,TRUE,TRUE,,,,,,CLR,,,,,,,,VFR,,,,,,,,,,,,METAR,469.0
KLUF 150958Z AUTO 25004KT 10SM CLR 31/08 A2969 RMK AO2 SLP037 T03060075 $,KLUF,2015-06-15T09:58:00Z,33.52,-112.37,30.6,7.5,250,4,,10.0,29.68996,1003.7,,TRUE,TRUE,TRUE,,,,,,CLR,,,,,,,,VFR,,,,,,,,,,,,METAR,332.0
KLRF 150958Z AUTO 15002KT 10SM BKN230 23/22 A3002 RMK AO2 SLP165 T02280221,KLRF,2015-06-15T09:58:00Z,34.92,-92.15,22.8,22.1,150,2,,10.0,30.02067,1016.5,,TRUE,TRUE,,,,,,,BKN,23000,,,,,,,VFR,,,,,,,,,,,,METAR,95.0
KGXF 150958Z AUTO 18006KT 8SM CLR 28/03 A2969 RMK AO2 SLP039 T02780032,KGXF,2015-06-15T09:58:00Z,32.87,-112.72,27.8,3.2,180,6,,8.0,29.68996,1003.9,,TRUE,TRUE,,,,,,,CLR,,,,,,,,VFR,,,,,,,,,,,,METAR,262.0
KBAB 150958Z AUTO 18007KT 7SM R33/5500FT CLR 13/11 A2975 RMK AO2 SLPNO T01310105 $,KBAB,2015-06-15T09:58:00Z,39.12,-121.42,13.1,10.5,180,7,,7.0,29.749016,,,TRUE,TRUE,TRUE,,,,,,CLR,,,,,,,,VFR,,,,,,,,,,,,METAR,34.0
ETAD 150958Z AUTO 02009KT 9999 FEW024 SCT200 18/11 A3004 RMK AO2 SLP154 T01770113 $,ETAD,2015-06-15T09:58:00Z,49.98,6.7,17.7,11.3,20,9,,6.21,30.041338,1015.4,,TRUE,TRUE,TRUE,,,,,,FEW,2400,SCT,20000,,,,,VFR,,,,,,,,,,,,METAR,365.0
KVAD 150958Z AUTO 13003KT 10SM CLR 21/18 A3009 RMK AO2 SLP189 T02060184 $,KVAD,2015-06-15T09:58:00Z,30.97,-83.2,20.6,18.4,130,3,,10.0,30.088583,1018.9,,TRUE,TRUE,TRUE,,,,,,CLR,,,,,,,,VFR,,,,,,,,,,,,METAR,71.0
KPAM 150958Z AUTO 06002KT 10SM CLR 23/22 A3006 RMK AO2 SLP182 T02340222 $,KPAM,2015-06-15T09:58:00Z,30.07,-85.57,23.4,22.2,60,2,,10.0,30.059055,1018.2,,TRUE,TRUE,TRUE,,,,,,CLR,,,,,,,,VFR,,,,,,,,,,,,METAR,5.0
KBIX 150958Z AUTO 04004KT 10SM SCT019 24/24 A3002 RMK AO2 SLP168 T02440243,KBIX,2015-06-15T09:58:00Z,30.42,-88.92,24.4,24.3,40,4,,10.0,30.02067,1016.8,,TRUE,TRUE,,,,,,,SCT,1900,,,,,,,VFR,,,,,,,,,,,,METAR,10.0
KTCM 150958Z AUTO 19003KT 10SM CLR 11/08 A2995 RMK AO2 SLP145 T01080083 $,KTCM,2015-06-15T09:58:00Z,47.12,-122.47,10.8,8.3,190,3,,10.0,29.949802,1014.5,,TRUE,TRUE,TRUE,,,,,,CLR,,,,,,,,VFR,,,,,,,,,,,,METAR,98.0
KSLI 150958Z AUTO 00000KT 10SM OVC009 18/16 A2981 RMK AO2 SLP098 T01800163,KSLI,2015-06-15T09:58:00Z,33.77,-118.03,18.0,16.3,0,0,,10.0,29.811024,1009.8,,TRUE,TRUE,,,,,,,OVC,900,,,,,,,IFR,,,,,,,,,,,,METAR,11.0
KPOE 150958Z AUTO 10006KT 10SM CLR 23/22 A2997 RMK AO2 SLP148 T02290221,KPOE,2015-06-15T09:58:00Z,31.05,-93.2,22.9,22.1,100,6,,10.0,29.970472,1014.8,,TRUE,TRUE,,,,,,,CLR,,,,,,,,VFR,,,,,,,,,,,,METAR,101.0
KMUO 150958Z AUTO 31003KT 10SM FEW230 14/M04 A2990 RMK AO2 SLP102 T01421037 TSNO $,KMUO,2015-06-15T09:58:00Z,43.03,-115.87,14.2,-3.7,310,3,,10.0,29.899607,1010.2,,TRUE,TRUE,TRUE,,TRUE,,,,FEW,23000,,,,,,,VFR,,,,,,,,,,,,METAR,913.0
KINS 150958Z AUTO 36003KT 10SM CLR 25/02 A2982 RMK AO2 SLP042 T02450017,KINS,2015-06-15T09:58:00Z,36.58,-115.67,24.5,1.7,360,3,,10.0,29.819881,1004.2,,TRUE,TRUE,,,,,,,CLR,,,,,,,,VFR,,,,,,,,,,,,METAR,955.0
KHIF 150958Z AUTO 11012KT 10SM CLR 18/06 A2999 RMK AO2 SLP094 T01800064,KHIF,2015-06-15T09:58:00Z,41.12,-111.97,18.0,6.4,110,12,,10.0,29.991142,1009.4,,TRUE,TRUE,,,,,,,CLR,,,,,,,,VFR,,,,,,,,,,,,METAR,1459.0
KFSI 150958Z AUTO 16002KT 10SM FEW023 SCT029 SCT039 BKN050 BKN065 21/20 A2994 RMK AO2 DZB03E21DZB23E38RAB38E47DZB47E49 SLP131 P0001 T02110204,KFSI,2015-06-15T09:58:00Z,34.65,-98.4,21.1,20.4,160,2,,10.0,29.940945,1013.1,,TRUE,TRUE,,,,,,,FEW,2300,SCT,2900,SCT,3900,BKN,5000,VFR,,,,,,0.01,,,,,,METAR,362.0
KFCS 150958Z AUTO 35010KT 10SM CLR 13/11 A3017 RMK AO2 SLP191 T01290108 $,KFCS,2015-06-15T09:58:00Z,38.67,-104.77,12.9,10.8,350,10,,10.0,30.171259,1019.1,,TRUE,TRUE,TRUE,,,,,,CLR,,,,,,,,VFR,,,,,,,,,,,,METAR,1789.0
KEDW 150958Z AUTO 19008KT 10SM CLR 22/02 A2979 RMK AO2 SLP058 T02150020,KEDW,2015-06-15T09:58:00Z,34.88,-117.87,21.5,2.0,190,8,,10.0,29.790354,1005.8,,TRUE,TRUE,,,,,,,CLR,,,,,,,,VFR,,,,,,,,,,,,METAR,702.0
KDYS 150958Z AUTO 19005KT 10SM BKN190 21/20 A2992 RMK AO2 SLP086 P0001 T02050201,KDYS,2015-06-15T09:58:00Z,32.42,-99.83,20.5,20.1,190,5,,10.0,29.920275,1008.6,,TRUE,TRUE,,,,,,,BKN,19000,,,,,,,VFR,,,,,,0.01,,,,,,METAR,545.0
KAFF 150958Z AUTO 35007KT 10SM CLR 12/10 A3022 RMK AO2 SLP169 T01170102,KAFF,2015-06-15T09:58:00Z,38.97,-104.82,11.7,10.2,350,7,,10.0,30.221457,1016.9,,TRUE,TRUE,,,,,,,CLR,,,,,,,,VFR,,,,,,,,,,,,METAR,2003.0
ETAR 150958Z AUTO 33004KT 9999 FEW043 SCT170 SCT210 22/11 A2999 RMK AO2 SLP151 T02170110 $,ETAR,2015-06-15T09:58:00Z,49.42,7.58,21.7,11.0,330,4,,6.21,29.991142,1015.1,,TRUE,TRUE,TRUE,,,,,,FEW,4300,SCT,17000,SCT,21000,,,VFR,,,,,,,,,,,,METAR,238.0
PWAK 150958Z AUTO 07013KT 9999 BKN021 OVC210 27/23 A2990 RMK AO2 CIG 021V220 SLP131 T02740230,PWAK,2015-06-15T09:58:00Z,19.28,166.65,27.4,23.0,70,13,,6.21,29.899607,1013.1,,TRUE,TRUE,,,,,,,BKN,2100,OVC,21000,,,,,MVFR,,,,,,,,,,,,METAR,4.0
PAEI 150958Z AUTO VRB05KT 10SM CLR 12/05 A3035 RMK AO2 SLP281 T01150053 $,PAEI,2015-06-15T09:58:00Z,64.67,-147.1,11.5,5.3,0,5,,10.0,30.351377,1028.1,,TRUE,TRUE,TRUE,,,,,,CLR,,,,,,,,VFR,,,,,,,,,,,,METAR,167.0
RODN 150958Z AUTO 21010KT 10SM CLR 28/26 A2986 RMK AO2 SLP116 T02810261 $,RODN,2015-06-15T09:58:00Z,26.35,127.77,28.1,26.1,210,10,,10.0,29.861221,1011.6,,TRUE,TRUE,TRUE,,,,,,CLR,,,,,,,,VFR,,,,,,,,,,,,METAR,45.0
PGUA 150958Z AUTO 08010KT 10SM -DZ SCT014 SCT022 26/24 A2986 RMK AO2 RAB50E51DZB51 SLP102 P0000 T02640242 $,PGUA,2015-06-15T09:58:00Z,13.57,144.92,26.4,24.2,80,10,,10.0,29.861221,1010.2,,TRUE,TRUE,TRUE,,,,,-DZ,SCT,1400,SCT,2200,,,,,VFR,,,,,,0.0050,,,,,,METAR,187.0
KLSV 150958Z AUTO 01003KT 10SM CLR 30/07 A2972 RMK AO2 SLP034 T03010068 $,KLSV,2015-06-15T09:58:00Z,36.22,-115.02,30.1,6.8,10,3,,10.0,29.719488,1003.4,,TRUE,TRUE,TRUE,,,,,,CLR,,,,,,,,VFR,,,,,,,,,,,,METAR,570.0
KHMN 150958Z AUTO 00000KT 7SM R22/5500FT BKN140 24/07 A2996 RMK AO2 SLP067 T02350069 $,KHMN,2015-06-15T09:58:00Z,32.85,-106.08,23.5,6.9,0,0,,7.0,29.958662,1006.7,,TRUE,TRUE,TRUE,,,,,,BKN,14000,,,,,,,VFR,,,,,,,,,,,,METAR,1248.0
KGRF 150958Z AUTO 14004KT 10SM CLR 13/09 A2994 RMK AO2 SLP141 T01320087,KGRF,2015-06-15T09:58:00Z,47.07,-122.57,13.2,8.7,140,4,,10.0,29.940945,1014.1,,TRUE,TRUE,,,,,,,CLR,,,,,,,,VFR,,,,,,,,,,,,METAR,92.0
KFHU 150958Z AUTO 26012KT 10SM CLR 24/04 A3000 RMK AO2 SLP073 T02370040,KFHU,2015-06-15T09:58:00Z,31.58,-110.35,23.7,4.0,260,12,,10.0,30.0,1007.3,,TRUE,TRUE,,,,,,,CLR,,,,,,,,VFR,,,,,,,,,,,,METAR,1438.0
KDMA 150958Z AUTO 15004KT 10SM CLR 25/06 A2984 RMK AO2 SLP055 T02480063 $,KDMA,2015-06-15T09:58:00Z,32.17,-110.87,24.8,6.3,150,4,,10.0,29.840551,1005.5,,TRUE,TRUE,TRUE,,,,,,CLR,,,,,,,,VFR,,,,,,,,,,,,METAR,824.0
KCVS 150958Z AUTO 31006KT 10SM CLR 18/15 A3005 RMK AO2 SLP121 T01810146 $,KCVS,2015-06-15T09:58:00Z,34.37,-103.32,18.1,14.6,310,6,,10.0,30.050198,1012.1,,TRUE,TRUE,TRUE,,,,,,CLR,,,,,,,,VFR,,,,,,,,,,,,METAR,1309.0
CWFD 150958Z AUTO 33011KT 1/8SM FEW040 FEW050 FEW084 M03/ A2964 RMK ICG INTMT,CWFD,2015-06-15T09:58:00Z,66.57,-61.58,-3.0,,330,11,,0.13,29.639763,,,TRUE,,,,,,,,FEW,4000,FEW,5000,FEW,8400,,,LIFR,,,,,,,,,,,,SPECI,393.0
CWOB 150957Z AUTO 04012KT M01/ A2979,CWOB,2015-06-15T09:57:00Z,63.32,-64.15,-1.0,,40,12,,,29.790354,,,TRUE,,,,,,,,,,,,,,,,,,,,,,,,,,,,SPECI,367.0
CYTZ 150957Z AUTO 00000KT 1/4SM R08/2600V4000FT FG SCT007 OVC014 15/15 A2992 RMK SLP132 DENSITY ALT 300FT,CYTZ,2015-06-15T09:57:00Z,43.63,-79.4,15.0,15.0,0,0,,0.25,29.920275,1013.2,,TRUE,,,,,,,FG,SCT,700,OVC,1400,,,,,LIFR,,,,,,,,,,,,SPECI,77.0
KMGG 150957Z AUTO 33010KT 10SM SCT095 18/16 A2995 RMK AO2 LTG DSNT SW T01760158,KMGG,2015-06-15T09:57:00Z,45.23,-93.98,17.6,15.8,330,10,,10.0,29.949802,,,TRUE,TRUE,,,,,,,SCT,9500,,,,,,,VFR,,,,,,,,,,,,METAR,313.0
KNSI 150957Z AUTO 31011KT 5SM HZ OVC003 A2982 RMK AO2 SLPNO PNO $,KNSI,2015-06-15T09:57:00Z,33.22,-119.45,,,310,11,,5.0,29.819881,,,TRUE,TRUE,TRUE,,,,,HZ,OVC,300,,,,,,,LIFR,,,,,,,,,,,,METAR,154.0
KNQX 150957Z 10008KT 10SM BKN140 OVC250 27/24 A3001 RMK AO2 T02720239 $,KNQX,2015-06-15T09:57:00Z,24.57,-81.67,27.2,23.9,100,8,,10.0,30.008858,,,,TRUE,TRUE,,,,,,BKN,14000,OVC,25000,,,,,VFR,,,,,,,,,,,,METAR,2.0
KTIP 150957Z AUTO 22005KT 10SM SCT065 SCT075 23/22 A2998 RMK AO2,KTIP,2015-06-15T09:57:00Z,40.28,-88.15,23.0,22.0,220,5,,10.0,29.97933,,,TRUE,TRUE,,,,,,,SCT,6500,SCT,7500,,,,,VFR,,,,,,,,,,,,METAR,225.0
KTGI 150957Z AUTO 21011KT 10SM CLR 26/25 A3000 RMK AO1,KTGI,2015-06-15T09:57:00Z,37.82,-75.98,26.0,25.0,210,11,,10.0,30.0,,,TRUE,TRUE,,,,,,,CLR,,,,,,,,VFR,,,,,,,,,,,,METAR,2.0
KNYL 150957Z AUTO 18004KT 10SM CLR 28/07 A2966 RMK AO2 SLP038 T02830067,KNYL,2015-06-15T09:57:00Z,32.63,-114.62,28.3,6.7,180,4,,10.0,29.660433,1003.8,,TRUE,TRUE,,,,,,,CLR,,,,,,,,VFR,,,,,,,,,,,,METAR,65.0
PAGH 150957Z AUTO 23008KT 10SM CLR 16/06 A3042 RMK AO2 SLP329 T01610056,PAGH,2015-06-15T09:57:00Z,66.88,-157.17,16.1,5.6,230,8,,10.0,30.41929,1032.9,,TRUE,TRUE,,,,,,,CLR,,,,,,,,VFR,,,,,,,,,,,,METAR,60.0
KQTI 150957Z 03010G16KT 320V050 9999 CLR 40/04 A2960 RMK AO2A SLP021 T04000039,KQTI,2015-06-15T09:57:00Z,,,40.0,3.9,30,10,16,6.21,29.601377,1002.1,,,TRUE,,,,,,,CLR,,,,,,,,VFR,,,,,,,,,,,,METAR,
KTOR 150957Z AUTO 04011KT 8SM -TSRA OVC016 15/13 A3016 RMK AO2 TSB57 P0002 T01500133,KTOR,2015-06-15T09:57:00Z,42.07,-104.15,15.0,13.3,40,11,,8.0,30.159449,,,TRUE,TRUE,,,,,,-TSRA,OVC,1600,,,,,,,MVFR,,,,,,0.02,,,,,,METAR,1277.0
KSAW 150957Z AUTO 00000KT 1/4SM FG OVC001 11/10 A2991 RMK AO2 T01090103,KSAW,2015-06-15T09:57:00Z,46.35,-87.4,10.9,10.3,0,0,,0.25,29.911417,,,TRUE,TRUE,,,,,,FG,OVC,100,,,,,,,LIFR,,,,,,,,,,,,METAR,372.0
KROG 150957Z AUTO 16007KT 10SM CLR 22/21 A3001 RMK AO2 SLP148 T02170211 TSNO,KROG,2015-06-15T09:57:00Z,36.37,-94.08,21.7,21.1,160,7,,10.0,30.008858,1014.8,,TRUE,TRUE,,,TRUE,,,,CLR,,,,,,,,VFR,,,,,,,,,,,,METAR,415.0
KMMK 150957Z AUTO 16005KT 3SM RA BR SCT007 BKN012 OVC029 18/17 A3001 RMK AO2 P0000 T01830172 TSNO,KMMK,2015-06-15T09:57:00Z,41.52,-72.83,18.3,17.2,160,5,,3.0,30.008858,,,TRUE,TRUE,,,TRUE,,,RA BR,SCT,700,BKN,1200,OVC,2900,,,MVFR,,,,,,0.0050,,,,,,METAR,31.0
KFLG 150957Z AUTO 00000KT 10SM CLR 09/05 A3019 RMK AO2 SLP134 T00890050 TSNO,KFLG,2015-06-15T09:57:00Z,35.13,-111.67,8.9,5.0,0,0,,10.0,30.188976,1013.4,,TRUE,TRUE,,,TRUE,,,,CLR,,,,,,,,VFR,,,,,,,,,,,,METAR,2134.0
KCLE 150957Z 22005KT 10SM BKN012 BKN027 BKN060 BKN250 22/21 A3001 RMK AO2 T02170206 $,KCLE,2015-06-15T09:57:00Z,41.42,-81.85,21.7,20.6,220,5,,10.0,30.008858,,,,TRUE,TRUE,,,,,,BKN,1200,BKN,2700,BKN,6000,BKN,25000,MVFR,,,,,,,,,,,,METAR,233.0
KBAZ 150957Z AUTO 02003KT 7SM SCT006 SCT018 23/22 A2991 RMK AO2 T02280222 $,KBAZ,2015-06-15T09:57:00Z,29.72,-98.05,22.8,22.2,20,3,,7.0,29.911417,,,TRUE,TRUE,TRUE,,,,,,SCT,600,SCT,1800,,,,,VFR,,,,,,,,,,,,METAR,195.0
CYKZ 150957Z VRB02KT 5/8SM BR OVC003 18/17 A2993 RMK ST8 SLP134 DENSITY ALT 1000FT,CYKZ,2015-06-15T09:57:00Z,43.87,-79.37,18.0,17.0,0,2,,0.63,29.929134,1013.4,,,,,,,,,BR,OVC,300,,,,,,,LIFR,,,,,,,,,,,,SPECI,198.0
YSNW 150957Z AUTO 05004KT 9999 // SCT008 BKN026 OVC055 14/14 Q1026,YSNW,2015-06-15T09:57:00Z,-34.95,150.52,14.0,14.0,50,4,,6.21,30.295275,,,TRUE,,,,,,,,SCT,800,BKN,2600,OVC,5500,,,MVFR,,,,,,,,,,,,SPECI,110.0
PHNG 150957Z 07006KT FEW020 SCT029 BKN050 24/20 A2995 RMK AO2 SLP136 T02440200 402780233 $ ,PHNG,2015-06-15T09:57:00Z,21.43,-157.77,24.4,20.0,70,6,,,29.949802,1013.6,,,TRUE,TRUE,,,,,,FEW,2000,SCT,2900,BKN,5000,,,,,,,27.8,23.3,,,,,,,METAR,3.0
KNTD 150956Z AUTO 00000KT 7SM OVC007 18/14 A2982 RMK AO2 SLP098 T01780144 $,KNTD,2015-06-15T09:56:00Z,34.12,-119.12,17.8,14.4,0,0,,7.0,29.819881,1009.8,,TRUE,TRUE,TRUE,,,,,,OVC,700,,,,,,,IFR,,,,,,,,,,,,METAR,4.0
KHPN 150956Z 12005KT 1/4SM R16/P6000FT FG VV001 18/17 A2998 RMK AO2 RAE50 SLP146 P0002 T01780172,KHPN,2015-06-15T09:56:00Z,41.07,-73.7,17.8,17.2,120,5,,0.25,29.97933,1014.6,,,TRUE,,,,,,FG,OVX,0,,,,,,,LIFR,,,,,,0.02,,,,,100,METAR,121.0
KGRD 150956Z AUTO 26004KT 10SM CLR 23/20 A3013 RMK AO2 SLP193 T02280200,KGRD,2015-06-15T09:56:00Z,34.25,-82.15,22.8,20.0,260,4,,10.0,30.129921,1019.3,,TRUE,TRUE,,,,,,,CLR,,,,,,,,VFR,,,,,,,,,,,,METAR,185.0
KGON 150956Z AUTO 12008KT 4SM RA BR FEW041 OVC060 16/14 A3007 RMK AO2 RAB19 SLP181 P0010 T01610144,KGON,2015-06-15T09:56:00Z,41.33,-72.05,16.1,14.4,120,8,,4.0,30.070866,1018.1,,TRUE,TRUE,,,,,,RA BR,FEW,4100,OVC,6000,,,,,MVFR,,,,,,0.1,,,,,,METAR,3.0
KFSD 150956Z 36011KT 10SM -TSRA SCT055CB BKN070 OVC090 18/16 A2995 RMK AO2 RAB22 TSB45 SLP132 CONS LTGIC OHD TS OHD MOV E P0012 T01780161,KFSD,2015-06-15T09:56:00Z,43.58,-96.75,17.8,16.1,360,11,,10.0,29.949802,1013.2,,,TRUE,,,,,,-TSRA,SCT,5500,BKN,7000,OVC,9000,,,VFR,,,,,,0.12,,,,,,METAR,436.0
KELZ 150956Z AUTO 25006KT 5SM BR SCT008 BKN012 OVC031 20/19 A3000 RMK AO2 RAE09B21E30B47E56 SLP146 P0002 T02000189,KELZ,2015-06-15T09:56:00Z,42.1,-77.98,20.0,18.9,250,6,,5.0,30.0,1014.6,,TRUE,TRUE,,,,,,BR,SCT,800,BKN,1200,OVC,3100,,,MVFR,,,,,,0.02,,,,,,METAR,646.0
KEKQ 150956Z AUTO 00000KT 10SM CLR 19/19 A3016 RMK AO2 PWINO T01940194 SLP204,KEKQ,2015-06-15T09:56:00Z,36.85,-84.85,19.4,19.4,0,0,,10.0,30.159449,1020.4,,TRUE,TRUE,,,,,TRUE,,CLR,,,,,,,,VFR,,,,,,,,,,,,METAR,294.0
KEKO 150956Z AUTO 00000KT 10SM CLR 13/04 A2997 RMK AO2 SLP093 T01330039,KEKO,2015-06-15T09:56:00Z,40.82,-115.78,13.3,3.9,0,0,,10.0,29.970472,1009.3,,TRUE,TRUE,,,,,,,CLR,,,,,,,,VFR,,,,,,,,,,,,METAR,1547.0
KEAU 150956Z AUTO 00000KT 8SM CLR 17/16 A2988 RMK AO2 SLP115 T01720161,KEAU,2015-06-15T09:56:00Z,44.87,-91.47,17.2,16.1,0,0,,8.0,29.878937,1011.5,,TRUE,TRUE,,,,,,,CLR,,,,,,,,VFR,,,,,,,,,,,,METAR,276.0
KDUG 150956Z AUTO 36011KT 10SM CLR 21/02 A2994 RMK AO2 SLP057 T02110022,KDUG,2015-06-15T09:56:00Z,31.47,-109.58,21.1,2.2,360,11,,10.0,29.940945,1005.7,,TRUE,TRUE,,,,,,,CLR,,,,,,,,VFR,,,,,,,,,,,,METAR,1265.0
KDIK 150956Z AUTO 36006KT 10SM CLR 09/06 A3016 RMK AO2 SLP209 T00940061 $,KDIK,2015-06-15T09:56:00Z,46.8,-102.8,9.4,6.1,360,6,,10.0,30.159449,1020.9,,TRUE,TRUE,TRUE,,,,,,CLR,,,,,,,,VFR,,,,,,,,,,,,METAR,788.0
KDIJ 150956Z AUTO 10004KT 10SM CLR 06/M01 A3012 RMK AO2 T00611005 SLP127 $,KDIJ,2015-06-15T09:56:00Z,43.75,-111.1,6.1,-0.5,100,4,,10.0,30.121063,1012.7,,TRUE,TRUE,TRUE,,,,,,CLR,,,,,,,,VFR,,,,,,,,,,,,METAR,1899.0
KDAY 150956Z 23009KT 10SM FEW023 SCT090 OVC100 23/22 A3004 RMK AO2 RAB21E48 SLP163 P0002 T02280217,KDAY,2015-06-15T09:56:00Z,39.9,-84.22,22.8,21.7,230,9,,10.0,30.041338,1016.3,,,TRUE,,,,,,,FEW,2300,SCT,9000,OVC,10000,,,VFR,,,,,,0.02,,,,,,METAR,305.0
KCXY 150956Z AUTO 26005KT 9SM -RA CLR 22/21 A2998 RMK AO2 RAB04 SLP151 P0002 T02220206,KCXY,2015-06-15T09:56:00Z,40.22,-76.85,22.2,20.6,260,5,,9.0,29.97933,1015.1,,TRUE,TRUE,,,,,,-RA,CLR,,,,,,,,VFR,,,,,,0.02,,,,,,METAR,106.0
KCTB 150956Z AUTO 04008KT 10SM OVC065 08/03 A3028 RMK AO2 SLP246 T00830033,KCTB,2015-06-15T09:56:00Z,48.6,-112.37,8.3,3.3,40,8,,10.0,30.280512,1024.6,,TRUE,TRUE,,,,,,,OVC,6500,,,,,,,VFR,,,,,,,,,,,,METAR,1175.0
KCHS 150956Z 27003KT 10SM CLR 25/22 A3009 RMK AO2 SLP188 T02500217 $,KCHS,2015-06-15T09:56:00Z,32.9,-80.03,25.0,21.7,270,3,,10.0,30.088583,1018.8,,,TRUE,TRUE,,,,,,CLR,,,,,,,,VFR,,,,,,,,,,,,METAR,13.0
KCEC 150956Z AUTO 25006KT 8SM OVC007 11/09 A2993 RMK AO2 SLP137 T01060094,KCEC,2015-06-15T09:56:00Z,41.77,-124.22,10.6,9.4,250,6,,8.0,29.929134,1013.7,,TRUE,TRUE,,,,,,,OVC,700,,,,,,,IFR,,,,,,,,,,,,METAR,17.0
KCAE 150956Z 24003KT 10SM CLR 23/19 A3008 RMK AO2 SLP183 T02280194,KCAE,2015-06-15T09:56:00Z,33.93,-81.12,22.8,19.4,240,3,,10.0,30.079725,1018.3,,,TRUE,,,,,,,CLR,,,,,,,,VFR,,,,,,,,,,,,METAR,70.0
KBZN 150956Z AUTO 24005KT 10SM CLR 09/06 A3017 RMK AO2 SLP192 T00940061 $,KBZN,2015-06-15T09:56:00Z,45.78,-111.17,9.4,6.1,240,5,,10.0,30.171259,1019.2,,TRUE,TRUE,TRUE,,,,,,CLR,,,,,,,,VFR,,,,,,,,,,,,METAR,1361.0
KBMI 150956Z AUTO 22008KT 10SM CLR 23/22 A2998 RMK AO2 T02270222 SLP138,KBMI,2015-06-15T09:56:00Z,40.47,-88.92,22.7,22.2,220,8,,10.0,29.97933,1013.8,,TRUE,TRUE,,,,,,,CLR,,,,,,,,VFR,,,,,,,,,,,,METAR,267.0
KBJJ 150956Z AUTO 26006KT 10SM -RA BKN011 BKN028 OVC048 22/21 A3002 RMK AO2 SLP158 P0004 T02170206 TSNO $,KBJJ,2015-06-15T09:56:00Z,40.87,-81.88,21.7,20.6,260,6,,10.0,30.02067,1015.8,,TRUE,TRUE,TRUE,,TRUE,,,-RA,BKN,1100,BKN,2800,OVC,4800,,,MVFR,,,,,,0.04,,,,,,METAR,343.0
KBIV 150956Z AUTO 15003KT 1/2SM FG OVC002 18/18 A2995 RMK AO2 T01830178 $,KBIV,2015-06-15T09:56:00Z,42.75,-86.1,18.3,17.8,150,3,,0.5,29.949802,,,TRUE,TRUE,TRUE,,,,,FG,OVC,200,,,,,,,LIFR,,,,,,,,,,,,METAR,208.0
KBIH 150956Z AUTO 03005KT 10SM CLR 17/01 A2991 RMK AO2 SLP068 T01720006,KBIH,2015-06-15T09:56:00Z,37.37,-118.35,17.2,0.6,30,5,,10.0,29.911417,1006.8,,TRUE,TRUE,,,,,,,CLR,,,,,,,,VFR,,,,,,,,,,,,METAR,1253.0
KBED 150956Z AUTO 08005KT 10SM -RA SCT070 OVC090 14/12 A3008 RMK AO2 SLP198 P0004 T01390117 TSNO,KBED,2015-06-15T09:56:00Z,42.47,-71.3,13.9,11.7,80,5,,10.0,30.079725,1019.8,,TRUE,TRUE,,,TRUE,,,-RA,SCT,7000,OVC,9000,,,,,VFR,,,,,,0.04,,,,,,METAR,50.0
KBBW 150956Z AUTO 35010KT 6SM -RA BR BKN012 BKN017 OVC055 18/16 A3001 RMK AO2 LTG DSNT NE AND E P0000 T01780161,KBBW,2015-06-15T09:56:00Z,41.43,-99.63,17.8,16.1,350,10,,6.0,30.008858,,,TRUE,TRUE,,,,,,-RA BR,BKN,1200,BKN,1700,OVC,5500,,,MVFR,,,,,,0.0050,,,,,,METAR,776.0
KART 150956Z AUTO 22008KT 1/2SM FG VV002 16/16 A2988 RMK AO2 SLP114 T01610156,KART,2015-06-15T09:56:00Z,43.98,-76.03,16.1,15.6,220,8,,0.5,29.878937,1011.4,,TRUE,TRUE,,,,,,FG,OVX,0,,,,,,,LIFR,,,,,,,,,,,200,METAR,100.0
KINW 150956Z AUTO 14004KT 10SM CLR 17/09 A3005 RMK AO2 SLP101 T01670089,KINW,2015-06-15T09:56:00Z,35.03,-110.72,16.7,8.9,140,4,,10.0,30.050198,1010.1,,TRUE,TRUE,,,,,,,CLR,,,,,,,,VFR,,,,,,,,,,,,METAR,1490.0
KIGX 150956Z AUTO 00000KT 10SM CLR 22/20 A3007 RMK AO2 SLP175 T02220200 TSNO,KIGX,2015-06-15T09:56:00Z,35.93,-79.07,22.2,20.0,0,0,,10.0,30.070866,1017.5,,TRUE,TRUE,,,TRUE,,,,CLR,,,,,,,,VFR,,,,,,,,,,,,METAR,155.0
KHYA 150956Z 14007KT 10SM BKN060 OVC120 16/08 A3009 RMK AO2 SLP191 T01560083,KHYA,2015-06-15T09:56:00Z,41.67,-70.27,15.6,8.3,140,7,,10.0,30.088583,1019.1,,,TRUE,,,,,,,BKN,6000,OVC,12000,,,,,VFR,,,,,,,,,,,,METAR,22.0
PAMD 150956Z AUTO 26006KT 10SM CLR 13/09 A3022 RMK AO1,PAMD,2015-06-15T09:56:00Z,59.43,-146.3,13.0,9.0,260,6,,10.0,30.221457,,,TRUE,TRUE,,,,,,,CLR,,,,,,,,VFR,,,,,,,,,,,,METAR,14.0
PAKP 150956Z AUTO 00000KT 10SM CLR 08/M01 A3037 RMK AO1,PAKP,2015-06-15T09:56:00Z,68.13,-151.73,8.0,-1.0,0,0,,10.0,30.369095,,,TRUE,TRUE,,,,,,,CLR,,,,,,,,VFR,,,,,,,,,,,,METAR,642.0
PAKK 150956Z 19006KT 10SM BKN008 08/01 A3050 RMK AO1,PAKK,2015-06-15T09:56:00Z,64.93,-161.15,8.0,1.0,190,6,,10.0,30.499016,,,,TRUE,,,,,,,BKN,800,,,,,,,IFR,,,,,,,,,,,,METAR,47.0
PAJC 150956Z AUTO 00000KT 10SM CLR 13/06 RMK AO1,PAJC,2015-06-15T09:56:00Z,56.32,-158.37,13.0,6.0,0,0,,10.0,,,,TRUE,TRUE,,,,,,,CLR,,,,,,,,VFR,,,,,,,,,,,,METAR,15.0
PAIN 150956Z AUTO 00000KT 10SM CLR 10/03 A3042 RMK AO1,PAIN,2015-06-15T09:56:00Z,63.73,-148.92,10.0,3.0,0,0,,10.0,30.41929,,,TRUE,TRUE,,,,,,,CLR,,,,,,,,VFR,,,,,,,,,,,,METAR,524.0
PAII 150956Z AUTO 20010KT 10SM CLR 08/07 A3036 RMK AO1,PAII,2015-06-15T09:56:00Z,58.18,-157.38,8.0,7.0,200,10,,10.0,30.360237,,,TRUE,TRUE,,,,,,,CLR,,,,,,,,VFR,,,,,,,,,,,,METAR,30.0
PAHY 150956Z AUTO 00000KT 10SM OVC120 12/09 A3004 RMK AO1,PAHY,2015-06-15T09:56:00Z,55.2,-132.83,12.0,9.0,0,0,,10.0,30.041338,,,TRUE,TRUE,,,,,,,OVC,12000,,,,,,,VFR,,,,,,,,,,,,METAR,1.0
PAHP 150956Z AUTO 31008KT 3SM OVC002 05/04 A3058 RMK AO1,PAHP,2015-06-15T09:56:00Z,61.53,-166.15,5.0,4.0,310,8,,3.0,30.578741,,,TRUE,TRUE,,,,,,,OVC,200,,,,,,,LIFR,,,,,,,,,,,,METAR,5.0
PAHL 150956Z AUTO 29005KT 10SM CLR 16/01 A3041 RMK AO1,PAHL,2015-06-15T09:56:00Z,65.7,-156.35,16.0,1.0,290,5,,10.0,30.410433,,,TRUE,TRUE,,,,,,,CLR,,,,,,,,VFR,,,,,,,,,,,,METAR,65.0
PAGS 150956Z AUTO 00000KT 10SM FEW120 14/06 A3012 RMK AO1 PNO,PAGS,2015-06-15T09:56:00Z,58.42,-135.73,14.0,6.0,0,0,,10.0,30.121063,,,TRUE,TRUE,,,,,,,FEW,12000,,,,,,,VFR,,,,,,,,,,,,METAR,9.0
PAGM 150956Z AUTO 20015KT 1/2SM OVC003 04/02 A3046 RMK AO1,PAGM,2015-06-15T09:56:00Z,63.77,-171.73,4.0,2.0,200,15,,0.5,30.46063,,,TRUE,TRUE,,,,,,,OVC,300,,,,,,,LIFR,,,,,,,,,,,,METAR,8.0
PAGL 150956Z AUTO 26007KT 10SM OVC005 06/04 A3056 RMK AO1,PAGL,2015-06-15T09:56:00Z,64.55,-163.03,6.0,4.0,260,7,,10.0,30.561024,,,TRUE,TRUE,,,,,,,OVC,500,,,,,,,IFR,,,,,,,,,,,,METAR,8.0
PAFM 150956Z AUTO 00000KT 10SM CLR 15/04 A3043 RMK AO1,PAFM,2015-06-15T09:56:00Z,67.1,-157.85,15.0,4.0,0,0,,10.0,30.431103,,,TRUE,TRUE,,,,,,,CLR,,,,,,,,VFR,,,,,,,,,,,,METAR,88.0
PAFE 150956Z AUTO 01005KT 10SM CLR 11/08 A3010 RMK AO1,PAFE,2015-06-15T09:56:00Z,56.97,-133.92,11.0,8.0,10,5,,10.0,30.100393,,,TRUE,TRUE,,,,,,,CLR,,,,,,,,VFR,,,,,,,,,,,,METAR,9.0
PAEM 150956Z AUTO 32003KT 10SM OVC005 06/03 A3058 RMK AO1,PAEM,2015-06-15T09:56:00Z,62.77,-164.52,6.0,3.0,320,3,,10.0,30.578741,,,TRUE,TRUE,,,,,,,OVC,500,,,,,,,IFR,,,,,,,,,,,,METAR,3.0
PADL 150956Z 36009KT 10SM CLR 21/04 A3033 RMK AO1,PADL,2015-06-15T09:56:00Z,59.05,-158.52,21.0,4.0,360,9,,10.0,30.33071,,,,TRUE,,,,,,,CLR,,,,,,,,VFR,,,,,,,,,,,,METAR,26.0
PADK 150956Z 08008KT 8SM OVC006 08/05 A3027 RMK AO1,PADK,2015-06-15T09:56:00Z,51.88,-176.65,8.0,5.0,80,8,,8.0,30.268702,,,,TRUE,,,,,,,OVC,600,,,,,,,IFR,,,,,,,,,,,,METAR,4.0
PABV 150956Z AUTO 00000KT 10SM CLR 15/09 A3025 RMK AO1,PABV,2015-06-15T09:56:00Z,61.42,-149.52,15.0,9.0,0,0,,10.0,30.250984,,,TRUE,TRUE,,,,,,,CLR,,,,,,,,VFR,,,,,,,,,,,,METAR,29.0
PAAK 150956Z 15015G21KT 10SM 08/06 A3027 RMK AO1,PAAK,2015-06-15T09:56:00Z,52.22,-174.2,8.0,6.0,150,15,21,10.0,30.268702,,,,TRUE,,,,,,,,,,,,,,,,,,,,,,,,,,,METAR,17.0
KNFE 150956Z AUTO 00000KT 7SM CLR 24/21 A3003 RMK AO2 SLP169 T02440211,KNFE,2015-06-15T09:56:00Z,36.7,-76.13,24.4,21.1,0,0,,7.0,30.029528,1016.9,,TRUE,TRUE,,,,,,,CLR,,,,,,,,VFR,,,,,,,,,,,,METAR,5.0
KNBT 150956Z AUTO 20003KT 7SM CLR A3003 RMK AO2 SLP175 PNO $,KNBT,2015-06-15T09:56:00Z,35.02,-76.47,,,200,3,,7.0,30.029528,1017.5,,TRUE,TRUE,TRUE,,,,,,CLR,,,,,,,,VFR,,,,,,,,,,,,METAR,5.0
KNYG 150956Z AUTO 00000KT 10SM CLR 24/22 A3000 RMK AO2 SLP160 T02440217,KNYG,2015-06-15T09:56:00Z,38.5,-77.28,24.4,21.7,0,0,,10.0,30.0,1016.0,,TRUE,TRUE,,,,,,,CLR,,,,,,,,VFR,,,,,,,,,,,,METAR,4.0
KNQI 150956Z AUTO 35004KT 10SM SCT021 SCT060 26/25 A2984 RMK AO2 SLP102 P0001 T02560250 TSNO $,KNQI,2015-06-15T09:56:00Z,27.5,-97.82,25.6,25.0,350,4,,10.0,29.840551,1010.2,,TRUE,TRUE,TRUE,,TRUE,,,,SCT,2100,SCT,6000,,,,,VFR,,,,,,0.01,,,,,,METAR,15.0
KNOG 150956Z AUTO 02004KT 10SM SCT019 BKN055 24/23 A2987 RMK AO2 SLP095 T02440233 TSNO $,KNOG,2015-06-15T09:56:00Z,27.9,-98.05,24.4,23.3,20,4,,10.0,29.870079,1009.5,,TRUE,TRUE,TRUE,,TRUE,,,,SCT,1900,BKN,5500,,,,,VFR,,,,,,,,,,,,METAR,78.0
KAQV 150956Z AUTO VRB03KT 2SM BR OVC002 23/22 A2997 RMK AO2 SLP146 T02330222 $,KAQV,2015-06-15T09:56:00Z,31.4,-93.3,23.3,22.2,0,3,,2.0,29.970472,1014.6,,TRUE,TRUE,TRUE,,,,,BR,OVC,200,,,,,,,LIFR,,,,,,,,,,,,METAR,111.0
KNBC 150956Z AUTO 25004KT 10SM CLR 24/20 A3010 RMK AO2 SLP192 T02440200 $,KNBC,2015-06-15T09:56:00Z,32.47,-80.72,24.4,20.0,250,4,,10.0,30.100393,1019.2,,TRUE,TRUE,TRUE,,,,,,CLR,,,,,,,,VFR,,,,,,,,,,,,METAR,12.0
KNXP 150956Z 30009KT 10SM CLR 28/04 A2985 RMK AO2 SLP064 T02830044,KNXP,2015-06-15T09:56:00Z,34.28,-116.17,28.3,4.4,300,9,,10.0,29.84941,1006.4,,,TRUE,,,,,,,CLR,,,,,,,,VFR,,,,,,,,,,,,METAR,626.0
KNID 150956Z AUTO 18004KT 10SM CLR 26/00 A2975 RMK AO2 SLP045 T02610000 $,KNID,2015-06-15T09:56:00Z,35.67,-117.67,26.1,0.0,180,4,,10.0,29.749016,1004.5,,TRUE,TRUE,TRUE,,,,,,CLR,,,,,,,,VFR,,,,,,,,,,,,METAR,696.0
KGNR 150956Z AUTO 13003KT 12/07 A3007 RMK AO1 SLP184 T01220072,KGNR,2015-06-15T09:56:00Z,45.47,-69.55,12.2,7.2,130,3,,,30.070866,1018.4,,TRUE,TRUE,,,,,,,,,,,,,,,,,,,,,,,,,,,METAR,427.0
KNMM 150956Z AUTO 00000KT 1 1/4SM BR OVC001 20/19 A3008 RMK AO2 VIS 1/2 SOUTH SLP194 T02000189 $,KNMM,2015-06-15T09:56:00Z,32.53,-88.57,20.0,18.9,0,0,,1.25,30.079725,1019.4,,TRUE,TRUE,TRUE,,,,,BR,OVC,100,,,,,,,LIFR,,,,,,,,,,,,METAR,97.0
KABH 150956Z AUTO 06003KT 10SM CLR A3019 RMK AO2 SLPNO $,KABH,2015-06-15T09:56:00Z,38.75,-104.3,,,60,3,,10.0,30.188976,,,TRUE,TRUE,TRUE,,,,,,CLR,,,,,,,,VFR,,,,,,,,,,,,METAR,1840.0
KGNA 150956Z AUTO 00000KT 15/12 A2988 RMK AO1 SLP120 T01500117,KGNA,2015-06-15T09:56:00Z,47.75,-90.35,15.0,11.7,0,0,,,29.878937,1012.0,,TRUE,TRUE,,,,,,,,,,,,,,,,,,,,,,,,,,,METAR,185.0
KNGP 150956Z AUTO 13006KT 10SM FEW020 26/24 A2984 RMK AO2 SLP104 T02610244,KNGP,2015-06-15T09:56:00Z,27.68,-97.27,26.1,24.4,130,6,,10.0,29.840551,1010.4,,TRUE,TRUE,,,,,,,FEW,2000,,,,,,,VFR,,,,,,,,,,,,METAR,6.0
K4I3 150956Z AUTO 27010G17KT 7SM -DZ BKN010 BKN016 21/21 A3004 RMK AO2,K4I3,2015-06-15T09:56:00Z,40.33,-82.53,21.0,21.0,270,10,17,7.0,30.041338,,,TRUE,TRUE,,,,,,-DZ,BKN,1000,BKN,1600,,,,,MVFR,,,,,,,,,,,,METAR,363.0
K79J 150956Z AUTO 00000KT 7SM CLR 23/21 A3009 RMK AO2 SLP183 T02330211,K79J,2015-06-15T09:56:00Z,31.32,-86.4,23.3,21.1,0,0,,7.0,30.088583,1018.3,,TRUE,TRUE,,,,,,,CLR,,,,,,,,VFR,,,,,,,,,,,,METAR,94.0
KSXT 150956Z AUTO 36011KT 10SM CLR 12/07 A2995 RMK AO2 SLP100 T01220072,KSXT,2015-06-15T09:56:00Z,42.6,-123.37,12.2,7.2,360,11,,10.0,29.949802,1010.0,,TRUE,TRUE,,,,,,,CLR,,,,,,,,VFR,,,,,,,,,,,,METAR,1170.0
KNPA 150956Z AUTO 09004KT 10SM CLR 24/23 A3003 RMK AO2 SLP172 T02440228 $,KNPA,2015-06-15T09:56:00Z,30.35,-87.32,24.4,22.8,90,4,,10.0,30.029528,1017.2,,TRUE,TRUE,TRUE,,,,,,CLR,,,,,,,,VFR,,,,,,,,,,,,METAR,9.0
KNSE 150956Z AUTO 04003KT 6SM BR CLR 22/21 A3006 RMK AO2 SLP163 T02170211 $,KNSE,2015-06-15T09:56:00Z,30.73,-87.02,21.7,21.1,40,3,,6.0,30.059055,1016.3,,TRUE,TRUE,TRUE,,,,,BR,CLR,,,,,,,,VFR,,,,,,,,,,,,METAR,61.0
KPRN 150956Z AUTO 00000KT 10SM CLR 21/19 A3009 RMK AO2 SLP182 T02110194 $,KPRN,2015-06-15T09:56:00Z,31.85,-86.62,21.1,19.4,0,0,,10.0,30.088583,1018.2,,TRUE,TRUE,TRUE,,,,,,CLR,,,,,,,,VFR,,,,,,,,,,,,METAR,138.0
KNCA 150956Z AUTO 00000KT 10SM CLR 24/22 A3004 RMK AO2 SLP173 T02440222,KNCA,2015-06-15T09:56:00Z,34.72,-77.45,24.4,22.2,0,0,,10.0,30.041338,1017.3,,TRUE,TRUE,,,,,,,CLR,,,,,,,,VFR,,,,,,,,,,,,METAR,8.0
KP60 150956Z AUTO 00000KT 02/M01 A3025 RMK AO1 SLP181 T00171006,KP60,2015-06-15T09:56:00Z,44.55,-110.42,1.7,-0.6,0,0,,,30.250984,1018.1,,TRUE,TRUE,,,,,,,,,,,,,,,,,,,,,,,,,,,METAR,2388.0
KHFF 150956Z AUTO 01002KT 10SM CLR 22/21 A3010 RMK AO2 SLP191 T02180211 TSNO $,KHFF,2015-06-15T09:56:00Z,35.02,-79.5,21.8,21.1,10,2,,10.0,30.100393,1019.1,,TRUE,TRUE,TRUE,,TRUE,,,,CLR,,,,,,,,VFR,,,,,,,,,,,,METAR,115.0
MMMT 150956Z 00000KT 7SM BKN030 26/22 A2973 RMK 8/500 RTS,MMMT,2015-06-15T09:56:00Z,18.1,-94.57,26.0,22.0,0,0,,7.0,29.731298,,,,,,,,,,,BKN,3000,,,,,,,MVFR,,,,,,,,,,,,METAR,40.0
KNXF 150956Z AUTO 00000KT 9SM OVC008 A2982 RMK AO2 SLPNO $,KNXF,2015-06-15T09:56:00Z,33.28,-117.45,,,0,0,,9.0,29.819881,,,TRUE,TRUE,TRUE,,,,,,OVC,800,,,,,,,IFR,,,,,,,,,,,,METAR,27.0
KNJK 150956Z AUTO 16004KT 10SM CLR 27/15 A2965 RMK AO2 SLP055 T02670150 $,KNJK,2015-06-15T09:56:00Z,32.82,-115.67,26.7,15.0,160,4,,10.0,29.648623,1005.5,,TRUE,TRUE,TRUE,,,,,,CLR,,,,,,,,VFR,,,,,,,,,,,,METAR,-13.0
K4MR 150956Z AUTO M 10SM FEW070 FEW140 16/15 A3008 RMK AO2 SLP127 T01630150 $,K4MR,2015-06-15T09:56:00Z,34.3,-103.8,16.3,15.0,,,,10.0,30.079725,1012.7,,TRUE,TRUE,TRUE,,,,,,FEW,7000,FEW,14000,,,,,VFR,,,,,,,,,,,,METAR,1326.0
K1YT 150956Z AUTO 05003KT 10SM CLR 14/M02 A2996 RMK AO2 SLPNO T01421022 $,K1YT,2015-06-15T09:56:00Z,46.67,-120.45,14.2,-2.2,50,3,,10.0,29.958662,,,TRUE,TRUE,TRUE,,,,,,CLR,,,,,,,,VFR,,,,,,,,,,,,METAR,438.0
KBJC 150956Z AUTO 14003KT 10SM OVC041 15/11 A3021 RMK AO2,KBJC,2015-06-15T09:56:00Z,39.9,-105.1,15.0,11.0,140,3,,10.0,30.209646,,,TRUE,TRUE,,,,,,,OVC,4100,,,,,,,VFR,,,,,,,,,,,,METAR,1724.0
KROS 150956Z AUTO 35006KT 10SM SCT085 BKN110 17/15 A2993 RMK AO2 T01670152,KROS,2015-06-15T09:56:00Z,45.7,-92.95,16.7,15.2,350,6,,10.0,29.929134,,,TRUE,TRUE,,,,,,,SCT,8500,BKN,11000,,,,,VFR,,,,,,,,,,,,METAR,281.0
YTRE 150956Z AUTO 06012KT 9999 // SCT006 BKN019 BKN022 15/14 Q1025,YTRE,2015-06-15T09:56:00Z,-31.88,152.52,15.0,14.0,60,12,,6.21,30.265747,,,TRUE,,,,,,,,SCT,600,BKN,1900,BKN,2200,,,MVFR,,,,,,,,,,,,SPECI,12.0
KMQJ 150956Z AUTO 23011G15KT 7SM BKN010 OVC014 22/ A3004 RMK AO1,KMQJ,2015-06-15T09:56:00Z,39.85,-85.9,22.0,,230,11,15,7.0,30.041338,,,TRUE,TRUE,,,,,,,BKN,1000,OVC,1400,,,,,MVFR,,,,,,,,,,,,METAR,263.0
KI69 150956Z AUTO 00000KT 23/21 A3006 RMK AO1 PWINO,KI69,2015-06-15T09:56:00Z,39.08,-84.22,23.0,21.0,0,0,,,30.059055,,,TRUE,TRUE,,,,,TRUE,,,,,,,,,,,,,,,,,,,,,,METAR,255.0
KISP 150956Z 14012KT 3SM RA BR SCT006 BKN031 OVC050 19/18 A3000 RMK AO2 SLP159 FIRST AUGMENTED OBSERVATION P0041 T01890178,KISP,2015-06-15T09:56:00Z,40.8,-73.1,18.9,17.8,140,12,,3.0,30.0,1015.9,,,TRUE,,,,,,RA BR,SCT,600,BKN,3100,OVC,5000,,,MVFR,,,,,,0.41,,,,,,METAR,43.0
KHND 150956Z 19012KT 10SM CLR 30/05 A2979 RMK AO2 SLP051 T03000050,KHND,2015-06-15T09:56:00Z,35.98,-115.13,30.0,5.0,190,12,,10.0,29.790354,1005.1,,,TRUE,,,,,,,CLR,,,,,,,,VFR,,,,,,,,,,,,METAR,749.0
PFYU 150956Z 00000KT 10SM CLR 12/06 A3034 RMK AO1,PFYU,2015-06-15T09:56:00Z,66.57,-145.27,12.0,6.0,0,0,,10.0,30.339567,,,,TRUE,,,,,,,CLR,,,,,,,,VFR,,,,,,,,,,,,METAR,131.0
PAZK 150956Z AUTO 01010KT 10SM CLR 11/02 A3039 RMK AO1,PAZK,2015-06-15T09:56:00Z,61.93,-147.17,11.0,2.0,10,10,,10.0,30.389763,,,TRUE,TRUE,,,,,,,CLR,,,,,,,,VFR,,,,,,,,,,,,METAR,1003.0
PAWS 150956Z 25005KT 10SM CLR 13/09 A3024 RMK AO1,PAWS,2015-06-15T09:56:00Z,61.57,-149.53,13.0,9.0,250,5,,10.0,30.239174,,,,TRUE,,,,,,,CLR,,,,,,,,VFR,,,,,,,,,,,,METAR,107.0
PAWN 150956Z AUTO 22004KT 10SM OVC018 09/04 A3038 RMK AO1,PAWN,2015-06-15T09:56:00Z,67.57,-162.98,9.0,4.0,220,4,,10.0,30.380905,,,TRUE,TRUE,,,,,,,OVC,1800,,,,,,,MVFR,,,,,,,,,,,,METAR,30.0
PAWG 150956Z AUTO 00000KT 10SM CLR 13/09 A3009 RMK AO1,PAWG,2015-06-15T09:56:00Z,56.48,-132.37,13.0,9.0,0,0,,10.0,30.088583,,,TRUE,TRUE,,,,,,,CLR,,,,,,,,VFR,,,,,,,,,,,,METAR,11.0
PAVD 150956Z 15003KT 10SM CLR 16/07 A3023 RMK AO1,PAVD,2015-06-15T09:56:00Z,61.13,-146.25,16.0,7.0,150,3,,10.0,30.230314,,,,TRUE,,,,,,,CLR,,,,,,,,VFR,,,,,,,,,,,,METAR,37.0
PAUN 150956Z AUTO 29008KT 10SM OVC009 08/04 A3056 RMK AO1,PAUN,2015-06-15T09:56:00Z,63.88,-160.8,8.0,4.0,290,8,,10.0,30.561024,,,TRUE,TRUE,,,,,,,OVC,900,,,,,,,IFR,,,,,,,,,,,,METAR,6.0
PATG 150956Z AUTO 01005KT 10SM CLR 16/09 A3037 RMK AO1,PATG,2015-06-15T09:56:00Z,59.05,-160.38,16.0,9.0,10,5,,10.0,30.369095,,,TRUE,TRUE,,,,,,,CLR,,,,,,,,VFR,,,,,,,,,,,,METAR,4.0
PASX 150956Z AUTO 20004KT 10SM BKN080 OVC090 14/06 A3024 RMK AO1,PASX,2015-06-15T09:56:00Z,60.48,-151.03,14.0,6.0,200,4,,10.0,30.239174,,,TRUE,TRUE,,,,,,,BKN,8000,OVC,9000,,,,,VFR,,,,,,,,,,,,METAR,32.0
PASM 150956Z AUTO 01010KT 5SM OVC002 07/05 A3053 RMK AO1,PASM,2015-06-15T09:56:00Z,62.07,-163.3,7.0,5.0,10,10,,5.0,30.528543,,,TRUE,TRUE,,,,,,,OVC,200,,,,,,,LIFR,,,,,,,,,,,,METAR,92.0
PASL 150956Z AUTO 00000KT 10SM CLR 18/03 A3041 RMK AO1,PASL,2015-06-15T09:56:00Z,61.72,-157.15,18.0,3.0,0,0,,10.0,30.410433,,,TRUE,TRUE,,,,,,,CLR,,,,,,,,VFR,,,,,,,,,,,,METAR,55.0
PASK 150956Z AUTO 21003KT 10SM CLR 12/08 A3045 RMK AO1,PASK,2015-06-15T09:56:00Z,66.6,-160.0,12.0,8.0,210,3,,10.0,30.448818,,,TRUE,TRUE,,,,,,,CLR,,,,,,,,VFR,,,,,,,,,,,,METAR,8.0
KJXN 150956Z 25004KT 7SM BKN007 BKN012 22/21 A2997 RMK AO2 RAE04B22E37 CIG 006V009 SLP142 P0001 T02220211,KJXN,2015-06-15T09:56:00Z,42.27,-84.47,22.2,21.1,250,4,,7.0,29.970472,1014.2,,,TRUE,,,,,,,BKN,700,BKN,1200,,,,,IFR,,,,,,0.01,,,,,,METAR,305.0
KJMS 150956Z AUTO 33005KT 10SM CLR 12/10 A3007 RMK AO2 SLP182 T01170100,KJMS,2015-06-15T09:56:00Z,46.93,-98.67,11.7,10.0,330,5,,10.0,30.070866,1018.2,,TRUE,TRUE,,,,,,,CLR,,,,,,,,VFR,,,,,,,,,,,,METAR,455.0
KNDZ 150956Z AUTO 06005KT 9SM CLR 23/22 A3006 RMK AO2 SLP163 T02330217 $,KNDZ,2015-06-15T09:56:00Z,30.7,-87.02,23.3,21.7,60,5,,9.0,30.059055,1016.3,,TRUE,TRUE,TRUE,,,,,,CLR,,,,,,,,VFR,,,,,,,,,,,,METAR,54.0
KALK 150956Z AUTO 24009KT 10SM CLR 21/04 A3002 RMK AO2 SLP061 T02110039 $,KALK,2015-06-15T09:56:00Z,31.6,-110.43,21.1,3.9,240,9,,10.0,30.02067,1006.1,,TRUE,TRUE,TRUE,,,,,,CLR,,,,,,,,VFR,,,,,,,,,,,,METAR,1453.0
KNRS 150956Z AUTO 31006KT 10SM OVC010 18/16 A2981 RMK AO2 SLP093 T01830156 $,KNRS,2015-06-15T09:56:00Z,32.57,-117.12,18.3,15.6,310,6,,10.0,29.811024,1009.3,,TRUE,TRUE,TRUE,,,,,,OVC,1000,,,,,,,MVFR,,,,,,,,,,,,METAR,7.0
PHBK 150956Z AUTO 08004KT 10SM FEW055 OVC095 A2996 RMK AO2 SLP149 $,PHBK,2015-06-15T09:56:00Z,22.03,-159.78,,,80,4,,10.0,29.958662,1014.9,,TRUE,TRUE,TRUE,,,,,,FEW,5500,OVC,9500,,,,,VFR,,,,,,,,,,,,METAR,8.0
KNTU 150956Z 22004KT 10SM FEW250 26/23 A3002 RMK AO2 SLP168 T02560228,KNTU,2015-06-15T09:56:00Z,36.82,-76.02,25.6,22.8,220,4,,10.0,30.02067,1016.8,,,TRUE,,,,,,,FEW,25000,,,,,,,VFR,,,,,,,,,,,,METAR,7.0
K8D3 150956Z AUTO 34005KT 12/12 A3001 RMK AO1 SLP153 T01170117,K8D3,2015-06-15T09:56:00Z,45.67,-96.98,11.7,11.7,340,5,,,30.008858,1015.3,,TRUE,TRUE,,,,,,,,,,,,,,,,,,,,,,,,,,,METAR,354.0
KJAX 150956Z 00000KT 10SM CLR 21/20 A3009 RMK AO2 SLP189 T02060200,KJAX,2015-06-15T09:56:00Z,30.5,-81.68,20.6,20.0,0,0,,10.0,30.088583,1018.9,,,TRUE,,,,,,,CLR,,,,,,,,VFR,,,,,,,,,,,,METAR,10.0
KITH 150956Z AUTO 00000KT 10SM BKN019 BKN029 OVC035 21/21 A2995 RMK AO2 T02110205 BKN V SCT SLP137,KITH,2015-06-15T09:56:00Z,42.47,-76.45,21.1,20.5,0,0,,10.0,29.949802,1013.7,,TRUE,TRUE,,,,,,,BKN,1900,BKN,2900,OVC,3500,,,MVFR,,,,,,,,,,,,METAR,335.0
KM19 150956Z AUTO 18004KT 10SM CLR 23/23 A3003 RMK AO2 T02330227 SLP167,KM19,2015-06-15T09:56:00Z,35.65,-91.17,23.3,22.7,180,4,,10.0,30.029528,1016.7,,TRUE,TRUE,,,,,,,CLR,,,,,,,,VFR,,,,,,,,,,,,METAR,73.0
KLNR 150956Z AUTO 00000KT 9SM -RA CLR 20/19 A2992 RMK AO2 SLP121 P0001 T02000189,KLNR,2015-06-15T09:56:00Z,43.22,-90.18,20.0,18.9,0,0,,9.0,29.920275,1012.1,,TRUE,TRUE,,,,,,-RA,CLR,,,,,,,,VFR,,,,,,0.01,,,,,,METAR,217.0
KMDT 150956Z 29003KT 5SM -RA FEW036 SCT110 BKN140 23/20 A2997 RMK AO2 RAB12 SLP148 P0001 T02330200 $,KMDT,2015-06-15T09:56:00Z,40.2,-76.77,23.3,20.0,290,3,,5.0,29.970472,1014.8,,,TRUE,TRUE,,,,,-RA,FEW,3600,SCT,11000,BKN,14000,,,MVFR,,,,,,0.01,,,,,,METAR,95.0
KUKI 150956Z AUTO 00000KT 10SM CLR 12/08 A2982 RMK AO2 SLP089 T01220083,KUKI,2015-06-15T09:56:00Z,39.12,-123.2,12.2,8.3,0,0,,10.0,29.819881,1008.9,,TRUE,TRUE,,,,,,,CLR,,,,,,,,VFR,,,,,,,,,,,,METAR,187.0
KUCP 150956Z AUTO 00000KT SCT006 OVC013 21/21 A3002 RMK AO2 T02110211 SLP172 $,KUCP,2015-06-15T09:56:00Z,41.03,-80.42,21.1,21.1,0,0,,,30.02067,1017.2,,TRUE,TRUE,TRUE,,,,,,SCT,600,OVC,1300,,,,,,,,,,,,,,,,,METAR,327.0
KTTF 150956Z AUTO 23005KT 7SM OVC017 22/22 A2995 RMK AO2,KTTF,2015-06-15T09:56:00Z,41.93,-83.42,22.0,22.0,230,5,,7.0,29.949802,,,TRUE,TRUE,,,,,,,OVC,1700,,,,,,,MVFR,,,,,,,,,,,,METAR,188.0
KTPH 150956Z AUTO 01008KT 10SM CLR 22/M05 A2999 RMK AO2 SLP057 T02171050,KTPH,2015-06-15T09:56:00Z,38.05,-117.08,21.7,-5.0,10,8,,10.0,29.991142,1005.7,,TRUE,TRUE,,,,,,,CLR,,,,,,,,VFR,,,,,,,,,,,,METAR,1652.0
KSHV 150956Z 15005KT 10SM BKN006 23/22 A2999 RMK AO2 SLP151 T02330222,KSHV,2015-06-15T09:56:00Z,32.45,-93.83,23.3,22.2,150,5,,10.0,29.991142,1015.1,,,TRUE,,,,,,,BKN,600,,,,,,,IFR,,,,,,,,,,,,METAR,83.0
KSGH 150956Z AUTO 26005KT 6SM -RA BR SCT003 BKN030 OVC036 22/22 A3007 RMK AO2 T02220222 BKN V SCT RAB0858E08B31 P0027 SLP170,KSGH,2015-06-15T09:56:00Z,39.83,-83.83,22.2,22.2,260,5,,6.0,30.070866,1017.0,,TRUE,TRUE,,,,,,-RA BR,SCT,300,BKN,3000,OVC,3600,,,MVFR,,,,,,0.27,,,,,,METAR,321.0
KSFO 150956Z 25009KT 10SM FEW005 OVC008 12/09 A2987 RMK AO2 SLP116 T01170094,KSFO,2015-06-15T09:56:00Z,37.62,-122.37,11.7,9.4,250,9,,10.0,29.870079,1011.6,,,TRUE,,,,,,,FEW,500,OVC,800,,,,,IFR,,,,,,,,,,,,METAR,3.0
KSDF 150956Z 21005KT 10SM SCT250 26/21 A3005 RMK AO2 SLP171 T02560206,KSDF,2015-06-15T09:56:00Z,38.18,-85.73,25.6,20.6,210,5,,10.0,30.050198,1017.1,,,TRUE,,,,,,,SCT,25000,,,,,,,VFR,,,,,,,,,,,,METAR,146.0
KPHN 150956Z AUTO 22003KT 5SM BR SCT070 20/20 A2994 RMK AO2,KPHN,2015-06-15T09:56:00Z,42.92,-82.52,20.0,20.0,220,3,,5.0,29.940945,,,TRUE,TRUE,,,,,,BR,SCT,7000,,,,,,,MVFR,,,,,,,,,,,,METAR,198.0
KOWB 150956Z AUTO 19005KT 10SM CLR 23/22 A3005 RMK AO2 T02330216 SLP172,KOWB,2015-06-15T09:56:00Z,37.72,-87.17,23.3,21.6,190,5,,10.0,30.050198,1017.2,,TRUE,TRUE,,,,,,,CLR,,,,,,,,VFR,,,,,,,,,,,,METAR,124.0
KOFK 150956Z AUTO 36005KT 10SM -RA FEW080 OVC110 21/18 A2992 RMK AO2 LTG DSNT SE RAB09 SLP118 P0000 T02060183,KOFK,2015-06-15T09:56:00Z,41.98,-97.43,20.6,18.3,360,5,,10.0,29.920275,1011.8,,TRUE,TRUE,,,,,,-RA,FEW,8000,OVC,11000,,,,,VFR,,,,,,0.0050,,,,,,METAR,470.0
KNUQ 150956Z 02003KT 10SM OVC015 14/11 A2987 RMK AO2 SLP116 T01390106,KNUQ,2015-06-15T09:56:00Z,37.4,-122.05,13.9,10.6,20,3,,10.0,29.870079,1011.6,,,TRUE,,,,,,,OVC,1500,,,,,,,MVFR,,,,,,,,,,,,METAR,12.0
KMTW 150956Z AUTO 00000KT 10SM CLR 14/13 A2991 RMK AO2 SLP893 T01390133,KMTW,2015-06-15T09:56:00Z,44.12,-87.67,13.9,13.3,0,0,,10.0,29.911417,989.3,,TRUE,TRUE,,,,,,,CLR,,,,,,,,VFR,,,,,,,,,,,,METAR,198.0
KMQY 150956Z AUTO 00000KT 10SM CLR 21/20 A3012 RMK AO2 T02110200 SLP202,KMQY,2015-06-15T09:56:00Z,36.02,-86.52,21.1,20.0,0,0,,10.0,30.121063,1020.2,,TRUE,TRUE,,,,,,,CLR,,,,,,,,VFR,,,,,,,,,,,,METAR,166.0
KVPZ 150956Z AUTO 22004KT 8SM BKN006 22/22 A2997 RMK AO2 CIG 004V009 SLP143 T02220217 TSNO,KVPZ,2015-06-15T09:56:00Z,41.45,-87.0,22.2,21.7,220,4,,8.0,29.970472,1014.3,,TRUE,TRUE,,,TRUE,,,,BKN,600,,,,,,,IFR,,,,,,,,,,,,METAR,231.0
KWMC 150956Z AUTO 35005KT 10SM CLR 13/M01 A2992 RMK AO2 SLP084 T01331006,KWMC,2015-06-15T09:56:00Z,40.9,-117.8,13.3,-0.6,350,5,,10.0,29.920275,1008.4,,TRUE,TRUE,,,,,,,CLR,,,,,,,,VFR,,,,,,,,,,,,METAR,1310.0
KY50 150956Z AUTO 00000KT 9SM CLR 18/18 A2991 RMK AO2 TSNO T01770177 SLP121,KY50,2015-06-15T09:56:00Z,44.03,-89.3,17.7,17.7,0,0,,9.0,29.911417,1012.1,,TRUE,TRUE,,,TRUE,,,,CLR,,,,,,,,VFR,,,,,,,,,,,,METAR,262.0
PACM 150956Z AUTO 30006KT 1 3/4SM BR OVC005 06/06 A3060 RMK AO2 PWINO TSNO T00550055 SLP359 $,PACM,2015-06-15T09:56:00Z,61.85,-165.57,5.5,5.5,300,6,,1.75,30.59941,1035.9,,TRUE,TRUE,TRUE,,TRUE,,TRUE,BR,OVC,500,,,,,,,IFR,,,,,,,,,,,,METAR,4.0
PAHX 150956Z AUTO 02004KT 10SM CLR 14/06 A3045 RMK AO2 SLP312 T01390061,PAHX,2015-06-15T09:56:00Z,62.7,-159.57,13.9,6.1,20,4,,10.0,30.448818,1031.2,,TRUE,TRUE,,,,,,,CLR,,,,,,,,VFR,,,,,,,,,,,,METAR,24.0
PATQ 150956Z AUTO 01008KT 10SM OVC070 07/04 A3033 RMK AO2 TSNO T00720044 SLP276 $,PATQ,2015-06-15T09:56:00Z,70.47,-157.43,7.2,4.4,10,8,,10.0,30.33071,1027.6,,TRUE,TRUE,TRUE,,TRUE,,,,OVC,7000,,,,,,,VFR,,,,,,,,,,,,METAR,29.0
PFKW 150956Z AUTO 33008KT 10SM CLR 13/09 A3045 RMK AO2 SLP313 T01280094 $,PFKW,2015-06-15T09:56:00Z,60.8,-161.43,12.8,9.4,330,8,,10.0,30.448818,1031.3,,TRUE,TRUE,TRUE,,,,,,CLR,,,,,,,,VFR,,,,,,,,,,,,METAR,8.0
PPIT 150956Z AUTO 32015KT 10SM CLR 13/11 A3048 RMK AO2 SLP320 T01330106,PPIT,2015-06-15T09:56:00Z,60.9,-162.43,13.3,10.6,320,15,,10.0,30.481298,1032.0,,TRUE,TRUE,,,,,,,CLR,,,,,,,,VFR,,,,,,,,,,,,METAR,4.0
TJSJ 150956Z 00000KT 10SM FEW025 26/23 A3003 RMK AO2 SLP169 T02610228,TJSJ,2015-06-15T09:56:00Z,18.43,-66.02,26.1,22.8,0,0,,10.0,30.029528,1016.9,,,TRUE,,,,,,,FEW,2500,,,,,,,VFR,,,,,,,,,,,,METAR,21.0
KCWN 150956Z AUTO 33014G17KT 10SM CLR 12/09 A2991 RMK AO2 SLP066 T01220089 $,KCWN,2015-06-15T09:56:00Z,38.75,-104.85,12.2,8.9,330,14,17,10.0,29.911417,1006.6,,TRUE,TRUE,TRUE,,,,,,CLR,,,,,,,,VFR,,,,,,,,,,,,METAR,2040.0
KFEW 150956Z AUTO 30005KT 10SM BKN120 10/09 A3016 RMK AO2 SLP146 T00980092 $,KFEW,2015-06-15T09:56:00Z,41.13,-104.87,9.8,9.2,300,5,,10.0,30.159449,1014.6,,TRUE,TRUE,TRUE,,,,,,BKN,12000,,,,,,,VFR,,,,,,,,,,,,METAR,1878.0
PASD 150956Z AUTO 08008KT 10SM CLR 11/08 A3039 RMK AO1,PASD,2015-06-15T09:56:00Z,55.33,-160.5,11.0,8.0,80,8,,10.0,30.389763,,,TRUE,TRUE,,,,,,,CLR,,,,,,,,VFR,,,,,,,,,,,,METAR,7.0
PAPO 150956Z AUTO 19025KT 1 3/4SM OVC003 03/M23 A3030 RMK AO1,PAPO,2015-06-15T09:56:00Z,68.35,-166.8,3.0,-23.0,190,25,,1.75,30.301182,,,TRUE,TRUE,,,,,,,OVC,300,,,,,,,LIFR,,,,,,,,,,,,METAR,6.0
PAPH 150956Z AUTO 1/4SM OVC002 06/03 A3043 RMK AO1,PAPH,2015-06-15T09:56:00Z,56.95,-158.62,6.0,3.0,,,,0.25,30.431103,,,TRUE,TRUE,,,,,,,OVC,200,,,,,,,LIFR,,,,,,,,,,,,METAR,29.0
PAPG 150956Z 08005KT 10SM CLR 14/06 A3007 RMK AO1,PAPG,2015-06-15T09:56:00Z,56.82,-132.97,14.0,6.0,80,5,,10.0,30.070866,,,,TRUE,,,,,,,CLR,,,,,,,,VFR,,,,,,,,,,,,METAR,15.0
PANV 150956Z AUTO 32005KT 10SM CLR 15/02 A3044 RMK AO1,PANV,2015-06-15T09:56:00Z,62.65,-160.18,15.0,2.0,320,5,,10.0,30.43996,,,TRUE,TRUE,,,,,,,CLR,,,,,,,,VFR,,,,,,,,,,,,METAR,99.0
PANI 150956Z AUTO 00000KT 10SM CLR 14/02 A3043 RMK AO1,PANI,2015-06-15T09:56:00Z,61.58,-159.53,14.0,2.0,0,0,,10.0,30.431103,,,TRUE,TRUE,,,,,,,CLR,,,,,,,,VFR,,,,,,,,,,,,METAR,26.0
PAMY 150956Z AUTO 34006KT 2SM OVC003 05/01 A3057 RMK AO1,PAMY,2015-06-15T09:56:00Z,60.37,-166.27,5.0,1.0,340,6,,2.0,30.569881,,,TRUE,TRUE,,,,,,,OVC,300,,,,,,,LIFR,,,,,,,,,,,,METAR,13.0
PAMH 150956Z AUTO 00000KT 10SM CLR 16/03 A3036 RMK AO1,PAMH,2015-06-15T09:56:00Z,63.9,-152.32,16.0,3.0,0,0,,10.0,30.360237,,,TRUE,TRUE,,,,,,,CLR,,,,,,,,VFR,,,,,,,,,,,,METAR,214.0
KAND 150956Z AUTO 00000KT 10SM CLR 22/20 A3013 RMK AO2 SLP191 T02170200,KAND,2015-06-15T09:56:00Z,34.5,-82.72,21.7,20.0,0,0,,10.0,30.129921,1019.1,,TRUE,TRUE,,,,,,,CLR,,,,,,,,VFR,,,,,,,,,,,,METAR,239.0
KADF 150956Z AUTO 21003KT 8SM OVC005 23/23 A3002 RMK AO2 T02330233 SLP180 $,KADF,2015-06-15T09:56:00Z,34.1,-93.07,23.3,23.3,210,3,,8.0,30.02067,1018.0,,TRUE,TRUE,TRUE,,,,,,OVC,500,,,,,,,IFR,,,,,,,,,,,,METAR,56.0
K1M4 150956Z AUTO 00000KT 4SM BR CLR 19/19 A3014 RMK AO2 T01940194 SLP217,K1M4,2015-06-15T09:56:00Z,34.28,-87.6,19.4,19.4,0,0,,4.0,30.138779,1021.7,,TRUE,TRUE,,,,,,BR,CLR,,,,,,,,MVFR,,,,,,,,,,,,METAR,284.0
KNUW 150956Z 15003KT 10SM FEW120 13/08 A2999 RMK AO2 SLP154 T01280078 $,KNUW,2015-06-15T09:56:00Z,48.35,-122.65,12.8,7.8,150,3,,10.0,29.991142,1015.4,,,TRUE,TRUE,,,,,,FEW,12000,,,,,,,VFR,,,,,,,,,,,,METAR,14.0
K2WX 150956Z AUTO 18004KT 11/06 A3012 RMK AO1 SLP191 T01110061 $,K2WX,2015-06-15T09:56:00Z,45.6,-103.55,11.1,6.1,180,4,,,30.121063,1019.1,,TRUE,TRUE,TRUE,,,,,,,,,,,,,,,,,,,,,,,,,,METAR,915.0
KP28 150956Z AUTO 00000KT 20/19 A2993 RMK AO1 SLP117 T02000194,KP28,2015-06-15T09:56:00Z,37.28,-98.55,20.0,19.4,0,0,,,29.929134,1011.7,,TRUE,TRUE,,,,,,,,,,,,,,,,,,,,,,,,,,,METAR,469.0
PHSF 150956Z AUTO 12003KT 9SM CLR 11/09 A3027 RMK AO2 SLP136 T01050093 402130087 $,PHSF,2015-06-15T09:56:00Z,19.77,-155.55,10.5,9.3,120,3,,9.0,30.268702,1013.6,,TRUE,TRUE,TRUE,,,,,,CLR,,,,,,,,VFR,,,,21.3,8.7,,,,,,,METAR,1887.0
KTDR 150956Z AUTO 05005KT 10SM CLR 23/23 A3006 RMK AO2 SLP183 T02280227 TSNO $,KTDR,2015-06-15T09:56:00Z,30.05,-85.52,22.8,22.7,50,5,,10.0,30.059055,1018.3,,TRUE,TRUE,TRUE,,TRUE,,,,CLR,,,,,,,,VFR,,,,,,,,,,,,METAR,5.0
KSXS 150956Z AUTO 29002KT 5SM BR CLR 22/22 A3011 RMK AO2 SLP194 T02220218,KSXS,2015-06-15T09:56:00Z,31.37,-85.85,22.2,21.8,290,2,,5.0,30.109253,1019.4,,TRUE,TRUE,,,,,,BR,CLR,,,,,,,,MVFR,,,,,,,,,,,,METAR,122.0
KSHM 150956Z AUTO 01009KT 10SM CLR 12/09 A3021 RMK AO2 SLP184 T01170093,KSHM,2015-06-15T09:56:00Z,38.8,-104.52,11.7,9.3,10,9,,10.0,30.209646,1018.4,,TRUE,TRUE,,,,,,,CLR,,,,,,,,VFR,,,,,,,,,,,,METAR,1900.0
KGFA 150956Z AUTO 09004KT 10SM CLR 05/03 A3024 RMK AO2 SLP256 T00480026 TSNO $,KGFA,2015-06-15T09:56:00Z,47.5,-111.17,4.8,2.6,90,4,,10.0,30.239174,1025.6,,TRUE,TRUE,TRUE,,TRUE,,,,CLR,,,,,,,,VFR,,,,,,,,,,,,METAR,1075.0
K2DP 150956Z AUTO 00000KT 10SM CLR 21/21 A3003 RMK AO2 SLPNO T02120206 $,K2DP,2015-06-15T09:56:00Z,35.68,-75.9,21.2,20.6,0,0,,10.0,30.029528,,,TRUE,TRUE,TRUE,,,,,,CLR,,,,,,,,VFR,,,,,,,,,,,,METAR,3.0
K1QW 150956Z AUTO 32007KT M /// /// M 17/M03 A2999 RMK AO2 SLP142 T01721032 $,K1QW,2015-06-15T09:56:00Z,46.8,-120.17,17.2,-3.2,320,7,,,29.991142,1014.2,,TRUE,TRUE,TRUE,,,,,,,,,,,,,,,,,,,,,,,,,,METAR,928.0
KM63 150956Z AUTO 03007KT 10SM CLR 23/07 A2994 RMK AO2 SLP058 T02330072,KM63,2015-06-15T09:56:00Z,32.05,-106.15,23.3,7.2,30,7,,10.0,29.940945,1005.8,,TRUE,TRUE,,,,,,,CLR,,,,,,,,VFR,,,,,,,,,,,,METAR,1283.0
KSRC 150956Z AUTO 00000KT 10SM CLR 23/22 A3004 RMK AO2 SLP172 T02280217 TSNO,KSRC,2015-06-15T09:56:00Z,35.22,-91.73,22.8,21.7,0,0,,10.0,30.041338,1017.2,,TRUE,TRUE,,,TRUE,,,,CLR,,,,,,,,VFR,,,,,,,,,,,,METAR,80.0
KSJX 150956Z AUTO 00000KT 1/2SM FG OVC001 14/13 A2991 RMK AO2 T01350132,KSJX,2015-06-15T09:56:00Z,45.7,-85.57,13.5,13.2,0,0,,0.5,29.911417,,,TRUE,TRUE,,,,,,FG,OVC,100,,,,,,,LIFR,,,,,,,,,,,,METAR,204.0
KNFL 150956Z AUTO 00000KT 10SM CLR 15/04 A2992 RMK AO2 SLP105 T01500039,KNFL,2015-06-15T09:56:00Z,39.42,-118.7,15.0,3.9,0,0,,10.0,29.920275,1010.5,,TRUE,TRUE,,,,,,,CLR,,,,,,,,VFR,,,,,,,,,,,,METAR,1199.0
KP53 150956Z AUTO 17003KT 12/11 A2988 RMK AO1 SLP120 T01220106,KP53,2015-06-15T09:56:00Z,46.42,-86.65,12.2,10.6,170,3,,,29.878937,1012.0,,TRUE,TRUE,,,,,,,,,,,,,,,,,,,,,,,,,,,METAR,187.0
KMEH 150956Z AUTO 00000KT 10SM CLR 02/00 A3001 RMK AO2 SLP155 T00220000,KMEH,2015-06-15T09:56:00Z,45.52,-118.42,2.2,0.0,0,0,,10.0,30.008858,1015.5,,TRUE,TRUE,,,,,,,CLR,,,,,,,,VFR,,,,,,,,,,,,METAR,1136.0
KSPD 150956Z AUTO 29004KT 14/14 A3009 RMK AO1 SLP137 T01390139,KSPD,2015-06-15T09:56:00Z,37.28,-102.62,13.9,13.9,290,4,,,30.088583,1013.7,,TRUE,TRUE,,,,,,,,,,,,,,,,,,,,,,,,,,,METAR,1335.0
KD07 150956Z AUTO 31008KT 13/10 A3015 RMK AO1 SLP204 T01280100,KD07,2015-06-15T09:56:00Z,45.03,-102.02,12.8,10.0,310,8,,,30.15059,1020.4,,TRUE,TRUE,,,,,,,,,,,,,,,,,,,,,,,,,,,METAR,784.0
KEED 150956Z AUTO 23008KT 10SM CLR 33/10 A2968 RMK AO2 SLP009 T03280100 $,KEED,2015-06-15T09:56:00Z,34.77,-114.62,32.8,10.0,230,8,,10.0,29.681103,1000.9,,TRUE,TRUE,TRUE,,,,,,CLR,,,,,,,,VFR,,,,,,,,,,,,METAR,302.0
KRDM 150956Z AUTO 16005KT 10SM CLR 07/M02 A2998 RMK AO2 SLP135 T00721017,KRDM,2015-06-15T09:56:00Z,44.25,-121.15,7.2,-1.7,160,5,,10.0,29.97933,1013.5,,TRUE,TRUE,,,,,,,CLR,,,,,,,,VFR,,,,,,,,,,,,METAR,938.0
KAVC 150956Z AUTO 00000KT 10SM CLR 21/20 A3011 RMK AO2 T02050200,KAVC,2015-06-15T09:56:00Z,36.68,-78.03,20.5,20.0,0,0,,10.0,30.109253,,,TRUE,TRUE,,,,,,,CLR,,,,,,,,VFR,,,,,,,,,,,,METAR,135.0
PAPN 150956Z AUTO 00000KT CLR 07/07 A3039 RMK AO2 PWINO TSNO T00720066 SLP292 $,PAPN,2015-06-15T09:56:00Z,57.58,-157.57,7.2,6.6,0,0,,,30.389763,1029.2,,TRUE,TRUE,TRUE,,TRUE,,TRUE,,CLR,,,,,,,,,,,,,,,,,,,,METAR,18.0
KQYV 150956Z AUTO 10001KT 9999 FEW055 SCT120 19/15 A2990 RMK AO2 LTG DSNT NE-E SHRAB36E52 SLPNO T01930151,KQYV,2015-06-15T09:56:00Z,,,19.3,15.1,100,1,,6.21,29.899607,,,TRUE,TRUE,,,,,,,FEW,5500,SCT,12000,,,,,VFR,,,,,,,,,,,,METAR,
KQHY 150956Z AUTO 05003KT 10SM CLR 24/23 A3011 RMK AO2 SLP198 T02360227,KQHY,2015-06-15T09:56:00Z,100.65,-1000.65,23.6,22.7,50,3,,10.0,30.109253,1019.8,,TRUE,TRUE,,,,,,,CLR,,,,,,,,VFR,,,,,,,,,,,,METAR,999.0
KQDG 150956Z AUTO 02001KT 9000 BR OVC016 19/17 A2978 RMK AO2 SLP086 T01940169 $,KQDG,2015-06-15T09:56:00Z,,,19.4,16.9,20,1,,5.59,29.778543,1008.6,,TRUE,TRUE,TRUE,,,,,BR,OVC,1600,,,,,,,MVFR,,,,,,,,,,,,METAR,
KQBL 150956Z AUTO 00000KT 8SM CLR 24/23 A3008 RMK AO2 SLP188 T02370227,KQBL,2015-06-15T09:56:00Z,100.65,-1000.65,23.7,22.7,0,0,,8.0,30.079725,1018.8,,TRUE,TRUE,,,,,,,CLR,,,,,,,,VFR,,,,,,,,,,,,METAR,999.0
PFWS 150956Z AUTO 17006KT 10SM CLR 11/09 A3033 RMK AO2 SLP276 T01110089,PFWS,2015-06-15T09:56:00Z,58.7,-157.0,11.1,8.9,170,6,,10.0,30.33071,1027.6,,TRUE,TRUE,,,,,,,CLR,,,,,,,,VFR,,,,,,,,,,,,METAR,49.0
KMHS 150956Z AUTO 05003KT 10SM CLR 12/07 A2993 RMK AO2 SLP116 T01220072,KMHS,2015-06-15T09:56:00Z,41.32,-122.32,12.2,7.2,50,3,,10.0,29.929134,1011.6,,TRUE,TRUE,,,,,,,CLR,,,,,,,,VFR,,,,,,,,,,,,METAR,1078.0
KBOK 150956Z AUTO VRB03KT 3SM BR OVC002 10/10 A2993 RMK AO2 T01000100 SLP135,KBOK,2015-06-15T09:56:00Z,42.07,-124.28,10.0,10.0,0,3,,3.0,29.929134,1013.5,,TRUE,TRUE,,,,,,BR,OVC,200,,,,,,,LIFR,,,,,,,,,,,,METAR,140.0
KAJO 150956Z AUTO 00000KT 7SM BKN009 16/16 A2983 RMK AO2 T01550155 SLP093 $,KAJO,2015-06-15T09:56:00Z,33.9,-117.6,15.5,15.5,0,0,,7.0,29.828741,1009.3,,TRUE,TRUE,TRUE,,,,,,BKN,900,,,,,,,IFR,,,,,,,,,,,,METAR,163.0
PPIZ 150956Z AUTO 9SM BKN018 OVC037 05/03 A3031 RMK AO2 TSNO T00500033 BKN V SCT SLP265 $,PPIZ,2015-06-15T09:56:00Z,69.73,-163.0,5.0,3.3,,,,9.0,30.31004,1026.5,,TRUE,TRUE,TRUE,,TRUE,,,,BKN,1800,OVC,3700,,,,,MVFR,,,,,,,,,,,,METAR,8.0
PFCL 150956Z AUTO 32005KT 10SM CLR 18/08 A3033 RMK AO2 SLP273 T01780078,PFCL,2015-06-15T09:56:00Z,58.83,-158.53,17.8,7.8,320,5,,10.0,30.33071,1027.3,,TRUE,TRUE,,,,,,,CLR,,,,,,,,VFR,,,,,,,,,,,,METAR,24.0
PAVC 150956Z AUTO 29019KT BKN004 06/05 A3041 RMK AO2 TSNO T00610050 SLP300 $,PAVC,2015-06-15T09:56:00Z,55.12,-162.27,6.1,5.0,290,19,,,30.410433,1030.0,,TRUE,TRUE,TRUE,,TRUE,,,,BKN,400,,,,,,,,,,,,,,,,,,,METAR,47.0
PARY 150956Z AUTO 00000KT 10SM CLR 18/04 A3042 RMK AO2 TSNO T01770044 SLP302 $,PARY,2015-06-15T09:56:00Z,64.73,-155.47,17.7,4.4,0,0,,10.0,30.41929,1030.2,,TRUE,TRUE,TRUE,,TRUE,,,,CLR,,,,,,,,VFR,,,,,,,,,,,,METAR,199.0
PARS 150956Z AUTO 10SM CLR 13/08 A3046 RMK AO2 TSNO T01270077 SLP318 $,PARS,2015-06-15T09:56:00Z,61.77,-161.32,12.7,7.7,,,,10.0,30.46063,1031.8,,TRUE,TRUE,TRUE,,TRUE,,,,CLR,,,,,,,,VFR,,,,,,,,,,,,METAR,16.0
PAQH 150956Z AUTO 33011KT 10SM CLR 12/09 A3046 RMK AO2 SLP316 T01220094,PAQH,2015-06-15T09:56:00Z,59.75,-161.85,12.2,9.4,330,11,,10.0,30.46063,1031.6,,TRUE,TRUE,,,,,,,CLR,,,,,,,,VFR,,,,,,,,,,,,METAR,13.0
PAOU 150956Z AUTO 02005KT 1SM BR OVC004 05/05 A3046 RMK AO2 TSNO T00500050 SLP317 $,PAOU,2015-06-15T09:56:00Z,56.0,-161.17,5.0,5.0,20,5,,1.0,30.46063,1031.7,,TRUE,TRUE,TRUE,,TRUE,,,BR,OVC,400,,,,,,,LIFR,,,,,,,,,,,,METAR,4.0
PAOO 150956Z AUTO 31012KT 10SM CLR 05/04 A3055 RMK AO2 TSNO T00500038 SLP347 $,PAOO,2015-06-15T09:56:00Z,60.53,-165.12,5.0,3.8,310,12,,10.0,30.549213,1034.7,,TRUE,TRUE,TRUE,,TRUE,,,,CLR,,,,,,,,VFR,,,,,,,,,,,,METAR,18.0
PAOH 150956Z AUTO 00000KT 10SM CLR 13/09 A3013 RMK AO2 TSNO T01270094 SLP203 $,PAOH,2015-06-15T09:56:00Z,58.1,-135.45,12.7,9.4,0,0,,10.0,30.129921,1020.3,,TRUE,TRUE,TRUE,,TRUE,,,,CLR,,,,,,,,VFR,,,,,,,,,,,,METAR,9.0
PANA 150956Z AUTO 33008KT 10SM CLR 12/09 A3047 RMK AO2 SLP318 T01220094,PANA,2015-06-15T09:56:00Z,60.68,-161.98,12.2,9.4,330,8,,10.0,30.469488,1031.8,,TRUE,TRUE,,,,,,,CLR,,,,,,,,VFR,,,,,,,,,,,,METAR,5.0
PAMO 150956Z AUTO 34013KT 9SM OVC007 08/08 A3055 RMK AO2 TSNO T00770077 SLP230 $,PAMO,2015-06-15T09:56:00Z,62.1,-163.68,7.7,7.7,340,13,,9.0,30.549213,1023.0,,TRUE,TRUE,TRUE,,TRUE,,,,OVC,700,,,,,,,IFR,,,,,,,,,,,,METAR,103.0
PAMK 150956Z AUTO 00000KT 9SM OVC007 07/05 A3056 RMK AO2 TSNO T00660050 SLP354 $,PAMK,2015-06-15T09:56:00Z,63.48,-162.12,6.6,5.0,0,0,,9.0,30.561024,1035.4,,TRUE,TRUE,TRUE,,TRUE,,,,OVC,700,,,,,,,IFR,,,,,,,,,,,,METAR,28.0
PALG 150956Z AUTO 29005KT 10SM CLR 17/06 A3043 RMK AO2 TSNO T01660055 SLP307 $,PALG,2015-06-15T09:56:00Z,61.53,-160.33,16.6,5.5,290,5,,10.0,30.431103,1030.7,,TRUE,TRUE,TRUE,,TRUE,,,,CLR,,,,,,,,VFR,,,,,,,,,,,,METAR,17.0
PAKI 150956Z AUTO 33011KT 10SM CLR 09/07 A3052 RMK AO2 TSNO T00880072 SLP336 $,PAKI,2015-06-15T09:56:00Z,59.93,-164.03,8.8,7.2,330,11,,10.0,30.519686,1033.6,,TRUE,TRUE,TRUE,,TRUE,,,,CLR,,,,,,,,VFR,,,,,,,,,,,,METAR,4.0
PAIG 150956Z AUTO 21007KT 10SM CLR 13/09 A3028 RMK AO2 TSNO T01270094 SLP255 $,PAIG,2015-06-15T09:56:00Z,59.32,-155.9,12.7,9.4,210,7,,10.0,30.280512,1025.5,,TRUE,TRUE,TRUE,,TRUE,,,,CLR,,,,,,,,VFR,,,,,,,,,,,,METAR,28.0
PAHC 150956Z AUTO 32010G15KT 10SM -RA CLR 19/06 A3042 RMK AO2 TSNO T01880061 P0000 SLP306 $,PAHC,2015-06-15T09:56:00Z,62.18,-159.78,18.8,6.1,320,10,15,10.0,30.41929,1030.6,,TRUE,TRUE,TRUE,,TRUE,,,-RA,CLR,,,,,,,,VFR,,,,,,0.0050,,,,,,METAR,21.0
PAGN 150956Z AUTO 00000KT 10SM CLR 13/09 A3008 RMK AO2 TSNO T01270088 SLP188 $,PAGN,2015-06-15T09:56:00Z,57.5,-134.58,12.7,8.8,0,0,,10.0,30.079725,1018.8,,TRUE,TRUE,TRUE,,TRUE,,,,CLR,,,,,,,,VFR,,,,,,,,,,,,METAR,2.0
PAFS 150956Z AUTO 00000KT 10SM CLR 14/07 A3037 RMK AO2 TSNO T01380072 SLP289 $,PAFS,2015-06-15T09:56:00Z,63.02,-154.35,13.8,7.2,0,0,,10.0,30.369095,1028.9,,TRUE,TRUE,TRUE,,TRUE,,,,CLR,,,,,,,,VFR,,,,,,,,,,,,METAR,126.0
PADU 150956Z AUTO 32006KT 10SM OVC008 07/05 A3047 RMK AO2 SLP323 T00720050,PADU,2015-06-15T09:56:00Z,53.9,-166.53,7.2,5.0,320,6,,10.0,30.469488,1032.3,,TRUE,TRUE,,,,,,,OVC,800,,,,,,,IFR,,,,,,,,,,,,METAR,4.0
PADM 150956Z AUTO 00000KT CLR 12/07 A3053 RMK AO2 TSNO T01220072 SLP325 $,PADM,2015-06-15T09:56:00Z,61.87,-162.03,12.2,7.2,0,0,,,30.528543,1032.5,,TRUE,TRUE,TRUE,,TRUE,,,,CLR,,,,,,,,,,,,,,,,,,,,METAR,31.0
PMDY 150956Z AUTO 00000KT 10SM OVC039 A3003 RMK AO2 PWINO TSNO SLPNO $,PMDY,2015-06-15T09:56:00Z,28.22,-177.37,,,0,0,,10.0,30.029528,,,TRUE,TRUE,TRUE,,TRUE,,TRUE,,OVC,3900,,,,,,,VFR,,,,,,,,,,,,METAR,4.0
KMOB 150956Z AUTO 05004KT 6SM BR FEW003 23/23 A3005 RMK AO2 SLP172 T02280228,KMOB,2015-06-15T09:56:00Z,30.68,-88.25,22.8,22.8,50,4,,6.0,30.050198,1017.2,,TRUE,TRUE,,,,,,BR,FEW,300,,,,,,,VFR,,,,,,,,,,,,METAR,63.0
KLWS 150956Z AUTO 11005KT 10SM CLR 15/05 A2995 RMK AO2 SLP133 T01500050,KLWS,2015-06-15T09:56:00Z,46.37,-117.02,15.0,5.0,110,5,,10.0,29.949802,1013.3,,TRUE,TRUE,,,,,,,CLR,,,,,,,,VFR,,,,,,,,,,,,METAR,438.0
KLRD 150956Z AUTO 00000KT 10SM OVC013 25/23 A2989 RMK AO2 T02500227 SLP107,KLRD,2015-06-15T09:56:00Z,27.55,-99.47,25.0,22.7,0,0,,10.0,29.890747,1010.7,,TRUE,TRUE,,,,,,,OVC,1300,,,,,,,MVFR,,,,,,,,,,,,METAR,155.0
KLAS 150956Z 19013KT 10SM CLR 32/02 A2971 RMK AO2 SLP025 T03170022,KLAS,2015-06-15T09:56:00Z,36.07,-115.17,31.7,2.2,190,13,,10.0,29.71063,1002.5,,,TRUE,,,,,,,CLR,,,,,,,,VFR,,,,,,,,,,,,METAR,636.0
KWJF 150956Z AUTO 27014KT 10SM CLR 24/03 A2983 RMK AO2 SLP074 T02390033,KWJF,2015-06-15T09:56:00Z,34.72,-118.22,23.9,3.3,270,14,,10.0,29.828741,1007.4,,TRUE,TRUE,,,,,,,CLR,,,,,,,,VFR,,,,,,,,,,,,METAR,715.0
KSLE 150956Z AUTO 00000KT 10SM CLR 13/09 A2988 RMK AO2 SLP117 T01330094,KSLE,2015-06-15T09:56:00Z,44.9,-123.0,13.3,9.4,0,0,,10.0,29.878937,1011.7,,TRUE,TRUE,,,,,,,CLR,,,,,,,,VFR,,,,,,,,,,,,METAR,59.0
KSBP 150956Z 31007KT 7SM OVC009 13/11 A2985 RMK AO2 SLP106 T01330111,KSBP,2015-06-15T09:56:00Z,35.23,-120.63,13.3,11.1,310,7,,7.0,29.84941,1010.6,,,TRUE,,,,,,,OVC,900,,,,,,,IFR,,,,,,,,,,,,METAR,59.0
KFDW 150955Z AUTO 27003KT 10SM CLR 23/21 A3010 RMK AO1,KFDW,2015-06-15T09:55:00Z,34.32,-81.12,23.0,21.0,270,3,,10.0,30.100393,,,TRUE,TRUE,,,,,,,CLR,,,,,,,,VFR,,,,,,,,,,,,METAR,176.0
K4I7 150955Z AUTO 19003KT 5SM -RA SCT019 BKN050 OVC065 21/19 A3002 RMK AO2 P0028,K4I7,2015-06-15T09:55:00Z,39.63,-86.82,21.0,19.0,190,3,,5.0,30.02067,,,TRUE,TRUE,,,,,,-RA,SCT,1900,BKN,5000,OVC,6500,,,MVFR,,,,,,0.28,,,,,,METAR,257.0
K1S5 150955Z AUTO 00000KT 10SM CLR 09/07 A2992 RMK AO2 T00880065,K1S5,2015-06-15T09:55:00Z,46.33,-119.97,8.8,6.5,0,0,,10.0,29.920275,,,TRUE,TRUE,,,,,,,CLR,,,,,,,,VFR,,,,,,,,,,,,METAR,234.0
KBOW 150955Z AUTO 00000KT 8SM FEW013 22/ A3010 RMK AO2,KBOW,2015-06-15T09:55:00Z,27.93,-81.77,22.0,,0,0,,8.0,30.100393,,,TRUE,TRUE,,,,,,,FEW,1300,,,,,,,VFR,,,,,,,,,,,,METAR,39.0
KBBP 150955Z AUTO 00000KT 5SM BR CLR 22/22 A3006 RMK AO2,KBBP,2015-06-15T09:55:00Z,34.62,-79.73,22.0,22.0,0,0,,5.0,30.059055,,,TRUE,TRUE,,,,,,BR,CLR,,,,,,,,MVFR,,,,,,,,,,,,METAR,45.0
CYQZ 150955Z AUTO 00000KT 4SM BR BKN002 06/06 A3014 RMK SLP214,CYQZ,2015-06-15T09:55:00Z,53.02,-122.52,6.0,6.0,0,0,,4.0,30.138779,1021.4,,TRUE,,,,,,,BR,BKN,200,,,,,,,LIFR,,,,,,,,,,,,SPECI,545.0
KUYF 150955Z AUTO 25008KT 10SM SCT044 SCT120 21/20 A3005 RMK AO2,KUYF,2015-06-15T09:55:00Z,39.93,-83.47,21.0,20.0,250,8,,10.0,30.050198,,,TRUE,TRUE,,,,,,,SCT,4400,SCT,12000,,,,,VFR,,,,,,,,,,,,METAR,330.0
KTVY 150955Z AUTO 16007KT 10SM CLR 19/08 A2996 RMK AO2,KTVY,2015-06-15T09:55:00Z,,,19.0,8.0,160,7,,10.0,29.958662,,,TRUE,TRUE,,,,,,,CLR,,,,,,,,VFR,,,,,,,,,,,,METAR,
KMAO 150955Z AUTO 00000KT 10SM CLR 23/21 A3007 RMK AO2,KMAO,2015-06-15T09:55:00Z,34.18,-79.33,23.0,21.0,0,0,,10.0,30.070866,,,TRUE,TRUE,,,,,,,CLR,,,,,,,,VFR,,,,,,,,,,,,METAR,28.0
KLKR 150955Z AUTO 00000KT 8SM -RA CLR 21/21 A3009 RMK AO2,KLKR,2015-06-15T09:55:00Z,34.72,-80.85,21.0,21.0,0,0,,8.0,30.088583,,,TRUE,TRUE,,,,,,-RA,CLR,,,,,,,,VFR,,,,,,,,,,,,METAR,149.0
KGAF 150955Z AUTO 30007KT 10SM CLR 12/09 A3004 RMK AO2,KGAF,2015-06-15T09:55:00Z,48.4,-97.37,12.0,9.0,300,7,,10.0,30.041338,,,TRUE,TRUE,,,,,,,CLR,,,,,,,,VFR,,,,,,,,,,,,METAR,252.0
KCQW 150955Z AUTO 00000KT 6SM BR CLR 21/21 A3007 RMK AO2,KCQW,2015-06-15T09:55:00Z,34.72,-79.95,21.0,21.0,0,0,,6.0,30.070866,,,TRUE,TRUE,,,,,,BR,CLR,,,,,,,,VFR,,,,,,,,,,,,METAR,73.0
KCLS 150955Z AUTO 00000KT 5SM BR CLR 11/10 A2995 RMK AO2,KCLS,2015-06-15T09:55:00Z,46.68,-122.98,11.0,10.0,0,0,,5.0,29.949802,,,TRUE,TRUE,,,,,,BR,CLR,,,,,,,,MVFR,,,,,,,,,,,,METAR,54.0
KBDN 150955Z AUTO 00000KT 10SM CLR 10/M04 A3000 RMK AO2,KBDN,2015-06-15T09:55:00Z,44.1,-121.2,10.0,-4.0,0,0,,10.0,30.0,,,TRUE,TRUE,,,,,,,CLR,,,,,,,,VFR,,,,,,,,,,,,METAR,1055.0
KMEZ 150955Z AUTO 19003KT 5SM OVC006 24/23 A3002 RMK AO2,KMEZ,2015-06-15T09:55:00Z,34.55,-94.2,24.0,23.0,190,3,,5.0,30.02067,,,TRUE,TRUE,,,,,,,OVC,600,,,,,,,IFR,,,,,,,,,,,,METAR,329.0
KMCJ 150955Z AUTO 09006KT 10SM CLR 25/23 A2988 RMK AO1,KMCJ,2015-06-15T09:55:00Z,29.72,-95.4,25.0,23.0,90,6,,10.0,29.878937,,,TRUE,TRUE,,,,,,,CLR,,,,,,,,VFR,,,,,,,,,,,,METAR,69.0
KM91 150955Z AUTO 22005KT 10SM CLR 23/22 A3009 RMK,KM91,2015-06-15T09:55:00Z,36.53,-86.92,23.0,22.0,220,5,,10.0,30.088583,,,TRUE,,,,,,,,CLR,,,,,,,,VFR,,,,,,,,,,,,METAR,215.0
TXKF 150955Z 33005KT 9999 FEW015 SCT180 SCT300 24/21 Q1018 ,TXKF,2015-06-15T09:55:00Z,32.37,-64.68,24.0,21.0,330,5,,6.21,30.059055,,,,,,,,,,,FEW,1500,SCT,18000,SCT,30000,,,VFR,,,,,,,,,,,,METAR,6.0
EHKD 150955Z AUTO 05009KT 9999 FEW360 14/05 Q1022 BLU 04010KT 9999 SCT030,EHKD,2015-06-15T09:55:00Z,52.92,4.77,14.0,5.0,50,9,,6.21,30.177166,,,TRUE,,,,,,,,FEW,36000,SCT,3000,,,,,VFR,,,,,,,,,,,,METAR,14.0
KHVS 150955Z AUTO 00000KT 10SM CLR 23/20 A3007 RMK AO2,KHVS,2015-06-15T09:55:00Z,34.4,-80.12,23.0,20.0,0,0,,10.0,30.070866,,,TRUE,TRUE,,,,,,,CLR,,,,,,,,VFR,,,,,,,,,,,,METAR,111.0
KGPH 150955Z AUTO 21003KT 10SM 22/21 A2991 RMK AO2,KGPH,2015-06-15T09:55:00Z,39.33,-94.32,22.0,21.0,210,3,,10.0,29.911417,,,TRUE,TRUE,,,,,,,,,,,,,,,,,,,,,,,,,,,METAR,235.0
KGLY 150955Z AUTO 19004KT 10SM CLR 23/22 A2995 RMK AO2,KGLY,2015-06-15T09:55:00Z,38.35,-93.68,23.0,22.0,190,4,,10.0,29.949802,,,TRUE,TRUE,,,,,,,CLR,,,,,,,,VFR,,,,,,,,,,,,METAR,251.0
KEDC 150955Z AUTO 00000KT 3SM BR SCT014 SCT019 BKN036 22/22 A2994 RMK AO2,KEDC,2015-06-15T09:55:00Z,30.4,-97.57,22.0,22.0,0,0,,3.0,29.940945,,,TRUE,TRUE,,,,,,BR,SCT,1400,SCT,1900,BKN,3600,,,MVFR,,,,,,,,,,,,METAR,189.0
KEAT 150955Z AUTO 28007KT 10SM CLR 18/M01 A2998 RMK AO2 SLP145 T01781006 $,KEAT,2015-06-15T09:55:00Z,47.4,-120.2,17.8,-0.6,280,7,,10.0,29.97933,1014.5,,TRUE,TRUE,TRUE,,,,,,CLR,,,,,,,,VFR,,,,,,,,,,,,METAR,377.0
KDUH 150955Z AUTO 25003KT 7SM SCT018 SCT060 BKN090 23/21 A2997 RMK AO2 T02330213,KDUH,2015-06-15T09:55:00Z,41.73,-83.65,23.3,21.3,250,3,,7.0,29.970472,,,TRUE,TRUE,,,,,,,SCT,1800,SCT,6000,BKN,9000,,,VFR,,,,,,,,,,,,METAR,204.0
KDRM 150955Z AUTO 00000KT 1/4SM FG OVC001 13/13 A2992 RMK AO2 T01300130,KDRM,2015-06-15T09:55:00Z,46.0,-83.75,13.0,13.0,0,0,,0.25,29.920275,,,TRUE,TRUE,,,,,,FG,OVC,100,,,,,,,LIFR,,,,,,,,,,,,METAR,204.0
KDLH 150955Z 34005KT 10SM FEW010 14/13 A2995 RMK AO2 SLP139 T01440133,KDLH,2015-06-15T09:55:00Z,46.85,-92.2,14.4,13.3,340,5,,10.0,29.949802,1013.9,,,TRUE,,,,,,,FEW,1000,,,,,,,VFR,,,,,,,,,,,,METAR,435.0
KCQM 150955Z AUTO 00000KT 1 1/4SM BR BKN006 08/08 A2998 RMK AO2 VIS 1/2V4,KCQM,2015-06-15T09:55:00Z,47.82,-92.68,8.0,8.0,0,0,,1.25,29.97933,,,TRUE,TRUE,,,,,,BR,BKN,600,,,,,,,IFR,,,,,,,,,,,,METAR,404.0
KCOQ 150955Z AUTO 33005KT 10SM CLR 14/12 A2995 RMK AO2,KCOQ,2015-06-15T09:55:00Z,46.7,-92.5,14.0,12.0,330,5,,10.0,29.949802,,,TRUE,TRUE,,,,,,,CLR,,,,,,,,VFR,,,,,,,,,,,,METAR,390.0
KCNK 150955Z AUTO 32004KT 9SM OVC008 19/19 A2992 RMK AO2 RAB00E17 SLP118 P0001 T01940189 $,KCNK,2015-06-15T09:55:00Z,39.55,-97.65,19.4,18.9,320,4,,9.0,29.920275,1011.8,,TRUE,TRUE,TRUE,,,,,,OVC,800,,,,,,,IFR,,,,,,0.01,,,,,,METAR,447.0
KCMA 150955Z 24003KT 8SM OVC007 16/14 A2981 RMK AO2 SLP102 T01610139,KCMA,2015-06-15T09:55:00Z,34.22,-119.1,16.1,13.9,240,3,,8.0,29.811024,1010.2,,,TRUE,,,,,,,OVC,700,,,,,,,IFR,,,,,,,,,,,,METAR,23.0
KCID 150955Z 00000KT 5SM -RA BR BKN035 OVC045 21/21 A2991 RMK AO2 P0001 T02060206,KCID,2015-06-15T09:55:00Z,41.88,-91.72,20.6,20.6,0,0,,5.0,29.911417,,,,TRUE,,,,,,-RA BR,BKN,3500,OVC,4500,,,,,MVFR,,,,,,0.01,,,,,,METAR,264.0
KCIC 150955Z AUTO 14004KT 10SM FEW046 SCT055 20/12 A2977 RMK AO1,KCIC,2015-06-15T09:55:00Z,39.78,-121.83,20.0,12.0,140,4,,10.0,29.769686,,,TRUE,TRUE,,,,,,,FEW,4600,SCT,5500,,,,,VFR,,,,,,,,,,,,METAR,73.0
KCFJ 150955Z AUTO 21004KT 5SM RA OVC009 21/20 A3002 RMK AO2 P0012 T02100197,KCFJ,2015-06-15T09:55:00Z,,,21.0,19.7,210,4,,5.0,30.02067,,,TRUE,TRUE,,,,,,RA,OVC,900,,,,,,,IFR,,,,,,0.12,,,,,,METAR,
KCBG 150955Z AUTO 34007KT 10SM SCT110 18/13 A2991 RMK AO2,KCBG,2015-06-15T09:55:00Z,45.57,-93.27,18.0,13.0,340,7,,10.0,29.911417,,,TRUE,TRUE,,,,,,,SCT,11000,,,,,,,VFR,,,,,,,,,,,,METAR,287.0
KCAO 150955Z AUTO 35008KT 10SM CLR 13/11 A3012 RMK AO2 SLP153 T01330111,KCAO,2015-06-15T09:55:00Z,36.45,-103.15,13.3,11.1,350,8,,10.0,30.121063,1015.3,,TRUE,TRUE,,,,,,,CLR,,,,,,,,VFR,,,,,,,,,,,,METAR,1514.0
KBDH 150955Z AUTO 35007KT 10SM CLR 17/15 A2998 RMK AO2 LTG DSNT SW,KBDH,2015-06-15T09:55:00Z,45.12,-95.13,17.0,15.0,350,7,,10.0,29.97933,,,TRUE,TRUE,,,,,,,CLR,,,,,,,,VFR,,,,,,,,,,,,METAR,247.0
KAUM 150955Z AUTO 00000KT 5SM BR SCT006 SCT014 21/19 A2992 RMK AO2,KAUM,2015-06-15T09:55:00Z,43.67,-92.92,21.0,19.0,0,0,,5.0,29.920275,,,TRUE,TRUE,,,,,,BR,SCT,600,SCT,1400,,,,,MVFR,,,,,,,,,,,,METAR,375.0
KAST 150955Z AUTO 30009KT 9SM BKN007 12/11 A2996 RMK AO2 SLP145 T01170106,KAST,2015-06-15T09:55:00Z,46.15,-123.88,11.7,10.6,300,9,,9.0,29.958662,1014.5,,TRUE,TRUE,,,,,,,BKN,700,,,,,,,IFR,,,,,,,,,,,,METAR,3.0
KANK 150955Z AUTO 30004KT 10SM CLR 09/06 A3037 RMK AO1 T00870055,KANK,2015-06-15T09:55:00Z,38.53,-106.05,8.7,5.5,300,4,,10.0,30.369095,,,TRUE,TRUE,,,,,,,CLR,,,,,,,,VFR,,,,,,,,,,,,METAR,2293.0
KANJ 150955Z AUTO 00000KT 1/4SM FG VV002 15/14 A2991 RMK AO2 SLP125 T01500144,KANJ,2015-06-15T09:55:00Z,46.47,-84.37,15.0,14.4,0,0,,0.25,29.911417,1012.5,,TRUE,TRUE,,,,,,FG,OVX,0,,,,,,,LIFR,,,,,,,,,,,200,METAR,218.0
KALM 150955Z AUTO 01006KT 10SM CLR 23/07 A2998 RMK AO2,KALM,2015-06-15T09:55:00Z,32.82,-105.97,23.0,7.0,10,6,,10.0,29.97933,,,TRUE,TRUE,,,,,,,CLR,,,,,,,,VFR,,,,,,,,,,,,METAR,1279.0
KAJZ 150955Z AUTO 10004KT 10SM CLR 16/07 A3011 RMK AO2 T01630072,KAJZ,2015-06-15T09:55:00Z,38.78,-108.07,16.3,7.2,100,4,,10.0,30.109253,,,TRUE,TRUE,,,,,,,CLR,,,,,,,,VFR,,,,,,,,,,,,METAR,1583.0
KAAT 150955Z AUTO 00000KT 10SM CLR 11/05 A2996 RMK AO2 SLP101 T01110050,KAAT,2015-06-15T09:55:00Z,41.48,-120.57,11.1,5.0,0,0,,10.0,29.958662,1010.1,,TRUE,TRUE,,,,,,,CLR,,,,,,,,VFR,,,,,,,,,,,,METAR,1331.0
K1P1 150955Z AUTO 00000KT 7SM -RA OVC024 13/13 A3009 RMK AO2 P0008 T01310131,K1P1,2015-06-15T09:55:00Z,43.78,-71.75,13.1,13.1,0,0,,7.0,30.088583,,,TRUE,TRUE,,,,,,-RA,OVC,2400,,,,,,,MVFR,,,,,,0.08,,,,,,METAR,154.0
K0A9 150955Z AUTO 00000KT 10SM CLR 17/16 A3019 RMK,K0A9,2015-06-15T09:55:00Z,36.37,-82.17,17.0,16.0,0,0,,10.0,30.188976,,,TRUE,,,,,,,,CLR,,,,,,,,VFR,,,,,,,,,,,,METAR,486.0
KQWM 150955Z 34013G21KT 9999 CLR 42/M01 A2961 RMK SLP014 QNH1002,KQWM,2015-06-15T09:55:00Z,100.65,-1000.65,42.0,-1.0,340,13,21,6.21,29.610237,1001.4,,,,,,,,,,CLR,,,,,,,,VFR,,,,,,,,,,,,METAR,999.0
KQSF 150955Z AUTO 01009G16KT 9999 CLR 28/M04 A2993 RMK AO2 SLP034 T02781038,KQSF,2015-06-15T09:55:00Z,100.65,-1000.65,27.8,-3.8,10,9,16,6.21,29.929134,1003.4,,TRUE,TRUE,,,,,,,CLR,,,,,,,,VFR,,,,,,,,,,,,METAR,999.0
KQQY 150955Z AUTO 00000KT 9999 BKN085 23/21 A2997 RMK AO2 SLP132 T02250207 $,KQQY,2015-06-15T09:55:00Z,100.65,-1000.65,22.5,20.7,0,0,,6.21,29.970472,1013.2,,TRUE,TRUE,TRUE,,,,,,BKN,8500,,,,,,,VFR,,,,,,,,,,,,METAR,999.0
KQMH 150955Z AUTO VRB05KT 9999 CLR 30/M02 A2990 RMK AO2 SLP028 T02951023,KQMH,2015-06-15T09:55:00Z,,,29.5,-2.3,0,5,,6.21,29.899607,1002.8,,TRUE,TRUE,,,,,,,CLR,,,,,,,,VFR,,,,,,,,,,,,METAR,
KQHN 150955Z 29012G18KT 9999 CLR 38/M11 A2962 RMK SLP908 Q1003 DA6980,KQHN,2015-06-15T09:55:00Z,100.65,-1000.65,38.0,-11.0,290,12,18,6.21,29.619095,990.8,,,,,,,,,,CLR,,,,,,,,VFR,,,,,,,,,,,,METAR,999.0
KQFG 150955Z AUTO 17007KT 150V220 9999 FEW200 36/04 A2961 RMK AO2 SLP976 T03630039,KQFG,2015-06-15T09:55:00Z,100.65,-1000.65,36.3,3.9,170,7,,6.21,29.610237,997.6,,TRUE,TRUE,,,,,,,FEW,20000,,,,,,,VFR,,,,,,,,,,,,METAR,999.0
KQCL 150955Z AUTO 07008G17KT 9999 CLR 29/13 A2977 RMK AO2 SLP017 T02900127 $,KQCL,2015-06-15T09:55:00Z,100.65,-1000.65,29.0,12.7,70,8,17,6.21,29.769686,1001.7,,TRUE,TRUE,TRUE,,,,,,CLR,,,,,,,,VFR,,,,,,,,,,,,METAR,999.0
KQAY 150955Z AUTO 04011G20KT 8000 HZ CLR 42/03 A2958 RMK AO2 SLP010 T04180034,KQAY,2015-06-15T09:55:00Z,100.65,-1000.65,41.8,3.4,40,11,20,4.97,29.58071,1001.0,,TRUE,TRUE,,,,,,HZ,CLR,,,,,,,,MVFR,,,,,,,,,,,,METAR,999.0
KQAJ 150955Z AUTO 35018G26KT 9999 FEW230 RMK AO2 PK WND 36026/0902 LTG DSNT S SLPNO $,KQAJ,2015-06-15T09:55:00Z,100.65,-1000.65,,,350,18,26,6.21,,,,TRUE,TRUE,TRUE,,,,,,FEW,23000,,,,,,,VFR,,,,,,,,,,,,METAR,999.0
K9L2 150955Z AUTO 16007KT 10SM CLR 22/M01 A2980 RMK AO2 SLP064 T02221006 $,K9L2,2015-06-15T09:55:00Z,34.97,-117.87,22.2,-0.6,160,7,,10.0,29.799213,1006.4,,TRUE,TRUE,TRUE,,,,,,CLR,,,,,,,,VFR,,,,,,,,,,,,METAR,701.0
EHRD 150955Z AUTO 04010KT 350V090 9999 NSC 15/07 Q1021 NOSIG,EHRD,2015-06-15T09:55:00Z,51.95,4.45,15.0,7.0,40,10,,6.21,30.147638,,,TRUE,,,TRUE,,,,,,,,,,,,,,,,,,,,,,,,,METAR,-5.0
EHGG 150955Z AUTO 02006KT 310V120 9999 FEW040 SCT044 BKN049 14/05 Q1021 NOSIG,EHGG,2015-06-15T09:55:00Z,53.12,6.57,14.0,5.0,20,6,,6.21,30.147638,,,TRUE,,,TRUE,,,,,FEW,4000,SCT,4400,BKN,4900,,,VFR,,,,,,,,,,,,METAR,4.0
EHBK 150955Z AUTO 05010KT 9999 BKN017 OVC021 14/10 Q1019 NOSIG,EHBK,2015-06-15T09:55:00Z,50.92,5.77,14.0,10.0,50,10,,6.21,30.088583,,,TRUE,,,TRUE,,,,,BKN,1700,OVC,2100,,,,,MVFR,,,,,,,,,,,,METAR,116.0
EHAM 150955Z 03010KT 330V080 9999 FEW038 14/05 Q1021 NOSIG,EHAM,2015-06-15T09:55:00Z,52.32,4.78,14.0,5.0,30,10,,6.21,30.147638,,,,,,TRUE,,,,,FEW,3800,,,,,,,VFR,,,,,,,,,,,,METAR,9.0
KU42 150955Z AUTO 17012KT 10SM CLR 21/09 A2999 RMK AO1 T02070089,KU42,2015-06-15T09:55:00Z,40.62,-111.98,20.7,8.9,170,12,,10.0,29.991142,,,TRUE,TRUE,,,,,,,CLR,,,,,,,,VFR,,,,,,,,,,,,METAR,1402.0
K0S9 150955Z AUTO 00000KT 10SM CLR 09/08 A2995 RMK AO2,K0S9,2015-06-15T09:55:00Z,48.05,-122.82,9.0,8.0,0,0,,10.0,29.949802,,,TRUE,TRUE,,,,,,,CLR,,,,,,,,VFR,,,,,,,,,,,,METAR,33.0
KY63 150955Z AUTO 36005KT 10SM CLR 15/14 A3001 RMK AO2 T01450137,KY63,2015-06-15T09:55:00Z,45.98,-96.0,14.5,13.7,360,5,,10.0,30.008858,,,TRUE,TRUE,,,,,,,CLR,,,,,,,,VFR,,,,,,,,,,,,METAR,367.0
KVIS 150955Z AUTO 36003KT 10SM CLR 21/12 A2974 RMK AO1,KVIS,2015-06-15T09:55:00Z,36.32,-119.4,21.0,12.0,360,3,,10.0,29.740158,,,TRUE,TRUE,,,,,,,CLR,,,,,,,,VFR,,,,,,,,,,,,METAR,89.0
KTSP 150955Z AUTO 27008KT 10SM CLR 20/03 A2997 RMK AO2,KTSP,2015-06-15T09:55:00Z,35.13,-118.43,20.0,3.0,270,8,,10.0,29.970472,,,TRUE,TRUE,,,,,,,CLR,,,,,,,,VFR,,,,,,,,,,,,METAR,1220.0
KVPS 150955Z 02003KT 10SM CLR 23/22 A3006 RMK AO2A SLP185 T02330221 0,KVPS,2015-06-15T09:55:00Z,30.47,-86.52,23.3,22.1,20,3,,10.0,30.059055,1018.5,,,TRUE,,,,,,,CLR,,,,,,,,VFR,,,,,,,,,,,,METAR,26.0
KCMR 150955Z AUTO 16008KT 10SM CLR 11/05 A3022 RMK AO2,KCMR,2015-06-15T09:55:00Z,35.3,-112.2,11.0,5.0,160,8,,10.0,30.221457,,,TRUE,TRUE,,,,,,,CLR,,,,,,,,VFR,,,,,,,,,,,,METAR,2036.0
KCKM 150955Z AUTO 13006KT 10SM CLR 23/23 A3005 RMK AO1,KCKM,2015-06-15T09:55:00Z,34.3,-90.52,23.0,23.0,130,6,,10.0,30.050198,,,TRUE,TRUE,,,,,,,CLR,,,,,,,,VFR,,,,,,,,,,,,METAR,53.0
KCGZ 150955Z AUTO 00000KT 10SM CLR 27/05 A2974 RMK AO1,KCGZ,2015-06-15T09:55:00Z,32.95,-111.77,27.0,5.0,0,0,,10.0,29.740158,,,TRUE,TRUE,,,,,,,CLR,,,,,,,,VFR,,,,,,,,,,,,METAR,446.0
KCGC 150955Z AUTO 00000KT 10SM CLR 22/21 A3009 RMK AO2,KCGC,2015-06-15T09:55:00Z,28.87,-82.57,22.0,21.0,0,0,,10.0,30.088583,,,TRUE,TRUE,,,,,,,CLR,,,,,,,,VFR,,,,,,,,,,,,METAR,3.0
KCEY 150955Z AUTO 20005KT 10SM CLR 23/21 A3006 RMK AO1,KCEY,2015-06-15T09:55:00Z,36.67,-88.37,23.0,21.0,200,5,,10.0,30.059055,,,TRUE,TRUE,,,,,,,CLR,,,,,,,,VFR,,,,,,,,,,,,METAR,176.0
KCDN 150955Z AUTO 00000KT 9SM CLR 22/21 A3009 RMK AO2 TSNO,KCDN,2015-06-15T09:55:00Z,34.28,-80.57,22.0,21.0,0,0,,9.0,30.088583,,,TRUE,TRUE,,,TRUE,,,,CLR,,,,,,,,VFR,,,,,,,,,,,,METAR,92.0
KCCU 150955Z AUTO 17016KT 10SM CLR 08/00 A3052 RMK AO2,KCCU,2015-06-15T09:55:00Z,39.48,-106.15,8.0,0.0,170,16,,10.0,30.519686,,,TRUE,TRUE,,,,,,,CLR,,,,,,,,VFR,,,,,,,,,,,,METAR,3680.0
KBVU 150955Z AUTO 00000KT 10SM CLR 28/08 A2976 RMK AO2,KBVU,2015-06-15T09:55:00Z,35.95,-114.87,28.0,8.0,0,0,,10.0,29.760826,,,TRUE,TRUE,,,,,,,CLR,,,,,,,,VFR,,,,,,,,,,,,METAR,671.0
KBKN 150955Z AUTO 17007KT 10SM BKN022 BKN027 OVC032 22/22 A2995 RMK AO2,KBKN,2015-06-15T09:55:00Z,36.75,-97.35,22.0,22.0,170,7,,10.0,29.949802,,,TRUE,TRUE,,,,,,,BKN,2200,BKN,2700,OVC,3200,,,MVFR,,,,,,,,,,,,METAR,314.0
KBID 150955Z AUTO 16010KT 10SM OVC070 17/14 A3008 RMK AO1,KBID,2015-06-15T09:55:00Z,41.17,-71.58,17.0,14.0,160,10,,10.0,30.079725,,,TRUE,TRUE,,,,,,,OVC,7000,,,,,,,VFR,,,,,,,,,,,,METAR,33.0
KBHB 150955Z AUTO 00000KT 10SM CLR 11/11 A3013 RMK AO1,KBHB,2015-06-15T09:55:00Z,44.45,-68.37,11.0,11.0,0,0,,10.0,30.129921,,,TRUE,TRUE,,,,,,,CLR,,,,,,,,VFR,,,,,,,,,,,,METAR,26.0
KBGF 150955Z AUTO 00000KT 10SM CLR 21/19 A3013 RMK,KBGF,2015-06-15T09:55:00Z,35.18,-86.07,21.0,19.0,0,0,,10.0,30.129921,,,TRUE,,,,,,,,CLR,,,,,,,,VFR,,,,,,,,,,,,METAR,299.0
KATS 150955Z AUTO 31006KT 10SM CLR 16/16 A3003 RMK AO2,KATS,2015-06-15T09:55:00Z,32.85,-104.47,16.0,16.0,310,6,,10.0,30.029528,,,TRUE,TRUE,,,,,,,CLR,,,,,,,,VFR,,,,,,,,,,,,METAR,1081.0
KAQX 150955Z AUTO 00000KT 6SM BR CLR 22/22 A3010 RMK AO2,KAQX,2015-06-15T09:55:00Z,32.98,-81.27,22.0,22.0,0,0,,6.0,30.100393,,,TRUE,TRUE,,,,,,BR,CLR,,,,,,,,VFR,,,,,,,,,,,,METAR,49.0
KAIZ 150955Z AUTO 16006KT 10SM CLR 22/20 A2997 RMK AO1,KAIZ,2015-06-15T09:55:00Z,38.1,-92.53,22.0,20.0,160,6,,10.0,29.970472,,,TRUE,TRUE,,,,,,,CLR,,,,,,,,VFR,,,,,,,,,,,,METAR,265.0
KAIB 150955Z AUTO 10011KT 10SM CLR 15/06 A3016 RMK AO2,KAIB,2015-06-15T09:55:00Z,38.23,-108.57,15.0,6.0,100,11,,10.0,30.159449,,,TRUE,TRUE,,,,,,,CLR,,,,,,,,VFR,,,,,,,,,,,,METAR,1811.0
KAEJ 150955Z AUTO 00000KT 10SM CLR 05/04 A3031 RMK AO2 T00530037,KAEJ,2015-06-15T09:55:00Z,38.82,-106.12,5.3,3.7,0,0,,10.0,30.31004,,,TRUE,TRUE,,,,,,,CLR,,,,,,,,VFR,,,,,,,,,,,,METAR,2422.0
KAEG 150955Z AUTO 01009KT 10SM CLR 15/08 A3013 RMK AO2 T01510081,KAEG,2015-06-15T09:55:00Z,35.13,-106.8,15.1,8.1,10,9,,10.0,30.129921,,,TRUE,TRUE,,,,,,,CLR,,,,,,,,VFR,,,,,,,,,,,,METAR,1779.0
K6L4 150955Z AUTO 00000KT 10SM CLR 21/20 A3011 RMK AO2,K6L4,2015-06-15T09:55:00Z,37.85,-81.92,21.0,20.0,0,0,,10.0,30.109253,,,TRUE,TRUE,,,,,,,CLR,,,,,,,,VFR,,,,,,,,,,,,METAR,508.0
K4BM 150955Z AUTO 09003KT 10SM SCT045 07/02 A3051 RMK AO2,K4BM,2015-06-15T09:55:00Z,39.05,-105.52,7.0,2.0,90,3,,10.0,30.510826,,,TRUE,TRUE,,,,,,,SCT,4500,,,,,,,VFR,,,,,,,,,,,,METAR,3438.0
K2V5 150955Z AUTO 34005KT 10SM BKN007 A3009 RMK AO2,K2V5,2015-06-15T09:55:00Z,40.1,-102.25,,,340,5,,10.0,30.088583,,,TRUE,TRUE,,,,,,,BKN,700,,,,,,,IFR,,,,,,,,,,,,METAR,1118.0
K21D 150955Z AUTO 32004KT 10SM SCT090 19/18 A2990 RMK AO2,K21D,2015-06-15T09:55:00Z,45.0,-92.85,19.0,18.0,320,4,,10.0,29.899607,,,TRUE,TRUE,,,,,,,SCT,9000,,,,,,,VFR,,,,,,,,,,,,METAR,285.0
K20V 150955Z AUTO 00000KT 10SM CLR 08/05 A3026 RMK AO2,K20V,2015-06-15T09:55:00Z,40.05,-106.37,8.0,5.0,0,0,,10.0,30.259842,,,TRUE,TRUE,,,,,,,CLR,,,,,,,,VFR,,,,,,,,,,,,METAR,2259.0
K08D 150955Z AUTO 32006KT 10SM CLR 07/07 A3018 RMK AO2,K08D,2015-06-15T09:55:00Z,48.3,-102.4,7.0,7.0,320,6,,10.0,30.180119,,,TRUE,TRUE,,,,,,,CLR,,,,,,,,VFR,,,,,,,,,,,,METAR,684.0
KGKT 150955Z AUTO 00000KT 10SM CLR 18/17 A3015 RMK,KGKT,2015-06-15T09:55:00Z,35.85,-83.53,18.0,17.0,0,0,,10.0,30.15059,,,TRUE,,,,,,,,CLR,,,,,,,,VFR,,,,,,,,,,,,METAR,309.0
KGBD 150955Z AUTO 31003KT 10SM OVC065 17/14 A2997 RMK AO1,KGBD,2015-06-15T09:55:00Z,38.35,-98.87,17.0,14.0,310,3,,10.0,29.970472,,,TRUE,TRUE,,,,,,,OVC,6500,,,,,,,VFR,,,,,,,,,,,,METAR,575.0
KFYM 150955Z AUTO 10SM CLR A3013 RMK,KFYM,2015-06-15T09:55:00Z,35.07,-86.57,,,,,,10.0,30.129921,,,TRUE,,,,,,,,CLR,,,,,,,,VFR,,,,,,,,,,,,METAR,300.0
KFOD 150955Z AUTO 00000KT 9SM OVC120 21/20 A2991 RMK AO1 P0001,KFOD,2015-06-15T09:55:00Z,42.53,-94.17,21.0,20.0,0,0,,9.0,29.911417,,,TRUE,TRUE,,,,,,,OVC,12000,,,,,,,VFR,,,,,,0.01,,,,,,METAR,355.0
KFMH 150955Z AUTO 14007KT 10SM FEW075 OVC090 16/10 A3010 RMK AO2,KFMH,2015-06-15T09:55:00Z,41.63,-70.52,16.0,10.0,140,7,,10.0,30.100393,,,TRUE,TRUE,,,,,,,FEW,7500,OVC,9000,,,,,VFR,,,,,,,,,,,,METAR,40.0
KFLY 150955Z AUTO 01008KT 10SM CLR 10/09 A3024 RMK AO2 T01030093,KFLY,2015-06-15T09:55:00Z,38.95,-104.57,10.3,9.3,10,8,,10.0,30.239174,,,TRUE,TRUE,,,,,,,CLR,,,,,,,,VFR,,,,,,,,,,,,METAR,2096.0
KFAM 150955Z AUTO 24005KT 10SM FEW008 22/21 A3006 RMK AO1,KFAM,2015-06-15T09:55:00Z,37.77,-90.42,22.0,21.0,240,5,,10.0,30.059055,,,TRUE,TRUE,,,,,,,FEW,800,,,,,,,VFR,,,,,,,,,,,,METAR,288.0
KEWK 150955Z AUTO 17008KT 10SM SCT065 BKN080 OVC090 19/17 A2994 RMK AO1 TSE02B03E31 P0005,KEWK,2015-06-15T09:55:00Z,38.03,-97.27,19.0,17.0,170,8,,10.0,29.940945,,,TRUE,TRUE,,,,,,,SCT,6500,BKN,8000,OVC,9000,,,VFR,,,,,,0.05,,,,,,METAR,467.0
KEOE 150955Z AUTO 00000KT 10SM CLR 21/21 A3013 RMK AO2,KEOE,2015-06-15T09:55:00Z,34.32,-81.63,21.0,21.0,0,0,,10.0,30.129921,,,TRUE,TRUE,,,,,,,CLR,,,,,,,,VFR,,,,,,,,,,,,METAR,174.0
KEEN 150955Z AUTO 22003KT 7SM SCT032 BKN041 OVC050 14/12 A3007 RMK AO1 P0021,KEEN,2015-06-15T09:55:00Z,42.88,-72.27,14.0,12.0,220,3,,7.0,30.070866,,,TRUE,TRUE,,,,,,,SCT,3200,BKN,4100,OVC,5000,,,VFR,,,,,,0.21,,,,,,METAR,149.0
KEAR 150955Z AUTO 31010KT 10SM FEW120 18/15 A2997 RMK AO1,KEAR,2015-06-15T09:55:00Z,40.72,-99.0,18.0,15.0,310,10,,10.0,29.970472,,,TRUE,TRUE,,,,,,,FEW,12000,,,,,,,VFR,,,,,,,,,,,,METAR,649.0
KE80 150955Z AUTO 30006KT 10SM CLR 16/09 A3009 RMK AO2 T01550092,KE80,2015-06-15T09:55:00Z,34.65,-106.83,15.5,9.2,300,6,,10.0,30.088583,,,TRUE,TRUE,,,,,,,CLR,,,,,,,,VFR,,,,,,,,,,,,METAR,1582.0
KDCM 150955Z AUTO 00000KT 7SM CLR 22/21 A3011 RMK AO2,KDCM,2015-06-15T09:55:00Z,34.78,-81.2,22.0,21.0,0,0,,7.0,30.109253,,,TRUE,TRUE,,,,,,,CLR,,,,,,,,VFR,,,,,,,,,,,,METAR,200.0
KD57 150955Z AUTO 29006KT 10SM CLR 07/06 A3014 RMK AO2,KD57,2015-06-15T09:55:00Z,46.82,-101.87,7.0,6.0,290,6,,10.0,30.138779,,,TRUE,TRUE,,,,,,,CLR,,,,,,,,VFR,,,,,,,,,,,,METAR,637.0
KD39 150955Z AUTO 35004KT 10SM CLR 14/13 A2999 RMK AO2 LTG DSNT S T01380125,KD39,2015-06-15T09:55:00Z,45.7,-94.93,13.8,12.5,350,4,,10.0,29.991142,,,TRUE,TRUE,,,,,,,CLR,,,,,,,,VFR,,,,,,,,,,,,METAR,380.0
KCWI 150955Z AUTO 19006KT 9SM BKN008 OVC012 22/21 A2995 RMK AO1 LTG DSNT N TSE0857,KCWI,2015-06-15T09:55:00Z,41.82,-90.32,22.0,21.0,190,6,,9.0,29.949802,,,TRUE,TRUE,,,,,,,BKN,800,OVC,1200,,,,,IFR,,,,,,,,,,,,METAR,216.0
KTME 150955Z AUTO 10003KT 10SM CLR 24/23 A2993 RMK AO2,KTME,2015-06-15T09:55:00Z,29.8,-95.9,24.0,23.0,100,3,,10.0,29.929134,,,TRUE,TRUE,,,,,,,CLR,,,,,,,,VFR,,,,,,,,,,,,METAR,51.0
KSYI 150955Z AUTO 00000KT 10SM CLR 21/21 A3013 RMK,KSYI,2015-06-15T09:55:00Z,35.57,-86.45,21.0,21.0,0,0,,10.0,30.129921,,,TRUE,,,,,,,,CLR,,,,,,,,VFR,,,,,,,,,,,,METAR,245.0
KSRB 150955Z AUTO 00000KT 10SM CLR 18/18 A3013 RMK,KSRB,2015-06-15T09:55:00Z,36.05,-85.53,18.0,18.0,0,0,,10.0,30.129921,,,TRUE,,,,,,,,CLR,,,,,,,,VFR,,,,,,,,,,,,METAR,313.0
KSOW 150955Z AUTO 14004KT 10SM CLR 12/02 A3015 RMK AO2,KSOW,2015-06-15T09:55:00Z,34.27,-110.0,12.0,2.0,140,4,,10.0,30.15059,,,TRUE,TRUE,,,,,,,CLR,,,,,,,,VFR,,,,,,,,,,,,METAR,1954.0
KSNH 150955Z AUTO 00000KT 10SM CLR 21/00 A3010 RMK,KSNH,2015-06-15T09:55:00Z,35.17,-88.22,21.0,0.0,0,0,,10.0,30.100393,,,TRUE,,,,,,,,CLR,,,,,,,,VFR,,,,,,,,,,,,METAR,144.0
KSFZ 150955Z AUTO 16003KT 9SM SCT036 BKN044 OVC050 13/09 A3008 RMK AO1,KSFZ,2015-06-15T09:55:00Z,41.92,-71.5,13.0,9.0,160,3,,9.0,30.079725,,,TRUE,TRUE,,,,,,,SCT,3600,BKN,4400,OVC,5000,,,VFR,,,,,,,,,,,,METAR,134.0
KSFM 150955Z 22004KT 10SM OVC050 13/10 A3012 RMK AO1 P0001,KSFM,2015-06-15T09:55:00Z,43.38,-70.72,13.0,10.0,220,4,,10.0,30.121063,,,,TRUE,,,,,,,OVC,5000,,,,,,,VFR,,,,,,0.01,,,,,,METAR,74.0
KSBS 150955Z AUTO 00000KT 10SM CLR 08/06 A3019 RMK AO1 T00790055,KSBS,2015-06-15T09:55:00Z,40.52,-106.87,7.9,5.5,0,0,,10.0,30.188976,,,TRUE,TRUE,,,,,,,CLR,,,,,,,,VFR,,,,,,,,,,,,METAR,2096.0
KRUT 150955Z AUTO 15010G15KT 10SM OVC050 16/13 A2999 RMK AO1 P0008,KRUT,2015-06-15T09:55:00Z,43.52,-72.95,16.0,13.0,150,10,15,10.0,29.991142,,,TRUE,TRUE,,,,,,,OVC,5000,,,,,,,VFR,,,,,,0.08,,,,,,METAR,240.0
KRKD 150955Z AUTO 00000KT 10SM CLR 09/08 A3012 RMK AO1,KRKD,2015-06-15T09:55:00Z,44.07,-69.08,9.0,8.0,0,0,,10.0,30.121063,,,TRUE,TRUE,,,,,,,CLR,,,,,,,,VFR,,,,,,,,,,,,METAR,17.0
KPVC 150955Z 18005KT 10SM BKN049 14/09 A3012 RMK AO1,KPVC,2015-06-15T09:55:00Z,42.07,-70.22,14.0,9.0,180,5,,10.0,30.121063,,,,TRUE,,,,,,,BKN,4900,,,,,,,VFR,,,,,,,,,,,,METAR,2.0
KPTV 150955Z 18005KT 10SM CLR 18/08 A2977 RMK AO1,KPTV,2015-06-15T09:55:00Z,36.02,-119.07,18.0,8.0,180,5,,10.0,29.769686,,,,TRUE,,,,,,,CLR,,,,,,,,VFR,,,,,,,,,,,,METAR,135.0
KPSO 150955Z AUTO 00000KT 10SM CLR 08/07 A3027 RMK AO2 T00750072,KPSO,2015-06-15T09:55:00Z,37.28,-107.05,7.5,7.2,0,0,,10.0,30.268702,,,TRUE,TRUE,,,,,,,CLR,,,,,,,,VFR,,,,,,,,,,,,METAR,2334.0
KPQI 150955Z AUTO 00000KT 10SM CLR 06/03 A3012 RMK AO1,KPQI,2015-06-15T09:55:00Z,46.67,-68.03,6.0,3.0,0,0,,10.0,30.121063,,,TRUE,TRUE,,,,,,,CLR,,,,,,,,VFR,,,,,,,,,,,,METAR,146.0
KPAN 150955Z AUTO 03003KT 10SM CLR 21/06 A3004 RMK AO2,KPAN,2015-06-15T09:55:00Z,34.25,-111.33,21.0,6.0,30,3,,10.0,30.041338,,,TRUE,TRUE,,,,,,,CLR,,,,,,,,VFR,,,,,,,,,,,,METAR,1572.0
KOZS 150955Z AUTO 15006KT 10SM CLR 21/21 A2998 RMK AO2,KOZS,2015-06-15T09:55:00Z,37.97,-92.68,21.0,21.0,150,6,,10.0,29.97933,,,TRUE,TRUE,,,,,,,CLR,,,,,,,,VFR,,,,,,,,,,,,METAR,324.0
KOLU 150955Z AUTO 25009KT 6SM FEW013 SCT017 BKN023 19/16 A2991 RMK AO1 P0048,KOLU,2015-06-15T09:55:00Z,41.45,-97.32,19.0,16.0,250,9,,6.0,29.911417,,,TRUE,TRUE,,,,,,,FEW,1300,SCT,1700,BKN,2300,,,MVFR,,,,,,0.48,,,,,,METAR,440.0
KN03 150955Z AUTO 00000KT 10SM BKN010 OVC016 21/21 A2995 RMK AO2,KN03,2015-06-15T09:55:00Z,42.6,-76.22,21.0,21.0,0,0,,10.0,29.949802,,,TRUE,TRUE,,,,,,,BKN,1000,OVC,1600,,,,,MVFR,,,,,,,,,,,,METAR,366.0
KM25 150955Z AUTO 18006KT 10SM CLR 23/21 A3006 RMK AO2,KM25,2015-06-15T09:55:00Z,36.77,-88.58,23.0,21.0,180,6,,10.0,30.059055,,,TRUE,TRUE,,,,,,,CLR,,,,,,,,VFR,,,,,,,,,,,,METAR,160.0
KLXL 150955Z AUTO 33003KT 10SM CLR 13/12 A2998 RMK AO2,KLXL,2015-06-15T09:55:00Z,45.95,-94.33,13.0,12.0,330,3,,10.0,29.97933,,,TRUE,TRUE,,,,,,,CLR,,,,,,,,VFR,,,,,,,,,,,,METAR,342.0
KLPC 150955Z AUTO 28003KT 10SM OVC009 14/10 A2986 RMK AO1,KLPC,2015-06-15T09:55:00Z,34.67,-120.47,14.0,10.0,280,3,,10.0,29.861221,,,TRUE,TRUE,,,,,,,OVC,900,,,,,,,IFR,,,,,,,,,,,,METAR,27.0
KLMO 150955Z AUTO 21004KT 10SM SCT045 17/11 A3018 RMK AO2 T01700110,KLMO,2015-06-15T09:55:00Z,40.17,-105.17,17.0,11.0,210,4,,10.0,30.180119,,,TRUE,TRUE,,,,,,,SCT,4500,,,,,,,VFR,,,,,,,,,,,,METAR,1541.0
KLEW 150955Z 00000KT 10SM OVC050 12/08 A3010 RMK AO1,KLEW,2015-06-15T09:55:00Z,44.03,-70.27,12.0,8.0,0,0,,10.0,30.100393,,,,TRUE,,,,,,,OVC,5000,,,,,,,VFR,,,,,,,,,,,,METAR,88.0
KLCI 150955Z AUTO 10003KT 7SM SCT039 BKN048 OVC080 14/12 A3008 RMK AO1 P0005,KLCI,2015-06-15T09:55:00Z,43.57,-71.42,14.0,12.0,100,3,,7.0,30.079725,,,TRUE,TRUE,,,,,,,SCT,3900,BKN,4800,OVC,8000,,,VFR,,,,,,0.05,,,,,,METAR,166.0
KLBL 150955Z AUTO 00000KT 10SM BKN006 BKN015 OVC120 18/16 A3002 RMK AO1,KLBL,2015-06-15T09:55:00Z,37.03,-100.97,18.0,16.0,0,0,,10.0,30.02067,,,TRUE,TRUE,,,,,,,BKN,600,BKN,1500,OVC,12000,,,IFR,,,,,,,,,,,,METAR,879.0
KJZI 150955Z AUTO 00000KT 10SM CLR 25/23 A3009 RMK AO2,KJZI,2015-06-15T09:55:00Z,32.7,-80.0,25.0,23.0,0,0,,10.0,30.088583,,,TRUE,TRUE,,,,,,,CLR,,,,,,,,VFR,,,,,,,,,,,,METAR,6.0
KJVW 150955Z AUTO 11004KT 6SM HZ CLR 23/20 A3004 RMK AO2,KJVW,2015-06-15T09:55:00Z,32.3,-90.42,23.0,20.0,110,4,,6.0,30.041338,,,TRUE,TRUE,,,,,,HZ,CLR,,,,,,,,VFR,,,,,,,,,,,,METAR,76.0
KI67 150955Z AUTO 00000KT 10SM SCT060 22/20 A3003 RMK AO1,KI67,2015-06-15T09:55:00Z,39.25,-84.78,22.0,20.0,0,0,,10.0,30.029528,,,TRUE,TRUE,,,,,,,SCT,6000,,,,,,,VFR,,,,,,,,,,,,METAR,178.0
KHYS 150955Z 30003KT 10SM SCT028 BKN036 OVC046 17/13 A2997 RMK AO1,KHYS,2015-06-15T09:55:00Z,38.85,-99.27,17.0,13.0,300,3,,10.0,29.970472,,,,TRUE,,,,,,,SCT,2800,BKN,3600,OVC,4600,,,VFR,,,,,,,,,,,,METAR,609.0
KHOB 150955Z AUTO 00000KT 10SM SCT120 17/17 A3002 RMK AO2,KHOB,2015-06-15T09:55:00Z,32.67,-103.22,17.0,17.0,0,0,,10.0,30.02067,,,TRUE,TRUE,,,,,,,SCT,12000,,,,,,,VFR,,,,,,,,,,,,METAR,1115.0
KHEQ 150955Z AUTO 03007KT 10SM SCT012 16/14 A3010 RMK AO2,KHEQ,2015-06-15T09:55:00Z,40.57,-102.28,16.0,14.0,30,7,,10.0,30.100393,,,TRUE,TRUE,,,,,,,SCT,1200,,,,,,,VFR,,,,,,,,,,,,METAR,1137.0
KNBG 150955Z AUTO 09005KT 10SM FEW019 26/24 A2998 RMK AO2 RAB25E34 SLP150 P0000 T02560239 $,KNBG,2015-06-15T09:55:00Z,29.82,-90.02,25.6,23.9,90,5,,10.0,29.97933,1015.0,,TRUE,TRUE,TRUE,,,,,,FEW,1900,,,,,,,VFR,,,,,,0.0050,,,,,,METAR,1.0
PATC 150955Z AUTO 21021KT 1/4SM -RA FG VV002 03/03 A3045 RMK AO2 RAB0954 SLP316 P0000 T00300031,PATC,2015-06-15T09:55:00Z,65.57,-167.92,3.0,3.1,210,21,,0.25,30.448818,1031.6,,TRUE,TRUE,,,,,,-RA FG,OVX,0,,,,,,,LIFR,,,,,,0.0050,,,,,200,METAR,83.0
PALU 150955Z AUTO 19026G34KT 10SM BKN007 05/03 A3030 RMK AO2 PK WND 19039/0916 SLP259 T00460033,PALU,2015-06-15T09:55:00Z,68.88,-166.13,4.6,3.3,190,26,34,10.0,30.301182,1025.9,,TRUE,TRUE,,,,,,,BKN,700,,,,,,,IFR,,,,,,,,,,,,METAR,3.0
PKMR 150955Z 00000KT 15SM FEW015 FEW050 OVC300 27/25 A2980 RMK SLP093 T02670249,PKMR,2015-06-15T09:55:00Z,7.08,171.38,26.7,24.9,0,0,,15.0,29.799213,1009.3,,,,,,,,,,FEW,1500,FEW,5000,OVC,30000,,,VFR,,,,,,,,,,,,METAR,4.0
KYKN 150955Z AUTO 36010KT 10SM BKN110 19/16 A2993 RMK AO1 LTG DSNT ALQDS,KYKN,2015-06-15T09:55:00Z,42.92,-97.37,19.0,16.0,360,10,,10.0,29.929134,,,TRUE,TRUE,,,,,,,BKN,11000,,,,,,,VFR,,,,,,,,,,,,METAR,398.0
KWWD 150955Z AUTO 29005KT 9SM SCT040 BKN060 BKN070 23/20 A3001 RMK AO1 LTG DSNT NE,KWWD,2015-06-15T09:55:00Z,39.02,-74.92,23.0,20.0,290,5,,9.0,30.008858,,,TRUE,TRUE,,,,,,,SCT,4000,BKN,6000,BKN,7000,,,VFR,,,,,,,,,,,,METAR,7.0
KVBT 150955Z AUTO 18005KT 10SM CLR 22/20 A3001 RMK AO1,KVBT,2015-06-15T09:55:00Z,36.35,-94.22,22.0,20.0,180,5,,10.0,30.008858,,,TRUE,TRUE,,,,,,,CLR,,,,,,,,VFR,,,,,,,,,,,,METAR,395.0
KUDG 150955Z AUTO 00000KT 10SM CLR 23/20 A3008 RMK AO1,KUDG,2015-06-15T09:55:00Z,34.45,-79.88,23.0,20.0,0,0,,10.0,30.079725,,,TRUE,TRUE,,,,,,,CLR,,,,,,,,VFR,,,,,,,,,,,,METAR,59.0
KTVF 150955Z AUTO 31006KT 10SM CLR 12/09 A3002 RMK AO1,KTVF,2015-06-15T09:55:00Z,48.07,-96.17,12.0,9.0,310,6,,10.0,30.02067,,,TRUE,TRUE,,,,,,,CLR,,,,,,,,VFR,,,,,,,,,,,,METAR,340.0
KTPL 150955Z AUTO 14005KT 10SM BKN006 OVC013 23/21 A2994 RMK AO1,KTPL,2015-06-15T09:55:00Z,31.13,-97.4,23.0,21.0,140,5,,10.0,29.940945,,,TRUE,TRUE,,,,,,,BKN,600,OVC,1300,,,,,IFR,,,,,,,,,,,,METAR,208.0
KSUE 150955Z AUTO 00000KT 5SM BKN050 18/16 A2992 RMK AO1,KSUE,2015-06-15T09:55:00Z,44.85,-87.42,18.0,16.0,0,0,,5.0,29.920275,,,TRUE,TRUE,,,,,,,BKN,5000,,,,,,,MVFR,,,,,,,,,,,,METAR,221.0
KSQI 150955Z AUTO 00000KT 10SM SCT015 OVC035 22/21 A2993 RMK AO1,KSQI,2015-06-15T09:55:00Z,41.75,-89.67,22.0,21.0,0,0,,10.0,29.929134,,,TRUE,TRUE,,,,,,,SCT,1500,OVC,3500,,,,,VFR,,,,,,,,,,,,METAR,197.0
KSOP 150955Z AUTO 29003KT 10SM CLR 23/19 A3007 RMK AO1,KSOP,2015-06-15T09:55:00Z,35.22,-79.4,23.0,19.0,290,3,,10.0,30.070866,,,TRUE,TRUE,,,,,,,CLR,,,,,,,,VFR,,,,,,,,,,,,METAR,141.0
KSMN 150955Z AUTO 01011G15KT 10SM 12/03 A3006 RMK AO1,KSMN,2015-06-15T09:55:00Z,45.12,-113.87,12.0,3.0,10,11,15,10.0,30.059055,,,TRUE,TRUE,,,,,,,,,,,,,,,,,,,,,,,,,,,METAR,1233.0
KSLG 150955Z AUTO 17003KT 10SM SCT120 A3000 RMK AO1,KSLG,2015-06-15T09:55:00Z,36.2,-94.47,,,170,3,,10.0,30.0,,,TRUE,TRUE,,,,,,,SCT,12000,,,,,,,VFR,,,,,,,,,,,,METAR,300.0
KSKX 150955Z AUTO 00000KT 10SM SCT120 08/03 A3025 RMK AO1,KSKX,2015-06-15T09:55:00Z,36.45,-105.67,8.0,3.0,0,0,,10.0,30.250984,,,TRUE,TRUE,,,,,,,SCT,12000,,,,,,,VFR,,,,,,,,,,,,METAR,2161.0
KOCH 150955Z AUTO 12007KT 9SM BKN004 23/22 A2997 RMK AO1,KOCH,2015-06-15T09:55:00Z,31.57,-94.72,23.0,22.0,120,7,,9.0,29.970472,,,TRUE,TRUE,,,,,,,BKN,400,,,,,,,LIFR,,,,,,,,,,,,METAR,108.0
KOCF 150955Z AUTO 00000KT 10SM CLR 21/19 A3010 RMK AO1,KOCF,2015-06-15T09:55:00Z,29.17,-82.22,21.0,19.0,0,0,,10.0,30.100393,,,TRUE,TRUE,,,,,,,CLR,,,,,,,,VFR,,,,,,,,,,,,METAR,27.0
KOAJ 150955Z AUTO 00000KT 3SM CLR 22/19 A3005 RMK AO1 VIS 2V5,KOAJ,2015-06-15T09:55:00Z,34.82,-77.62,22.0,19.0,0,0,,3.0,30.050198,,,TRUE,TRUE,,,,,,,CLR,,,,,,,,MVFR,,,,,,,,,,,,METAR,29.0
KMYR 150955Z AUTO 29005KT 10SM CLR 26/21 A3008 RMK AO1,KMYR,2015-06-15T09:55:00Z,33.67,-78.92,26.0,21.0,290,5,,10.0,30.079725,,,TRUE,TRUE,,,,,,,CLR,,,,,,,,VFR,,,,,,,,,,,,METAR,8.0
KMVN 150955Z AUTO 21008KT 10SM CLR 23/19 A3003 RMK AO1,KMVN,2015-06-15T09:55:00Z,38.32,-88.87,23.0,19.0,210,8,,10.0,30.029528,,,TRUE,TRUE,,,,,,,CLR,,,,,,,,VFR,,,,,,,,,,,,METAR,146.0
KMSV 150955Z AUTO 25004KT 6SM BKN004 OVC011 20/20 A2996 RMK AO1 P0001,KMSV,2015-06-15T09:55:00Z,41.7,-74.78,20.0,20.0,250,4,,6.0,29.958662,,,TRUE,TRUE,,,,,,,BKN,400,OVC,1100,,,,,LIFR,,,,,,0.01,,,,,,METAR,428.0
KMRF 150955Z AUTO 35004KT 10SM CLR A3007 RMK AO1,KMRF,2015-06-15T09:55:00Z,30.37,-104.02,,,350,4,,10.0,30.070866,,,TRUE,TRUE,,,,,,,CLR,,,,,,,,VFR,,,,,,,,,,,,METAR,1481.0
KMNM 150955Z AUTO 00000KT M1/4SM OVC002 16/14 A2989 RMK AO1,KMNM,2015-06-15T09:55:00Z,45.12,-87.62,16.0,14.0,0,0,,0.25,29.890747,,,TRUE,TRUE,,,,,,,OVC,200,,,,,,,LIFR,,,,,,,,,,,,METAR,191.0
KMML 150955Z AUTO 35011KT 10SM TS OVC049 17/14 A2997 RMK AO1 LTG DSNT E P0009,KMML,2015-06-15T09:55:00Z,44.45,-95.82,17.0,14.0,350,11,,10.0,29.970472,,,TRUE,TRUE,,,,,,TS,OVC,4900,,,,,,,VFR,,,,,,0.09,,,,,,METAR,359.0
KMKY 150955Z AUTO 09005KT 10SM SCT018 24/21 A3004 RMK AO1,KMKY,2015-06-15T09:55:00Z,26.0,-81.67,24.0,21.0,90,5,,10.0,30.041338,,,TRUE,TRUE,,,,,,,SCT,1800,,,,,,,VFR,,,,,,,,,,,,METAR,2.0
KMKT 150955Z AUTO 32006KT 10SM BKN007 19/18 A2992 RMK AO1,KMKT,2015-06-15T09:55:00Z,44.22,-93.92,19.0,18.0,320,6,,10.0,29.920275,,,TRUE,TRUE,,,,,,,BKN,700,,,,,,,IFR,,,,,,,,,,,,METAR,311.0
KMJX 150955Z AUTO 21005KT 10SM OVC020 A2997 RMK AO1,KMJX,2015-06-15T09:55:00Z,39.93,-74.3,,,210,5,,10.0,29.970472,,,TRUE,TRUE,,,,,,,OVC,2000,,,,,,,MVFR,,,,,,,,,,,,METAR,25.0
KMBL 150955Z AUTO 10003KT 1/2SM OVC004 16/14 A2993 RMK AO1,KMBL,2015-06-15T09:55:00Z,44.27,-86.25,16.0,14.0,100,3,,0.5,29.929134,,,TRUE,TRUE,,,,,,,OVC,400,,,,,,,LIFR,,,,,,,,,,,,METAR,189.0
KLKV 150955Z AUTO 36008KT 10SM CLR 13/M02 A2996 RMK AO1,KLKV,2015-06-15T09:55:00Z,42.17,-120.4,13.0,-2.0,360,8,,10.0,29.958662,,,TRUE,TRUE,,,,,,,CLR,,,,,,,,VFR,,,,,,,,,,,,METAR,1441.0
KLGD 150955Z AUTO 31006KT 10SM CLR 09/M02 A2997 RMK AO1,KLGD,2015-06-15T09:55:00Z,45.27,-118.0,9.0,-2.0,310,6,,10.0,29.970472,,,TRUE,TRUE,,,,,,,CLR,,,,,,,,VFR,,,,,,,,,,,,METAR,827.0
KKLS 150955Z 00000KT 10SM CLR 14/08 A2997 RMK AO1,KKLS,2015-06-15T09:55:00Z,46.12,-122.9,14.0,8.0,0,0,,10.0,29.970472,,,,TRUE,,,,,,,CLR,,,,,,,,VFR,,,,,,,,,,,,METAR,5.0
KJHW 150955Z 24008KT 3SM OVC003 20/18 A2999 RMK AO1 P0004,KJHW,2015-06-15T09:55:00Z,42.13,-79.27,20.0,18.0,240,8,,3.0,29.991142,,,,TRUE,,,,,,,OVC,300,,,,,,,LIFR,,,,,,0.04,,,,,,METAR,525.0
KIWD 150955Z AUTO 00000KT 10SM OVC060 13/12 A2988 RMK AO1,KIWD,2015-06-15T09:55:00Z,46.52,-90.12,13.0,12.0,0,0,,10.0,29.878937,,,TRUE,TRUE,,,,,,,OVC,6000,,,,,,,VFR,,,,,,,,,,,,METAR,375.0
KSGU 150955Z AUTO 10010KT 10SM CLR 26/07 A2988 RMK AO1,KSGU,2015-06-15T09:55:00Z,37.07,-113.52,26.0,7.0,100,10,,10.0,29.878937,,,TRUE,TRUE,,,,,,,CLR,,,,,,,,VFR,,,,,,,,,,,,METAR,896.0
KSGT 150955Z AUTO 15006KT 10SM CLR 24/22 A3003 RMK AO1,KSGT,2015-06-15T09:55:00Z,34.6,-91.57,24.0,22.0,150,6,,10.0,30.029528,,,TRUE,TRUE,,,,,,,CLR,,,,,,,,VFR,,,,,,,,,,,,METAR,68.0
KSDY 150955Z AUTO 35006KT 10SM BKN090 10/04 A3021 RMK AO1,KSDY,2015-06-15T09:55:00Z,47.7,-104.2,10.0,4.0,350,6,,10.0,30.209646,,,TRUE,TRUE,,,,,,,BKN,9000,,,,,,,VFR,,,,,,,,,,,,METAR,605.0
KRZT 150955Z AUTO 25005KT 10SM CLR 24/20 A3005 RMK AO2,KRZT,2015-06-15T09:55:00Z,39.43,-83.02,24.0,20.0,250,5,,10.0,30.050198,,,TRUE,TRUE,,,,,,,CLR,,,,,,,,VFR,,,,,,,,,,,,METAR,221.0
KPWT 150955Z AUTO 00000KT 10SM CLR 12/07 A2998 RMK AO1,KPWT,2015-06-15T09:55:00Z,47.5,-122.75,12.0,7.0,0,0,,10.0,29.97933,,,TRUE,TRUE,,,,,,,CLR,,,,,,,,VFR,,,,,,,,,,,,METAR,147.0
KPVU 150955Z AUTO 15008KT 10SM CLR 18/08 A3001 RMK AO1,KPVU,2015-06-15T09:55:00Z,40.22,-111.72,18.0,8.0,150,8,,10.0,30.008858,,,TRUE,TRUE,,,,,,,CLR,,,,,,,,VFR,,,,,,,,,,,,METAR,1369.0
KPVG 150955Z AUTO 00000KT 1SM CLR 20/18 A3005 RMK AO1,KPVG,2015-06-15T09:55:00Z,36.78,-76.45,20.0,18.0,0,0,,1.0,30.050198,,,TRUE,TRUE,,,,,,,CLR,,,,,,,,IFR,,,,,,,,,,,,METAR,7.0
KPTN 150955Z AUTO 07005KT 10SM FEW018 25/23 A2997 RMK AO1,KPTN,2015-06-15T09:55:00Z,29.72,-91.32,25.0,23.0,70,5,,10.0,29.970472,,,TRUE,TRUE,,,,,,,FEW,1800,,,,,,,VFR,,,,,,,,,,,,METAR,3.0
KPRX 150955Z 16009KT 8SM FEW004 BKN010 BKN014 23/21 A2998 RMK AO1,KPRX,2015-06-15T09:55:00Z,33.62,-95.45,23.0,21.0,160,9,,8.0,29.97933,,,,TRUE,,,,,,,FEW,400,BKN,1000,BKN,1400,,,MVFR,,,,,,,,,,,,METAR,167.0
KPIB 150955Z AUTO 04003KT 1 1/4SM CLR 21/19 A3006 RMK AO1,KPIB,2015-06-15T09:55:00Z,31.47,-89.32,21.0,19.0,40,3,,1.25,30.059055,,,TRUE,TRUE,,,,,,,CLR,,,,,,,,IFR,,,,,,,,,,,,METAR,91.0
KOWA 150955Z AUTO 21003KT 10SM CLR 20/18 A2992 RMK AO2,KOWA,2015-06-15T09:55:00Z,44.12,-93.25,20.0,18.0,210,3,,10.0,29.920275,,,TRUE,TRUE,,,,,,,CLR,,,,,,,,VFR,,,,,,,,,,,,METAR,350.0
KOTH 150955Z 32005KT 10SM OVC009 12/11 A3000 RMK AO1,KOTH,2015-06-15T09:55:00Z,43.42,-124.25,12.0,11.0,320,5,,10.0,30.0,,,,TRUE,,,,,,,OVC,900,,,,,,,IFR,,,,,,,,,,,,METAR,4.0
KOTG 150955Z AUTO 01011KT 10SM BKN007 OVC090 18/16 A2994 RMK AO1 LTG DSNT NW,KOTG,2015-06-15T09:55:00Z,43.63,-95.57,18.0,16.0,10,11,,10.0,29.940945,,,TRUE,TRUE,,,,,,,BKN,700,OVC,9000,,,,,IFR,,,,,,,,,,,,METAR,480.0
KOKK 150955Z AUTO 23007KT 10SM OVC070 22/20 A3000 RMK AO1,KOKK,2015-06-15T09:55:00Z,40.53,-86.07,22.0,20.0,230,7,,10.0,30.0,,,TRUE,TRUE,,,,,,,OVC,7000,,,,,,,VFR,,,,,,,,,,,,METAR,253.0
KILE 150955Z AUTO 17004KT 10SM OVC006 23/21 A2996 RMK AO1,KILE,2015-06-15T09:55:00Z,31.07,-97.67,23.0,21.0,170,4,,10.0,29.958662,,,TRUE,TRUE,,,,,,,OVC,600,,,,,,,IFR,,,,,,,,,,,,METAR,258.0
KHNB 150955Z AUTO 20007KT 10SM CLR 23/21 A3005 RMK AO1,KHNB,2015-06-15T09:55:00Z,38.25,-86.95,23.0,21.0,200,7,,10.0,30.050198,,,TRUE,TRUE,,,,,,,CLR,,,,,,,,VFR,,,,,,,,,,,,METAR,161.0
KHEZ 150955Z 12004KT 10SM CLR 23/22 A3003 RMK AO1,KHEZ,2015-06-15T09:55:00Z,31.62,-91.3,23.0,22.0,120,4,,10.0,30.029528,,,,TRUE,,,,,,,CLR,,,,,,,,VFR,,,,,,,,,,,,METAR,83.0
KHEF 150955Z 00000KT 7SM CLR 23/23 A3000 RMK AO1,KHEF,2015-06-15T09:55:00Z,38.72,-77.52,23.0,23.0,0,0,,7.0,30.0,,,,TRUE,,,,,,,CLR,,,,,,,,VFR,,,,,,,,,,,,METAR,59.0
KHDN 150955Z AUTO 11009KT 10SM CLR 11/03 A3018 RMK AO1,KHDN,2015-06-15T09:55:00Z,40.47,-107.22,11.0,3.0,110,9,,10.0,30.180119,,,TRUE,TRUE,,,,,,,CLR,,,,,,,,VFR,,,,,,,,,,,,METAR,2012.0
KGXY 150955Z 00000KT 10SM CLR 13/10 A3016 RMK AO1,KGXY,2015-06-15T09:55:00Z,40.42,-104.62,13.0,10.0,0,0,,10.0,30.159449,,,,TRUE,,,,,,,CLR,,,,,,,,VFR,,,,,,,,,,,,METAR,1420.0
KGUC 150955Z 33003KT 10SM CLR 06/03 A3033 RMK AO1,KGUC,2015-06-15T09:55:00Z,38.52,-106.92,6.0,3.0,330,3,,10.0,30.33071,,,,TRUE,,,,,,,CLR,,,,,,,,VFR,,,,,,,,,,,,METAR,2339.0
KGTU 150955Z 00000KT 8SM BKN007 OVC013 A2993 RMK AO1,KGTU,2015-06-15T09:55:00Z,30.68,-97.68,,,0,0,,8.0,29.929134,,,,TRUE,,,,,,,BKN,700,OVC,1300,,,,,IFR,,,,,,,,,,,,METAR,240.0
KGTR 150955Z AUTO 13003KT 10SM CLR 22/19 A3007 RMK AO1,KGTR,2015-06-15T09:55:00Z,33.45,-88.57,22.0,19.0,130,3,,10.0,30.070866,,,TRUE,TRUE,,,,,,,CLR,,,,,,,,VFR,,,,,,,,,,,,METAR,80.0
KGPZ 150955Z AUTO 00000KT 2SM CLR 10/09 A2998 RMK AO1,KGPZ,2015-06-15T09:55:00Z,47.22,-93.52,10.0,9.0,0,0,,2.0,29.97933,,,TRUE,TRUE,,,,,,,CLR,,,,,,,,IFR,,,,,,,,,,,,METAR,413.0
KGPI 150955Z AUTO 04011KT 10SM CLR 12/03 A3016 RMK AO2 SLP208 T01170033 $,KGPI,2015-06-15T09:55:00Z,48.32,-114.25,11.7,3.3,40,11,,10.0,30.159449,1020.8,,TRUE,TRUE,TRUE,,,,,,CLR,,,,,,,,VFR,,,,,,,,,,,,METAR,908.0
KGDV 150955Z AUTO 01008KT 10SM CLR 09/06 A3022 RMK AO1,KGDV,2015-06-15T09:55:00Z,47.12,-104.78,9.0,6.0,10,8,,10.0,30.221457,,,TRUE,TRUE,,,,,,,CLR,,,,,,,,VFR,,,,,,,,,,,,METAR,749.0
KGAI 150955Z AUTO 00000KT 1SM CLR 23/21 A3005 RMK AO1 LTG DSNT N,KGAI,2015-06-15T09:55:00Z,39.17,-77.17,23.0,21.0,0,0,,1.0,30.050198,,,TRUE,TRUE,,,,,,,CLR,,,,,,,,IFR,,,,,,,,,,,,METAR,165.0
KGAD 150955Z 00000KT 10SM CLR A3010 RMK AO1,KGAD,2015-06-15T09:55:00Z,33.97,-86.07,,,0,0,,10.0,30.100393,,,,TRUE,,,,,,,CLR,,,,,,,,VFR,,,,,,,,,,,,METAR,173.0
KFRM 150955Z AUTO 34006KT 10SM SCT008 BKN110 19/16 A2992 RMK AO1,KFRM,2015-06-15T09:55:00Z,43.63,-94.42,19.0,16.0,340,6,,10.0,29.920275,,,TRUE,TRUE,,,,,,,SCT,800,BKN,11000,,,,,VFR,,,,,,,,,,,,METAR,354.0
KFNL 150955Z AUTO 00000KT 10SM CLR 14/10 A3017 RMK AO1,KFNL,2015-06-15T09:55:00Z,40.45,-105.02,14.0,10.0,0,0,,10.0,30.171259,,,TRUE,TRUE,,,,,,,CLR,,,,,,,,VFR,,,,,,,,,,,,METAR,1529.0
KFLP 150955Z AUTO 17003KT 10SM CLR 23/19 A3001 RMK AO1,KFLP,2015-06-15T09:55:00Z,36.28,-92.58,23.0,19.0,170,3,,10.0,30.008858,,,TRUE,TRUE,,,,,,,CLR,,,,,,,,VFR,,,,,,,,,,,,METAR,219.0
KFKL 150955Z AUTO 24006KT 8SM OVC004 21/18 A3003 RMK AO1,KFKL,2015-06-15T09:55:00Z,41.37,-79.87,21.0,18.0,240,6,,8.0,30.029528,,,TRUE,TRUE,,,,,,,OVC,400,,,,,,,LIFR,,,,,,,,,,,,METAR,469.0
KEUL 150955Z AUTO 28006KT 10SM CLR 13/00 A2992 RMK AO1,KEUL,2015-06-15T09:55:00Z,43.62,-116.62,13.0,0.0,280,6,,10.0,29.920275,,,TRUE,TRUE,,,,,,,CLR,,,,,,,,VFR,,,,,,,,,,,,METAR,740.0
KESC 150955Z AUTO 00000KT 1/4SM OVC002 14/13 A2989 RMK AO1,KESC,2015-06-15T09:55:00Z,45.75,-87.08,14.0,13.0,0,0,,0.25,29.890747,,,TRUE,TRUE,,,,,,,OVC,200,,,,,,,LIFR,,,,,,,,,,,,METAR,187.0
KENV 150955Z AUTO 36010KT 10SM CLR 23/M01 A2995 RMK AO1,KENV,2015-06-15T09:55:00Z,40.72,-114.02,23.0,-1.0,360,10,,10.0,29.949802,,,TRUE,TRUE,,,,,,,CLR,,,,,,,,VFR,,,,,,,,,,,,METAR,1292.0
KEHR 150955Z AUTO 21007KT 10SM CLR 23/21 A3003 RMK AO1,KEHR,2015-06-15T09:55:00Z,37.82,-87.67,23.0,21.0,210,7,,10.0,30.029528,,,TRUE,TRUE,,,,,,,CLR,,,,,,,,VFR,,,,,,,,,,,,METAR,117.0
KEGE 150955Z AUTO 00000KT 10SM CLR 11/07 A3022 RMK AO1,KEGE,2015-06-15T09:55:00Z,39.63,-106.92,11.0,7.0,0,0,,10.0,30.221457,,,TRUE,TRUE,,,,,,,CLR,,,,,,,,VFR,,,,,,,,,,,,METAR,1993.0
KDYR 150955Z 00000KT 10SM CLR 23/14 A3006 RMK AO1,KDYR,2015-06-15T09:55:00Z,36.0,-89.4,23.0,14.0,0,0,,10.0,30.059055,,,,TRUE,,,,,,,CLR,,,,,,,,VFR,,,,,,,,,,,,METAR,103.0
KDWU 150955Z AUTO 00000KT 10SM CLR A3005 RMK AO1 LTG DSNT E TSB13E41,KDWU,2015-06-15T09:55:00Z,38.55,-82.73,,,0,0,,10.0,30.050198,,,TRUE,TRUE,,,,,,,CLR,,,,,,,,VFR,,,,,,,,,,,,METAR,166.0
KDVL 150955Z AUTO 29007KT 10SM CLR 11/06 A3006 RMK AO1,KDVL,2015-06-15T09:55:00Z,48.12,-98.92,11.0,6.0,290,7,,10.0,30.059055,,,TRUE,TRUE,,,,,,,CLR,,,,,,,,VFR,,,,,,,,,,,,METAR,443.0
KCVO 150955Z 30010KT 10SM CLR 12/07 A2991 RMK AO1,KCVO,2015-06-15T09:55:00Z,44.5,-123.27,12.0,7.0,300,10,,10.0,29.911417,,,,TRUE,,,,,,,CLR,,,,,,,,VFR,,,,,,,,,,,,METAR,75.0
KCVN 150955Z AUTO 00000KT 10SM CLR 16/14 A3007 RMK AO1,KCVN,2015-06-15T09:55:00Z,34.42,-103.07,16.0,14.0,0,0,,10.0,30.070866,,,TRUE,TRUE,,,,,,,CLR,,,,,,,,VFR,,,,,,,,,,,,METAR,1284.0
KCOE 150955Z AUTO 02010KT 10SM CLR 13/03 A3003 RMK AO1,KCOE,2015-06-15T09:55:00Z,47.77,-116.82,13.0,3.0,20,10,,10.0,30.029528,,,TRUE,TRUE,,,,,,,CLR,,,,,,,,VFR,,,,,,,,,,,,METAR,707.0
KCOD 150955Z AUTO 31006KT 10SM OVC050 12/05 A3020 RMK AO1,KCOD,2015-06-15T09:55:00Z,44.52,-109.02,12.0,5.0,310,6,,10.0,30.200787,,,TRUE,TRUE,,,,,,,OVC,5000,,,,,,,VFR,,,,,,,,,,,,METAR,1553.0
KCIU 150955Z AUTO 00000KT M1/4SM OVC003 14/14 A2992 RMK AO1,KCIU,2015-06-15T09:55:00Z,46.25,-84.47,14.0,14.0,0,0,,0.25,29.920275,,,TRUE,TRUE,,,,,,,OVC,300,,,,,,,LIFR,,,,,,,,,,,,METAR,244.0
KBVX 150955Z AUTO 11005KT 10SM CLR 23/21 A3002 RMK AO1,KBVX,2015-06-15T09:55:00Z,35.73,-91.65,23.0,21.0,110,5,,10.0,30.02067,,,TRUE,TRUE,,,,,,,CLR,,,,,,,,VFR,,,,,,,,,,,,METAR,141.0
KBTP 150955Z AUTO 27008KT 10SM BKN006 OVC017 21/21 A3005 RMK AO1,KBTP,2015-06-15T09:55:00Z,40.77,-79.95,21.0,21.0,270,8,,10.0,30.050198,,,TRUE,TRUE,,,,,,,BKN,600,OVC,1700,,,,,IFR,,,,,,,,,,,,METAR,380.0
KBLM 150955Z 20005KT 8SM FEW014 SCT032 BKN048 21/19 A2997 RMK AO1 P0015,KBLM,2015-06-15T09:55:00Z,40.17,-74.12,21.0,19.0,200,5,,8.0,29.970472,,,,TRUE,,,,,,,FEW,1400,SCT,3200,BKN,4800,,,VFR,,,,,,0.15,,,,,,METAR,48.0
KBKX 150955Z AUTO 02005KT 10SM CLR 16/13 A3000 RMK AO1 LTG DSNT SE,KBKX,2015-06-15T09:55:00Z,44.28,-96.82,16.0,13.0,20,5,,10.0,30.0,,,TRUE,TRUE,,,,,,,CLR,,,,,,,,VFR,,,,,,,,,,,,METAR,502.0
KAWO 150955Z AUTO 35005KT 10SM CLR 10/06 A2997 RMK AO1,KAWO,2015-06-15T09:55:00Z,48.17,-122.17,10.0,6.0,350,5,,10.0,29.970472,,,TRUE,TRUE,,,,,,,CLR,,,,,,,,VFR,,,,,,,,,,,,METAR,42.0
KAUO 150955Z AUTO 34004KT 10SM CLR 21/20 A3013 RMK AO1,KAUO,2015-06-15T09:55:00Z,32.62,-85.42,21.0,20.0,340,4,,10.0,30.129921,,,TRUE,TRUE,,,,,,,CLR,,,,,,,,VFR,,,,,,,,,,,,METAR,236.0
KLWA 150955Z AUTO 22006KT 4SM RA OVC003 21/20 A2995 RMK AO2 T02090200,KLWA,2015-06-15T09:55:00Z,42.35,-86.25,20.9,20.0,220,6,,4.0,29.949802,,,TRUE,TRUE,,,,,,RA,OVC,300,,,,,,,LIFR,,,,,,,,,,,,METAR,203.0
KLLJ 150955Z AUTO 10SM CLR 10/M04 A3006 RMK AO2 SLP123 T01001044,KLLJ,2015-06-15T09:55:00Z,44.52,-114.22,10.0,-4.4,,,,10.0,30.059055,1012.3,,TRUE,TRUE,,,,,,,CLR,,,,,,,,VFR,,,,,,,,,,,,METAR,1536.0
KLIC 150955Z AUTO 34006KT 10SM OVC005 13/13 A3017 RMK AO2 SLP151 T01280128,KLIC,2015-06-15T09:55:00Z,39.27,-103.67,12.8,12.8,340,6,,10.0,30.171259,1015.1,,TRUE,TRUE,,,,,,,OVC,500,,,,,,,IFR,,,,,,,,,,,,METAR,1630.0
KLDM 150955Z AUTO 00000KT 3/4SM BR OVC002 16/15 A2993 RMK AO2 T01600150,KLDM,2015-06-15T09:55:00Z,43.97,-86.4,16.0,15.0,0,0,,0.75,29.929134,,,TRUE,TRUE,,,,,,BR,OVC,200,,,,,,,LIFR,,,,,,,,,,,,METAR,197.0
KJAU 150955Z AUTO 00000KT 9SM FEW002 18/18 A3016 RMK,KJAU,2015-06-15T09:55:00Z,,,18.0,18.0,0,0,,9.0,30.159449,,,TRUE,,,,,,,,FEW,200,,,,,,,VFR,,,,,,,,,,,,METAR,
KISQ 150955Z AUTO 00000KT 1/4SM FG OVC002 13/12 A2990 RMK AO2 T01250121,KISQ,2015-06-15T09:55:00Z,45.97,-86.17,12.5,12.1,0,0,,0.25,29.899607,,,TRUE,TRUE,,,,,,FG,OVC,200,,,,,,,LIFR,,,,,,,,,,,,METAR,209.0
KIRK 150955Z AUTO 19006KT 10SM CLR 22/20 A2994 RMK AO2 SLP136 T02170200,KIRK,2015-06-15T09:55:00Z,40.1,-92.55,21.7,20.0,190,6,,10.0,29.940945,1013.6,,TRUE,TRUE,,,,,,,CLR,,,,,,,,VFR,,,,,,,,,,,,METAR,293.0
KINL 150955Z AUTO 25005KT 10SM CLR 10/08 A2994 RMK AO2 SLP143 T01000083 $,KINL,2015-06-15T09:55:00Z,48.57,-93.4,10.0,8.3,250,5,,10.0,29.940945,1014.3,,TRUE,TRUE,TRUE,,,,,,CLR,,,,,,,,VFR,,,,,,,,,,,,METAR,360.0
KINF 150955Z AUTO 00000KT 10SM CLR 21/21 A3009 RMK AO2,KINF,2015-06-15T09:55:00Z,28.8,-82.32,21.0,21.0,0,0,,10.0,30.088583,,,TRUE,TRUE,,,,,,,CLR,,,,,,,,VFR,,,,,,,,,,,,METAR,15.0
KIDI 150955Z AUTO 26006KT 10SM OVC007 21/21 A3007 RMK A01,KIDI,2015-06-15T09:55:00Z,40.62,-79.08,21.0,21.0,260,6,,10.0,30.070866,,,TRUE,TRUE,,,,,,,OVC,700,,,,,,,IFR,,,,,,,,,,,,METAR,429.0
KHYW 150955Z AUTO 00000KT 7SM CLR 22/22 A3007 RMK AO2,KHYW,2015-06-15T09:55:00Z,33.83,-79.12,22.0,22.0,0,0,,7.0,30.070866,,,TRUE,TRUE,,,,,,,CLR,,,,,,,,VFR,,,,,,,,,,,,METAR,11.0
KHON 150955Z AUTO 36011KT 10SM CLR 15/14 A3001 RMK AO2 SLP157 T01500139,KHON,2015-06-15T09:55:00Z,44.38,-98.23,15.0,13.9,360,11,,10.0,30.008858,1015.7,,TRUE,TRUE,,,,,,,CLR,,,,,,,,VFR,,,,,,,,,,,,METAR,390.0
KHAF 150955Z AUTO 31006KT 3SM BR OVC007 12/10 A2989 RMK AO2,KHAF,2015-06-15T09:55:00Z,37.52,-122.5,12.0,10.0,310,6,,3.0,29.890747,,,TRUE,TRUE,,,,,,BR,OVC,700,,,,,,,IFR,,,,,,,,,,,,METAR,21.0
KHAE 150955Z AUTO 19005KT 10SM SCT060 22/21 A2996 RMK AO2,KHAE,2015-06-15T09:55:00Z,39.73,-91.45,22.0,21.0,190,5,,10.0,29.958662,,,TRUE,TRUE,,,,,,,SCT,6000,,,,,,,VFR,,,,,,,,,,,,METAR,234.0
KGOV 150955Z AUTO 25003KT 4SM BR SCT008 SCT011 17/16 A2995 RMK AO2 T01670164,KGOV,2015-06-15T09:55:00Z,44.68,-84.73,16.7,16.4,250,3,,4.0,29.949802,,,TRUE,TRUE,,,,,,BR,SCT,800,SCT,1100,,,,,MVFR,,,,,,,,,,,,METAR,353.0
KFPK 150955Z AUTO 00000KT M1/4SM FG BKN001 18/17 A2996 RMK AO2 T01750170,KFPK,2015-06-15T09:55:00Z,42.57,-84.82,17.5,17.0,0,0,,0.25,29.958662,,,TRUE,TRUE,,,,,,FG,BKN,100,,,,,,,LIFR,,,,,,,,,,,,METAR,272.0
KFMM 150955Z AUTO 31006KT 10SM CLR 11/09 A3016 RMK AO2 T01130094,KFMM,2015-06-15T09:55:00Z,40.33,-103.8,11.3,9.4,310,6,,10.0,30.159449,,,TRUE,TRUE,,,,,,,CLR,,,,,,,,VFR,,,,,,,,,,,,METAR,1393.0
KETH 150955Z AUTO 31003KT 10SM CLR 13/12 A3003 RMK AO2 LTG DSNT SE,KETH,2015-06-15T09:55:00Z,45.78,-96.55,13.0,12.0,310,3,,10.0,30.029528,,,TRUE,TRUE,,,,,,,CLR,,,,,,,,VFR,,,,,,,,,,,,METAR,313.0
KERY 150955Z AUTO 00000KT 2SM BR OVC003 15/15 A2991 RMK AO2 T01540153,KERY,2015-06-15T09:55:00Z,46.3,-85.45,15.4,15.3,0,0,,2.0,29.911417,,,TRUE,TRUE,,,,,,BR,OVC,300,,,,,,,LIFR,,,,,,,,,,,,METAR,265.0
EHVL 150955Z AUTO 35008KT 9999 BKN025 BKN051 12/06 Q1022 BLU,EHVL,2015-06-15T09:55:00Z,53.23,4.92,12.0,6.0,350,8,,6.21,30.177166,,,TRUE,,,,,,,,BKN,2500,BKN,5100,,,,,MVFR,,,,,,,,,,,,METAR,5.0
EHVK 150955Z AUTO 03008KT 9999 FEW250 17/07 Q1020 BLU 02012KT 9999 FEW030,EHVK,2015-06-15T09:55:00Z,51.63,5.7,17.0,7.0,30,8,,6.21,30.11811,,,TRUE,,,,,,,,FEW,25000,FEW,3000,,,,,VFR,,,,,,,,,,,,METAR,21.0
EHLW 150955Z AUTO 36007KT 9999 FEW047 BKN051 13/06 Q1022 BLU 02007KT 9999 FEW025 BKN035,EHLW,2015-06-15T09:55:00Z,53.22,5.75,13.0,6.0,360,7,,6.21,30.177166,,,TRUE,,,,,,,,FEW,4700,BKN,5100,FEW,2500,BKN,3500,VFR,,,,,,,,,,,,METAR,2.0
EHGR 150955Z AUTO 05009KT 9999 NCD 16/07 Q1020 BLU 05010KT 9999 FEW030 SCT060,EHGR,2015-06-15T09:55:00Z,51.57,4.92,16.0,7.0,50,9,,6.21,30.11811,,,TRUE,,,,,,,,FEW,3000,SCT,6000,,,,,VFR,,,,,,,,,,,,METAR,13.0
KLRO 150955Z AUTO 27003KT 10SM CLR 26/23 A3008 RMK AO2,KLRO,2015-06-15T09:55:00Z,32.9,-79.78,26.0,23.0,270,3,,10.0,30.079725,,,TRUE,TRUE,,,,,,,CLR,,,,,,,,VFR,,,,,,,,,,,,METAR,4.0
KLQK 150955Z AUTO 33003KT 10SM CLR 19/18 A3013 RMK AO2 T01870181,KLQK,2015-06-15T09:55:00Z,34.82,-82.7,18.7,18.1,330,3,,10.0,30.129921,,,TRUE,TRUE,,,,,,,CLR,,,,,,,,VFR,,,,,,,,,,,,METAR,309.0
KPHT 150955Z AUTO 19003KT 10SM CLR A3007 RMK,KPHT,2015-06-15T09:55:00Z,36.33,-88.38,,,190,3,,10.0,30.070866,,,TRUE,,,,,,,,CLR,,,,,,,,VFR,,,,,,,,,,,,METAR,177.0
KOXC 150955Z 17008G15KT 3SM -RA BR OVC004 18/14 A3002,KOXC,2015-06-15T09:55:00Z,41.47,-73.13,18.0,14.0,170,8,15,3.0,30.02067,,,,,,,,,,-RA BR,OVC,400,,,,,,,LIFR,,,,,,,,,,,,METAR,222.0
KVLL 150955Z AUTO 00000KT 7SM SCT060 SCT080 21/21 A2997 RMK AO2 T02100205,KVLL,2015-06-15T09:55:00Z,42.55,-83.18,21.0,20.5,0,0,,7.0,29.970472,,,TRUE,TRUE,,,,,,,SCT,6000,SCT,8000,,,,,VFR,,,,,,,,,,,,METAR,222.0
KUKT 150955Z AUTO 19003KT 2 1/2SM OVC003 23/23 A2997 RMK AO1,KUKT,2015-06-15T09:55:00Z,40.43,-75.38,23.0,23.0,190,3,,2.5,29.970472,,,TRUE,TRUE,,,,,,,OVC,300,,,,,,,LIFR,,,,,,,,,,,,METAR,160.0
KSCK 150955Z AUTO 26007KT 10SM CLR 14/09 A2978 RMK AO2 SLP084 T01390094,KSCK,2015-06-15T09:55:00Z,37.88,-121.22,13.9,9.4,260,7,,10.0,29.778543,1008.4,,TRUE,TRUE,,,,,,,CLR,,,,,,,,VFR,,,,,,,,,,,,METAR,10.0
KRZL 150955Z AUTO 21004KT 7SM BKN006 BKN047 OVC080 22/22 A2997 RMK AO2,KRZL,2015-06-15T09:55:00Z,40.95,-87.18,22.0,22.0,210,4,,7.0,29.970472,,,TRUE,TRUE,,,,,,,BKN,600,BKN,4700,OVC,8000,,,IFR,,,,,,,,,,,,METAR,213.0
KRNO 150955Z 00000KT 10SM FEW200 BKN230 17/M01 A2996 RMK AO2 SLP085 T01671011 $,KRNO,2015-06-15T09:55:00Z,39.5,-119.77,16.7,-1.1,0,0,,10.0,29.958662,1008.5,,,TRUE,TRUE,,,,,,FEW,20000,BKN,23000,,,,,VFR,,,,,,,,,,,,METAR,1342.0
KRBW 150955Z AUTO 23003KT 10SM CLR 22/21 A3010 RMK AO2,KRBW,2015-06-15T09:55:00Z,32.92,-80.63,22.0,21.0,230,3,,10.0,30.100393,,,TRUE,TRUE,,,,,,,CLR,,,,,,,,VFR,,,,,,,,,,,,METAR,31.0
KPVE 150955Z AUTO 00000KT 10SM CLR 21/20 A3008 RMK,KPVE,2015-06-15T09:55:00Z,35.65,-88.2,21.0,20.0,0,0,,10.0,30.079725,,,TRUE,,,,,,,,CLR,,,,,,,,VFR,,,,,,,,,,,,METAR,149.0
KPHP 150955Z AUTO 28005KT 10SM BKN100 14/13 A3012 RMK AO2 SLP190 T01390133,KPHP,2015-06-15T09:55:00Z,44.05,-101.6,13.9,13.3,280,5,,10.0,30.121063,1019.0,,TRUE,TRUE,,,,,,,BKN,10000,,,,,,,VFR,,,,,,,,,,,,METAR,672.0
KPCM 150955Z AUTO 10003KT 10SM CLR 24/24 A3010 RMK AO2,KPCM,2015-06-15T09:55:00Z,28.0,-82.17,24.0,24.0,100,3,,10.0,30.100393,,,TRUE,TRUE,,,,,,,CLR,,,,,,,,VFR,,,,,,,,,,,,METAR,47.0
KOEB 150955Z AUTO 00000KT 7SM SCT007 BKN034 OVC080 22/21 A2997 RMK AO2 T02160212,KOEB,2015-06-15T09:55:00Z,41.92,-85.03,21.6,21.2,0,0,,7.0,29.970472,,,TRUE,TRUE,,,,,,,SCT,700,BKN,3400,OVC,8000,,,VFR,,,,,,,,,,,,METAR,292.0
KNQA 150955Z AUTO 00000KT 10SM CLR 23/23 A3005 RMK,KNQA,2015-06-15T09:55:00Z,35.35,-89.87,23.0,23.0,0,0,,10.0,30.050198,,,TRUE,,,,,,,,CLR,,,,,,,,VFR,,,,,,,,,,,,METAR,86.0
KMZH 150955Z AUTO 01003KT 10SM CLR 14/13 A2994 RMK AO2,KMZH,2015-06-15T09:55:00Z,46.42,-92.8,14.0,13.0,10,3,,10.0,29.940945,,,TRUE,TRUE,,,,,,,CLR,,,,,,,,VFR,,,,,,,,,,,,METAR,328.0
KMSL 150955Z AUTO 00000KT 3SM BR CLR 21/20 A3011 RMK AO2 T02110200,KMSL,2015-06-15T09:55:00Z,34.75,-87.6,21.1,20.0,0,0,,3.0,30.109253,,,TRUE,TRUE,,,,,,BR,CLR,,,,,,,,MVFR,,,,,,,,,,,,METAR,164.0
KRZR 150955Z AUTO 00000KT 10SM CLR 19/18 A3014 RMK,KRZR,2015-06-15T09:55:00Z,35.22,-84.8,19.0,18.0,0,0,,10.0,30.138779,,,TRUE,,,,,,,,CLR,,,,,,,,VFR,,,,,,,,,,,,METAR,263.0
KLTS 150955Z 06007KT 10SM BKN065 19/19 A2993 RMK RAE0947 SLP119 P0004 T01930193 $,KLTS,2015-06-15T09:55:00Z,34.67,-99.27,19.3,19.3,60,7,,10.0,29.929134,1011.9,,,,TRUE,,,,,,BKN,6500,,,,,,,VFR,,,,,,0.04,,,,,,METAR,420.0
KCZT 150955Z AUTO 00000KT 10SM CLR 22/22 A2989 RMK AO2,KCZT,2015-06-15T09:55:00Z,28.52,-99.82,22.0,22.0,0,0,,10.0,29.890747,,,TRUE,TRUE,,,,,,,CLR,,,,,,,,VFR,,,,,,,,,,,,METAR,183.0
KCZL 150955Z AUTO 00000KT 10SM CLR 20/17 A3013 RMK AO2 T02040173,KCZL,2015-06-15T09:55:00Z,,,20.4,17.3,0,0,,10.0,30.129921,,,TRUE,TRUE,,,,,,,CLR,,,,,,,,VFR,,,,,,,,,,,,METAR,
KCXU 150955Z AUTO 00000KT 7SM CLR 22/22 A3009 RMK AO2 T02240222,KCXU,2015-06-15T09:55:00Z,,,22.4,22.2,0,0,,7.0,30.088583,,,TRUE,TRUE,,,,,,,CLR,,,,,,,,VFR,,,,,,,,,,,,METAR,
KCWV 150955Z AUTO 00000KT 7SM CLR 20/20 A3011 RMK AO2,KCWV,2015-06-15T09:55:00Z,32.2,-81.87,20.0,20.0,0,0,,7.0,30.109253,,,TRUE,TRUE,,,,,,,CLR,,,,,,,,VFR,,,,,,,,,,,,METAR,33.0
KCWF 150955Z AUTO 00000KT 10SM -RA SCT007 BKN013 OVC070 23/23 A2996 RMK AO2 P0011 T02370233,KCWF,2015-06-15T09:55:00Z,30.22,-93.15,23.7,23.3,0,0,,10.0,29.958662,,,TRUE,TRUE,,,,,,-RA,SCT,700,BKN,1300,OVC,7000,,,MVFR,,,,,,0.11,,,,,,METAR,4.0
KCWC 150955Z AUTO 11003KT 10SM OVC015 23/21 A2995 RMK AO2 T02330208,KCWC,2015-06-15T09:55:00Z,33.85,-98.48,23.3,20.8,110,3,,10.0,29.949802,,,TRUE,TRUE,,,,,,,OVC,1500,,,,,,,MVFR,,,,,,,,,,,,METAR,305.0
KCVW 150955Z AUTO 13010G17KT 10SM FEW020 BKN075 OVC090 27/24 A2996 RMK A01,KCVW,2015-06-15T09:55:00Z,29.78,-93.3,27.0,24.0,130,10,17,10.0,29.958662,,,TRUE,TRUE,,,,,,,FEW,2000,BKN,7500,OVC,9000,,,VFR,,,,,,,,,,,,METAR,1.0
KCUL 150955Z AUTO 16004KT 7SM CLR 22/19 A3003 RMK AO2 T02180193,KCUL,2015-06-15T09:55:00Z,38.08,-88.12,21.8,19.3,160,4,,7.0,30.029528,,,TRUE,TRUE,,,,,,,CLR,,,,,,,,VFR,,,,,,,,,,,,METAR,118.0
KCTJ 150955Z AUTO 00000KT 10SM CLR 21/21 A3018 RMK AO2 T02110211,KCTJ,2015-06-15T09:55:00Z,33.63,-85.15,21.1,21.1,0,0,,10.0,30.180119,,,TRUE,TRUE,,,,,,,CLR,,,,,,,,VFR,,,,,,,,,,,,METAR,354.0
KCPK 150955Z AUTO 00000KT 7SM CLR 23/22 A3003 RMK AO2,KCPK,2015-06-15T09:55:00Z,36.67,-76.32,23.0,22.0,0,0,,7.0,30.029528,,,TRUE,TRUE,,,,,,,CLR,,,,,,,,VFR,,,,,,,,,,,,METAR,6.0
KCMD 150955Z AUTO 00000KT 10SM CLR 20/19 A3014 RMK AO2 T01960191,KCMD,2015-06-15T09:55:00Z,34.27,-86.85,19.6,19.1,0,0,,10.0,30.138779,,,TRUE,TRUE,,,,,,,CLR,,,,,,,,VFR,,,,,,,,,,,,METAR,294.0
KCLW 150955Z AUTO 11004KT 10SM BKN012 25/23 A3007 RMK AO2,KCLW,2015-06-15T09:55:00Z,27.98,-82.75,25.0,23.0,110,4,,10.0,30.070866,,,TRUE,TRUE,,,,,,,BKN,1200,,,,,,,MVFR,,,,,,,,,,,,METAR,22.0
KCLK 150955Z AUTO 21010KT 10SM -RA SCT060 BKN100 BKN120 18/17 A2995 RMK AO2,KCLK,2015-06-15T09:55:00Z,35.53,-98.93,18.0,17.0,210,10,,10.0,29.949802,,,TRUE,TRUE,,,,,,-RA,SCT,6000,BKN,10000,BKN,12000,,,VFR,,,,,,,,,,,,METAR,492.0
KCLI 150955Z AUTO 00000KT 10SM CLR 16/16 A2990 RMK AO2,KCLI,2015-06-15T09:55:00Z,44.62,-88.73,16.0,16.0,0,0,,10.0,29.899607,,,TRUE,TRUE,,,,,,,CLR,,,,,,,,VFR,,,,,,,,,,,,METAR,250.0
KCIR 150955Z AUTO 18005KT 10SM CLR 24/21 A3003 RMK AO2 T02350212,KCIR,2015-06-15T09:55:00Z,37.07,-89.22,23.5,21.2,180,5,,10.0,30.029528,,,TRUE,TRUE,,,,,,,CLR,,,,,,,,VFR,,,,,,,,,,,,METAR,98.0
KCHK 150955Z AUTO 20004KT 10SM CLR 21/20 A2994 RMK AO2,KCHK,2015-06-15T09:55:00Z,35.1,-97.97,21.0,20.0,200,4,,10.0,29.940945,,,TRUE,TRUE,,,,,,,CLR,,,,,,,,VFR,,,,,,,,,,,,METAR,351.0
KCDH 150955Z AUTO 00000KT 8SM FEW004 22/20 A3002 RMK AO2,KCDH,2015-06-15T09:55:00Z,33.62,-92.77,22.0,20.0,0,0,,8.0,30.02067,,,TRUE,TRUE,,,,,,,FEW,400,,,,,,,VFR,,,,,,,,,,,,METAR,35.0
KCDA 150955Z AUTO 16003KT 10SM -RA BKN022 OVC037 14/10 A3005 RMK AO2 T01350103,KCDA,2015-06-15T09:55:00Z,44.57,-72.02,13.5,10.3,160,3,,10.0,30.050198,,,TRUE,TRUE,,,,,,-RA,BKN,2200,OVC,3700,,,,,MVFR,,,,,,,,,,,,METAR,363.0
KCCY 150955Z AUTO 20004KT 5SM BR SCT003 BKN120 BKN140 21/21 A2991 RMK AO2,KCCY,2015-06-15T09:55:00Z,43.07,-92.62,21.0,21.0,200,4,,5.0,29.911417,,,TRUE,TRUE,,,,,,BR,SCT,300,BKN,12000,BKN,14000,,,MVFR,,,,,,,,,,,,METAR,343.0
KCCO 150955Z AUTO 00000KT 10SM CLR 22/22 A3014 RMK AO2 T02210217,KCCO,2015-06-15T09:55:00Z,33.32,-84.77,22.1,21.7,0,0,,10.0,30.138779,,,TRUE,TRUE,,,,,,,CLR,,,,,,,,VFR,,,,,,,,,,,,METAR,296.0
KBXA 150955Z AUTO 00000KT 5SM BR 23/21 A3003 RMK AO2 T02300211,KBXA,2015-06-15T09:55:00Z,30.82,-89.87,23.0,21.1,0,0,,5.0,30.029528,,,TRUE,TRUE,,,,,,BR,,,,,,,,,,,,,,,,,,,,,METAR,36.0
KBTA 150955Z AUTO 11005KT 10SM -RA SCT065 OVC090 19/18 A2991 RMK AO2 T01900175,KBTA,2015-06-15T09:55:00Z,41.42,-96.12,19.0,17.5,110,5,,10.0,29.911417,,,TRUE,TRUE,,,,,,-RA,SCT,6500,OVC,9000,,,,,VFR,,,,,,,,,,,,METAR,396.0
KDED 150955Z AUTO 00000KT 22/20 A3011 RMK AO1,KDED,2015-06-15T09:55:00Z,29.07,-81.28,22.0,20.0,0,0,,,30.109253,,,TRUE,TRUE,,,,,,,,,,,,,,,,,,,,,,,,,,,METAR,24.0
KDLP 150955Z AUTO 11014KT 10SM FEW019 SCT027 SCT042 28/26 A2997 RMK A01,KDLP,2015-06-15T09:55:00Z,29.12,-89.55,28.0,26.0,110,14,,10.0,29.970472,,,TRUE,TRUE,,,,,,,FEW,1900,SCT,2700,SCT,4200,,,VFR,,,,,,,,,,,,METAR,36.0
KDQH 150955Z AUTO 00000KT 10SM CLR 23/21 A3011 RMK AO2,KDQH,2015-06-15T09:55:00Z,31.48,-82.87,23.0,21.0,0,0,,10.0,30.109253,,,TRUE,TRUE,,,,,,,CLR,,,,,,,,VFR,,,,,,,,,,,,METAR,78.0
KDNS 150955Z AUTO 00000KT 10SM SCT070 BKN090 OVC110 19/19 A2989 RMK AO2,KDNS,2015-06-15T09:55:00Z,41.97,-95.37,19.0,19.0,0,0,,10.0,29.890747,,,TRUE,TRUE,,,,,,,SCT,7000,BKN,9000,OVC,11000,,,VFR,,,,,,,,,,,,METAR,388.0
KDRI 150955Z AUTO 00000KT 10SM SCT002 BKN008 23/22 A2999 RMK AO2 T02290221,KDRI,2015-06-15T09:55:00Z,30.83,-93.33,22.9,22.1,0,0,,10.0,29.991142,,,TRUE,TRUE,,,,,,,SCT,200,BKN,800,,,,,IFR,,,,,,,,,,,,METAR,63.0
KDUA 150955Z AUTO 15003KT 10SM CLR 22/21 A2996 RMK AO2,KDUA,2015-06-15T09:55:00Z,33.95,-96.4,22.0,21.0,150,3,,10.0,29.958662,,,TRUE,TRUE,,,,,,,CLR,,,,,,,,VFR,,,,,,,,,,,,METAR,213.0
KDUC 150955Z AUTO 15004KT 10SM OVC019 23/22 A2995 RMK AO2,KDUC,2015-06-15T09:55:00Z,34.47,-97.97,23.0,22.0,150,4,,10.0,29.949802,,,TRUE,TRUE,,,,,,,OVC,1900,,,,,,,MVFR,,,,,,,,,,,,METAR,339.0
KDUX 150955Z AUTO 00000KT 10SM CLR 14/14 A3005 RMK AO2 T01430137,KDUX,2015-06-15T09:55:00Z,35.85,-102.02,14.3,13.7,0,0,,10.0,30.050198,,,TRUE,TRUE,,,,,,,CLR,,,,,,,,VFR,,,,,,,,,,,,METAR,1129.0
KUGN 150955Z AUTO 20004KT 8SM -RA SCT070 BKN090 21/21 A2992 RMK AO2 RAE30B41 SLP121 P0016 T02110206,KUGN,2015-06-15T09:55:00Z,42.42,-87.87,21.1,20.6,200,4,,8.0,29.920275,1012.1,,TRUE,TRUE,,,,,,-RA,SCT,7000,BKN,9000,,,,,VFR,,,,,,0.16,,,,,,METAR,222.0
KUCY 150955Z AUTO 18005KT 10SM CLR 22/00 A3004 RMK,KUCY,2015-06-15T09:55:00Z,36.38,-88.98,22.0,0.0,180,5,,10.0,30.041338,,,TRUE,,,,,,,,CLR,,,,,,,,VFR,,,,,,,,,,,,METAR,104.0
KTPF 150955Z AUTO 09004KT 25/24 A3008 RMK AO2 PWINO,KTPF,2015-06-15T09:55:00Z,27.92,-82.45,25.0,24.0,90,4,,,30.079725,,,TRUE,TRUE,,,,,TRUE,,,,,,,,,,,,,,,,,,,,,,METAR,3.0
KTHA 150955Z AUTO 00000KT 10SM CLR 19/17 A3015 RMK,KTHA,2015-06-15T09:55:00Z,35.38,-86.25,19.0,17.0,0,0,,10.0,30.15059,,,TRUE,,,,,,,,CLR,,,,,,,,VFR,,,,,,,,,,,,METAR,331.0
KSUA 150955Z AUTO 12003KT 10SM CLR 25/22 A3008 RMK AO2,KSUA,2015-06-15T09:55:00Z,27.18,-80.22,25.0,22.0,120,3,,10.0,30.079725,,,TRUE,TRUE,,,,,,,CLR,,,,,,,,VFR,,,,,,,,,,,,METAR,6.0
KSTF 150955Z AUTO 00000KT 1 1/4SM BR VV007 20/20 A3008 RMK AO2 VIS 1/2V4,KSTF,2015-06-15T09:55:00Z,33.43,-88.85,20.0,20.0,0,0,,1.25,30.079725,,,TRUE,TRUE,,,,,,BR,OVX,0,,,,,,,LIFR,,,,,,,,,,,700,METAR,102.0
KSMS 150955Z AUTO 00000KT 9SM CLR 25/25 A3009 RMK AO2,KSMS,2015-06-15T09:55:00Z,34.0,-80.37,25.0,25.0,0,0,,9.0,30.088583,,,TRUE,TRUE,,,,,,,CLR,,,,,,,,VFR,,,,,,,,,,,,METAR,56.0
KSEM 150955Z AUTO 00000KT 10SM CLR 20/19 A3008 RMK AO2,KSEM,2015-06-15T09:55:00Z,32.35,-86.98,20.0,19.0,0,0,,10.0,30.079725,,,TRUE,TRUE,,,,,,,CLR,,,,,,,,VFR,,,,,,,,,,,,METAR,51.0
KMTV 150955Z AUTO 00000KT 1 3/4SM BR VV007 19/19 A3011 RMK AO2 T01890189,KMTV,2015-06-15T09:55:00Z,36.63,-80.02,18.9,18.9,0,0,,1.75,30.109253,,,TRUE,TRUE,,,,,,BR,OVX,0,,,,,,,LIFR,,,,,,,,,,,700,METAR,287.0
EHWO 150955Z AUTO 06009KT 9999 BKN072 16/07 Q1020 BLU 04010KT 9999 SCT030 SCT045 BKN070,EHWO,2015-06-15T09:55:00Z,51.45,4.32,16.0,7.0,60,9,,6.21,30.11811,,,TRUE,,,,,,,,BKN,7200,SCT,3000,SCT,4500,BKN,7000,VFR,,,,,,,,,,,,METAR,17.0
EHDL 150955Z AUTO 03009KT 9999 FEW037 15/05 Q1020 BLU,EHDL,2015-06-15T09:55:00Z,52.07,5.87,15.0,5.0,30,9,,6.21,30.11811,,,TRUE,,,,,,,,FEW,3700,,,,,,,VFR,,,,,,,,,,,,METAR,52.0
KNKX 150955Z 32003KT 10SM BKN009 19/15 A2981 RMK AO2 SLP090 T01940150,KNKX,2015-06-15T09:55:00Z,32.87,-117.13,19.4,15.0,320,3,,10.0,29.811024,1009.0,,,TRUE,,,,,,,BKN,900,,,,,,,IFR,,,,,,,,,,,,METAR,146.0
K7N0 150955Z AUTO 08004KT FEW018 FEW030 SCT039 26/M07 A2999 RMK AO1,K7N0,2015-06-15T09:55:00Z,29.95,-90.07,26.0,-7.0,80,4,,,29.991142,,,TRUE,TRUE,,,,,,,FEW,1800,FEW,3000,SCT,3900,,,,,,,,,,,,,,,METAR,0.0
KXVG 150955Z AUTO 00000KT 1/4SM FG BKN001 OVC008 09/09 A2998 RMK AO2,KXVG,2015-06-15T09:55:00Z,46.98,-94.2,9.0,9.0,0,0,,0.25,29.97933,,,TRUE,TRUE,,,,,,FG,BKN,100,OVC,800,,,,,LIFR,,,,,,,,,,,,METAR,407.0
KARG 150955Z AUTO 18006KT 10SM CLR 23/21 A3002 RMK AO1,KARG,2015-06-15T09:55:00Z,36.12,-90.92,23.0,21.0,180,6,,10.0,30.02067,,,TRUE,TRUE,,,,,,,CLR,,,,,,,,VFR,,,,,,,,,,,,METAR,83.0
KMRC 150955Z AUTO 00000KT 9SM CLR 21/21 A3010 RMK,KMRC,2015-06-15T09:55:00Z,35.55,-87.18,21.0,21.0,0,0,,9.0,30.100393,,,TRUE,,,,,,,,CLR,,,,,,,,VFR,,,,,,,,,,,,METAR,208.0
KMKS 150955Z AUTO 00000KT 7SM CLR 24/22 A3009 RMK AO2,KMKS,2015-06-15T09:55:00Z,33.18,-80.03,24.0,22.0,0,0,,7.0,30.088583,,,TRUE,TRUE,,,,,,,CLR,,,,,,,,VFR,,,,,,,,,,,,METAR,23.0
KMKG 150955Z 00000KT 1 3/4SM BR OVC002 17/16 A2994 RMK AO2 SLP136 T01670156,KMKG,2015-06-15T09:55:00Z,43.17,-86.23,16.7,15.6,0,0,,1.75,29.940945,1013.6,,,TRUE,,,,,,BR,OVC,200,,,,,,,LIFR,,,,,,,,,,,,METAR,191.0
KMGN 150955Z AUTO 00000KT 1/2SM FG OVC001 13/13 A2992 RMK AO2 T01360135,KMGN,2015-06-15T09:55:00Z,45.43,-84.92,13.6,13.5,0,0,,0.5,29.920275,,,TRUE,TRUE,,,,,,FG,OVC,100,,,,,,,LIFR,,,,,,,,,,,,METAR,209.0
KMBO 150955Z AUTO 00000KT 7SM OVC006 17/16 A3005 RMK AO2,KMBO,2015-06-15T09:55:00Z,,,17.0,16.0,0,0,,7.0,30.050198,,,TRUE,TRUE,,,,,,,OVC,600,,,,,,,IFR,,,,,,,,,,,,METAR,
KDVK 150955Z AUTO 21004KT 10SM CLR 21/20 A3012 RMK AO2,KDVK,2015-06-15T09:55:00Z,37.58,-84.77,21.0,20.0,210,4,,10.0,30.121063,,,TRUE,TRUE,,,,,,,CLR,,,,,,,,VFR,,,,,,,,,,,,METAR,312.0
KDVO 150955Z AUTO 00000KT 7SM 12/10 A2984 RMK AO2,KDVO,2015-06-15T09:55:00Z,38.15,-122.55,12.0,10.0,0,0,,7.0,29.840551,,,TRUE,TRUE,,,,,,,,,,,,,,,,,,,,,,,,,,,METAR,1.0
KDZB 150955Z AUTO 00000KT 10SM SCT009 23/22 A2996 RMK AO2 T02280221,KDZB,2015-06-15T09:55:00Z,30.53,-98.37,22.8,22.1,0,0,,10.0,29.958662,,,TRUE,TRUE,,,,,,,SCT,900,,,,,,,VFR,,,,,,,,,,,,METAR,334.0
KE11 150955Z AUTO 18007KT 10SM SCT120 19/18 A3000 RMK AO2 T01930178,KE11,2015-06-15T09:55:00Z,32.33,-102.53,19.3,17.8,180,7,,10.0,30.0,,,TRUE,TRUE,,,,,,,SCT,12000,,,,,,,VFR,,,,,,,,,,,,METAR,967.0
KEBG 150955Z AUTO 00000KT 10SM CLR 24/23 A2983 RMK AO2 T02420225,KEBG,2015-06-15T09:55:00Z,26.45,-98.13,24.2,22.5,0,0,,10.0,29.828741,,,TRUE,TRUE,,,,,,,CLR,,,,,,,,VFR,,,,,,,,,,,,METAR,24.0
KECS 150955Z AUTO 27004KT 10SM SCT037 BKN065 BKN080 12/11 A3018 RMK AO2,KECS,2015-06-15T09:55:00Z,43.88,-104.32,12.0,11.0,270,4,,10.0,30.180119,,,TRUE,TRUE,,,,,,,SCT,3700,BKN,6500,BKN,8000,,,VFR,,,,,,,,,,,,METAR,1273.0
KEDE 150955Z AUTO 00000KT 10SM CLR 22/22 A3004 RMK AO2 T02220215,KEDE,2015-06-15T09:55:00Z,36.02,-76.57,22.2,21.5,0,0,,10.0,30.041338,,,TRUE,TRUE,,,,,,,CLR,,,,,,,,VFR,,,,,,,,,,,,METAR,6.0
KEDN 150955Z AUTO 00000KT 7SM CLR 22/22 A3009 RMK AO2,KEDN,2015-06-15T09:55:00Z,31.3,-85.9,22.0,22.0,0,0,,7.0,30.088583,,,TRUE,TRUE,,,,,,,CLR,,,,,,,,VFR,,,,,,,,,,,,METAR,110.0
KONX 150955Z AUTO 00000KT 7SM CLR 23/22 A3004 RMK AO2 T02320219,KONX,2015-06-15T09:55:00Z,36.4,-76.02,23.2,21.9,0,0,,7.0,30.041338,,,TRUE,TRUE,,,,,,,CLR,,,,,,,,VFR,,,,,,,,,,,,METAR,5.0
KORG 150955Z AUTO 08005KT 10SM OVC060 25/24 A2995 RMK AO2 T02480236,KORG,2015-06-15T09:55:00Z,30.07,-93.8,24.8,23.6,80,5,,10.0,29.949802,,,TRUE,TRUE,,,,,,,OVC,6000,,,,,,,VFR,,,,,,,,,,,,METAR,4.0
KOWP 150955Z AUTO 18006G15KT 10SM OVC010 24/22 A2994 RMK AO2 T02410222,KOWP,2015-06-15T09:55:00Z,36.18,-96.15,24.1,22.2,180,6,15,10.0,29.940945,,,TRUE,TRUE,,,,,,,OVC,1000,,,,,,,MVFR,,,,,,,,,,,,METAR,272.0
KPBH 150955Z AUTO 00000KT 10SM BKN060 14/14 A2991 RMK AO2 T01410140,KPBH,2015-06-15T09:55:00Z,45.7,-90.4,14.1,14.0,0,0,,10.0,29.911417,,,TRUE,TRUE,,,,,,,BKN,6000,,,,,,,VFR,,,,,,,,,,,,METAR,449.0
KOXI 150955Z AUTO 23005KT 10SM BKN018 BKN060 22/22 A2997 RMK AO1,KOXI,2015-06-15T09:55:00Z,41.33,-86.67,22.0,22.0,230,5,,10.0,29.970472,,,TRUE,TRUE,,,,,,,BKN,1800,BKN,6000,,,,,MVFR,,,,,,,,,,,,METAR,209.0
KPEZ 150955Z AUTO 04003KT 10SM SCT048 OVC050 24/23 A2990 RMK AO2 T02410230,KPEZ,2015-06-15T09:55:00Z,28.95,-98.52,24.1,23.0,40,3,,10.0,29.899607,,,TRUE,TRUE,,,,,,,SCT,4800,OVC,5000,,,,,VFR,,,,,,,,,,,,METAR,132.0
KPMV 150955Z AUTO 05008KT 10SM SCT050 BKN080 BKN120 19/18 A2990 RMK AO2 P0011 T01900178,KPMV,2015-06-15T09:55:00Z,40.95,-95.92,19.0,17.8,50,8,,10.0,29.899607,,,TRUE,TRUE,,,,,,,SCT,5000,BKN,8000,BKN,12000,,,VFR,,,,,,0.11,,,,,,METAR,367.0
KPOY 150955Z AUTO 32013G17KT 10SM OVC065 10/04 A3018 RMK AO2,KPOY,2015-06-15T09:55:00Z,44.87,-108.8,10.0,4.0,320,13,17,10.0,30.180119,,,TRUE,TRUE,,,,,,,OVC,6500,,,,,,,VFR,,,,,,,,,,,,METAR,1552.0
KPSN 150955Z AUTO 00000KT 10SM SCT015 23/22 A2998 RMK AO2 T02330227,KPSN,2015-06-15T09:55:00Z,31.78,-95.7,23.3,22.7,0,0,,10.0,29.97933,,,TRUE,TRUE,,,,,,,SCT,1500,,,,,,,VFR,,,,,,,,,,,,METAR,129.0
KPRO 150955Z AUTO 00000KT 4SM +RA SCT049 BKN060 OVC070 20/19 A2991 RMK AO2 P0013 T01980193,KPRO,2015-06-15T09:55:00Z,41.83,-94.17,19.8,19.3,0,0,,4.0,29.911417,,,TRUE,TRUE,,,,,,+RA,SCT,4900,BKN,6000,OVC,7000,,,MVFR,,,,,,0.13,,,,,,METAR,308.0
KPPQ 150955Z AUTO 19004KT 10SM CLR 23/21 A2997 RMK AO2 T02250212,KPPQ,2015-06-15T09:55:00Z,39.63,-90.78,22.5,21.2,190,4,,10.0,29.970472,,,TRUE,TRUE,,,,,,,CLR,,,,,,,,VFR,,,,,,,,,,,,METAR,216.0
KPTS 150955Z AUTO 20005KT 10SM CLR 23/23 RMK AO2 T02250225,KPTS,2015-06-15T09:55:00Z,37.45,-94.73,22.5,22.5,200,5,,10.0,,,,TRUE,TRUE,,,,,,,CLR,,,,,,,,VFR,,,,,,,,,,,,METAR,290.0
KPTT 150955Z AUTO 33009KT 10SM CLR 17/16 A2996 RMK AO2,KPTT,2015-06-15T09:55:00Z,37.7,-98.75,17.0,16.0,330,9,,10.0,29.958662,,,TRUE,TRUE,,,,,,,CLR,,,,,,,,VFR,,,,,,,,,,,,METAR,595.0
KPVJ 150955Z AUTO 00000KT 10SM SCT019 OVC032 23/22 A2995 RMK AO2 T02250218,KPVJ,2015-06-15T09:55:00Z,34.72,-97.22,22.5,21.8,0,0,,10.0,29.949802,,,TRUE,TRUE,,,,,,,SCT,1900,OVC,3200,,,,,VFR,,,,,,,,,,,,METAR,295.0
KPUJ 150955Z AUTO 27003KT 10SM CLR 24/23 A3016 RMK AO2,KPUJ,2015-06-15T09:55:00Z,33.92,-84.93,24.0,23.0,270,3,,10.0,30.159449,,,TRUE,TRUE,,,,,,,CLR,,,,,,,,VFR,,,,,,,,,,,,METAR,393.0
KRAS 150955Z AUTO 13006KT 10SM SCT018 BKN027 BKN034 27/24 A2984 RMK AO2 T02720242,KRAS,2015-06-15T09:55:00Z,27.82,-97.08,27.2,24.2,130,6,,10.0,29.840551,,,TRUE,TRUE,,,,,,,SCT,1800,BKN,2700,BKN,3400,,,MVFR,,,,,,,,,,,,METAR,2.0
KRCX 150955Z AUTO 00000KT 10SM BKN060 BKN070 17/16 A2992 RMK AO2 T01680159,KRCX,2015-06-15T09:55:00Z,45.5,-91.0,16.8,15.9,0,0,,10.0,29.920275,,,TRUE,TRUE,,,,,,,BKN,6000,BKN,7000,,,,,VFR,,,,,,,,,,,,METAR,377.0
KRFI 150955Z AUTO 14006KT 10SM BKN008 OVC012 24/23 A2998 RMK AO2 T02360232,KRFI,2015-06-15T09:55:00Z,32.15,-94.85,23.6,23.2,140,6,,10.0,29.97933,,,TRUE,TRUE,,,,,,,BKN,800,OVC,1200,,,,,IFR,,,,,,,,,,,,METAR,135.0
KRKR 150955Z AUTO 00000KT 10SM OVC023 24/21 A2998 RMK AO2 T02420206,KRKR,2015-06-15T09:55:00Z,35.02,-94.62,24.2,20.6,0,0,,10.0,29.97933,,,TRUE,TRUE,,,,,,,OVC,2300,,,,,,,MVFR,,,,,,,,,,,,METAR,138.0
KRNC 150955Z AUTO 00000KT 4SM CLR 19/19 A3014 RMK,KRNC,2015-06-15T09:55:00Z,35.7,-85.85,19.0,19.0,0,0,,4.0,30.138779,,,TRUE,,,,,,,,CLR,,,,,,,,MVFR,,,,,,,,,,,,METAR,315.0
KRNV 150955Z AUTO 14006KT 10SM CLR 23/23 A3003 RMK AO2 T02330233,KRNV,2015-06-15T09:55:00Z,33.77,-90.75,23.3,23.3,140,6,,10.0,30.029528,,,TRUE,TRUE,,,,,,,CLR,,,,,,,,VFR,,,,,,,,,,,,METAR,41.0
KRPJ 150955Z AUTO 20005KT 7SM OVC016 22/21 A2994 RMK AO2 LTG DSNT NW P0001 T02150212,KRPJ,2015-06-15T09:55:00Z,41.88,-89.08,21.5,21.2,200,5,,7.0,29.940945,,,TRUE,TRUE,,,,,,,OVC,1600,,,,,,,MVFR,,,,,,0.01,,,,,,METAR,238.0
KRSN 150955Z AUTO 00000KT 10SM CLR A3005 RMK AO2,KRSN,2015-06-15T09:55:00Z,32.52,-92.58,,,0,0,,10.0,30.050198,,,TRUE,TRUE,,,,,,,CLR,,,,,,,,VFR,,,,,,,,,,,,METAR,95.0
KMNI 150955Z AUTO 00000KT 7SM CLR 21/17 A3009 RMK AO2,KMNI,2015-06-15T09:55:00Z,33.58,-80.22,21.0,17.0,0,0,,7.0,30.088583,,,TRUE,TRUE,,,,,,,CLR,,,,,,,,VFR,,,,,,,,,,,,METAR,32.0
KRQO 150955Z AUTO 21007KT 10SM CLR 19/17 A2994 RMK AO2,KRQO,2015-06-15T09:55:00Z,35.47,-98.0,19.0,17.0,210,7,,10.0,29.940945,,,TRUE,TRUE,,,,,,,CLR,,,,,,,,VFR,,,,,,,,,,,,METAR,432.0
KUTA 150955Z AUTO 15006KT 10SM CLR 22/21 A3005 RMK AO2,KUTA,2015-06-15T09:55:00Z,34.68,-90.35,22.0,21.0,150,6,,10.0,30.050198,,,TRUE,TRUE,,,,,,,CLR,,,,,,,,VFR,,,,,,,,,,,,METAR,59.0
KVER 150955Z AUTO 00000KT 10SM CLR 22/22 A2995 RMK AO2 T02160217,KVER,2015-06-15T09:55:00Z,38.95,-92.68,21.6,21.7,0,0,,10.0,29.949802,,,TRUE,TRUE,,,,,,,CLR,,,,,,,,VFR,,,,,,,,,,,,METAR,218.0
KSPL 150955Z AUTO 00000KT 26/24 A2980 RMK AO1,KSPL,2015-06-15T09:55:00Z,26.07,-97.15,26.0,24.0,0,0,,,29.799213,,,TRUE,TRUE,,,,,,,,,,,,,,,,,,,,,,,,,,,METAR,4.0
KTEX 150955Z AUTO 15006KT 10SM CLR 09/03 A3036 RMK AO2 T00860032,KTEX,2015-06-15T09:55:00Z,37.95,-107.9,8.6,3.2,150,6,,10.0,30.360237,,,TRUE,TRUE,,,,,,,CLR,,,,,,,,VFR,,,,,,,,,,,,METAR,2769.0
KY49 150955Z AUTO 26003KT 1SM BR BKN002 08/08 A2999 RMK AO2 T00760075,KY49,2015-06-15T09:55:00Z,47.13,-94.65,7.6,7.5,260,3,,1.0,29.991142,,,TRUE,TRUE,,,,,,BR,BKN,200,,,,,,,LIFR,,,,,,,,,,,,METAR,416.0
KWWR 150955Z AUTO 21005KT 10SM OVC018 21/18 A3000 RMK AO2,KWWR,2015-06-15T09:55:00Z,36.45,-99.52,21.0,18.0,210,5,,10.0,30.0,,,TRUE,TRUE,,,,,,,OVC,1800,,,,,,,MVFR,,,,,,,,,,,,METAR,667.0
KWDG 150955Z AUTO 18003KT 10SM CLR 20/18 A2992 RMK AO2,KWDG,2015-06-15T09:55:00Z,36.37,-97.77,20.0,18.0,180,3,,10.0,29.920275,,,TRUE,TRUE,,,,,,,CLR,,,,,,,,VFR,,,,,,,,,,,,METAR,356.0
KW63 150955Z AUTO 00000KT 5SM CLR 20/20 A3005 RMK AO1,KW63,2015-06-15T09:55:00Z,36.6,-78.55,20.0,20.0,0,0,,5.0,30.050198,,,TRUE,TRUE,,,,,,,CLR,,,,,,,,MVFR,,,,,,,,,,,,METAR,129.0
KVBW 150955Z AUTO 00000KT 7SM CLR 20/20 A3007 RMK AO2 T02010198,KVBW,2015-06-15T09:55:00Z,38.37,-78.97,20.1,19.8,0,0,,7.0,30.070866,,,TRUE,TRUE,,,,,,,CLR,,,,,,,,VFR,,,,,,,,,,,,METAR,355.0
KTFP 150955Z AUTO 00000KT 10SM CLR 27/24 A2984 RMK AO2 T02680240,KTFP,2015-06-15T09:55:00Z,27.92,-97.22,26.8,24.0,0,0,,10.0,29.840551,,,TRUE,TRUE,,,,,,,CLR,,,,,,,,VFR,,,,,,,,,,,,METAR,6.0
KT82 150955Z AUTO 00000KT 10SM CLR 22/21 A2997 RMK AO2 T02190205,KT82,2015-06-15T09:55:00Z,30.25,-98.92,21.9,20.5,0,0,,10.0,29.970472,,,TRUE,TRUE,,,,,,,CLR,,,,,,,,VFR,,,,,,,,,,,,METAR,517.0
KSYF 150955Z AUTO 28005KT 10SM SCT060 14/12 A3006 RMK AO2 T01420124,KSYF,2015-06-15T09:55:00Z,39.77,-101.8,14.2,12.4,280,5,,10.0,30.059055,,,TRUE,TRUE,,,,,,,SCT,6000,,,,,,,VFR,,,,,,,,,,,,METAR,1025.0
KSUW 150955Z AUTO 00000KT 10SM SCT075 15/14 A2993 RMK AO2 T01520142,KSUW,2015-06-15T09:55:00Z,46.68,-92.1,15.2,14.2,0,0,,10.0,29.929134,,,TRUE,TRUE,,,,,,,SCT,7500,,,,,,,VFR,,,,,,,,,,,,METAR,206.0
KSFQ 150955Z AUTO 00000KT 4SM BR SCT002 21/21 A3004 RMK AO2 T02090206,KSFQ,2015-06-15T09:55:00Z,36.68,-76.6,20.9,20.6,0,0,,4.0,30.041338,,,TRUE,TRUE,,,,,,BR,SCT,200,,,,,,,MVFR,,,,,,,,,,,,METAR,22.0
KSEE 150955Z AUTO 32003KT 10SM OVC012 18/16 A2983 RMK AO2,KSEE,2015-06-15T09:55:00Z,32.82,-116.97,18.0,16.0,320,3,,10.0,29.828741,,,TRUE,TRUE,,,,,,,OVC,1200,,,,,,,MVFR,,,,,,,,,,,,METAR,117.0
KS25 150955Z AUTO 34004KT 10SM CLR 07/05 A3017 RMK AO2,KS25,2015-06-15T09:55:00Z,47.8,-103.25,7.0,5.0,340,4,,10.0,30.171259,,,TRUE,TRUE,,,,,,,CLR,,,,,,,,VFR,,,,,,,,,,,,METAR,644.0
KRPH 150955Z AUTO 14004KT 10SM SCT019 23/22 A2993 RMK AO2 T02270218,KRPH,2015-06-15T09:55:00Z,33.12,-98.55,22.7,21.8,140,4,,10.0,29.929134,,,TRUE,TRUE,,,,,,,SCT,1900,,,,,,,VFR,,,,,,,,,,,,METAR,342.0
KRNH 150955Z AUTO 00000KT 7SM CLR 19/18 A2989 RMK AO2 T01860183,KRNH,2015-06-15T09:55:00Z,45.15,-92.53,18.6,18.3,0,0,,7.0,29.890747,,,TRUE,TRUE,,,,,,,CLR,,,,,,,,VFR,,,,,,,,,,,,METAR,304.0
KRCM 150955Z AUTO 18004KT 10SM CLR 21/20 A2993 RMK AO2,KRCM,2015-06-15T09:55:00Z,38.78,-93.8,21.0,20.0,180,4,,10.0,29.929134,,,TRUE,TRUE,,,,,,,CLR,,,,,,,,VFR,,,,,,,,,,,,METAR,244.0
KPVF 150955Z AUTO 11007KT 10SM CLR 22/M01 A2986 RMK AO1,KPVF,2015-06-15T09:55:00Z,38.72,-120.75,22.0,-1.0,110,7,,10.0,29.861221,,,TRUE,TRUE,,,,,,,CLR,,,,,,,,VFR,,,,,,,,,,,,METAR,789.0
KPSK 150955Z AUTO 22003KT 10SM CLR 20/19 A3018 RMK AO2 T02000193,KPSK,2015-06-15T09:55:00Z,37.12,-80.67,20.0,19.3,220,3,,10.0,30.180119,,,TRUE,TRUE,,,,,,,CLR,,,,,,,,VFR,,,,,,,,,,,,METAR,642.0
KPPA 150955Z AUTO 08005KT 10SM SCT060 17/16 A3002 RMK AO2 T01690159,KPPA,2015-06-15T09:55:00Z,35.62,-101.0,16.9,15.9,80,5,,10.0,30.02067,,,TRUE,TRUE,,,,,,,SCT,6000,,,,,,,VFR,,,,,,,,,,,,METAR,989.0
KPGV 150955Z AUTO 00000KT 2SM BR CLR 23/23 A3006 RMK AO2,KPGV,2015-06-15T09:55:00Z,35.62,-77.4,23.0,23.0,0,0,,2.0,30.059055,,,TRUE,TRUE,,,,,,BR,CLR,,,,,,,,IFR,,,,,,,,,,,,METAR,8.0
KOLY 150955Z AUTO 19004KT 10SM CLR 22/21 A3002 RMK AO2,KOLY,2015-06-15T09:55:00Z,38.72,-88.18,22.0,21.0,190,4,,10.0,30.02067,,,TRUE,TRUE,,,,,,,CLR,,,,,,,,VFR,,,,,,,,,,,,METAR,147.0
KOKZ 150955Z AUTO 00000KT 10SM CLR 21/21 A3012 RMK AO2 T02100206,KOKZ,2015-06-15T09:55:00Z,32.97,-82.83,21.0,20.6,0,0,,10.0,30.121063,,,TRUE,TRUE,,,,,,,CLR,,,,,,,,VFR,,,,,,,,,,,,METAR,134.0
KNY0 150955Z AUTO 10007KT 7SM OVC003 16/16 A2993 RMK AO2 P0005 T01600155,KNY0,2015-06-15T09:55:00Z,42.98,-74.33,16.0,15.5,100,7,,7.0,29.929134,,,TRUE,TRUE,,,,,,,OVC,300,,,,,,,LIFR,,,,,,0.05,,,,,,METAR,271.0
KMYZ 150955Z AUTO 21005KT 10SM SCT006 OVC014 20/20 A2990 RMK AO2,KMYZ,2015-06-15T09:55:00Z,39.25,-96.63,20.0,20.0,210,5,,10.0,29.899607,,,TRUE,TRUE,,,,,,,SCT,600,OVC,1400,,,,,MVFR,,,,,,,,,,,,METAR,319.0
KMOR 150955Z AUTO 00000KT 10SM CLR 19/18 A3017 RMK,KMOR,2015-06-15T09:55:00Z,36.18,-83.37,19.0,18.0,0,0,,10.0,30.171259,,,TRUE,,,,,,,,CLR,,,,,,,,VFR,,,,,,,,,,,,METAR,400.0
KMNE 150955Z AUTO 14004KT 10SM CLR 23/22 A3001 RMK AO2 T02320219,KMNE,2015-06-15T09:55:00Z,32.65,-93.3,23.2,21.9,140,4,,10.0,30.008858,,,TRUE,TRUE,,,,,,,CLR,,,,,,,,VFR,,,,,,,,,,,,METAR,85.0
KMMU 150955Z AUTO 00000KT 1 1/2SM BR OVC002 21/19 A2997 RMK AO2,KMMU,2015-06-15T09:55:00Z,40.78,-74.42,21.0,19.0,0,0,,1.5,29.970472,,,TRUE,TRUE,,,,,,BR,OVC,200,,,,,,,LIFR,,,,,,,,,,,,METAR,57.0
KMDD 150955Z AUTO 17003KT 10SM SCT120 21/17 A3000 RMK AO2 T02050173,KMDD,2015-06-15T09:55:00Z,32.03,-102.1,20.5,17.3,170,3,,10.0,30.0,,,TRUE,TRUE,,,,,,,SCT,12000,,,,,,,VFR,,,,,,,,,,,,METAR,854.0
KLWB 150955Z AUTO 00000KT M1/4SM FG OVC001 19/18 A3018 RMK AO2 T01880176,KLWB,2015-06-15T09:55:00Z,37.87,-80.4,18.8,17.6,0,0,,0.25,30.180119,,,TRUE,TRUE,,,,,,FG,OVC,100,,,,,,,LIFR,,,,,,,,,,,,METAR,702.0
KLOT 150955Z AUTO 20006KT 7SM SCT048 SCT055 21/21 A2995 RMK AO2 T02130212,KLOT,2015-06-15T09:55:00Z,41.6,-88.1,21.3,21.2,200,6,,7.0,29.949802,,,TRUE,TRUE,,,,,,,SCT,4800,SCT,5500,,,,,VFR,,,,,,,,,,,,METAR,205.0
KLNL 150955Z AUTO 00000KT 1/2SM FG OVC001 09/09 A2994 RMK AO2 T00900090,KLNL,2015-06-15T09:55:00Z,46.15,-89.22,9.0,9.0,0,0,,0.5,29.940945,,,TRUE,TRUE,,,,,,FG,OVC,100,,,,,,,LIFR,,,,,,,,,,,,METAR,520.0
KJOT 150955Z AUTO 19003KT 10SM BKN032 BKN038 OVC048 22/22 A2995 RMK AO2 T02240217,KJOT,2015-06-15T09:55:00Z,41.52,-88.18,22.4,21.7,190,3,,10.0,29.949802,,,TRUE,TRUE,,,,,,,BKN,3200,BKN,3800,OVC,4800,,,VFR,,,,,,,,,,,,METAR,177.0
KIYA 150955Z AUTO 00000KT 10SM SCT007 SCT095 24/23 A2996 RMK AO2 T02360233,KIYA,2015-06-15T09:55:00Z,29.98,-92.08,23.6,23.3,0,0,,10.0,29.958662,,,TRUE,TRUE,,,,,,,SCT,700,SCT,9500,,,,,VFR,,,,,,,,,,,,METAR,5.0
KHZE 150955Z AUTO 33006KT 10SM FEW035 09/07 A3016 RMK AO2,KHZE,2015-06-15T09:55:00Z,47.28,-101.58,9.0,7.0,330,6,,10.0,30.159449,,,TRUE,TRUE,,,,,,,FEW,3500,,,,,,,VFR,,,,,,,,,,,,METAR,553.0
KHHW 150955Z AUTO 15004KT OVC005 24/23 A2997 RMK AO2 T02410227 PWINO,KHHW,2015-06-15T09:55:00Z,34.03,-95.55,24.1,22.7,150,4,,,29.970472,,,TRUE,TRUE,,,,,TRUE,,OVC,500,,,,,,,,,,,,,,,,,,,METAR,144.0
KHFJ 150955Z AUTO 16006KT 10SM CLR 21/21 A2999 RMK AO2,KHFJ,2015-06-15T09:55:00Z,36.9,-94.02,21.0,21.0,160,6,,10.0,29.991142,,,TRUE,TRUE,,,,,,,CLR,,,,,,,,VFR,,,,,,,,,,,,METAR,401.0
KFWB 150955Z AUTO 16003KT 10SM FEW070 21/20 A3002 RMK AO2,KFWB,2015-06-15T09:55:00Z,36.7,-93.4,21.0,20.0,160,3,,10.0,30.02067,,,TRUE,TRUE,,,,,,,FEW,7000,,,,,,,VFR,,,,,,,,,,,,METAR,406.0
KFKN 150955Z AUTO 00000KT 10SM CLR 21/21 A3004 RMK AO2 T02110207,KFKN,2015-06-15T09:55:00Z,36.7,-76.9,21.1,20.7,0,0,,10.0,30.041338,,,TRUE,TRUE,,,,,,,CLR,,,,,,,,VFR,,,,,,,,,,,,METAR,12.0
KENL 150955Z AUTO 18005KT 10SM CLR 22/20 A3002 RMK AO2 T02210202,KENL,2015-06-15T09:55:00Z,38.52,-89.1,22.1,20.2,180,5,,10.0,30.02067,,,TRUE,TRUE,,,,,,,CLR,,,,,,,,VFR,,,,,,,,,,,,METAR,163.0
KECU 150955Z AUTO 15007KT 9SM BKN010 22/21 A3000 RMK AO2,KECU,2015-06-15T09:55:00Z,29.95,-100.17,22.0,21.0,150,7,,9.0,30.0,,,TRUE,TRUE,,,,,,,BKN,1000,,,,,,,MVFR,,,,,,,,,,,,METAR,725.0
KCCA 150955Z AUTO 00000KT 9SM BKN012 BKN035 21/21 A3004 RMK AO2,KCCA,2015-06-15T09:55:00Z,35.6,-92.45,21.0,21.0,0,0,,9.0,30.041338,,,TRUE,TRUE,,,,,,,BKN,1200,BKN,3500,,,,,MVFR,,,,,,,,,,,,METAR,157.0
K5H4 150955Z AUTO 30008KT 10SM CLR 08/08 A3010 RMK AO2,K5H4,2015-06-15T09:55:00Z,47.78,-99.93,8.0,8.0,300,8,,10.0,30.100393,,,TRUE,TRUE,,,,,,,CLR,,,,,,,,VFR,,,,,,,,,,,,METAR,490.0
K4M9 150955Z AUTO 18006KT 10SM 23/23 A3003 RMK AO2,K4M9,2015-06-15T09:55:00Z,36.4,-90.65,23.0,23.0,180,6,,10.0,30.029528,,,TRUE,TRUE,,,,,,,,,,,,,,,,,,,,,,,,,,,METAR,90.0
K0F2 150955Z AUTO 15005KT 10SM SCT014 20/20 A2996 RMK AO2 T02030201,K0F2,2015-06-15T09:55:00Z,33.6,-97.78,20.3,20.1,150,5,,10.0,29.958662,,,TRUE,TRUE,,,,,,,SCT,1400,,,,,,,VFR,,,,,,,,,,,,METAR,336.0
KTVK 150955Z AUTO 18005KT 10SM SCT044 20/20 A2994 RMK AO2,KTVK,2015-06-15T09:55:00Z,40.68,-92.9,20.0,20.0,180,5,,10.0,29.940945,,,TRUE,TRUE,,,,,,,SCT,4400,,,,,,,VFR,,,,,,,,,,,,METAR,314.0
KTVI 150955Z AUTO 00000KT 10SM CLR 21/21 A3011 RMK AO2,KTVI,2015-06-15T09:55:00Z,30.9,-83.88,21.0,21.0,0,0,,10.0,30.109253,,,TRUE,TRUE,,,,,,,CLR,,,,,,,,VFR,,,,,,,,,,,,METAR,80.0
KTRK 150955Z AUTO 00000KT 10SM CLR 05/00 A3008 RMK AO2,KTRK,2015-06-15T09:55:00Z,39.32,-120.12,5.0,0.0,0,0,,10.0,30.079725,,,TRUE,TRUE,,,,,,,CLR,,,,,,,,VFR,,,,,,,,,,,,METAR,1798.0
KTOC 150955Z AUTO 00000KT 10SM CLR 21/19 A3014 RMK AO2 T02050188,KTOC,2015-06-15T09:55:00Z,34.6,-83.3,20.5,18.8,0,0,,10.0,30.138779,,,TRUE,TRUE,,,,,,,CLR,,,,,,,,VFR,,,,,,,,,,,,METAR,304.0
KTNU 150955Z AUTO 27003KT 1 3/4SM BR BKN006 BKN031 OVC048 20/20 A2992 RMK AO2 PWINO,KTNU,2015-06-15T09:55:00Z,41.67,-93.02,20.0,20.0,270,3,,1.75,29.920275,,,TRUE,TRUE,,,,,TRUE,BR,BKN,600,BKN,3100,OVC,4800,,,IFR,,,,,,,,,,,,METAR,290.0
KTIF 150955Z AUTO 00000KT 10SM OVC040 18/15 A3008 RMK AO2 T01750148,KTIF,2015-06-15T09:55:00Z,41.97,-100.57,17.5,14.8,0,0,,10.0,30.079725,,,TRUE,TRUE,,,,,,,OVC,4000,,,,,,,VFR,,,,,,,,,,,,METAR,892.0
KTDF 150955Z AUTO 00000KT 1SM BR VV007 20/20 A3009 RMK AO2,KTDF,2015-06-15T09:55:00Z,36.28,-78.98,20.0,20.0,0,0,,1.0,30.088583,,,TRUE,TRUE,,,,,,BR,OVX,0,,,,,,,LIFR,,,,,,,,,,,700,METAR,186.0
KTBR 150955Z AUTO 00000KT 10SM CLR 22/22 A3011 RMK AO2 T02160216,KTBR,2015-06-15T09:55:00Z,32.48,-81.73,21.6,21.6,0,0,,10.0,30.109253,,,TRUE,TRUE,,,,,,,CLR,,,,,,,,VFR,,,,,,,,,,,,METAR,57.0
KTAZ 150955Z AUTO 21004KT 10SM CLR 21/21 A2998 RMK AO2,KTAZ,2015-06-15T09:55:00Z,39.53,-89.33,21.0,21.0,210,4,,10.0,29.97933,,,TRUE,TRUE,,,,,,,CLR,,,,,,,,VFR,,,,,,,,,,,,METAR,190.0
KT65 150955Z AUTO 00000KT 10SM CLR 24/22 A2982 RMK AO2 T02360221,KT65,2015-06-15T09:55:00Z,26.18,-97.97,23.6,22.1,0,0,,10.0,29.819881,,,TRUE,TRUE,,,,,,,CLR,,,,,,,,VFR,,,,,,,,,,,,METAR,21.0
KT35 150955Z AUTO 00000KT 5SM BR SCT008 BKN013 OVC021 23/23 A2994 RMK AO2 T02290225,KT35,2015-06-15T09:55:00Z,30.88,-96.97,22.9,22.5,0,0,,5.0,29.940945,,,TRUE,TRUE,,,,,,BR,SCT,800,BKN,1300,OVC,2100,,,MVFR,,,,,,,,,,,,METAR,123.0
KSVH 150955Z AUTO 00000KT 7SM CLR 20/20 A3010 RMK AO2 T01980196,KSVH,2015-06-15T09:55:00Z,35.75,-80.95,19.8,19.6,0,0,,7.0,30.100393,,,TRUE,TRUE,,,,,,,CLR,,,,,,,,VFR,,,,,,,,,,,,METAR,294.0
KSTE 150955Z AUTO 00000KT 10SM CLR 16/15 A2991 RMK AO2 T01580153,KSTE,2015-06-15T09:55:00Z,44.55,-89.53,15.8,15.3,0,0,,10.0,29.911417,,,TRUE,TRUE,,,,,,,CLR,,,,,,,,VFR,,,,,,,,,,,,METAR,338.0
KSOA 150955Z AUTO 28006KT 2 1/2SM RA SCT002 BKN009 OVC028 19/19 A3005 RMK AO2 LTG DSNT ALQDS,KSOA,2015-06-15T09:55:00Z,30.58,-100.65,19.0,19.0,280,6,,2.5,30.050198,,,TRUE,TRUE,,,,,,RA,SCT,200,BKN,900,OVC,2800,,,IFR,,,,,,,,,,,,METAR,652.0
KSNK 150955Z AUTO 19004KT 10SM OVC110 20/18 A2998 RMK AO2 T01990184 TSNO,KSNK,2015-06-15T09:55:00Z,32.7,-100.95,19.9,18.4,190,4,,10.0,29.97933,,,TRUE,TRUE,,,TRUE,,,,OVC,11000,,,,,,,VFR,,,,,,,,,,,,METAR,741.0
KSME 150955Z AUTO 00000KT 10SM CLR 19/19 A3014 RMK AO2,KSME,2015-06-15T09:55:00Z,37.05,-84.62,19.0,19.0,0,0,,10.0,30.138779,,,TRUE,TRUE,,,,,,,CLR,,,,,,,,VFR,,,,,,,,,,,,METAR,283.0
KSLB 150955Z AUTO 34005KT 10SM CLR 20/19 A2992 RMK AO2,KSLB,2015-06-15T09:55:00Z,42.6,-95.22,20.0,19.0,340,5,,10.0,29.920275,,,TRUE,TRUE,,,,,,,CLR,,,,,,,,VFR,,,,,,,,,,,,METAR,454.0
KSJS 150955Z AUTO 21003KT 10SM CLR 23/20 A3013 RMK AO2 T02330200,KSJS,2015-06-15T09:55:00Z,37.75,-82.63,23.3,20.0,210,3,,10.0,30.129921,,,TRUE,TRUE,,,,,,,CLR,,,,,,,,VFR,,,,,,,,,,,,METAR,372.0
KSHL 150955Z AUTO 05007KT 10SM OVC025 20/20 A2992 RMK AO2,KSHL,2015-06-15T09:55:00Z,43.22,-95.82,20.0,20.0,50,7,,10.0,29.920275,,,TRUE,TRUE,,,,,,,OVC,2500,,,,,,,MVFR,,,,,,,,,,,,METAR,432.0
KSHD 150955Z AUTO 17003KT 22/20 A3009 RMK AO2 T02220201 PWINO,KSHD,2015-06-15T09:55:00Z,38.27,-78.9,22.2,20.1,170,3,,,30.088583,,,TRUE,TRUE,,,,,TRUE,,,,,,,,,,,,,,,,,,,,,,METAR,366.0
KSFY 150955Z AUTO 00000KT 10SM SCT007 OVC017 22/21 A2992 RMK AO2 LTG DSNT N AND W P0116 T02160205,KSFY,2015-06-15T09:55:00Z,42.05,-90.12,21.6,20.5,0,0,,10.0,29.920275,,,TRUE,TRUE,,,,,,,SCT,700,OVC,1700,,,,,MVFR,,,,,,1.16,,,,,,METAR,188.0
KSDA 150955Z AUTO 04008KT 10SM FEW007 SCT050 BKN060 20/20 A2990 RMK AO2 P0013,KSDA,2015-06-15T09:55:00Z,40.75,-95.42,20.0,20.0,40,8,,10.0,29.899607,,,TRUE,TRUE,,,,,,,FEW,700,SCT,5000,BKN,6000,,,VFR,,,,,,0.13,,,,,,METAR,296.0
KSCR 150955Z AUTO 00000KT 10SM CLR 20/20 A3008 RMK AO2 T02010195,KSCR,2015-06-15T09:55:00Z,35.7,-79.5,20.1,19.5,0,0,,10.0,30.079725,,,TRUE,TRUE,,,,,,,CLR,,,,,,,,VFR,,,,,,,,,,,,METAR,188.0
KRYW 150955Z AUTO 16003KT 7SM OVC003 24/23 A2996 RMK AO2 T02350226,KRYW,2015-06-15T09:55:00Z,30.5,-97.97,23.5,22.6,160,3,,7.0,29.958662,,,TRUE,TRUE,,,,,,,OVC,300,,,,,,,LIFR,,,,,,,,,,,,METAR,376.0
KRUQ 150955Z AUTO 00000KT 7SM CLR 19/19 A3010 RMK AO2 T01930193,KRUQ,2015-06-15T09:55:00Z,35.65,-80.52,19.3,19.3,0,0,,7.0,30.100393,,,TRUE,TRUE,,,,,,,CLR,,,,,,,,VFR,,,,,,,,,,,,METAR,236.0
KRRL 150955Z AUTO 00000KT 10SM 12/12 A2993 RMK AO2 T01200120,KRRL,2015-06-15T09:55:00Z,45.2,-89.72,12.0,12.0,0,0,,10.0,29.929134,,,TRUE,TRUE,,,,,,,,,,,,,,,,,,,,,,,,,,,METAR,401.0
KRPD 150955Z AUTO 00000KT 10SM CLR 18/16 A2991 RMK AO2 T01780160,KRPD,2015-06-15T09:55:00Z,45.42,-91.77,17.8,16.0,0,0,,10.0,29.911417,,,TRUE,TRUE,,,,,,,CLR,,,,,,,,VFR,,,,,,,,,,,,METAR,338.0
KRMN 150955Z AUTO 00000KT M1/4SM FG VV000 21/20 A3003 RMK AO2 T02050197,KRMN,2015-06-15T09:55:00Z,38.4,-77.45,20.5,19.7,0,0,,0.25,30.029528,,,TRUE,TRUE,,,,,,FG,OVX,0,,,,,,,LIFR,,,,,,,,,,,0,METAR,65.0
KRHP 150955Z AUTO 00000KT 10SM CLR 16/16 A3021 RMK AO2 T01610161,KRHP,2015-06-15T09:55:00Z,35.18,-83.85,16.1,16.1,0,0,,10.0,30.209646,,,TRUE,TRUE,,,,,,,CLR,,,,,,,,VFR,,,,,,,,,,,,METAR,518.0
KRDK 150955Z AUTO 09006KT 1/2SM +RA OVC004 20/20 A2993 RMK AO2 P0011,KRDK,2015-06-15T09:55:00Z,41.02,-95.27,20.0,20.0,90,6,,0.5,29.929134,,,TRUE,TRUE,,,,,,+RA,OVC,400,,,,,,,LIFR,,,,,,0.11,,,,,,METAR,318.0
KRCZ 150955Z AUTO 00000KT 10SM CLR 23/21 A3007 RMK AO2 T02270209,KRCZ,2015-06-15T09:55:00Z,34.88,-79.77,22.7,20.9,0,0,,10.0,30.070866,,,TRUE,TRUE,,,,,,,CLR,,,,,,,,VFR,,,,,,,,,,,,METAR,109.0
KRCR 150955Z AUTO 25004KT 10SM SCT013 BKN019 23/23 A2999 RMK AO2,KRCR,2015-06-15T09:55:00Z,41.07,-86.18,23.0,23.0,250,4,,10.0,29.991142,,,TRUE,TRUE,,,,,,,SCT,1300,BKN,1900,,,,,MVFR,,,,,,,,,,,,METAR,241.0
KRBO 150955Z AUTO 36003KT 10SM CLR 25/24 A2985 RMK AO2 T02520237,KRBO,2015-06-15T09:55:00Z,27.78,-97.68,25.2,23.7,360,3,,10.0,29.84941,,,TRUE,TRUE,,,,,,,CLR,,,,,,,,VFR,,,,,,,,,,,,METAR,24.0
KPXE 150955Z AUTO 00000KT 10SM CLR 24/22 A3013 RMK AO2 T02360222,KPXE,2015-06-15T09:55:00Z,32.52,-83.77,23.6,22.2,0,0,,10.0,30.129921,,,TRUE,TRUE,,,,,,,CLR,,,,,,,,VFR,,,,,,,,,,,,METAR,127.0
KPVW 150955Z AUTO 00000KT 10SM CLR 18/18 A3001 RMK AO2 T01790179,KPVW,2015-06-15T09:55:00Z,34.17,-101.72,17.9,17.9,0,0,,10.0,30.008858,,,TRUE,TRUE,,,,,,,CLR,,,,,,,,VFR,,,,,,,,,,,,METAR,1028.0
KPVB 150955Z AUTO 21004KT 4SM SCT011 SCT085 21/21 A2993 RMK AO1 P0003 T02080205,KPVB,2015-06-15T09:55:00Z,42.68,-90.43,20.8,20.5,210,4,,4.0,29.929134,,,TRUE,TRUE,,,,,,,SCT,1100,SCT,8500,,,,,MVFR,,,,,,0.03,,,,,,METAR,313.0
KY51 150955Z AUTO 20005KT 10SM CLR 20/20 A2992 RMK AO1 T02010201,KY51,2015-06-15T09:55:00Z,43.58,-90.9,20.1,20.1,200,5,,10.0,29.920275,,,TRUE,TRUE,,,,,,,CLR,,,,,,,,VFR,,,,,,,,,,,,METAR,394.0
KY23 150955Z AUTO 00000KT 10SM SCT070 18/17 A2990 RMK AO2 T01760171,KY23,2015-06-15T09:55:00Z,45.3,-91.63,17.6,17.1,0,0,,10.0,29.899607,,,TRUE,TRUE,,,,,,,SCT,7000,,,,,,,VFR,,,,,,,,,,,,METAR,322.0
KW78 150955Z AUTO 00000KT 5SM SCT003 20/19 A3006 RMK AO1 T01990191,KW78,2015-06-15T09:55:00Z,36.68,-78.85,19.9,19.1,0,0,,5.0,30.059055,,,TRUE,TRUE,,,,,,,SCT,300,,,,,,,MVFR,,,,,,,,,,,,METAR,129.0
KW43 150955Z AUTO 05004KT 10SM SCT034 OVC090 13/10 A3021 RMK AO2,KW43,2015-06-15T09:55:00Z,44.67,-104.57,13.0,10.0,50,4,,10.0,30.209646,,,TRUE,TRUE,,,,,,,SCT,3400,OVC,9000,,,,,VFR,,,,,,,,,,,,METAR,1300.0
KW22 150955Z AUTO 21006KT 10SM SCT036 23/20 A3011 RMK AO2,KW22,2015-06-15T09:55:00Z,39.0,-80.27,23.0,20.0,210,6,,10.0,30.109253,,,TRUE,TRUE,,,,,,,SCT,3600,,,,,,,VFR,,,,,,,,,,,,METAR,499.0
KVYS 150955Z AUTO 20006KT 10SM BKN007 BKN042 OVC060 22/21 A2995 RMK AO2 T02190211,KVYS,2015-06-15T09:55:00Z,41.35,-89.15,21.9,21.1,200,6,,10.0,29.949802,,,TRUE,TRUE,,,,,,,BKN,700,BKN,4200,OVC,6000,,,IFR,,,,,,,,,,,,METAR,199.0
KVUJ 150955Z AUTO 00000KT 10SM CLR 20/20 A3012 RMK AO2 T01960196,KVUJ,2015-06-15T09:55:00Z,35.42,-80.15,19.6,19.6,0,0,,10.0,30.121063,,,TRUE,TRUE,,,,,,,CLR,,,,,,,,VFR,,,,,,,,,,,,METAR,186.0
KVJI 150955Z AUTO 00000KT 10SM CLR 19/19 A3020 RMK AO2 T01930188,KVJI,2015-06-15T09:55:00Z,36.67,-82.02,19.3,18.8,0,0,,10.0,30.200787,,,TRUE,TRUE,,,,,,,CLR,,,,,,,,VFR,,,,,,,,,,,,METAR,631.0
KVES 150955Z AUTO 00000KT 10SM CLR 21/21 A3003 RMK AO2,KVES,2015-06-15T09:55:00Z,40.2,-84.53,21.0,21.0,0,0,,10.0,30.029528,,,TRUE,TRUE,,,,,,,CLR,,,,,,,,VFR,,,,,,,,,,,,METAR,307.0
KVCV 150955Z AUTO 00000KT 10SM CLR 22/06 A2987 RMK AO2,KVCV,2015-06-15T09:55:00Z,34.58,-117.38,22.0,6.0,0,0,,10.0,29.870079,,,TRUE,TRUE,,,,,,,CLR,,,,,,,,VFR,,,,,,,,,,,,METAR,876.0
KUXL 150955Z AUTO 07004KT 10SM SCT075 OVC100 25/24 A2996 RMK AO2 T02450236,KUXL,2015-06-15T09:55:00Z,30.13,-93.38,24.5,23.6,70,4,,10.0,29.958662,,,TRUE,TRUE,,,,,,,SCT,7500,OVC,10000,,,,,VFR,,,,,,,,,,,,METAR,4.0
KUKF 150955Z AUTO 00000KT 10SM CLR 18/18 A3017 RMK AO2,KUKF,2015-06-15T09:55:00Z,36.22,-81.1,18.0,18.0,0,0,,10.0,30.171259,,,TRUE,TRUE,,,,,,,CLR,,,,,,,,VFR,,,,,,,,,,,,METAR,396.0
KUES 150955Z AUTO 00000KT 7SM CLR 17/17 A2993 RMK AO2,KUES,2015-06-15T09:55:00Z,43.05,-88.25,17.0,17.0,0,0,,7.0,29.929134,,,TRUE,TRUE,,,,,,,CLR,,,,,,,,VFR,,,,,,,,,,,,METAR,278.0
KUBE 150955Z AUTO 07004KT 10SM BKN060 BKN070 17/16 A2989 RMK AO2,KUBE,2015-06-15T09:55:00Z,45.5,-91.98,17.0,16.0,70,4,,10.0,29.890747,,,TRUE,TRUE,,,,,,,BKN,6000,BKN,7000,,,,,VFR,,,,,,,,,,,,METAR,379.0
KPTB 150955Z AUTO 00000KT 4SM BR CLR 21/21 A3004 RMK AO2 T02070207,KPTB,2015-06-15T09:55:00Z,37.17,-77.52,20.7,20.7,0,0,,4.0,30.041338,,,TRUE,TRUE,,,,,,BR,CLR,,,,,,,,MVFR,,,,,,,,,,,,METAR,59.0
KPRS 150955Z AUTO 03010KT 10SM CLR 24/12 A2991 RMK AO2 T02360120,KPRS,2015-06-15T09:55:00Z,29.63,-104.35,23.6,12.0,30,10,,10.0,29.911417,,,TRUE,TRUE,,,,,,,CLR,,,,,,,,VFR,,,,,,,,,,,,METAR,896.0
KPRG 150955Z AUTO 22005KT 10SM CLR 23/22 A3000 RMK AO2 T02250216,KPRG,2015-06-15T09:55:00Z,39.7,-87.67,22.5,21.6,220,5,,10.0,30.0,,,TRUE,TRUE,,,,,,,CLR,,,,,,,,VFR,,,,,,,,,,,,METAR,199.0
KPPO 150955Z AUTO 22006KT 7SM OVC008 A2997 RMK AO2,KPPO,2015-06-15T09:55:00Z,41.57,-86.73,,,220,6,,7.0,29.970472,,,TRUE,TRUE,,,,,,,OVC,800,,,,,,,IFR,,,,,,,,,,,,METAR,248.0
KPNT 150955Z AUTO 20006KT 10SM BKN055 BKN075 OVC085 23/23 A2996 RMK AO2 T02300225,KPNT,2015-06-15T09:55:00Z,40.92,-88.62,23.0,22.5,200,6,,10.0,29.958662,,,TRUE,TRUE,,,,,,,BKN,5500,BKN,7500,OVC,8500,,,VFR,,,,,,,,,,,,METAR,201.0
KPLU 150955Z AUTO 00000KT 10SM CLR 11/10 A2995 RMK AO2,KPLU,2015-06-15T09:55:00Z,47.1,-122.28,11.0,10.0,0,0,,10.0,29.949802,,,TRUE,TRUE,,,,,,,CLR,,,,,,,,VFR,,,,,,,,,,,,METAR,164.0
KPEQ 150955Z AUTO 03003KT 10SM CLR 18/16 A2996 RMK AO2 T01810160,KPEQ,2015-06-15T09:55:00Z,31.38,-103.52,18.1,16.0,30,3,,10.0,29.958662,,,TRUE,TRUE,,,,,,,CLR,,,,,,,,VFR,,,,,,,,,,,,METAR,797.0
KPEA 150955Z AUTO 00000KT 1 3/4SM +RA OVC007 21/21 A2993 RMK AO2 P0026 T02100210,KPEA,2015-06-15T09:55:00Z,41.4,-92.95,21.0,21.0,0,0,,1.75,29.929134,,,TRUE,TRUE,,,,,,+RA,OVC,700,,,,,,,IFR,,,,,,0.26,,,,,,METAR,270.0
KPDC 150955Z AUTO 00000KT 7SM RA SCT048 BKN050 21/20 A2992 RMK AO2 P0005 T02080197,KPDC,2015-06-15T09:55:00Z,43.02,-91.12,20.8,19.7,0,0,,7.0,29.920275,,,TRUE,TRUE,,,,,,RA,SCT,4800,BKN,5000,,,,,VFR,,,,,,0.05,,,,,,METAR,201.0
KOSA 150955Z AUTO 12003KT 7SM OVC008 24/23 A3000 RMK AO1 T02360232,KOSA,2015-06-15T09:55:00Z,33.1,-94.97,23.6,23.2,120,3,,7.0,30.0,,,TRUE,TRUE,,,,,,,OVC,800,,,,,,,IFR,,,,,,,,,,,,METAR,111.0
KOOA 150955Z AUTO 00000KT 7SM SCT043 BKN050 BKN070 21/21 A2990 RMK AO2 P0001 T02110205,KOOA,2015-06-15T09:55:00Z,41.23,-92.5,21.1,20.5,0,0,,7.0,29.899607,,,TRUE,TRUE,,,,,,,SCT,4300,BKN,5000,BKN,7000,,,VFR,,,,,,0.01,,,,,,METAR,256.0
KOKM 150955Z AUTO 18008G17KT 10SM SCT120 23/22 A2994 RMK AO2 T02300221,KOKM,2015-06-15T09:55:00Z,35.67,-95.95,23.0,22.1,180,8,17,10.0,29.940945,,,TRUE,TRUE,,,,,,,SCT,12000,,,,,,,VFR,,,,,,,,,,,,METAR,220.0
KOEO 150955Z AUTO 33007KT 10SM CLR 18/18 A2993 RMK AO2 T01810181,KOEO,2015-06-15T09:55:00Z,45.32,-92.7,18.1,18.1,330,7,,10.0,29.929134,,,TRUE,TRUE,,,,,,,CLR,,,,,,,,VFR,,,,,,,,,,,,METAR,275.0
KMWK 150955Z AUTO 00000KT 10SM CLR 21/20 A3014 RMK AO2 T02130197,KMWK,2015-06-15T09:55:00Z,36.47,-80.55,21.3,19.7,0,0,,10.0,30.138779,,,TRUE,TRUE,,,,,,,CLR,,,,,,,,VFR,,,,,,,,,,,,METAR,380.0
KMRN 150955Z AUTO 34004KT 10SM CLR 18/18 A3017 RMK AO2 T01760176,KMRN,2015-06-15T09:55:00Z,35.82,-81.62,17.6,17.6,340,4,,10.0,30.171259,,,TRUE,TRUE,,,,,,,CLR,,,,,,,,VFR,,,,,,,,,,,,METAR,387.0
KMGC 150955Z AUTO 21004KT 7SM OVC007 22/22 A2996 RMK AO2,KMGC,2015-06-15T09:55:00Z,41.7,-86.82,22.0,22.0,210,4,,7.0,29.958662,,,TRUE,TRUE,,,,,,,OVC,700,,,,,,,IFR,,,,,,,,,,,,METAR,200.0
KLHZ 150955Z AUTO 00000KT 7SM CLR 21/20 A3006 RMK AO2,KLHZ,2015-06-15T09:55:00Z,36.02,-78.33,21.0,20.0,0,0,,7.0,30.059055,,,TRUE,TRUE,,,,,,,CLR,,,,,,,,VFR,,,,,,,,,,,,METAR,113.0
KJYO 150955Z AUTO 29009KT 10SM CLR 23/23 A3002 RMK AO2 LTG DSNT W,KJYO,2015-06-15T09:55:00Z,39.07,-77.57,23.0,23.0,290,9,,10.0,30.02067,,,TRUE,TRUE,,,,,,,CLR,,,,,,,,VFR,,,,,,,,,,,,METAR,119.0
KJVL 150955Z AUTO 11003KT 3SM RA SCT012 SCT025 BKN060 22/21 A2991 RMK AO2 P0012,KJVL,2015-06-15T09:55:00Z,42.62,-89.05,22.0,21.0,110,3,,3.0,29.911417,,,TRUE,TRUE,,,,,,RA,SCT,1200,SCT,2500,BKN,6000,,,MVFR,,,,,,0.12,,,,,,METAR,246.0
KIOB 150955Z AUTO 23003KT 10SM CLR 21/20 A3012 RMK AO2,KIOB,2015-06-15T09:55:00Z,38.05,-83.98,21.0,20.0,230,3,,10.0,30.121063,,,TRUE,TRUE,,,,,,,CLR,,,,,,,,VFR,,,,,,,,,,,,METAR,311.0
KIKK 150955Z AUTO 00000KT 5SM BR OVC005 22/22 A2997 RMK AO2 T02200217,KIKK,2015-06-15T09:55:00Z,41.07,-87.85,22.0,21.7,0,0,,5.0,29.970472,,,TRUE,TRUE,,,,,,BR,OVC,500,,,,,,,IFR,,,,,,,,,,,,METAR,192.0
KIDP 150955Z AUTO 21005KT 10SM OVC010 22/21 A2994 RMK AO2,KIDP,2015-06-15T09:55:00Z,37.17,-95.78,22.0,21.0,210,5,,10.0,29.940945,,,TRUE,TRUE,,,,,,,OVC,1000,,,,,,,MVFR,,,,,,,,,,,,METAR,251.0
KI75 150955Z AUTO 00000KT 10SM SCT037 BKN045 BKN060 21/20 A2993 RMK AO2 P0005 T02120203,KI75,2015-06-15T09:55:00Z,41.05,-93.68,21.2,20.3,0,0,,10.0,29.929134,,,TRUE,TRUE,,,,,,,SCT,3700,BKN,4500,BKN,6000,,,VFR,,,,,,0.05,,,,,,METAR,339.0
KI16 150955Z AUTO 4SM BR SCT001 18/18 A3022 RMK AO2 T01820182,KI16,2015-06-15T09:55:00Z,37.6,-81.57,18.2,18.2,,,,4.0,30.221457,,,TRUE,TRUE,,,,,,BR,SCT,100,,,,,,,MVFR,,,,,,,,,,,,METAR,544.0
KHZR 150955Z AUTO 08003KT 10SM CLR A2999 RMK AO2,KHZR,2015-06-15T09:55:00Z,30.72,-91.48,,,80,3,,10.0,29.991142,,,TRUE,TRUE,,,,,,,CLR,,,,,,,,VFR,,,,,,,,,,,,METAR,12.0
KHWY 150955Z AUTO 00000KT 7SM CLR 22/22 A3000 RMK AO2 T02230223,KHWY,2015-06-15T09:55:00Z,38.58,-77.72,22.3,22.3,0,0,,7.0,30.0,,,TRUE,TRUE,,,,,,,CLR,,,,,,,,VFR,,,,,,,,,,,,METAR,103.0
KHMZ 150955Z AUTO 00000KT 10SM RA BKN027 BKN033 BKN050 20/19 A3004 RMK AO2 P0001 T02000190,KHMZ,2015-06-15T09:55:00Z,,,20.0,19.0,0,0,,10.0,30.041338,,,TRUE,TRUE,,,,,,RA,BKN,2700,BKN,3300,BKN,5000,,,MVFR,,,,,,0.01,,,,,,METAR,
KHHG 150955Z AUTO 00000KT 10SM SCT011 OVC018 22/21 A2999 RMK AO2 T02180210,KHHG,2015-06-15T09:55:00Z,40.85,-85.45,21.8,21.0,0,0,,10.0,29.991142,,,TRUE,TRUE,,,,,,,SCT,1100,OVC,1800,,,,,MVFR,,,,,,,,,,,,METAR,246.0
KGVT 150955Z AUTO 12005KT 10SM OVC011 23/22 A2998 RMK AO2,KGVT,2015-06-15T09:55:00Z,33.07,-96.07,23.0,22.0,120,5,,10.0,29.97933,,,TRUE,TRUE,,,,,,,OVC,1100,,,,,,,MVFR,,,,,,,,,,,,METAR,163.0
KGBG 150955Z AUTO 19003KT 10SM SCT065 OVC085 21/21 A2993 RMK AO2 T02130207,KGBG,2015-06-15T09:55:00Z,40.93,-90.43,21.3,20.7,190,3,,10.0,29.929134,,,TRUE,TRUE,,,,,,,SCT,6500,OVC,8500,,,,,VFR,,,,,,,,,,,,METAR,233.0
KFWS 150955Z AUTO 14004KT 10SM SCT013 23/22 A2996 RMK AO2 T02330218,KFWS,2015-06-15T09:55:00Z,32.57,-97.3,23.3,21.8,140,4,,10.0,29.958662,,,TRUE,TRUE,,,,,,,SCT,1300,,,,,,,VFR,,,,,,,,,,,,METAR,208.0
KFWC 150955Z AUTO 18005KT 10SM CLR 23/22 A3001 RMK AO1 T02250215,KFWC,2015-06-15T09:55:00Z,38.38,-88.42,22.5,21.5,180,5,,10.0,30.008858,,,TRUE,TRUE,,,,,,,CLR,,,,,,,,VFR,,,,,,,,,,,,METAR,133.0
KFVX 150955Z AUTO 22003KT 7SM CLR 21/21 A3003 RMK AO2 T02100210,KFVX,2015-06-15T09:55:00Z,37.35,-78.42,21.0,21.0,220,3,,7.0,30.029528,,,TRUE,TRUE,,,,,,,CLR,,,,,,,,VFR,,,,,,,,,,,,METAR,125.0
KFQD 150955Z AUTO 32004KT 10SM CLR 19/19 A3013 RMK AO2 T01920189,KFQD,2015-06-15T09:55:00Z,35.42,-81.93,19.2,18.9,320,4,,10.0,30.129921,,,TRUE,TRUE,,,,,,,CLR,,,,,,,,VFR,,,,,,,,,,,,METAR,329.0
KFFA 150955Z AUTO 00000KT 4SM BR CLR 25/23 A3003 RMK AO2 T02510229,KFFA,2015-06-15T09:55:00Z,36.02,-75.67,25.1,22.9,0,0,,4.0,30.029528,,,TRUE,TRUE,,,,,,BR,CLR,,,,,,,,MVFR,,,,,,,,,,,,METAR,4.0
KF17 150955Z AUTO 14003KT 10SM BKN015 23/23 A2998 RMK AO2 T02300225,KF17,2015-06-15T09:55:00Z,31.83,-94.15,23.0,22.5,140,3,,10.0,29.97933,,,TRUE,TRUE,,,,,,,BKN,1500,,,,,,,MVFR,,,,,,,,,,,,METAR,97.0
KEZF 150955Z AUTO 00000KT 10SM CLR 24/24 A2999 RMK AO2 T02380238,KEZF,2015-06-15T09:55:00Z,38.27,-77.45,23.8,23.8,0,0,,10.0,29.991142,,,TRUE,TRUE,,,,,,,CLR,,,,,,,,VFR,,,,,,,,,,,,METAR,26.0
KEXX 150955Z AUTO 00000KT 5SM BR CLR 20/20 A3009 RMK AO2 T02000197,KEXX,2015-06-15T09:55:00Z,35.78,-80.3,20.0,19.7,0,0,,5.0,30.088583,,,TRUE,TRUE,,,,,,BR,CLR,,,,,,,,MVFR,,,,,,,,,,,,METAR,223.0
KEMV 150955Z AUTO 00000KT 3/4SM BR 21/21 A3006 RMK AO2,KEMV,2015-06-15T09:55:00Z,36.68,-77.48,21.0,21.0,0,0,,0.75,30.059055,,,TRUE,TRUE,,,,,,BR,,,,,,,,,,,,,,,,,,,,,METAR,39.0
KELA 150955Z AUTO 08003KT 10SM CLR 24/24 A2990 RMK AO2 T02400235,KELA,2015-06-15T09:55:00Z,29.6,-96.32,24.0,23.5,80,3,,10.0,29.899607,,,TRUE,TRUE,,,,,,,CLR,,,,,,,,VFR,,,,,,,,,,,,METAR,56.0
KEFK 150955Z AUTO 23005KT 10SM -DZ OVC110 14/12 A3001 RMK AO2 T01360117,KEFK,2015-06-15T09:55:00Z,44.88,-72.23,13.6,11.7,230,5,,10.0,30.008858,,,TRUE,TRUE,,,,,,-DZ,OVC,11000,,,,,,,VFR,,,,,,,,,,,,METAR,284.0
KEBA 150955Z AUTO 00000KT 10SM CLR 24/23 A3014 RMK AO2 T02410225,KEBA,2015-06-15T09:55:00Z,34.1,-82.82,24.1,22.5,0,0,,10.0,30.138779,,,TRUE,TRUE,,,,,,,CLR,,,,,,,,VFR,,,,,,,,,,,,METAR,184.0
KDTA 150955Z AUTO 11010KT 10SM CLR 20/07 A2999 RMK AO1 T02020068,KDTA,2015-06-15T09:55:00Z,39.38,-112.5,20.2,6.8,110,10,,10.0,29.991142,,,TRUE,TRUE,,,,,,,CLR,,,,,,,,VFR,,,,,,,,,,,,METAR,1402.0
KDNN 150955Z AUTO 00000KT 10SM CLR 20/20 A3014 RMK AO2,KDNN,2015-06-15T09:55:00Z,34.72,-84.87,20.0,20.0,0,0,,10.0,30.138779,,,TRUE,TRUE,,,,,,,CLR,,,,,,,,VFR,,,,,,,,,,,,METAR,216.0
KDLL 150955Z AUTO 22003KT 10SM 19/17 A2992 RMK AO2 T01880173,KDLL,2015-06-15T09:55:00Z,43.52,-89.77,18.8,17.3,220,3,,10.0,29.920275,,,TRUE,TRUE,,,,,,,,,,,,,,,,,,,,,,,,,,,METAR,299.0
KD25 150955Z AUTO 00000KT 10SM SCT070 11/11 A2993 RMK AO2 T01080108,KD25,2015-06-15T09:55:00Z,46.12,-89.88,10.8,10.8,0,0,,10.0,29.929134,,,TRUE,TRUE,,,,,,,SCT,7000,,,,,,,VFR,,,,,,,,,,,,METAR,491.0
KCXE 150955Z AUTO 00000KT 10SM CLR 22/22 A3006 RMK AO1 T02210221,KCXE,2015-06-15T09:55:00Z,36.78,-78.5,22.1,22.1,0,0,,10.0,30.059055,,,TRUE,TRUE,,,,,,,CLR,,,,,,,,VFR,,,,,,,,,,,,METAR,153.0
KCVC 150955Z AUTO 00000KT 10SM CLR 22/21 A3013 RMK AO2,KCVC,2015-06-15T09:55:00Z,33.63,-83.85,22.0,21.0,0,0,,10.0,30.129921,,,TRUE,TRUE,,,,,,,CLR,,,,,,,,VFR,,,,,,,,,,,,METAR,247.0
KCVB 150955Z AUTO 00000KT 10SM SCT014 24/24 A2993 RMK AO2 T02390235,KCVB,2015-06-15T09:55:00Z,29.35,-98.85,23.9,23.5,0,0,,10.0,29.929134,,,TRUE,TRUE,,,,,,,SCT,1400,,,,,,,VFR,,,,,,,,,,,,METAR,235.0
KCQB 150955Z AUTO 18009KT 10SM SCT007 SCT110 09/09 A2994 RMK AO2,KCQB,2015-06-15T09:55:00Z,35.72,-96.82,9.0,9.0,180,9,,10.0,29.940945,,,TRUE,TRUE,,,,,,,SCT,700,SCT,11000,,,,,VFR,,,,,,,,,,,,METAR,300.0
KCNI 150955Z AUTO 00000KT 10SM CLR 20/17 A3017 RMK AO2,KCNI,2015-06-15T09:55:00Z,34.32,-84.42,20.0,17.0,0,0,,10.0,30.171259,,,TRUE,TRUE,,,,,,,CLR,,,,,,,,VFR,,,,,,,,,,,,METAR,372.0
KCMY 150955Z AUTO 00000KT 10SM CLR 17/16 A2991 RMK AO2 T01690161,KCMY,2015-06-15T09:55:00Z,43.97,-90.73,16.9,16.1,0,0,,10.0,29.911417,,,TRUE,TRUE,,,,,,,CLR,,,,,,,,VFR,,,,,,,,,,,,METAR,256.0
KCKP 150955Z AUTO 00000KT 10SM SCT039 20/19 A2990 RMK AO2 LTG DSNT SW AND NW T02040193,KCKP,2015-06-15T09:55:00Z,42.73,-95.55,20.4,19.3,0,0,,10.0,29.899607,,,TRUE,TRUE,,,,,,,SCT,3900,,,,,,,VFR,,,,,,,,,,,,METAR,374.0
KCKF 150955Z AUTO 00000KT 10SM CLR 23/23 A3012 RMK AO2 T02320225,KCKF,2015-06-15T09:55:00Z,31.98,-83.77,23.2,22.5,0,0,,10.0,30.121063,,,TRUE,TRUE,,,,,,,CLR,,,,,,,,VFR,,,,,,,,,,,,METAR,91.0
KCJR 150955Z AUTO 00000KT 3SM CLR 21/21 A3001 RMK AO2 T02090209 PWINO,KCJR,2015-06-15T09:55:00Z,38.53,-77.87,20.9,20.9,0,0,,3.0,30.008858,,,TRUE,TRUE,,,,,TRUE,,CLR,,,,,,,,MVFR,,,,,,,,,,,,METAR,97.0
KCBK 150955Z AUTO 26005KT 10SM SCT090 15/15 A3004 RMK AO2,KCBK,2015-06-15T09:55:00Z,39.43,-101.05,15.0,15.0,260,5,,10.0,30.041338,,,TRUE,TRUE,,,,,,,SCT,9000,,,,,,,VFR,,,,,,,,,,,,METAR,971.0
KC09 150955Z AUTO 21006KT 10SM SCT029 BKN040 OVC050 22/21 A2993 RMK AO2 T02220212,KC09,2015-06-15T09:55:00Z,41.43,-88.42,22.2,21.2,210,6,,10.0,29.929134,,,TRUE,TRUE,,,,,,,SCT,2900,BKN,4000,OVC,5000,,,VFR,,,,,,,,,,,,METAR,178.0
KBYY 150955Z AUTO 07005KT 10SM SCT020 BKN027 BKN038 25/25 A2989 RMK AO2 T02480247,KBYY,2015-06-15T09:55:00Z,28.97,-95.87,24.8,24.7,70,5,,10.0,29.890747,,,TRUE,TRUE,,,,,,,SCT,2000,BKN,2700,BKN,3800,,,MVFR,,,,,,,,,,,,METAR,14.0
KBQP 150955Z AUTO 00000KT 7SM CLR 23/22 A3003 RMK AO2 T02250220,KBQP,2015-06-15T09:55:00Z,32.75,-91.88,22.5,22.0,0,0,,7.0,30.029528,,,TRUE,TRUE,,,,,,,CLR,,,,,,,,VFR,,,,,,,,,,,,METAR,51.0
KAZE 150955Z AUTO 00000KT 10SM CLR 22/22 A3010 RMK AO2 T02210221,KAZE,2015-06-15T09:55:00Z,31.88,-82.65,22.1,22.1,0,0,,10.0,30.100393,,,TRUE,TRUE,,,,,,,CLR,,,,,,,,VFR,,,,,,,,,,,,METAR,78.0
KARM 150955Z AUTO 07005KT 10SM SCT018 SCT025 SCT035 24/23 A2990 RMK AO2 T02370230,KARM,2015-06-15T09:55:00Z,29.25,-96.15,23.7,23.0,70,5,,10.0,29.899607,,,TRUE,TRUE,,,,,,,SCT,1800,SCT,2500,SCT,3500,,,VFR,,,,,,,,,,,,METAR,31.0
KAQR 150955Z AUTO 00000KT 23/23 A2998 RMK AO2 PWINO,KAQR,2015-06-15T09:55:00Z,34.4,-96.15,23.0,23.0,0,0,,,29.97933,,,TRUE,TRUE,,,,,TRUE,,,,,,,,,,,,,,,,,,,,,,METAR,189.0
KACJ 150955Z AUTO 00000KT 10SM CLR 21/21 A3013 RMK AO2,KACJ,2015-06-15T09:55:00Z,32.12,-84.18,21.0,21.0,0,0,,10.0,30.129921,,,TRUE,TRUE,,,,,,,CLR,,,,,,,,VFR,,,,,,,,,,,,METAR,143.0
KA08 150955Z AUTO 00000KT 10SM CLR 21/21 A3008 RMK AO2 T02100207 PWINO,KA08,2015-06-15T09:55:00Z,32.52,-87.38,21.0,20.7,0,0,,10.0,30.079725,,,TRUE,TRUE,,,,,TRUE,,CLR,,,,,,,,VFR,,,,,,,,,,,,METAR,69.0
K8W2 150955Z AUTO 26006KT 10SM CLR 23/20 A3003 RMK AO1 T02310201,K8W2,2015-06-15T09:55:00Z,38.65,-78.7,23.1,20.1,260,6,,10.0,30.029528,,,TRUE,TRUE,,,,,,,CLR,,,,,,,,VFR,,,,,,,,,,,,METAR,297.0
K8A0 150955Z AUTO 12004KT 10SM CLR 23/22 A3012 RMK AO2,K8A0,2015-06-15T09:55:00Z,34.23,-86.25,23.0,22.0,120,4,,10.0,30.121063,,,TRUE,TRUE,,,,,,,CLR,,,,,,,,VFR,,,,,,,,,,,,METAR,315.0
K6R3 150955Z AUTO 00000KT 5SM BR CLR 23/23 A2994 RMK AO2 T02300228,K6R3,2015-06-15T09:55:00Z,30.35,-95.0,23.0,22.8,0,0,,5.0,29.940945,,,TRUE,TRUE,,,,,,BR,CLR,,,,,,,,MVFR,,,,,,,,,,,,METAR,46.0
K3T5 150955Z AUTO 00000KT 7SM SCT017 SCT022 SCT028 24/24 A2990 RMK AO2 T02440240,K3T5,2015-06-15T09:55:00Z,29.9,-96.95,24.4,24.0,0,0,,7.0,29.899607,,,TRUE,TRUE,,,,,,,SCT,1700,SCT,2200,SCT,2800,,,VFR,,,,,,,,,,,,METAR,99.0
K3K3 150955Z AUTO 35003KT 7SM CLR 14/14 A3005 RMK AO2,K3K3,2015-06-15T09:55:00Z,38.0,-101.75,14.0,14.0,350,3,,7.0,30.050198,,,TRUE,TRUE,,,,,,,CLR,,,,,,,,VFR,,,,,,,,,,,,METAR,1013.0
K3J7 150955Z AUTO 00000KT 10SM CLR 21/ A3010 RMK AO2,K3J7,2015-06-15T09:55:00Z,33.6,-83.13,21.0,,0,0,,10.0,30.100393,,,TRUE,TRUE,,,,,,,CLR,,,,,,,,VFR,,,,,,,,,,,,METAR,206.0
K3AU 150955Z AUTO 00000KT 10SM BKN007 BKN011 OVC022 21/20 A2993 RMK AO2,K3AU,2015-06-15T09:55:00Z,37.67,-97.08,21.0,20.0,0,0,,10.0,29.929134,,,TRUE,TRUE,,,,,,,BKN,700,BKN,1100,OVC,2200,,,IFR,,,,,,,,,,,,METAR,405.0
K0VG 150955Z AUTO 00000KT 9SM CLR 18/18 A3019 RMK AO2,K0VG,2015-06-15T09:55:00Z,36.65,-83.22,18.0,18.0,0,0,,9.0,30.188976,,,TRUE,TRUE,,,,,,,CLR,,,,,,,,VFR,,,,,,,,,,,,METAR,430.0
KOLV 150955Z AUTO 17005KT 10SM CLR 21/ A3006 RMK A01 P000,KOLV,2015-06-15T09:55:00Z,34.98,-89.78,21.0,,170,5,,10.0,30.059055,,,TRUE,TRUE,,,,,,,CLR,,,,,,,,VFR,,,,,,,,,,,,METAR,122.0
KFGX 150955Z AUTO 22005KT 10SM CLR 22/20 A3010 RMK AO2 T02190203,KFGX,2015-06-15T09:55:00Z,38.55,-83.75,21.9,20.3,220,5,,10.0,30.100393,,,TRUE,TRUE,,,,,,,CLR,,,,,,,,VFR,,,,,,,,,,,,METAR,278.0
KBBG 150955Z AUTO 00000KT 10SM CLR 21/20 A3003 RMK AO2,KBBG,2015-06-15T09:55:00Z,36.53,-93.2,21.0,20.0,0,0,,10.0,30.029528,,,TRUE,TRUE,,,,,,,CLR,,,,,,,,VFR,,,,,,,,,,,,METAR,397.0
K96D 150955Z AUTO 10SM CLR 11/08 A3004 RMK AO2,K96D,2015-06-15T09:55:00Z,48.93,-97.9,11.0,8.0,,,,10.0,30.041338,,,TRUE,TRUE,,,,,,,CLR,,,,,,,,VFR,,,,,,,,,,,,METAR,290.0
K5M9 150955Z AUTO 19003KT 10SM CLR 22/21 A3006 RMK AO2 T02220212,K5M9,2015-06-15T09:55:00Z,37.33,-88.12,22.2,21.2,190,3,,10.0,30.059055,,,TRUE,TRUE,,,,,,,CLR,,,,,,,,VFR,,,,,,,,,,,,METAR,199.0
EHEH 150955Z AUTO 05010KT 9999 OVC076 17/07 Q1020 BLU 030010KT 9999 FEW040 SCT075,EHEH,2015-06-15T09:55:00Z,51.45,5.38,17.0,7.0,50,10,,6.21,30.11811,,,TRUE,,,,,,,,OVC,7600,FEW,4000,SCT,7500,,,VFR,,,,,,,,,,,,METAR,22.0
MUHA 150955Z 10002KT 9000 NSC 22/20 Q1016,MUHA,2015-06-15T09:55:00Z,22.97,-82.42,22.0,20.0,100,2,,5.59,30.0,,,,,,,,,,,,,,,,,,,,,,,,,,,,,,,METAR,64.0
EHFS 150955Z AUTO 04010KT 360V070 9999 BKN028/// OVC047/// 15/09 Q1021,EHFS,2015-06-15T09:55:00Z,51.45,3.6,15.0,9.0,40,10,,6.21,30.147638,,,TRUE,,,,,,,,,,,,,,,,,,,,,,,,,,,,METAR,32.0
KPCZ 150955Z AUTO 00000KT 7SM CLR 18/18 A2990 RMK AO2 T01810180,KPCZ,2015-06-15T09:55:00Z,44.33,-89.02,18.1,18.0,0,0,,7.0,29.899607,,,TRUE,TRUE,,,,,,,CLR,,,,,,,,VFR,,,,,,,,,,,,METAR,252.0
KPBX 150955Z AUTO 00000KT 10SM CLR 23/19 A3014 RMK AO2 T02280192,KPBX,2015-06-15T09:55:00Z,37.57,-82.57,22.8,19.2,0,0,,10.0,30.138779,,,TRUE,TRUE,,,,,,,CLR,,,,,,,,VFR,,,,,,,,,,,,METAR,449.0
KOZA 150955Z AUTO 09007KT 7SM VCTSRA SCT035 SCT044 OVC050 18/17 A3000 RMK AO2 LTG DSNT ALQS P0007,KOZA,2015-06-15T09:55:00Z,30.73,-101.2,18.0,17.0,90,7,,7.0,30.0,,,TRUE,TRUE,,,,,,VCTSRA,SCT,3500,SCT,4400,OVC,5000,,,VFR,,,,,,0.07,,,,,,METAR,726.0
KOXV 150955Z AUTO 33006KT 3SM +RA SCT002 BKN007 OVC023 21/21 A2990 RMK AO2 P0040,KOXV,2015-06-15T09:55:00Z,41.28,-93.12,21.0,21.0,330,6,,3.0,29.899607,,,TRUE,TRUE,,,,,,+RA,SCT,200,BKN,700,OVC,2300,,,IFR,,,,,,0.4,,,,,,METAR,283.0
KOUN 150955Z AUTO 18008KT 10SM CLR 22/20 A2995 RMK AO2,KOUN,2015-06-15T09:55:00Z,35.25,-97.47,22.0,20.0,180,8,,10.0,29.949802,,,TRUE,TRUE,,,,,,,CLR,,,,,,,,VFR,,,,,,,,,,,,METAR,357.0
KORC 150955Z AUTO 04005KT 10SM OVC017 19/17 A2992 RMK AO2,KORC,2015-06-15T09:55:00Z,42.97,-96.07,19.0,17.0,40,5,,10.0,29.920275,,,TRUE,TRUE,,,,,,,OVC,1700,,,,,,,MVFR,,,,,,,,,,,,METAR,431.0
KOPN 150955Z AUTO 03003KT 10SM CLR 23/23 A3014 RMK AO2,KOPN,2015-06-15T09:55:00Z,32.95,-84.27,23.0,23.0,30,3,,10.0,30.138779,,,TRUE,TRUE,,,,,,,CLR,,,,,,,,VFR,,,,,,,,,,,,METAR,243.0
KOPL 150955Z AUTO 07003KT 10SM CLR A2998 RMK AO2,KOPL,2015-06-15T09:55:00Z,30.55,-92.1,,,70,3,,10.0,29.97933,,,TRUE,TRUE,,,,,,,CLR,,,,,,,,VFR,,,,,,,,,,,,METAR,23.0
KONM 150955Z AUTO 32008KT 10SM CLR 18/09 A3006 RMK AO2 T01840090,KONM,2015-06-15T09:55:00Z,34.02,-106.9,18.4,9.0,320,8,,10.0,30.059055,,,TRUE,TRUE,,,,,,,CLR,,,,,,,,VFR,,,,,,,,,,,,METAR,1410.0
KONL 150955Z AUTO 34011KT 10SM VCTS SCT049 18/16 A2999 RMK AO2 LTG DSNT NE THRU S T01820164,KONL,2015-06-15T09:55:00Z,42.47,-98.67,18.2,16.4,340,11,,10.0,29.991142,,,TRUE,TRUE,,,,,,VCTS,SCT,4900,,,,,,,VFR,,,,,,,,,,,,METAR,619.0
KOMH 150955Z AUTO 00000KT 10SM CLR 22/21 A3003 RMK AO2,KOMH,2015-06-15T09:55:00Z,38.25,-78.05,22.0,21.0,0,0,,10.0,30.029528,,,TRUE,TRUE,,,,,,,CLR,,,,,,,,VFR,,,,,,,,,,,,METAR,142.0
KOLZ 150955Z AUTO 03008KT 5SM -RA 21/21 A2992 RMK AO2 P0015,KOLZ,2015-06-15T09:55:00Z,42.67,-91.97,21.0,21.0,30,8,,5.0,29.920275,,,TRUE,TRUE,,,,,,-RA,,,,,,,,,,,,,,,0.15,,,,,,METAR,328.0
KOLG 150955Z AUTO 01005KT 10SM BKN040 OVC046 16/15 A2993 RMK AO1,KOLG,2015-06-15T09:55:00Z,46.3,-91.82,16.0,15.0,10,5,,10.0,29.929134,,,TRUE,TRUE,,,,,,,BKN,4000,OVC,4600,,,,,VFR,,,,,,,,,,,,METAR,336.0
KOKV 150955Z AUTO 00000KT 10SM -VCTSRA SCT014 SCT022 BKN047 24/22 A3004 RMK AO2 LTG DSNT NE AND NW,KOKV,2015-06-15T09:55:00Z,39.13,-78.15,24.0,22.0,0,0,,10.0,30.041338,,,TRUE,TRUE,,,,,,VCTS -RA,SCT,1400,SCT,2200,BKN,4700,,,VFR,,,,,,,,,,,,METAR,222.0
KOGA 150955Z AUTO 02007KT 10SM CLR 16/15 A3008 RMK AO2 T01640149,KOGA,2015-06-15T09:55:00Z,41.12,-101.77,16.4,14.9,20,7,,10.0,30.079725,,,TRUE,TRUE,,,,,,,CLR,,,,,,,,VFR,,,,,,,,,,,,METAR,999.0
KNOW 150955Z AUTO 28006KT 10SM CLR 12/09 A2996 RMK AO2 T01180090,KNOW,2015-06-15T09:55:00Z,,,11.8,9.0,280,6,,10.0,29.958662,,,TRUE,TRUE,,,,,,,CLR,,,,,,,,VFR,,,,,,,,,,,,METAR,
KMZZ 150955Z AUTO 23005KT 10SM BKN065 21/21 A3002 RMK AO2 T02110205,KMZZ,2015-06-15T09:55:00Z,40.48,-85.68,21.1,20.5,230,5,,10.0,30.02067,,,TRUE,TRUE,,,,,,,BKN,6500,,,,,,,VFR,,,,,,,,,,,,METAR,262.0
KMXO 150955Z AUTO 00000KT 10SM SCT110 21/21 A2991 RMK AO2 P0002,KMXO,2015-06-15T09:55:00Z,42.22,-91.17,21.0,21.0,0,0,,10.0,29.911417,,,TRUE,TRUE,,,,,,,SCT,11000,,,,,,,VFR,,,,,,0.02,,,,,,METAR,259.0
KCSQ 150955Z AUTO 00000KT 10SM SCT004 BKN009 OVC025 20/20 A2992 RMK AO2 P0018,KCSQ,2015-06-15T09:55:00Z,41.02,-94.37,20.0,20.0,0,0,,10.0,29.920275,,,TRUE,TRUE,,,,,,,SCT,400,BKN,900,OVC,2500,,,IFR,,,,,,0.18,,,,,,METAR,394.0
KCPT 150955Z AUTO 14006KT 9SM FEW009 BKN014 23/23 A2997 RMK AO2 TSNO,KCPT,2015-06-15T09:55:00Z,32.35,-97.43,23.0,23.0,140,6,,9.0,29.970472,,,TRUE,TRUE,,,TRUE,,,,FEW,900,BKN,1400,,,,,MVFR,,,,,,,,,,,,METAR,260.0
KCPC 150955Z AUTO 00000KT 10SM CLR 24/22 A3006 RMK AO2 T02370220,KCPC,2015-06-15T09:55:00Z,34.28,-78.72,23.7,22.0,0,0,,10.0,30.059055,,,TRUE,TRUE,,,,,,,CLR,,,,,,,,VFR,,,,,,,,,,,,METAR,29.0
KCOM 150955Z AUTO 18004KT 10SM BKN005 OVC065 22/22 A2996 RMK AO2 T02210220,KCOM,2015-06-15T09:55:00Z,31.83,-99.4,22.1,22.0,180,4,,10.0,29.958662,,,TRUE,TRUE,,,,,,,BKN,500,OVC,6500,,,,,IFR,,,,,,,,,,,,METAR,517.0
KCNC 150955Z AUTO 00000KT 10SM FEW030 SCT090 BKN120 21/21 A2991 RMK AO2 P0011,KCNC,2015-06-15T09:55:00Z,41.02,-93.37,21.0,21.0,0,0,,10.0,29.911417,,,TRUE,TRUE,,,,,,,FEW,3000,SCT,9000,BKN,12000,,,VFR,,,,,,0.11,,,,,,METAR,320.0
KCIN 150955Z AUTO 00000KT 10SM FEW032 SCT060 BKN075 20/19 A2989 RMK AO2,KCIN,2015-06-15T09:55:00Z,42.03,-94.77,20.0,19.0,0,0,,10.0,29.890747,,,TRUE,TRUE,,,,,,,FEW,3200,SCT,6000,BKN,7500,,,VFR,,,,,,,,,,,,METAR,375.0
KCFD 150955Z AUTO 00000KT 7SM CLR 23/23 A2995 RMK AO2 T02250225,KCFD,2015-06-15T09:55:00Z,30.72,-96.33,22.5,22.5,0,0,,7.0,29.949802,,,TRUE,TRUE,,,,,,,CLR,,,,,,,,VFR,,,,,,,,,,,,METAR,112.0
KCBF 150955Z AUTO 09004KT 5SM -RA SCT030 BKN037 OVC075 19/18 A2993 RMK AO2 P0008,KCBF,2015-06-15T09:55:00Z,41.27,-95.77,19.0,18.0,90,4,,5.0,29.929134,,,TRUE,TRUE,,,,,,-RA,SCT,3000,BKN,3700,OVC,7500,,,MVFR,,,,,,0.08,,,,,,METAR,382.0
KCAV 150955Z AUTO 00000KT 4SM BR BKN006 BKN075 OVC095 21/21 A2992 RMK AO2,KCAV,2015-06-15T09:55:00Z,42.75,-93.77,21.0,21.0,0,0,,4.0,29.920275,,,TRUE,TRUE,,,,,,BR,BKN,600,BKN,7500,OVC,9500,,,IFR,,,,,,,,,,,,METAR,354.0
KC75 150955Z AUTO 20003KT 10SM SCT095 BKN120 22/21 A2993 RMK AO2 T02180208,KC75,2015-06-15T09:55:00Z,41.02,-89.38,21.8,20.8,200,3,,10.0,29.929134,,,TRUE,TRUE,,,,,,,SCT,9500,BKN,12000,,,,,VFR,,,,,,,,,,,,METAR,173.0
KC35 150955Z AUTO 00000KT 10SM CLR 19/18 A2992 RMK AO2 T01870183,KC35,2015-06-15T09:55:00Z,43.53,-89.98,18.7,18.3,0,0,,10.0,29.920275,,,TRUE,TRUE,,,,,,,CLR,,,,,,,,VFR,,,,,,,,,,,,METAR,276.0
KC29 150955Z AUTO 00000KT 10SM SCT065 BKN100 OVC120 21/21 A2992 RMK AO1 T02060205,KC29,2015-06-15T09:55:00Z,43.12,-89.53,20.6,20.5,0,0,,10.0,29.920275,,,TRUE,TRUE,,,,,,,SCT,6500,BKN,10000,OVC,12000,,,VFR,,,,,,,,,,,,METAR,283.0
KBWP 150955Z AUTO 32005KT 10SM CLR 11/09 A3001 RMK AO1,KBWP,2015-06-15T09:55:00Z,46.25,-96.62,11.0,9.0,320,5,,10.0,30.008858,,,TRUE,TRUE,,,,,,,CLR,,,,,,,,VFR,,,,,,,,,,,,METAR,295.0
KBVS 150955Z AUTO 00000KT 10SM CLR 12/09 A2995 RMK A01,KBVS,2015-06-15T09:55:00Z,48.47,-122.42,12.0,9.0,0,0,,10.0,29.949802,,,TRUE,TRUE,,,,,,,CLR,,,,,,,,VFR,,,,,,,,,,,,METAR,43.0
KBVN 150955Z AUTO 34005KT 10SM CLR 20/18 A2995 RMK AO2 LTG DSNT N AND NW T02000175,KBVN,2015-06-15T09:55:00Z,41.73,-98.05,20.0,17.5,340,5,,10.0,29.949802,,,TRUE,TRUE,,,,,,,CLR,,,,,,,,VFR,,,,,,,,,,,,METAR,551.0
KBUU 150955Z AUTO 00000KT 5SM BR BKN070 BKN090 18/18 A2993 RMK AO2 T01820181,KBUU,2015-06-15T09:55:00Z,42.68,-88.3,18.2,18.1,0,0,,5.0,29.929134,,,TRUE,TRUE,,,,,,BR,BKN,7000,BKN,9000,,,,,MVFR,,,,,,,,,,,,METAR,237.0
KBPG 150955Z AUTO 30005KT 10SM SCT120 21/18 A3000 RMK AO2 LTG DSNT E T02080179,KBPG,2015-06-15T09:55:00Z,32.22,-101.52,20.8,17.9,300,5,,10.0,30.0,,,TRUE,TRUE,,,,,,,SCT,12000,,,,,,,VFR,,,,,,,,,,,,METAR,784.0
KBNW 150955Z AUTO 24004KT 5SM RA 21/20 A2991 RMK AO2 P0009,KBNW,2015-06-15T09:55:00Z,42.03,-93.83,21.0,20.0,240,4,,5.0,29.911417,,,TRUE,TRUE,,,,,,RA,,,,,,,,,,,,,,,0.09,,,,,,METAR,354.0
KBMT 150955Z AUTO 09007KT 10SM SCT017 BKN026 OVC038 25/23 A2992 RMK AO2 T02510233,KBMT,2015-06-15T09:55:00Z,30.07,-94.22,25.1,23.3,90,7,,10.0,29.920275,,,TRUE,TRUE,,,,,,,SCT,1700,BKN,2600,OVC,3800,,,MVFR,,,,,,,,,,,,METAR,10.0
KBMC 150955Z AUTO 00000KT 10SM CLR 16/06 A2997 RMK AO1 T01620055,KBMC,2015-06-15T09:55:00Z,41.55,-112.07,16.2,5.5,0,0,,10.0,29.970472,,,TRUE,TRUE,,,,,,,CLR,,,,,,,,VFR,,,,,,,,,,,,METAR,1288.0
KBKD 150955Z AUTO 19006KT 10SM SCT017 BKN080 24/22 A2994 RMK AO2 T02350221,KBKD,2015-06-15T09:55:00Z,32.72,-98.88,23.5,22.1,190,6,,10.0,29.940945,,,TRUE,TRUE,,,,,,,SCT,1700,BKN,8000,,,,,VFR,,,,,,,,,,,,METAR,392.0
KBIE 150955Z AUTO 07007KT 10SM SCT004 OVC010 21/20 A2989 RMK AO2 T02050197,KBIE,2015-06-15T09:55:00Z,40.28,-96.75,20.5,19.7,70,7,,10.0,29.890747,,,TRUE,TRUE,,,,,,,SCT,400,OVC,1000,,,,,MVFR,,,,,,,,,,,,METAR,403.0
KBGE 150955Z AUTO 00000KT 10SM CLR 23/22 A3009 RMK AO2,KBGE,2015-06-15T09:55:00Z,30.97,-84.63,23.0,22.0,0,0,,10.0,30.088583,,,TRUE,TRUE,,,,,,,CLR,,,,,,,,VFR,,,,,,,,,,,,METAR,43.0
KBBD 150955Z AUTO 15004KT 10SM CLR 22/22 A2996 RMK,KBBD,2015-06-15T09:55:00Z,31.18,-99.32,22.0,22.0,150,4,,10.0,29.958662,,,TRUE,,,,,,,,CLR,,,,,,,,VFR,,,,,,,,,,,,METAR,557.0
KAYS 150955Z AUTO 00000KT 10SM CLR 22/22 A3010 RMK AO2 T02230217,KAYS,2015-06-15T09:55:00Z,31.25,-82.4,22.3,21.7,0,0,,10.0,30.100393,,,TRUE,TRUE,,,,,,,CLR,,,,,,,,VFR,,,,,,,,,,,,METAR,46.0
KAXX 150955Z AUTO 13005KT 3SM BR SCT001 BKN110 05/05 A3033 RMK AO2 T00490045,KAXX,2015-06-15T09:55:00Z,36.42,-105.28,4.9,4.5,130,5,,3.0,30.33071,,,TRUE,TRUE,,,,,,BR,SCT,100,BKN,11000,,,,,MVFR,,,,,,,,,,,,METAR,2548.0
KAXA 150955Z AUTO 01006KT 10SM CLR 21/18 A2993 RMK AO2,KAXA,2015-06-15T09:55:00Z,43.07,-94.27,21.0,18.0,10,6,,10.0,29.929134,,,TRUE,TRUE,,,,,,,CLR,,,,,,,,VFR,,,,,,,,,,,,METAR,372.0
KAWG 150955Z AUTO 14003KT 4SM BR FEW037 BKN048 BKN065 22/22 A2993 RMK AO2,KAWG,2015-06-15T09:55:00Z,41.27,-91.67,22.0,22.0,140,3,,4.0,29.929134,,,TRUE,TRUE,,,,,,BR,FEW,3700,BKN,4800,BKN,6500,,,MVFR,,,,,,,,,,,,METAR,230.0
KAUH 150955Z AUTO 05004KT 10SM -RA SCT023 BKN065 OVC075 19/19 A2996 RMK AO2 P0009 T01850185,KAUH,2015-06-15T09:55:00Z,40.88,-98.0,18.5,18.5,50,4,,10.0,29.958662,,,TRUE,TRUE,,,,,,-RA,SCT,2300,BKN,6500,OVC,7500,,,VFR,,,,,,0.09,,,,,,METAR,550.0
KATW 150955Z AUTO 00000KT 10SM CLR 19/18 A2991 RMK AO2,KATW,2015-06-15T09:55:00Z,44.27,-88.52,19.0,18.0,0,0,,10.0,29.911417,,,TRUE,TRUE,,,,,,,CLR,,,,,,,,VFR,,,,,,,,,,,,METAR,280.0
KASL 150955Z AUTO 15004KT OVC007 25/23 A3001 RMK AO1 T02450230,KASL,2015-06-15T09:55:00Z,32.52,-94.3,24.5,23.0,150,4,,,30.008858,,,TRUE,TRUE,,,,,,,OVC,700,,,,,,,,,,,,,,,,,,,METAR,109.0
KAPY 150955Z AUTO 00000KT 10SM BKN016 OVC021 23/23 A2985 RMK AO2 T02370235,KAPY,2015-06-15T09:55:00Z,26.97,-99.25,23.7,23.5,0,0,,10.0,29.84941,,,TRUE,TRUE,,,,,,,BKN,1600,OVC,2100,,,,,MVFR,,,,,,,,,,,,METAR,129.0
KHDC 150955Z AUTO 00000KT 10SM SCT018 SCT023 24/22 A3002 RMK AO2,KHDC,2015-06-15T09:55:00Z,30.52,-90.42,24.0,22.0,0,0,,10.0,30.02067,,,TRUE,TRUE,,,,,,,SCT,1800,SCT,2300,,,,,VFR,,,,,,,,,,,,METAR,13.0
KGYI 150955Z AUTO 15006KT 10SM CLR 24/23 A2997 RMK AO2 T02430231,KGYI,2015-06-15T09:55:00Z,33.72,-96.67,24.3,23.1,150,6,,10.0,29.970472,,,TRUE,TRUE,,,,,,,CLR,,,,,,,,VFR,,,,,,,,,,,,METAR,228.0
KGYB 150955Z AUTO 00000KT 5SM BR SCT010 SCT013 23/22 A2997 RMK AO2 T02280221,KGYB,2015-06-15T09:55:00Z,30.17,-96.98,22.8,22.1,0,0,,5.0,29.970472,,,TRUE,TRUE,,,,,,BR,SCT,1000,SCT,1300,,,,,MVFR,,,,,,,,,,,,METAR,148.0
KGWB 150955Z AUTO 23003KT 7SM BKN022 22/21 A3000 RMK AO2,KGWB,2015-06-15T09:55:00Z,41.3,-85.07,22.0,21.0,230,3,,7.0,30.0,,,TRUE,TRUE,,,,,,,BKN,2200,,,,,,,MVFR,,,,,,,,,,,,METAR,269.0
KGUR 150955Z AUTO 05008KT 10SM 18/16 A3018 RMK AO2 T01790163 PWINO,KGUR,2015-06-15T09:55:00Z,42.25,-104.72,17.9,16.3,50,8,,10.0,30.180119,,,TRUE,TRUE,,,,,TRUE,,,,,,,,,,,,,,,,,,,,,,METAR,1358.0
KGNC 150955Z AUTO 06005KT 5SM BR BKN110 18/18 A3002 RMK AO2 T01820176,KGNC,2015-06-15T09:55:00Z,32.68,-102.65,18.2,17.6,60,5,,5.0,30.02067,,,TRUE,TRUE,,,,,,BR,BKN,11000,,,,,,,MVFR,,,,,,,,,,,,METAR,1010.0
KGLW 150955Z AUTO 00000KT 10SM CLR 22/20 A3010 RMK AO2 T02190195,KGLW,2015-06-15T09:55:00Z,37.03,-85.95,21.9,19.5,0,0,,10.0,30.100393,,,TRUE,TRUE,,,,,,,CLR,,,,,,,,VFR,,,,,,,,,,,,METAR,218.0
KGLE 150955Z AUTO 15005KT 10SM SCT030 SCT035 BKN120 24/22 A2998 RMK AO2 T02350216,KGLE,2015-06-15T09:55:00Z,33.65,-97.2,23.5,21.6,150,5,,10.0,29.97933,,,TRUE,TRUE,,,,,,,SCT,3000,SCT,3500,BKN,12000,,,VFR,,,,,,,,,,,,METAR,256.0
KGHG 150955Z AUTO 14004KT 10SM FEW046 15/12 A3012 RMK AO2,KGHG,2015-06-15T09:55:00Z,42.1,-70.67,15.0,12.0,140,4,,10.0,30.121063,,,TRUE,TRUE,,,,,,,FEW,4600,,,,,,,VFR,,,,,,,,,,,,METAR,4.0
KGDJ 150955Z AUTO 00000KT 10SM OVC009 24/22 A2997 RMK AO2 T02360216,KGDJ,2015-06-15T09:55:00Z,32.45,-97.82,23.6,21.6,0,0,,10.0,29.970472,,,TRUE,TRUE,,,,,,,OVC,900,,,,,,,IFR,,,,,,,,,,,,METAR,237.0
KGCD 150955Z AUTO 00000KT 10SM CLR 12/02 A3000 RMK AO2 T01160015,KGCD,2015-06-15T09:55:00Z,44.38,-118.97,11.6,1.5,0,0,,10.0,30.0,,,TRUE,TRUE,,,,,,,CLR,,,,,,,,VFR,,,,,,,,,,,,METAR,1127.0
KGAO 150955Z AUTO 11003KT 10SM BKN020 28/24 A2997 RMK AO2 T02760243,KGAO,2015-06-15T09:55:00Z,29.45,-90.27,27.6,24.3,110,3,,10.0,29.970472,,,TRUE,TRUE,,,,,,,BKN,2000,,,,,,,MVFR,,,,,,,,,,,,METAR,1.0
KFZG 150955Z AUTO 00000KT 10SM CLR 22/21 A3013 RMK AO2 T02210214,KFZG,2015-06-15T09:55:00Z,31.68,-83.27,22.1,21.4,0,0,,10.0,30.129921,,,TRUE,TRUE,,,,,,,CLR,,,,,,,,VFR,,,,,,,,,,,,METAR,111.0
KFXY 150955Z AUTO 00000KT 10SM 21/21 A2993 RMK AO2,KFXY,2015-06-15T09:55:00Z,43.23,-93.62,21.0,21.0,0,0,,10.0,29.929134,,,TRUE,TRUE,,,,,,,,,,,,,,,,,,,,,,,,,,,METAR,375.0
KFFL 150955Z AUTO 00000KT 10SM BKN100 OVC200 21/20 A2991 RMK AO2,KFFL,2015-06-15T09:55:00Z,41.03,-91.97,21.0,20.0,0,0,,10.0,29.911417,,,TRUE,TRUE,,,,,,,BKN,10000,OVC,20000,,,,,VFR,,,,,,,,,,,,METAR,244.0
KF05 150955Z AUTO 08011KT 10SM CLR 20/18 A2993 RMK AO1 T02040176,KF05,2015-06-15T09:55:00Z,34.23,-99.28,20.4,17.6,80,11,,10.0,29.929134,,,TRUE,TRUE,,,,,,,CLR,,,,,,,,VFR,,,,,,,,,,,,METAR,386.0
KEZM 150955Z AUTO 00000KT 1 1/2SM BR VV007 21/21 A3014 RMK AO2 VIS 1/2V5 T02110211,KEZM,2015-06-15T09:55:00Z,32.22,-83.13,21.1,21.1,0,0,,1.5,30.138779,,,TRUE,TRUE,,,,,,BR,OVX,0,,,,,,,LIFR,,,,,,,,,,,700,METAR,93.0
KETC 150955Z AUTO 00000KT 1 3/4SM BR 22/21 A3005 RMK AO2 VIS 1 1/4V3 T02180211,KETC,2015-06-15T09:55:00Z,35.93,-77.55,21.8,21.1,0,0,,1.75,30.050198,,,TRUE,TRUE,,,,,,BR,,,,,,,,,,,,,,,,,,,,,METAR,17.0
KETB 150955Z AUTO 00000KT 7SM CLR 17/16 A2992 RMK AO2,KETB,2015-06-15T09:55:00Z,43.42,-88.13,17.0,16.0,0,0,,7.0,29.920275,,,TRUE,TRUE,,,,,,,CLR,,,,,,,,VFR,,,,,,,,,,,,METAR,270.0
KEOK 150955Z AUTO 18006KT 10SM SCT065 23/22 A2992 RMK AO2,KEOK,2015-06-15T09:55:00Z,40.47,-91.42,23.0,22.0,180,6,,10.0,29.920275,,,TRUE,TRUE,,,,,,,SCT,6500,,,,,,,VFR,,,,,,,,,,,,METAR,205.0
KEMM 150955Z AUTO 01008KT 10SM CLR 09/05 A3021 RMK AO2,KEMM,2015-06-15T09:55:00Z,41.82,-110.55,9.0,5.0,10,8,,10.0,30.209646,,,TRUE,TRUE,,,,,,,CLR,,,,,,,,VFR,,,,,,,,,,,,METAR,2220.0
KEGV 150955Z AUTO 00000KT 1/4SM FG VV002 09/09 A2993 RMK AO2 T00890089,KEGV,2015-06-15T09:55:00Z,45.93,-89.27,8.9,8.9,0,0,,0.25,29.929134,,,TRUE,TRUE,,,,,,FG,OVX,0,,,,,,,LIFR,,,,,,,,,,,200,METAR,500.0
KEFT 150955Z AUTO 02005KT 3/4SM RA 21/20 A2993 RMK AO2 LTG DSNT E P0006,KEFT,2015-06-15T09:55:00Z,42.62,-89.6,21.0,20.0,20,5,,0.75,29.929134,,,TRUE,TRUE,,,,,,RA,,,,,,,,,,,,,,,0.06,,,,,,METAR,331.0
KEBS 150955Z AUTO 24004KT 6SM BR FEW028 SCT041 BKN060 21/21 A2989 RMK AO2,KEBS,2015-06-15T09:55:00Z,42.42,-93.87,21.0,21.0,240,4,,6.0,29.890747,,,TRUE,TRUE,,,,,,BR,FEW,2800,SCT,4100,BKN,6000,,,VFR,,,,,,,,,,,,METAR,342.0
KE38 150955Z AUTO 00000KT 10SM CLR 16/13 A3008 RMK AO2 T01600130,KE38,2015-06-15T09:55:00Z,30.38,-103.68,16.0,13.0,0,0,,10.0,30.079725,,,TRUE,TRUE,,,,,,,CLR,,,,,,,,VFR,,,,,,,,,,,,METAR,1376.0
KDZJ 150955Z AUTO 00000KT 10SM 17/13 A3022 RMK AO2 T01700132,KDZJ,2015-06-15T09:55:00Z,34.85,-84.0,17.0,13.2,0,0,,10.0,30.221457,,,TRUE,TRUE,,,,,,,,,,,,,,,,,,,,,,,,,,,METAR,582.0
KDWX 150955Z AUTO 11004KT 10SM CLR 10/06 A3019 RMK AO2 T00970058,KDWX,2015-06-15T09:55:00Z,41.03,-107.5,9.7,5.8,110,4,,10.0,30.188976,,,TRUE,TRUE,,,,,,,CLR,,,,,,,,VFR,,,,,,,,,,,,METAR,1996.0
KDUB 150955Z AUTO 13009KT 10SM BKN024 OVC029 10/05 A3024 RMK AO2,KDUB,2015-06-15T09:55:00Z,43.55,-109.68,10.0,5.0,130,9,,10.0,30.239174,,,TRUE,TRUE,,,,,,,BKN,2400,OVC,2900,,,,,MVFR,,,,,,,,,,,,METAR,2224.0
KDPL 150955Z AUTO 00000KT 10SM CLR 22/21 A3006 RMK AO2 T02190209,KDPL,2015-06-15T09:55:00Z,35.0,-77.97,21.9,20.9,0,0,,10.0,30.059055,,,TRUE,TRUE,,,,,,,CLR,,,,,,,,VFR,,,,,,,,,,,,METAR,42.0
KDNV 150955Z AUTO 20003KT 10SM BKN065 BKN070 22/21 A2997 RMK AO2 T02160213,KDNV,2015-06-15T09:55:00Z,40.2,-87.6,21.6,21.3,200,3,,10.0,29.970472,,,TRUE,TRUE,,,,,,,BKN,6500,BKN,7000,,,,,VFR,,,,,,,,,,,,METAR,212.0
KDKB 150955Z AUTO 21006KT 2 1/2SM -RA OVC002 21/20 A2995 RMK AO2 T02050202,KDKB,2015-06-15T09:55:00Z,41.93,-88.7,20.5,20.2,210,6,,2.5,29.949802,,,TRUE,TRUE,,,,,,-RA,OVC,200,,,,,,,LIFR,,,,,,,,,,,,METAR,279.0
KDEH 150955Z AUTO 17005KT 10SM BKN029 OVC039 21/19 A2992 RMK AO2,KDEH,2015-06-15T09:55:00Z,43.27,-91.72,21.0,19.0,170,5,,10.0,29.920275,,,TRUE,TRUE,,,,,,,BKN,2900,OVC,3900,,,,,MVFR,,,,,,,,,,,,METAR,353.0
KDCY 150955Z AUTO 21006KT 10SM CLR 23/21 A3002 RMK AO2 T02260205,KDCY,2015-06-15T09:55:00Z,38.7,-87.13,22.6,20.5,210,6,,10.0,30.02067,,,TRUE,TRUE,,,,,,,CLR,,,,,,,,VFR,,,,,,,,,,,,METAR,144.0
KDBN 150955Z AUTO 00000KT 10SM CLR 21/20 A3013 RMK AO2,KDBN,2015-06-15T09:55:00Z,32.57,-82.98,21.0,20.0,0,0,,10.0,30.129921,,,TRUE,TRUE,,,,,,,CLR,,,,,,,,VFR,,,,,,,,,,,,METAR,94.0
KCUH 150955Z AUTO 17008G14KT 22/22 A2992 RMK AO2 SKY OBSCURED PWINO,KCUH,2015-06-15T09:55:00Z,35.95,-96.77,22.0,22.0,170,8,14,,29.920275,,,TRUE,TRUE,,,,,TRUE,,,,,,,,,,,,,,,,,,,,,,METAR,279.0
KCTZ 150955Z AUTO 00000KT 7SM CLR 23/23 A3005 RMK AO2 T02290226,KCTZ,2015-06-15T09:55:00Z,34.98,-78.37,22.9,22.6,0,0,,7.0,30.050198,,,TRUE,TRUE,,,,,,,CLR,,,,,,,,VFR,,,,,,,,,,,,METAR,45.0
KMWC 150955Z AUTO 00000KT 4SM CLR 17/16 A2992 RMK AO2 PWINO,KMWC,2015-06-15T09:55:00Z,43.12,-88.03,17.0,16.0,0,0,,4.0,29.920275,,,TRUE,TRUE,,,,,TRUE,,CLR,,,,,,,,MVFR,,,,,,,,,,,,METAR,227.0
KMWA 150955Z AUTO 18003KT 10SM CLR 22/21 A3003 RMK AO2,KMWA,2015-06-15T09:55:00Z,37.77,-89.02,22.0,21.0,180,3,,10.0,30.029528,,,TRUE,TRUE,,,,,,,CLR,,,,,,,,VFR,,,,,,,,,,,,METAR,144.0
KMUT 150955Z AUTO 00000KT 10SM OVC043 23/22 A2992 RMK AO2,KMUT,2015-06-15T09:55:00Z,41.37,-91.15,23.0,22.0,0,0,,10.0,29.920275,,,TRUE,TRUE,,,,,,,OVC,4300,,,,,,,VFR,,,,,,,,,,,,METAR,167.0
KMRJ 150955Z AUTO 00000KT 7SM -RA CLR 21/20 A2993 RMK AO2 P0001,KMRJ,2015-06-15T09:55:00Z,42.88,-90.23,21.0,20.0,0,0,,7.0,29.929134,,,TRUE,TRUE,,,,,,-RA,CLR,,,,,,,,VFR,,,,,,0.01,,,,,,METAR,359.0
KMPZ 150955Z AUTO 16004KT 7SM SCT100 BKN120 23/21 A2992 RMK AO2 T02310213,KMPZ,2015-06-15T09:55:00Z,40.95,-91.52,23.1,21.3,160,4,,7.0,29.920275,,,TRUE,TRUE,,,,,,,SCT,10000,BKN,12000,,,,,VFR,,,,,,,,,,,,METAR,224.0
KMNZ 150955Z AUTO 18007KT 10SM SCT010 SCT021 BKN070 23/23 A2998 RMK AO2 T02310231,KMNZ,2015-06-15T09:55:00Z,31.67,-98.15,23.1,23.1,180,7,,10.0,29.97933,,,TRUE,TRUE,,,,,,,SCT,1000,SCT,2100,BKN,7000,,,VFR,,,,,,,,,,,,METAR,396.0
KMLE 150955Z AUTO 12003KT 7SM -RA SCT016 BKN080 OVC090 20/19 A2991 RMK AO2 P0002 T01960186,KMLE,2015-06-15T09:55:00Z,41.2,-96.12,19.6,18.6,120,3,,7.0,29.911417,,,TRUE,TRUE,,,,,,-RA,SCT,1600,BKN,8000,OVC,9000,,,VFR,,,,,,0.02,,,,,,METAR,320.0
KMKJ 150955Z AUTO 26007KT 10SM CLR 19/18 A3023 RMK AO2 T01930177,KMKJ,2015-06-15T09:55:00Z,36.88,-81.33,19.3,17.7,260,7,,10.0,30.230314,,,TRUE,TRUE,,,,,,,CLR,,,,,,,,VFR,,,,,,,,,,,,METAR,780.0
KM30 150955Z AUTO 00000KT 10SM CLR 24/23 A3004 RMK AO2 T02430225,KM30,2015-06-15T09:55:00Z,37.18,-88.75,24.3,22.5,0,0,,10.0,30.041338,,,TRUE,TRUE,,,,,,,CLR,,,,,,,,VFR,,,,,,,,,,,,METAR,117.0
KLXN 150955Z AUTO 31008KT 10SM SCT001 SCT009 BKN050 18/17 A2999 RMK AO2 T01800170,KLXN,2015-06-15T09:55:00Z,40.78,-99.77,18.0,17.0,310,8,,10.0,29.991142,,,TRUE,TRUE,,,,,,,SCT,100,SCT,900,BKN,5000,,,VFR,,,,,,,,,,,,METAR,734.0
KLUA 150955Z AUTO 00000KT 10SM CLR 22/22 A3004 RMK AO2 LTG DSNT N,KLUA,2015-06-15T09:55:00Z,38.67,-78.5,22.0,22.0,0,0,,10.0,30.041338,,,TRUE,TRUE,,,,,,,CLR,,,,,,,,VFR,,,,,,,,,,,,METAR,275.0
KLRU 150955Z AUTO 14005KT 10SM CLR 23/06 A2996 RMK AO2 T02300056,KLRU,2015-06-15T09:55:00Z,32.27,-106.92,23.0,5.6,140,5,,10.0,29.958662,,,TRUE,TRUE,,,,,,,CLR,,,,,,,,VFR,,,,,,,,,,,,METAR,1358.0
KLRJ 150955Z AUTO 01006KT 9SM 21/20 A2991 RMK AO2,KLRJ,2015-06-15T09:55:00Z,42.77,-96.2,21.0,20.0,10,6,,9.0,29.911417,,,TRUE,TRUE,,,,,,,,,,,,,,,,,,,,,,,,,,,METAR,365.0
KLKU 150955Z AUTO 00000KT 10SM CLR 23/22 A3001 RMK AO2,KLKU,2015-06-15T09:55:00Z,38.02,-77.97,23.0,22.0,0,0,,10.0,30.008858,,,TRUE,TRUE,,,,,,,CLR,,,,,,,,VFR,,,,,,,,,,,,METAR,150.0
KLGC 150955Z AUTO 00000KT 5SM BR CLR 22/22 A3012 RMK AO2 T02240224,KLGC,2015-06-15T09:55:00Z,33.0,-85.07,22.4,22.4,0,0,,5.0,30.121063,,,TRUE,TRUE,,,,,,BR,CLR,,,,,,,,MVFR,,,,,,,,,,,,METAR,211.0
KLCQ 150955Z AUTO 00000KT 10SM CLR 19/19 A3010 RMK AO2,KLCQ,2015-06-15T09:55:00Z,30.18,-82.58,19.0,19.0,0,0,,10.0,30.100393,,,TRUE,TRUE,,,,,,,CLR,,,,,,,,VFR,,,,,,,,,,,,METAR,61.0
KLCK 150955Z AUTO 19004KT 10SM SCT042 SCT050 BKN110 22/20 A3004 RMK AO2 T02150203,KLCK,2015-06-15T09:55:00Z,39.82,-82.92,21.5,20.3,190,4,,10.0,30.041338,,,TRUE,TRUE,,,,,,,SCT,4200,SCT,5000,BKN,11000,,,VFR,,,,,,,,,,,,METAR,227.0
KLCG 150955Z AUTO 31004KT 10SM -VCTSRA OVC110 20/19 A2990 RMK AO2 LTG DSNT SE AND NW P0003 T01990190,KLCG,2015-06-15T09:55:00Z,42.25,-96.98,19.9,19.0,310,4,,10.0,29.899607,,,TRUE,TRUE,,,,,,VCTS -RA,OVC,11000,,,,,,,VFR,,,,,,0.03,,,,,,METAR,436.0
KLAM 150955Z AUTO 36007KT 10SM SCT110 14/07 A3024 RMK AO2 T01370070,KLAM,2015-06-15T09:55:00Z,35.87,-106.27,13.7,7.0,360,7,,10.0,30.239174,,,TRUE,TRUE,,,,,,,SCT,11000,,,,,,,VFR,,,,,,,,,,,,METAR,2179.0
KL38 150955Z AUTO 00000KT 10SM CLR 25/25 A2997 RMK AO2 T02460246,KL38,2015-06-15T09:55:00Z,30.17,-90.93,24.6,24.6,0,0,,10.0,29.970472,,,TRUE,TRUE,,,,,,,CLR,,,,,,,,VFR,,,,,,,,,,,,METAR,4.0
KL35 150955Z AUTO 00000KT 10SM CLR 10/03 A3016 RMK AO2,KL35,2015-06-15T09:55:00Z,34.27,-116.85,10.0,3.0,0,0,,10.0,30.159449,,,TRUE,TRUE,,,,,,,CLR,,,,,,,,VFR,,,,,,,,,,,,METAR,2059.0
KJZP 150955Z AUTO 00000KT 10SM CLR 23/11 A3020 RMK AO2 T02300109,KJZP,2015-06-15T09:55:00Z,,,23.0,10.9,0,0,,10.0,30.200787,,,TRUE,TRUE,,,,,,,CLR,,,,,,,,VFR,,,,,,,,,,,,METAR,
KJYL 150955Z AUTO 00000KT 10SM CLR 23/23 A3011 RMK AO2 T02300227,KJYL,2015-06-15T09:55:00Z,32.65,-81.6,23.0,22.7,0,0,,10.0,30.109253,,,TRUE,TRUE,,,,,,,CLR,,,,,,,,VFR,,,,,,,,,,,,METAR,57.0
KJGG 150955Z AUTO 00000KT 5SM CLR 24/23 A3003 RMK AO1,KJGG,2015-06-15T09:55:00Z,37.23,-76.72,24.0,23.0,0,0,,5.0,30.029528,,,TRUE,TRUE,,,,,,,CLR,,,,,,,,MVFR,,,,,,,,,,,,METAR,15.0
KIWA 150955Z AUTO 19004KT 10SM CLR 26/10 A2975 RMK AO2,KIWA,2015-06-15T09:55:00Z,33.3,-111.65,26.0,10.0,190,4,,10.0,29.749016,,,TRUE,TRUE,,,,,,,CLR,,,,,,,,VFR,,,,,,,,,,,,METAR,412.0
KISO 150955Z AUTO 00000KT 4SM BR CLR 23/22 A3005 RMK AO2 T02260221,KISO,2015-06-15T09:55:00Z,35.32,-77.62,22.6,22.1,0,0,,4.0,30.050198,,,TRUE,TRUE,,,,,,BR,CLR,,,,,,,,MVFR,,,,,,,,,,,,METAR,29.0
KINJ 150955Z AUTO 13006KT 10SM OVC008 23/22 A2996 RMK AO2 T02300215,KINJ,2015-06-15T09:55:00Z,32.08,-97.1,23.0,21.5,130,6,,10.0,29.958662,,,TRUE,TRUE,,,,,,,OVC,800,,,,,,,IFR,,,,,,,,,,,,METAR,209.0
KIKV 150955Z AUTO 25005KT 5SM -RA FEW003 SCT036 OVC050 20/20 A2992 RMK AO2 P0025,KIKV,2015-06-15T09:55:00Z,41.68,-93.57,20.0,20.0,250,5,,5.0,29.920275,,,TRUE,TRUE,,,,,,-RA,FEW,300,SCT,3600,OVC,5000,,,MVFR,,,,,,0.25,,,,,,METAR,275.0
KIJX 150955Z AUTO 18005KT 10SM CLR 23/22 A2996 RMK AO2 T02330222,KIJX,2015-06-15T09:55:00Z,39.77,-90.25,23.3,22.2,180,5,,10.0,29.958662,,,TRUE,TRUE,,,,,,,CLR,,,,,,,,VFR,,,,,,,,,,,,METAR,190.0
KICL 150955Z AUTO 03005KT 10SM BKN005 BKN019 OVC080 20/20 A2992 RMK AO2 P0008,KICL,2015-06-15T09:55:00Z,40.72,-95.02,20.0,20.0,30,5,,10.0,29.920275,,,TRUE,TRUE,,,,,,,BKN,500,BKN,1900,OVC,8000,,,IFR,,,,,,0.08,,,,,,METAR,303.0
KHRJ 150955Z AUTO 00000KT 10SM CLR 23/23 A3005 RMK AO2 T02300225,KHRJ,2015-06-15T09:55:00Z,35.38,-78.73,23.0,22.5,0,0,,10.0,30.050198,,,TRUE,TRUE,,,,,,,CLR,,,,,,,,VFR,,,,,,,,,,,,METAR,60.0
KHOE 150955Z AUTO 00000KT 10SM CLR 21/20 A3011 RMK AO2,KHOE,2015-06-15T09:55:00Z,31.05,-82.78,21.0,20.0,0,0,,10.0,30.109253,,,TRUE,TRUE,,,,,,,CLR,,,,,,,,VFR,,,,,,,,,,,,METAR,57.0
KHNR 150955Z AUTO 00000KT 10SM OVC095 19/19 A2993 RMK AO2,KHNR,2015-06-15T09:55:00Z,41.58,-95.33,19.0,19.0,0,0,,10.0,29.929134,,,TRUE,TRUE,,,,,,,OVC,9500,,,,,,,VFR,,,,,,,,,,,,METAR,375.0
KHJH 150955Z AUTO 33007KT 5SM DZ OVC010 19/18 A2992 RMK AO2 P0001 T01920177,KHJH,2015-06-15T09:55:00Z,40.15,-97.58,19.2,17.7,330,7,,5.0,29.920275,,,TRUE,TRUE,,,,,,DZ,OVC,1000,,,,,,,MVFR,,,,,,0.01,,,,,,METAR,447.0
KHDE 150955Z AUTO 32008KT 10SM CLR 18/15 A2998 RMK AO2 T01750153,KHDE,2015-06-15T09:55:00Z,40.45,-99.32,17.5,15.3,320,8,,10.0,29.97933,,,TRUE,TRUE,,,,,,,CLR,,,,,,,,VFR,,,,,,,,,,,,METAR,705.0
KQSN 150955Z AUTO VRB02KT 9999 CLR 28/M09 A2988 RMK AO2 SLP018 T02751086,KQSN,2015-06-15T09:55:00Z,100.65,-1000.65,27.5,-8.6,0,2,,6.21,29.878937,1001.8,,TRUE,TRUE,,,,,,,CLR,,,,,,,,VFR,,,,,,,,,,,,METAR,999.0
KQLP 150955Z AUTO VRB01KT 10SM FEW042 BKN050 24/10 A3027 RMK AO2 SLP186 T02350102 $,KQLP,2015-06-15T09:55:00Z,100.65,-1000.65,23.5,10.2,0,1,,10.0,30.268702,1018.6,,TRUE,TRUE,TRUE,,,,,,FEW,4200,BKN,5000,,,,,VFR,,,,,,,,,,,,METAR,999.0
KEKS 150955Z AUTO VRB04KT 10SM CLR 07/05 A3017 RMK A01,KEKS,2015-06-15T09:55:00Z,45.27,-111.65,7.0,5.0,0,4,,10.0,30.171259,,,TRUE,TRUE,,,,,,,CLR,,,,,,,,VFR,,,,,,,,,,,,METAR,1641.0
PAAD 150955Z AUTO 08009KT 7SM CLR 04/04 A3037 RMK AO2,PAAD,2015-06-15T09:55:00Z,70.13,-146.28,4.0,4.0,80,9,,7.0,30.369095,,,TRUE,TRUE,,,,,,,CLR,,,,,,,,VFR,,,,,,,,,,,,METAR,8.0
KVKS 150955Z AUTO 00000KT 6SM BR CLR 23/22 A3004 RMK A01,KVKS,2015-06-15T09:55:00Z,,,23.0,22.0,0,0,,6.0,30.041338,,,TRUE,TRUE,,,,,,BR,CLR,,,,,,,,VFR,,,,,,,,,,,,METAR,
KS39 150955Z AUTO 19007KT 10SM CLR 09/M02 A2998 RMK AO2,KS39,2015-06-15T09:55:00Z,44.28,-120.9,9.0,-2.0,190,7,,10.0,29.97933,,,TRUE,TRUE,,,,,,,CLR,,,,,,,,VFR,,,,,,,,,,,,METAR,991.0
KRTS 150955Z AUTO 01005KT 10SM CLR 11/M03 A3000 RMK AO2,KRTS,2015-06-15T09:55:00Z,39.67,-119.88,11.0,-3.0,10,5,,10.0,30.0,,,TRUE,TRUE,,,,,,,CLR,,,,,,,,VFR,,,,,,,,,,,,METAR,1540.0
KP08 150955Z AUTO 17007KT 10SM CLR 27/05 A2976 RMK AO2,KP08,2015-06-15T09:55:00Z,32.93,-111.43,27.0,5.0,170,7,,10.0,29.760826,,,TRUE,TRUE,,,,,,,CLR,,,,,,,,VFR,,,,,,,,,,,,METAR,481.0
KO86 150955Z AUTO 27005KT 10SM CLR 14/06 A2989 RMK AO1,KO86,2015-06-15T09:55:00Z,40.98,-122.7,14.0,6.0,270,5,,10.0,29.890747,,,TRUE,TRUE,,,,,,,CLR,,,,,,,,VFR,,,,,,,,,,,,METAR,729.0
KO69 150955Z AUTO 28003KT 5SM OVC008 12/10 A2985 RMK AO1,KO69,2015-06-15T09:55:00Z,38.25,-122.6,12.0,10.0,280,3,,5.0,29.84941,,,TRUE,TRUE,,,,,,,OVC,800,,,,,,,IFR,,,,,,,,,,,,METAR,28.0
KN38 150955Z AUTO 20006KT 10SM OVC010 20/19 A3001 RMK AO2,KN38,2015-06-15T09:55:00Z,41.73,-77.4,20.0,19.0,200,6,,10.0,30.008858,,,TRUE,TRUE,,,,,,,OVC,1000,,,,,,,MVFR,,,,,,,,,,,,METAR,577.0
KMHV 150955Z AUTO 28011KT 10SM CLR 27/00 A2983 RMK AO1,KMHV,2015-06-15T09:55:00Z,35.07,-118.15,27.0,0.0,280,11,,10.0,29.828741,,,TRUE,TRUE,,,,,,,CLR,,,,,,,,VFR,,,,,,,,,,,,METAR,849.0
KMEV 150955Z AUTO 00000KT 10SM CLR 08/00 A2998 RMK AO2,KMEV,2015-06-15T09:55:00Z,38.98,-119.75,8.0,0.0,0,0,,10.0,29.97933,,,TRUE,TRUE,,,,,,,CLR,,,,,,,,VFR,,,,,,,,,,,,METAR,1439.0
KMCC 150955Z AUTO 17009KT 6SM HZ CLR 14/09 A2979 RMK AO2,KMCC,2015-06-15T09:55:00Z,38.67,-121.4,14.0,9.0,170,9,,6.0,29.790354,,,TRUE,TRUE,,,,,,HZ,CLR,,,,,,,,VFR,,,,,,,,,,,,METAR,23.0
KJTC 150955Z AUTO 19004KT 10SM CLR 13/01 A3020 RMK AO2,KJTC,2015-06-15T09:55:00Z,34.13,-109.32,13.0,1.0,190,4,,10.0,30.200787,,,TRUE,TRUE,,,,,,,CLR,,,,,,,,VFR,,,,,,,,,,,,METAR,2150.0
KIFP 150955Z AUTO 00000KT 10SM CLR 32/10 A2967 RMK AO2,KIFP,2015-06-15T09:55:00Z,35.15,-114.57,32.0,10.0,0,0,,10.0,29.66929,,,TRUE,TRUE,,,,,,,CLR,,,,,,,,VFR,,,,,,,,,,,,METAR,212.0
KGOO 150955Z AUTO 11005KT 10SM CLR 23/M05 A2988 RMK AO1,KGOO,2015-06-15T09:55:00Z,39.22,-121.0,23.0,-5.0,110,5,,10.0,29.878937,,,TRUE,TRUE,,,,,,,CLR,,,,,,,,VFR,,,,,,,,,,,,METAR,962.0
KFTN 150955Z AUTO 07005KT 10SM 24/22 A2989 RMK A01,KFTN,2015-06-15T09:55:00Z,28.22,-100.02,24.0,22.0,70,5,,10.0,29.890747,,,TRUE,TRUE,,,,,,,,,,,,,,,,,,,,,,,,,,,METAR,236.0
KFOT 150955Z AUTO 23003KT 3SM OVC003 10/09 A2994 RMK AO1,KFOT,2015-06-15T09:55:00Z,40.55,-124.13,10.0,9.0,230,3,,3.0,29.940945,,,TRUE,TRUE,,,,,,,OVC,300,,,,,,,LIFR,,,,,,,,,,,,METAR,120.0
KEDU 150955Z AUTO 19003KT 9SM CLR 13/09 A2975 RMK AO1,KEDU,2015-06-15T09:55:00Z,38.53,-121.78,13.0,9.0,190,3,,9.0,29.749016,,,TRUE,TRUE,,,,,,,CLR,,,,,,,,VFR,,,,,,,,,,,,METAR,21.0
KE16 150955Z AUTO 00000KT 7SM BKN016 11/10 A2989 RMK AO2 SOUTH WINDSOCK NOT IN USE,KE16,2015-06-15T09:55:00Z,37.08,-121.6,11.0,10.0,0,0,,7.0,29.890747,,,TRUE,TRUE,,,,,,,BKN,1600,,,,,,,MVFR,,,,,,,,,,,,METAR,86.0
KCRX 150955Z AUTO 00000KT 10SM CLR 21/20 A3008 RMK AO2,KCRX,2015-06-15T09:55:00Z,34.92,-88.6,21.0,20.0,0,0,,10.0,30.079725,,,TRUE,TRUE,,,,,,,CLR,,,,,,,,VFR,,,,,,,,,,,,METAR,130.0
K65S 150955Z AUTO 05004KT 10SM CLR 11/03 A3013 RMK AO2,K65S,2015-06-15T09:55:00Z,48.73,-116.3,11.0,3.0,50,4,,10.0,30.129921,,,TRUE,TRUE,,,,,,,CLR,,,,,,,,VFR,,,,,,,,,,,,METAR,713.0
K5T9 150955Z AUTO 08005KT 10SM OVC016 24/22 A2989 RMK A01,K5T9,2015-06-15T09:55:00Z,28.85,-100.52,24.0,22.0,80,5,,10.0,29.890747,,,TRUE,TRUE,,,,,,,OVC,1600,,,,,,,MVFR,,,,,,,,,,,,METAR,270.0
EHQE 150955Z AUTO 03009KT 9999 ///////// 11/04 Q1022,EHQE,2015-06-15T09:55:00Z,52.92,4.15,11.0,4.0,30,9,,6.21,30.177166,,,TRUE,,,,,,,,,,,,,,,,,,,,,,,,,,,,METAR,50.0
EHPG 150955Z AUTO 03013KT 350V050 9999 FEW030/// 12/03 Q1022,EHPG,2015-06-15T09:55:00Z,52.37,3.35,12.0,3.0,30,13,,6.21,30.177166,,,TRUE,,,,,,,,,,,,,,,,,,,,,,,,,,,,METAR,50.0
EHMG 150955Z AUTO 34009KT 9999 FEW022/// OVC049/// 12/05 Q1022,EHMG,2015-06-15T09:55:00Z,53.62,4.97,12.0,5.0,340,9,,6.21,30.177166,,,TRUE,,,,,,,,,,,,,,,,,,,,,,,,,,,,METAR,50.0
EHMA 150955Z AUTO 34009KT 9999 FEW022/// BKN039/// BKN047/// 11/05 Q1022,EHMA,2015-06-15T09:55:00Z,53.5,5.95,11.0,5.0,340,9,,6.21,30.177166,,,TRUE,,,,,,,,,,,,,,,,,,,,,,,,,,,,METAR,50.0
EHKV 150955Z AUTO 02007KT 9999 FEW027/// 12/05 Q1023,EHKV,2015-06-15T09:55:00Z,53.27,3.63,12.0,5.0,20,7,,6.21,30.206694,,,TRUE,,,,,,,,,,,,,,,,,,,,,,,,,,,,METAR,50.0
EHJA 150955Z AUTO 02010KT 9999 FEW010/// SCT025/// BKN033/// 10/05 Q1023,EHJA,2015-06-15T09:55:00Z,53.82,2.95,10.0,5.0,20,10,,6.21,30.206694,,,TRUE,,,,,,,,,,,,,,,,,,,,,,,,,,,,METAR,50.0
EHFZ 150955Z AUTO 03004KT 340V050 9999 FEW020/// SCT024/// OVC048/// 10/06 Q1022,EHFZ,2015-06-15T09:55:00Z,54.12,4.02,10.0,6.0,30,4,,6.21,30.177166,,,TRUE,,,,,,,,,,,,,,,,,,,,,,,,,,,,METAR,50.0
EHFD 150955Z AUTO 33015KT 9999 FEW030/// BKN049/// 11/03 Q1021,EHFD,2015-06-15T09:55:00Z,54.85,4.7,11.0,3.0,330,15,,6.21,30.147638,,,TRUE,,,,,,,,,,,,,,,,,,,,,,,,,,,,METAR,50.0
EHDV 150955Z AUTO 35012KT 9999 FEW022/// 11/06 Q1023,EHDV,2015-06-15T09:55:00Z,54.32,2.93,11.0,6.0,350,12,,6.21,30.206694,,,TRUE,,,,,,,,,,,,,,,,,,,,,,,,,,,,METAR,50.0
EHAK 150955Z AUTO 35017KT 280V030 9999 FEW022/// SCT029/// BKN033/// 10/05 Q1021,EHAK,2015-06-15T09:55:00Z,55.42,3.82,10.0,5.0,350,17,,6.21,30.147638,,,TRUE,,,,,,,,,,,,,,,,,,,,,,,,,,,,METAR,50.0
OPLA 150955Z 19005KT 7000 FEW040 SCT100 37/20 Q1001 NOSIG,OPLA,2015-06-15T09:55:00Z,31.52,74.4,37.0,20.0,190,5,,4.35,29.557087,,,,,,TRUE,,,,,FEW,4000,SCT,10000,,,,,MVFR,,,,,,,,,,,,METAR,217.0
OPKC 150955Z 22016KT 7000 SCT020 34/22 Q0999 TEMPO 22016G25KT,OPKC,2015-06-15T09:55:00Z,24.88,67.17,34.0,22.0,220,16,,4.35,29.498032,,,,,,,,,,,SCT,2000,,,,,,,MVFR,,,,,,,,,,,,METAR,22.0
RJOI 150955Z 19009KT 9999 FEW045 BKN080 BKN230 24/21 A2976 RMK SLP076 T02440206,RJOI,2015-06-15T09:55:00Z,34.13,132.22,24.4,20.6,190,9,,6.21,29.760826,1007.6,,,,,,,,,,FEW,4500,BKN,8000,BKN,23000,,,VFR,,,,,,,,,,,,METAR,2.0
PATL 150955Z AUTO 04003KT 10SM CLR 22/02 A3043 RMK AO2 SLP292 T02180023,PATL,2015-06-15T09:55:00Z,62.9,-155.97,21.8,2.3,40,3,,10.0,30.431103,1029.2,,TRUE,TRUE,,,,,,,CLR,,,,,,,,VFR,,,,,,,,,,,,METAR,294.0
PASV 150955Z AUTO 03011KT 360V060 10SM CLR 21/00 A3034 RMK AO2 SLP255 T02070000,PASV,2015-06-15T09:55:00Z,61.1,-155.57,20.7,0.0,30,11,,10.0,30.339567,1025.5,,TRUE,TRUE,,,,,,,CLR,,,,,,,,VFR,,,,,,,,,,,,METAR,484.0
PAEH 150955Z AUTO 29002KT 10SM CLR 12/08 A3047 RMK AO2 SLP323 T01170076,PAEH,2015-06-15T09:55:00Z,58.65,-162.07,11.7,7.6,290,2,,10.0,30.469488,1032.3,,TRUE,TRUE,,,,,,,CLR,,,,,,,,VFR,,,,,,,,,,,,METAR,161.0
FJDG 150955Z 16008KT 9999 FEW020 BKN250 30/25 A2978 RMK SLP081 T03040251,FJDG,2015-06-15T09:55:00Z,-7.32,72.42,30.4,25.1,160,8,,6.21,29.778543,1008.1,,,,,,,,,,FEW,2000,BKN,25000,,,,,VFR,,,,,,,,,,,,METAR,3.0
KBQK 150955Z AUTO 00000KT 4SM CLR 21/21 A3011 RMK AO1,KBQK,2015-06-15T09:55:00Z,31.25,-81.47,21.0,21.0,0,0,,4.0,30.109253,,,TRUE,TRUE,,,,,,,CLR,,,,,,,,MVFR,,,,,,,,,,,,METAR,8.0
KBPC 150955Z AUTO 00000KT 5SM BR OVC070 15/15 A3000 RMK AO2,KBPC,2015-06-15T09:55:00Z,35.88,-101.03,15.0,15.0,0,0,,5.0,30.0,,,TRUE,TRUE,,,,,,BR,OVC,7000,,,,,,,MVFR,,,,,,,,,,,,METAR,845.0
KBKS 150955Z AUTO 00000KT 10SM SCT018 SCT028 24/23 A2984 RMK AO1 T02360225,KBKS,2015-06-15T09:55:00Z,27.2,-98.12,23.6,22.5,0,0,,10.0,29.840551,,,TRUE,TRUE,,,,,,,SCT,1800,SCT,2800,,,,,VFR,,,,,,,,,,,,METAR,34.0
KBIJ 150955Z AUTO 00000KT 10SM CLR 22/22 A3010 RMK AO2,KBIJ,2015-06-15T09:55:00Z,31.4,-84.9,22.0,22.0,0,0,,10.0,30.100393,,,TRUE,TRUE,,,,,,,CLR,,,,,,,,VFR,,,,,,,,,,,,METAR,65.0
KBHC 150955Z AUTO 00000KT 10SM CLR 22/21 A3010 RMK AO2,KBHC,2015-06-15T09:55:00Z,31.72,-82.4,22.0,21.0,0,0,,10.0,30.100393,,,TRUE,TRUE,,,,,,,CLR,,,,,,,,VFR,,,,,,,,,,,,METAR,61.0
KBEA 150955Z AUTO 36003KT 10SM BKN060 24/24 A2988 RMK AO2 T02370237,KBEA,2015-06-15T09:55:00Z,28.37,-97.78,23.7,23.7,360,3,,10.0,29.878937,,,TRUE,TRUE,,,,,,,BKN,6000,,,,,,,VFR,,,,,,,,,,,,METAR,82.0
KBDG 150955Z AUTO 31005KT 10SM CLR 13/10 A3019 RMK AO1 T01290095,KBDG,2015-06-15T09:55:00Z,37.58,-109.47,12.9,9.5,310,5,,10.0,30.188976,,,TRUE,TRUE,,,,,,,CLR,,,,,,,,VFR,,,,,,,,,,,,METAR,1788.0
KBCK 150955Z AUTO 00000KT 5SM BR CLR 17/17 A2990 RMK AO2 T01660166,KBCK,2015-06-15T09:55:00Z,44.25,-90.85,16.6,16.6,0,0,,5.0,29.899607,,,TRUE,TRUE,,,,,,BR,CLR,,,,,,,,MVFR,,,,,,,,,,,,METAR,255.0
KBCB 150955Z AUTO 00000KT 5SM BR CLR 20/19 A3020 RMK AO2 P0039 T01950188,KBCB,2015-06-15T09:55:00Z,37.22,-80.42,19.5,18.8,0,0,,5.0,30.200787,,,TRUE,TRUE,,,,,,BR,CLR,,,,,,,,MVFR,,,,,,0.39,,,,,,METAR,650.0
KBAC 150955Z AUTO 34007KT 10SM SCT050 13/13 A3006 RMK AO2,KBAC,2015-06-15T09:55:00Z,46.93,-98.02,13.0,13.0,340,7,,10.0,30.059055,,,TRUE,TRUE,,,,,,,SCT,5000,,,,,,,VFR,,,,,,,,,,,,METAR,684.0
KAZC 150955Z AUTO 13003KT 10SM CLR 15/09 A3005 RMK AO2 T01540093,KAZC,2015-06-15T09:55:00Z,36.97,-113.02,15.4,9.3,130,3,,10.0,30.050198,,,TRUE,TRUE,,,,,,,CLR,,,,,,,,VFR,,,,,,,,,,,,METAR,1486.0
KAXS 150955Z AUTO 08009KT 10SM -RA SCT006 BKN013 OVC019 20/19 A2995 RMK AO2 P0009 T01960185,KAXS,2015-06-15T09:55:00Z,34.7,-99.33,19.6,18.5,80,9,,10.0,29.949802,,,TRUE,TRUE,,,,,,-RA,SCT,600,BKN,1300,OVC,1900,,,MVFR,,,,,,0.09,,,,,,METAR,437.0
KAXH 150955Z AUTO 00000KT 10SM SCT032 23/22 A2990 RMK AO2 T02250218,KAXH,2015-06-15T09:55:00Z,29.52,-95.48,22.5,21.8,0,0,,10.0,29.899607,,,TRUE,TRUE,,,,,,,SCT,3200,,,,,,,VFR,,,,,,,,,,,,METAR,21.0
KAVQ 150955Z AUTO 17004KT 10SM CLR 26/03 A2980 RMK AO2 T02610030,KAVQ,2015-06-15T09:55:00Z,32.4,-111.22,26.1,3.0,170,4,,10.0,29.799213,,,TRUE,TRUE,,,,,,,CLR,,,,,,,,VFR,,,,,,,,,,,,METAR,619.0
KAUN 150955Z AUTO 00000KT 10SM CLR 19/06 A2980 RMK AO1,KAUN,2015-06-15T09:55:00Z,38.95,-121.08,19.0,6.0,0,0,,10.0,29.799213,,,TRUE,TRUE,,,,,,,CLR,,,,,,,,VFR,,,,,,,,,,,,METAR,467.0
KASW 150955Z AUTO 23004KT 7SM 22/22 A2999 RMK AO2,KASW,2015-06-15T09:55:00Z,41.27,-85.83,22.0,22.0,230,4,,7.0,29.991142,,,TRUE,TRUE,,,,,,,,,,,,,,,,,,,,,,,,,,,METAR,259.0
KASN 150955Z AUTO 00000KT 10SM CLR 22/22 A3012 RMK AO2 T02200220,KASN,2015-06-15T09:55:00Z,33.57,-86.05,22.0,22.0,0,0,,10.0,30.121063,,,TRUE,TRUE,,,,,,,CLR,,,,,,,,VFR,,,,,,,,,,,,METAR,162.0
KANW 150955Z AUTO 34005KT 10SM CLR 16/15 A3006 RMK AO2 T01610151,KANW,2015-06-15T09:55:00Z,42.57,-100.0,16.1,15.1,340,5,,10.0,30.059055,,,TRUE,TRUE,,,,,,,CLR,,,,,,,,VFR,,,,,,,,,,,,METAR,789.0
KALX 150955Z AUTO 00000KT 10SM CLR 22/20 A3013 RMK AO2 T02210202,KALX,2015-06-15T09:55:00Z,32.92,-85.97,22.1,20.2,0,0,,10.0,30.129921,,,TRUE,TRUE,,,,,,,CLR,,,,,,,,VFR,,,,,,,,,,,,METAR,209.0
KALN 150955Z AUTO 19005KT 10SM CLR 22/22 A2999 RMK AO2 T02200220,KALN,2015-06-15T09:55:00Z,38.88,-90.03,22.0,22.0,190,5,,10.0,29.991142,,,TRUE,TRUE,,,,,,,CLR,,,,,,,,VFR,,,,,,,,,,,,METAR,166.0
KAJR 150955Z AUTO 00000KT 10SM CLR 21/18 A3018 RMK AO2 T02070176,KAJR,2015-06-15T09:55:00Z,,,20.7,17.6,0,0,,10.0,30.180119,,,TRUE,TRUE,,,,,,,CLR,,,,,,,,VFR,,,,,,,,,,,,METAR,
KAJG 150955Z AUTO 20006KT 10SM CLR 24/21 A3002 RMK AO2 P0001,KAJG,2015-06-15T09:55:00Z,38.62,-87.73,24.0,21.0,200,6,,10.0,30.02067,,,TRUE,TRUE,,,,,,,CLR,,,,,,,,VFR,,,,,,0.01,,,,,,METAR,131.0
KAIO 150955Z AUTO 07004KT 7SM RA BKN036 BKN050 OVC065 20/19 A2990 RMK AO2 P0004,KAIO,2015-06-15T09:55:00Z,41.38,-95.03,20.0,19.0,70,4,,7.0,29.899607,,,TRUE,TRUE,,,,,,RA,BKN,3600,BKN,5000,OVC,6500,,,VFR,,,,,,0.04,,,,,,METAR,360.0
KAHQ 150955Z AUTO 10006KT 10SM -RA SCT060 BKN065 OVC090 20/19 A2992 RMK AO2 P0001 T02000190,KAHQ,2015-06-15T09:55:00Z,41.23,-96.6,20.0,19.0,100,6,,10.0,29.920275,,,TRUE,TRUE,,,,,,-RA,SCT,6000,BKN,6500,OVC,9000,,,VFR,,,,,,0.01,,,,,,METAR,374.0
KAFP 150955Z AUTO 00000KT 10SM CLR 21/19 A3007 RMK AO2 T02100194,KAFP,2015-06-15T09:55:00Z,35.02,-80.08,21.0,19.4,0,0,,10.0,30.070866,,,TRUE,TRUE,,,,,,,CLR,,,,,,,,VFR,,,,,,,,,,,,METAR,92.0
KAFO 150955Z AUTO 00000KT 10SM CLR 05/03 A3013 RMK AO2,KAFO,2015-06-15T09:55:00Z,42.72,-110.95,5.0,3.0,0,0,,10.0,30.129921,,,TRUE,TRUE,,,,,,,CLR,,,,,,,,VFR,,,,,,,,,,,,METAR,1897.0
KAFK 150955Z AUTO 05006KT 10SM OVC003 20/20 A2990 RMK AO2 P0001 T01950195,KAFK,2015-06-15T09:55:00Z,40.6,-95.85,19.5,19.5,50,6,,10.0,29.899607,,,TRUE,TRUE,,,,,,,OVC,300,,,,,,,LIFR,,,,,,0.01,,,,,,METAR,354.0
KADS 150955Z AUTO 16008KT 10SM SCT012 25/24 A2996 RMK AO2 T02510238,KADS,2015-06-15T09:55:00Z,32.97,-96.82,25.1,23.8,160,8,,10.0,29.958662,,,TRUE,TRUE,,,,,,,SCT,1200,,,,,,,VFR,,,,,,,,,,,,METAR,196.0
KADM 150955Z AUTO 10003KT 10SM 23/23 A2995 RMK AO2 T02310230,KADM,2015-06-15T09:55:00Z,34.28,-97.02,23.1,23.0,100,3,,10.0,29.949802,,,TRUE,TRUE,,,,,,,,,,,,,,,,,,,,,,,,,,,METAR,232.0
KADH 150955Z AUTO 16005KT 10SM SCT050 SCT060 OVC090 22/22 A2997 RMK AO2,KADH,2015-06-15T09:55:00Z,34.8,-96.67,22.0,22.0,160,5,,10.0,29.970472,,,TRUE,TRUE,,,,,,,SCT,5000,SCT,6000,OVC,9000,,,VFR,,,,,,,,,,,,METAR,308.0
KAAA 150955Z AUTO 00000KT 10SM SCT100 23/21 A2997 RMK AO2 T02250212,KAAA,2015-06-15T09:55:00Z,40.17,-89.33,22.5,21.2,0,0,,10.0,29.970472,,,TRUE,TRUE,,,,,,,SCT,10000,,,,,,,VFR,,,,,,,,,,,,METAR,182.0
K9V9 150955Z AUTO 35007KT 10SM SCT090 16/14 A3004 RMK AO2 T01550140,K9V9,2015-06-15T09:55:00Z,43.77,-99.32,15.5,14.0,350,7,,10.0,30.041338,,,TRUE,TRUE,,,,,,,SCT,9000,,,,,,,VFR,,,,,,,,,,,,METAR,519.0
K9A5 150955Z AUTO 00000KT 10SM CLR 20/16 A3014 RMK AO2 T02000163,K9A5,2015-06-15T09:55:00Z,34.68,-85.28,20.0,16.3,0,0,,10.0,30.138779,,,TRUE,TRUE,,,,,,,CLR,,,,,,,,VFR,,,,,,,,,,,,METAR,237.0
K82V 150955Z AUTO 00000KT 10SM SCT075 10/10 A3019 RMK AO2,K82V,2015-06-15T09:55:00Z,41.15,-104.13,10.0,10.0,0,0,,10.0,30.188976,,,TRUE,TRUE,,,,,,,SCT,7500,,,,,,,VFR,,,,,,,,,,,,METAR,1570.0
K82C 150955Z AUTO 00000KT 10SM CLR 18/18 A2990 RMK AO2 T01820180,K82C,2015-06-15T09:55:00Z,43.83,-90.13,18.2,18.0,0,0,,10.0,29.899607,,,TRUE,TRUE,,,,,,,CLR,,,,,,,,VFR,,,,,,,,,,,,METAR,276.0
K7W4 150955Z AUTO 10SM CLR 22/21 A3002 RMK AO1 T02170210,K7W4,2015-06-15T09:55:00Z,37.97,-77.75,21.7,21.0,,,,10.0,30.02067,,,TRUE,TRUE,,,,,,,CLR,,,,,,,,VFR,,,,,,,,,,,,METAR,106.0
KXSA 150955Z AUTO 21003KT 5SM BR CLR 23/21 A3002 RMK AO2 T02300208,KXSA,2015-06-15T09:55:00Z,37.87,-76.9,23.0,20.8,210,3,,5.0,30.02067,,,TRUE,TRUE,,,,,,BR,CLR,,,,,,,,MVFR,,,,,,,,,,,,METAR,42.0
KXPY 150955Z AUTO 11010G21KT 7SM SCT017 28/24 A2996 RMK A01,KXPY,2015-06-15T09:55:00Z,29.12,-90.2,28.0,24.0,110,10,21,7.0,29.958662,,,TRUE,TRUE,,,,,,,SCT,1700,,,,,,,VFR,,,,,,,,,,,,METAR,2.0
PAUT 150955Z AUTO 01010KT 7SM OVC006 06/06 A3044 RMK AO2 T00630056,PAUT,2015-06-15T09:55:00Z,54.15,-165.6,6.3,5.6,10,10,,7.0,30.43996,,,TRUE,TRUE,,,,,,,OVC,600,,,,,,,IFR,,,,,,,,,,,,METAR,25.0
KONP 150955Z AUTO 35008KT 5SM BR OVC009 10/10 A2999 RMK AO2,KONP,2015-06-15T09:55:00Z,44.57,-124.03,10.0,10.0,350,8,,5.0,29.991142,,,TRUE,TRUE,,,,,,BR,OVC,900,,,,,,,IFR,,,,,,,,,,,,METAR,48.0
KOLE 150955Z AUTO 24006KT 200V260 7SM OVC003 18/18 A2999 RMK AO2,KOLE,2015-06-15T09:55:00Z,42.23,-78.37,18.0,18.0,240,6,,7.0,29.991142,,,TRUE,TRUE,,,,,,,OVC,300,,,,,,,LIFR,,,,,,,,,,,,METAR,651.0
KOJA 150955Z AUTO 22009KT 10SM -RA SCT049 SCT060 BKN120 18/18 A2994 RMK AO2 P0004,KOJA,2015-06-15T09:55:00Z,35.55,-98.67,18.0,18.0,220,9,,10.0,29.940945,,,TRUE,TRUE,,,,,,-RA,SCT,4900,SCT,6000,BKN,12000,,,VFR,,,,,,0.04,,,,,,METAR,490.0
KOCW 150955Z AUTO 00000KT 7SM CLR 23/22 A3004 RMK AO2 T02270221,KOCW,2015-06-15T09:55:00Z,35.57,-77.05,22.7,22.1,0,0,,7.0,30.041338,,,TRUE,TRUE,,,,,,,CLR,,,,,,,,VFR,,,,,,,,,,,,METAR,12.0
KOCQ 150955Z AUTO 00000KT 1 1/4SM SCT002 BKN050 15/15 A2989 RMK AO1 T01450145,KOCQ,2015-06-15T09:55:00Z,44.87,-87.92,14.5,14.5,0,0,,1.25,29.890747,,,TRUE,TRUE,,,,,,,SCT,200,BKN,5000,,,,,IFR,,,,,,,,,,,,METAR,183.0
KOBE 150955Z AUTO 00000KT 5SM BR CLR 22/22 A3008 RMK AO2,KOBE,2015-06-15T09:55:00Z,27.27,-80.85,22.0,22.0,0,0,,5.0,30.079725,,,TRUE,TRUE,,,,,,BR,CLR,,,,,,,,MVFR,,,,,,,,,,,,METAR,11.0
KO54 150955Z AUTO 00000KT 10SM CLR 12/04 A2988 RMK AO1,KO54,2015-06-15T09:55:00Z,40.75,-122.92,12.0,4.0,0,0,,10.0,29.878937,,,TRUE,TRUE,,,,,,,CLR,,,,,,,,VFR,,,,,,,,,,,,METAR,717.0
KMZG 150955Z AUTO 15008G15KT 10SM 27/23 A2984 RMK A01,KMZG,2015-06-15T09:55:00Z,27.73,-96.18,27.0,23.0,150,8,15,10.0,29.840551,,,TRUE,TRUE,,,,,,,,,,,,,,,,,,,,,,,,,,,METAR,29.0
KMWO 150955Z AUTO 00000KT 10SM SCT044 SCT050 24/21 A3005 RMK AO2 T02360213,KMWO,2015-06-15T09:55:00Z,39.53,-84.4,23.6,21.3,0,0,,10.0,30.050198,,,TRUE,TRUE,,,,,,,SCT,4400,SCT,5000,,,,,VFR,,,,,,,,,,,,METAR,198.0
KMQS 150955Z AUTO 25003KT 5SM BR FEW042 BKN049 23/23 A3000 RMK AO2,KMQS,2015-06-15T09:55:00Z,39.98,-75.87,23.0,23.0,250,3,,5.0,30.0,,,TRUE,TRUE,,,,,,BR,FEW,4200,BKN,4900,,,,,MVFR,,,,,,,,,,,,METAR,201.0
KMQI 150955Z AUTO 00000KT 4SM BR CLR 24/23 A3004 RMK AO2 T02360233,KMQI,2015-06-15T09:55:00Z,35.92,-75.7,23.6,23.3,0,0,,4.0,30.041338,,,TRUE,TRUE,,,,,,BR,CLR,,,,,,,,MVFR,,,,,,,,,,,,METAR,4.0
KMQB 150955Z AUTO 18003KT 10SM SCT060 SCT080 21/21 A2996 RMK AO2 T02120210,KMQB,2015-06-15T09:55:00Z,40.52,-90.65,21.2,21.0,180,3,,10.0,29.958662,,,TRUE,TRUE,,,,,,,SCT,6000,SCT,8000,,,,,VFR,,,,,,,,,,,,METAR,215.0
KMMH 150955Z AUTO 00000KT 10SM CLR 06/M05 A3015 RMK AO1,KMMH,2015-06-15T09:55:00Z,37.62,-118.82,6.0,-5.0,0,0,,10.0,30.15059,,,TRUE,TRUE,,,,,,,CLR,,,,,,,,VFR,,,,,,,,,,,,METAR,2173.0
KMLJ 150955Z AUTO 00000KT 7SM CLR 22/21 A3012 RMK AO2,KMLJ,2015-06-15T09:55:00Z,33.15,-83.23,22.0,21.0,0,0,,7.0,30.121063,,,TRUE,TRUE,,,,,,,CLR,,,,,,,,VFR,,,,,,,,,,,,METAR,117.0
KMKN 150955Z AUTO 15007KT 10SM SCT018 23/23 A2995 RMK AO2 T02270227,KMKN,2015-06-15T09:55:00Z,31.92,-98.6,22.7,22.7,150,7,,10.0,29.949802,,,TRUE,TRUE,,,,,,,SCT,1800,,,,,,,VFR,,,,,,,,,,,,METAR,423.0
KMIS 150955Z AUTO 13011KT 10SM FEW018 30/24 A3000 RMK A01,KMIS,2015-06-15T09:55:00Z,29.3,-88.85,30.0,24.0,130,11,,10.0,30.0,,,TRUE,TRUE,,,,,,,FEW,1800,,,,,,,VFR,,,,,,,,,,,,METAR,32.0
KMGR 150955Z AUTO 00000KT 10SM CLR 22/21 A3010 RMK AO2,KMGR,2015-06-15T09:55:00Z,31.08,-83.8,22.0,21.0,0,0,,10.0,30.100393,,,TRUE,TRUE,,,,,,,CLR,,,,,,,,VFR,,,,,,,,,,,,METAR,90.0
KMFV 150955Z AUTO 21003KT 1 3/4SM BR BKN004 24/24 A3002 RMK AO2,KMFV,2015-06-15T09:55:00Z,37.63,-75.77,24.0,24.0,210,3,,1.75,30.02067,,,TRUE,TRUE,,,,,,BR,BKN,400,,,,,,,LIFR,,,,,,,,,,,,METAR,15.0
KMDQ 150955Z AUTO 00000KT 10SM CLR 20/18 A3011 RMK AO2,KMDQ,2015-06-15T09:55:00Z,34.87,-86.55,20.0,18.0,0,0,,10.0,30.109253,,,TRUE,TRUE,,,,,,,CLR,,,,,,,,VFR,,,,,,,,,,,,METAR,230.0
KMDJ 150955Z AUTO 12021KT 8SM CLR 28/25 A2998 RMK A01,KMDJ,2015-06-15T09:55:00Z,28.65,-89.8,28.0,25.0,120,21,,8.0,29.97933,,,TRUE,TRUE,,,,,,,CLR,,,,,,,,VFR,,,,,,,,,,,,METAR,31.0
KMCX 150955Z AUTO 21005KT 10SM BKN009 BKN041 OVC050 22/22 A2998 RMK AO2 T02200220,KMCX,2015-06-15T09:55:00Z,40.72,-86.77,22.0,22.0,210,5,,10.0,29.97933,,,TRUE,TRUE,,,,,,,BKN,900,BKN,4100,OVC,5000,,,IFR,,,,,,,,,,,,METAR,206.0
KMAN 150955Z AUTO 30006KT 10SM CLR 17/00 A2990 RMK AO1,KMAN,2015-06-15T09:55:00Z,43.58,-116.52,17.0,0.0,300,6,,10.0,29.899607,,,TRUE,TRUE,,,,,,,CLR,,,,,,,,VFR,,,,,,,,,,,,METAR,774.0
KLZZ 150955Z AUTO 00000KT 10SM CLR 24/23 A2996 RMK AO2 T02420232,KLZZ,2015-06-15T09:55:00Z,31.1,-98.2,24.2,23.2,0,0,,10.0,29.958662,,,TRUE,TRUE,,,,,,,CLR,,,,,,,,VFR,,,,,,,,,,,,METAR,371.0
KLXY 150955Z AUTO 11012KT 10SM BKN009 OVC016 23/23 A2995 RMK AO2 T02300226,KLXY,2015-06-15T09:55:00Z,31.63,-96.52,23.0,22.6,110,12,,10.0,29.949802,,,TRUE,TRUE,,,,,,,BKN,900,OVC,1600,,,,,IFR,,,,,,,,,,,,METAR,166.0
KLUM 150955Z AUTO 09003KT 7SM CLR 19/18 A2989 RMK AO2 T01900184,KLUM,2015-06-15T09:55:00Z,44.9,-91.87,19.0,18.4,90,3,,7.0,29.890747,,,TRUE,TRUE,,,,,,,CLR,,,,,,,,VFR,,,,,,,,,,,,METAR,273.0
KLUL 150955Z AUTO 00000KT 10SM CLR 22/22 A3007 RMK AO2 T02150215,KLUL,2015-06-15T09:55:00Z,,,21.5,21.5,0,0,,10.0,30.070866,,,TRUE,TRUE,,,,,,,CLR,,,,,,,,VFR,,,,,,,,,,,,METAR,
KLUD 150955Z AUTO 16005KT 10SM BKN014 OVC022 23/21 A2996 RMK AO2 T02300205,KLUD,2015-06-15T09:55:00Z,33.25,-97.58,23.0,20.5,160,5,,10.0,29.958662,,,TRUE,TRUE,,,,,,,BKN,1400,OVC,2200,,,,,MVFR,,,,,,,,,,,,METAR,319.0
KLSB 150955Z AUTO 28006KT 10SM CLR 21/04 A2993 RMK AO2,KLSB,2015-06-15T09:55:00Z,32.33,-108.7,21.0,4.0,280,6,,10.0,29.929134,,,TRUE,TRUE,,,,,,,CLR,,,,,,,,VFR,,,,,,,,,,,,METAR,1307.0
KLOM 150955Z AUTO 23004KT 4SM OVC009 24/23 A2996 RMK AO1,KLOM,2015-06-15T09:55:00Z,40.13,-75.27,24.0,23.0,230,4,,4.0,29.958662,,,TRUE,TRUE,,,,,,,OVC,900,,,,,,,IFR,,,,,,,,,,,,METAR,92.0
KLNP 150955Z AUTO 24004KT 10SM CLR 18/17 A3023 RMK AO2,KLNP,2015-06-15T09:55:00Z,36.97,-82.52,18.0,17.0,240,4,,10.0,30.230314,,,TRUE,TRUE,,,,,,,CLR,,,,,,,,VFR,,,,,,,,,,,,METAR,817.0
KLNN 150955Z AUTO 26008KT 10SM SCT011 SCT017 OVC042 22/20 A2996 RMK AO1 T02200198,KLNN,2015-06-15T09:55:00Z,41.67,-81.37,22.0,19.8,260,8,,10.0,29.958662,,,TRUE,TRUE,,,,,,,SCT,1100,SCT,1700,OVC,4200,,,VFR,,,,,,,,,,,,METAR,191.0
KLNC 150955Z AUTO 13005KT 10SM SCT019 23/21 A2996 RMK AO2 T02300213,KLNC,2015-06-15T09:55:00Z,32.58,-96.72,23.0,21.3,130,5,,10.0,29.958662,,,TRUE,TRUE,,,,,,,SCT,1900,,,,,,,VFR,,,,,,,,,,,,METAR,153.0
KLHM 150955Z AUTO 17007KT 10SM CLR 13/08 A2976 RMK AO1,KLHM,2015-06-15T09:55:00Z,38.92,-121.35,13.0,8.0,170,7,,10.0,29.760826,,,TRUE,TRUE,,,,,,,CLR,,,,,,,,VFR,,,,,,,,,,,,METAR,37.0
KLHB 150955Z AUTO 00000KT 7SM SCT017 23/22 A2995 RMK AO2 T02260223,KLHB,2015-06-15T09:55:00Z,30.87,-96.62,22.6,22.3,0,0,,7.0,29.949802,,,TRUE,TRUE,,,,,,,SCT,1700,,,,,,,VFR,,,,,,,,,,,,METAR,87.0
KGYH 150955Z AUTO 29003KT 10SM CLR 19/19 A3013 RMK AO2,KGYH,2015-06-15T09:55:00Z,34.75,-82.38,19.0,19.0,290,3,,10.0,30.129921,,,TRUE,TRUE,,,,,,,CLR,,,,,,,,VFR,,,,,,,,,,,,METAR,292.0
KGWW 150955Z AUTO 00000KT 10SM CLR 23/22 A3005 RMK AO2 T02250222,KGWW,2015-06-15T09:55:00Z,35.47,-77.97,22.5,22.2,0,0,,10.0,30.050198,,,TRUE,TRUE,,,,,,,CLR,,,,,,,,VFR,,,,,,,,,,,,METAR,41.0
KGVX 150955Z AUTO 12017KT 10SM SCT016 SCT024 BKN050 27/24 A2988 RMK A01,KGVX,2015-06-15T09:55:00Z,28.58,-94.98,27.0,24.0,120,17,,10.0,29.878937,,,TRUE,TRUE,,,,,,,SCT,1600,SCT,2400,BKN,5000,,,VFR,,,,,,,,,,,,METAR,39.0
KGUL 150955Z AUTO 10016KT 10SM SCT027 SCT034 28/22 A2984 RMK A01,KGUL,2015-06-15T09:55:00Z,27.3,-93.53,28.0,22.0,100,16,,10.0,29.840551,,,TRUE,TRUE,,,,,,,SCT,2700,SCT,3400,,,,,VFR,,,,,,,,,,,,METAR,30.0
KGRY 150955Z AUTO 10015KT 8SM FEW022 SCT038 OVC085 26/23 A2991 RMK A01,KGRY,2015-06-15T09:55:00Z,27.63,-90.45,26.0,23.0,100,15,,8.0,29.911417,,,TRUE,TRUE,,,,,,,FEW,2200,SCT,3800,OVC,8500,,,VFR,,,,,,,,,,,,METAR,58.0
KGPM 150955Z AUTO 14005KT 10SM SCT007 24/24 A2996 RMK AO2 T02390239,KGPM,2015-06-15T09:55:00Z,32.7,-97.05,23.9,23.9,140,5,,10.0,29.958662,,,TRUE,TRUE,,,,,,,SCT,700,,,,,,,VFR,,,,,,,,,,,,METAR,180.0
KGNT 150955Z AUTO 35003KT 10SM CLR 10/07 A3018 RMK AO2 T01010073,KGNT,2015-06-15T09:55:00Z,35.17,-107.9,10.1,7.3,350,3,,10.0,30.180119,,,TRUE,TRUE,,,,,,,CLR,,,,,,,,VFR,,,,,,,,,,,,METAR,1987.0
KGMJ 150955Z AUTO 17006KT 10SM SCT090 23/23 A2997 RMK AO2,KGMJ,2015-06-15T09:55:00Z,36.6,-94.73,23.0,23.0,170,6,,10.0,29.970472,,,TRUE,TRUE,,,,,,,SCT,9000,,,,,,,VFR,,,,,,,,,,,,METAR,254.0
KGIC 150955Z AUTO 00000KT 10SM CLR 08/02 A3000 RMK AO1 T00780017,KGIC,2015-06-15T09:55:00Z,45.95,-116.12,7.8,1.7,0,0,,10.0,30.0,,,TRUE,TRUE,,,,,,,CLR,,,,,,,,VFR,,,,,,,,,,,,METAR,1009.0
KGHB 150955Z AUTO 08017G24KT 9SM SCT020 BKN029 OVC060 28/24 A2989 RMK A01,KGHB,2015-06-15T09:55:00Z,27.83,-91.98,28.0,24.0,80,17,24,9.0,29.890747,,,TRUE,TRUE,,,,,,,SCT,2000,BKN,2900,OVC,6000,,,MVFR,,,,,,,,,,,,METAR,30.0
KGGP 150955Z AUTO 21005KT 7SM OVC008 21/20 A3000 RMK AO2,KGGP,2015-06-15T09:55:00Z,40.72,-86.37,21.0,20.0,210,5,,7.0,30.0,,,TRUE,TRUE,,,,,,,OVC,800,,,,,,,IFR,,,,,,,,,,,,METAR,225.0
KGGI 150955Z AUTO 00000KT 7SM -RA BKN001 OVC006 21/20 A2991 RMK AO2 P0005 T02050197,KGGI,2015-06-15T09:55:00Z,41.72,-92.73,20.5,19.7,0,0,,7.0,29.911417,,,TRUE,TRUE,,,,,,-RA,BKN,100,OVC,600,,,,,LIFR,,,,,,0.05,,,,,,METAR,307.0
KGEV 150955Z AUTO 27008G21KT 230V290 10SM CLR 22/15 A3022 RMK AO2 T02190146,KGEV,2015-06-15T09:55:00Z,36.43,-81.42,21.9,14.6,270,8,21,10.0,30.221457,,,TRUE,TRUE,,,,,,,CLR,,,,,,,,VFR,,,,,,,,,,,,METAR,969.0
KGCM 150955Z AUTO 00000KT 10SM 22/21 A2998 RMK AO2,KGCM,2015-06-15T09:55:00Z,36.3,-95.48,22.0,21.0,0,0,,10.0,29.97933,,,TRUE,TRUE,,,,,,,,,,,,,,,,,,,,,,,,,,,METAR,221.0
KGBK 150955Z AUTO 05010G24KT 020V080 10SM CLR 28/24 A2984 RMK A01,KGBK,2015-06-15T09:55:00Z,27.2,-92.2,28.0,24.0,50,10,24,10.0,29.840551,,,TRUE,TRUE,,,,,,,CLR,,,,,,,,VFR,,,,,,,,,,,,METAR,59.0
KFYJ 150955Z AUTO 00000KT 7SM CLR 25/23 A3003 RMK AO2 T02450225,KFYJ,2015-06-15T09:55:00Z,37.52,-76.77,24.5,22.5,0,0,,7.0,30.029528,,,TRUE,TRUE,,,,,,,CLR,,,,,,,,VFR,,,,,,,,,,,,METAR,7.0
KFWZ 150955Z AUTO 35007KT 10SM SCT011 07/06 A3023 RMK AO2,KFWZ,2015-06-15T09:55:00Z,42.52,-108.78,7.0,6.0,350,7,,10.0,30.230314,,,TRUE,TRUE,,,,,,,SCT,1100,,,,,,,VFR,,,,,,,,,,,,METAR,2588.0
KFSW 150955Z AUTO 00000KT 7SM CLR 22/22 A2993 RMK AO2,KFSW,2015-06-15T09:55:00Z,40.67,-91.32,22.0,22.0,0,0,,7.0,29.929134,,,TRUE,TRUE,,,,,,,CLR,,,,,,,,VFR,,,,,,,,,,,,METAR,221.0
KFSO 150955Z AUTO 00000KT 10SM SCT065 BKN095 OVC110 16/14 A2994 RMK AO2 T01550137,KFSO,2015-06-15T09:55:00Z,44.93,-73.1,15.5,13.7,0,0,,10.0,29.940945,,,TRUE,TRUE,,,,,,,SCT,6500,BKN,9500,OVC,11000,,,VFR,,,,,,,,,,,,METAR,70.0
KFRR 150955Z AUTO 19004KT 10SM SCT110 22/20 A3002 RMK AO1,KFRR,2015-06-15T09:55:00Z,38.92,-78.25,22.0,20.0,190,4,,10.0,30.02067,,,TRUE,TRUE,,,,,,,SCT,11000,,,,,,,VFR,,,,,,,,,,,,METAR,216.0
KFOA 150955Z AUTO 20004KT 10SM CLR 22/21 A3002 RMK AO2 T02170210,KFOA,2015-06-15T09:55:00Z,38.67,-88.45,21.7,21.0,200,4,,10.0,30.02067,,,TRUE,TRUE,,,,,,,CLR,,,,,,,,VFR,,,,,,,,,,,,METAR,144.0
KFKR 150955Z AUTO 00000KT 7SM BKN007 OVC032 A3003 RMK AO2,KFKR,2015-06-15T09:55:00Z,40.27,-86.57,,,0,0,,7.0,30.029528,,,TRUE,TRUE,,,,,,,BKN,700,OVC,3200,,,,,IFR,,,,,,,,,,,,METAR,262.0
KFHB 150955Z AUTO 20004KT 10SM CLR 26/23 A3008 RMK AO1,KFHB,2015-06-15T09:55:00Z,30.62,-81.47,26.0,23.0,200,4,,10.0,30.079725,,,TRUE,TRUE,,,,,,,CLR,,,,,,,,VFR,,,,,,,,,,,,METAR,5.0
KFET 150955Z AUTO 25007KT 10SM SCT008 OVC110 21/20 A2993 RMK AO2 LTG DSNT N T02060195,KFET,2015-06-15T09:55:00Z,41.45,-96.52,20.6,19.5,250,7,,10.0,29.929134,,,TRUE,TRUE,,,,,,,SCT,800,OVC,11000,,,,,VFR,,,,,,,,,,,,METAR,367.0
KFEP 150955Z AUTO 00000KT 7SM BKN060 BKN070 BKN090 21/21 A2994 RMK AO2 LTG DSNT SE THRU W T02080205,KFEP,2015-06-15T09:55:00Z,42.25,-89.58,20.8,20.5,0,0,,7.0,29.940945,,,TRUE,TRUE,,,,,,,BKN,6000,BKN,7000,BKN,9000,,,VFR,,,,,,,,,,,,METAR,262.0
KFBR 150955Z AUTO 35005KT 10SM CLR 10/03 A3021 RMK AO2 T01010030,KFBR,2015-06-15T09:55:00Z,41.4,-110.4,10.1,3.0,350,5,,10.0,30.209646,,,TRUE,TRUE,,,,,,,CLR,,,,,,,,VFR,,,,,,,,,,,,METAR,2144.0
KF70 150955Z AUTO 00000KT 2SM OVC003 15/15 A2983 RMK AO1,KF70,2015-06-15T09:55:00Z,33.57,-117.13,15.0,15.0,0,0,,2.0,29.828741,,,TRUE,TRUE,,,,,,,OVC,300,,,,,,,LIFR,,,,,,,,,,,,METAR,412.0
KF46 150955Z AUTO 15005KT 10SM SCT014 24/23 A2995 RMK AO2 T02380227,KF46,2015-06-15T09:55:00Z,32.93,-96.43,23.8,22.7,150,5,,10.0,29.949802,,,TRUE,TRUE,,,,,,,SCT,1400,,,,,,,VFR,,,,,,,,,,,,METAR,176.0
KF44 150955Z AUTO 00000KT 7SM SCT020 BKN060 BKN065 22/22 A2996 RMK AO2,KF44,2015-06-15T09:55:00Z,32.17,-95.83,22.0,22.0,0,0,,7.0,29.958662,,,TRUE,TRUE,,,,,,,SCT,2000,BKN,6000,BKN,6500,,,VFR,,,,,,,,,,,,METAR,135.0
KEZS 150955Z AUTO 00000KT 1 1/4SM BR SCT050 17/16 A2991 RMK AO2 VIS 1/4V5 T01700162,KEZS,2015-06-15T09:55:00Z,44.78,-88.57,17.0,16.2,0,0,,1.25,29.911417,,,TRUE,TRUE,,,,,,BR,SCT,5000,,,,,,,IFR,,,,,,,,,,,,METAR,248.0
KEYF 150955Z AUTO 00000KT 10SM CLR 24/22 A3005 RMK AO2 T02400219,KEYF,2015-06-15T09:55:00Z,34.6,-78.58,24.0,21.9,0,0,,10.0,30.050198,,,TRUE,TRUE,,,,,,,CLR,,,,,,,,VFR,,,,,,,,,,,,METAR,41.0
KERV 150955Z AUTO 00000KT 10SM OVC011 23/22 A2996 RMK AO2 T02330221,KERV,2015-06-15T09:55:00Z,29.98,-99.08,23.3,22.1,0,0,,10.0,29.958662,,,TRUE,TRUE,,,,,,,OVC,1100,,,,,,,MVFR,,,,,,,,,,,,METAR,510.0
KEQA 150955Z AUTO 06004KT 10SM OVC008 22/20 A2993 RMK AO2,KEQA,2015-06-15T09:55:00Z,37.78,-96.82,22.0,20.0,60,4,,10.0,29.929134,,,TRUE,TRUE,,,,,,,OVC,800,,,,,,,IFR,,,,,,,,,,,,METAR,420.0
KELK 150955Z AUTO 18005KT 10SM DZ SCT120 17/17 A3000 RMK AO2,KELK,2015-06-15T09:55:00Z,35.43,-99.4,17.0,17.0,180,5,,10.0,30.0,,,TRUE,TRUE,,,,,,DZ,SCT,12000,,,,,,,VFR,,,,,,,,,,,,METAR,610.0
KEIR 150955Z AUTO 11007G14KT 020V150 10SM BKN015 OVC021 27/24 A2993 RMK A01,KEIR,2015-06-15T09:55:00Z,28.63,-91.48,27.0,24.0,110,7,14,10.0,29.929134,,,TRUE,TRUE,,,,,,,BKN,1500,OVC,2100,,,,,MVFR,,,,,,,,,,,,METAR,28.0
KEHY 150955Z AUTO 06005KT 10SM CLR 07/06 A3019 RMK AO2,KEHY,2015-06-15T09:55:00Z,41.73,-106.47,7.0,6.0,60,5,,10.0,30.188976,,,TRUE,TRUE,,,,,,,CLR,,,,,,,,VFR,,,,,,,,,,,,METAR,2225.0
KEHO 150955Z AUTO 00000KT 10SM CLR 21/19 A3011 RMK AO2 T02110193,KEHO,2015-06-15T09:55:00Z,35.25,-81.6,21.1,19.3,0,0,,10.0,30.109253,,,TRUE,TRUE,,,,,,,CLR,,,,,,,,VFR,,,,,,,,,,,,METAR,258.0
KEHC 150955Z AUTO 07018KT 10SM CLR 27/23 A2988 RMK A01,KEHC,2015-06-15T09:55:00Z,28.43,-92.88,27.0,23.0,70,18,,10.0,29.878937,,,TRUE,TRUE,,,,,,,CLR,,,,,,,,VFR,,,,,,,,,,,,METAR,31.0
KL18 150955Z AUTO 00000KT 10SM OVC006 16/15 A2983 RMK AO2,KL18,2015-06-15T09:55:00Z,33.35,-117.25,16.0,15.0,0,0,,10.0,29.828741,,,TRUE,TRUE,,,,,,,OVC,600,,,,,,,IFR,,,,,,,,,,,,METAR,216.0
KJYR 150955Z AUTO 32008KT 10SM FEW060 OVC075 19/18 A2994 RMK AO2 P0001,KJYR,2015-06-15T09:55:00Z,40.9,-97.62,19.0,18.0,320,8,,10.0,29.940945,,,TRUE,TRUE,,,,,,,FEW,6000,OVC,7500,,,,,VFR,,,,,,0.01,,,,,,METAR,509.0
KJXI 150955Z AUTO 15005KT 10SM OVC006 23/23 A2998 RMK AO2 T02310225,KJXI,2015-06-15T09:55:00Z,32.7,-94.95,23.1,22.5,150,5,,10.0,29.97933,,,TRUE,TRUE,,,,,,,OVC,600,,,,,,,IFR,,,,,,,,,,,,METAR,127.0
KJWY 150955Z AUTO 14005KT 7SM SCT005 23/23 A2996 RMK AO2 T02300230,KJWY,2015-06-15T09:55:00Z,32.45,-96.92,23.0,23.0,140,5,,7.0,29.958662,,,TRUE,TRUE,,,,,,,SCT,500,,,,,,,VFR,,,,,,,,,,,,METAR,217.0
KJWG 150955Z AUTO 23004KT 10SM -DZ BKN110 20/20 A2996 RMK AO2 T01960196,KJWG,2015-06-15T09:55:00Z,35.87,-98.42,19.6,19.6,230,4,,10.0,29.958662,,,TRUE,TRUE,,,,,,-DZ,BKN,11000,,,,,,,VFR,,,,,,,,,,,,METAR,472.0
KJSO 150955Z AUTO 36005KT 10SM SCT005 23/22 A3000 RMK AO2 T02350225,KJSO,2015-06-15T09:55:00Z,31.87,-95.22,23.5,22.5,360,5,,10.0,30.0,,,TRUE,TRUE,,,,,,,SCT,500,,,,,,,VFR,,,,,,,,,,,,METAR,206.0
KJQF 150955Z AUTO 00000KT 10SM CLR 21/20 A3013 RMK AO2,KJQF,2015-06-15T09:55:00Z,35.38,-80.72,21.0,20.0,0,0,,10.0,30.129921,,,TRUE,TRUE,,,,,,,CLR,,,,,,,,VFR,,,,,,,,,,,,METAR,210.0
KJNX 150955Z AUTO 00000KT 7SM CLR 22/22 A3005 RMK AO2,KJNX,2015-06-15T09:55:00Z,35.53,-78.38,22.0,22.0,0,0,,7.0,30.050198,,,TRUE,TRUE,,,,,,,CLR,,,,,,,,VFR,,,,,,,,,,,,METAR,50.0
KJKA 150955Z AUTO 09003KT 10SM CLR A3003 RMK AO2,KJKA,2015-06-15T09:55:00Z,30.28,-87.67,,,90,3,,10.0,30.029528,,,TRUE,TRUE,,,,,,,CLR,,,,,,,,VFR,,,,,,,,,,,,METAR,5.0
KJHN 150955Z AUTO 00000KT 7SM CLR 15/15 A3004 RMK AO2 T01510145,KJHN,2015-06-15T09:55:00Z,37.58,-101.73,15.1,14.5,0,0,,7.0,30.041338,,,TRUE,TRUE,,,,,,,CLR,,,,,,,,VFR,,,,,,,,,,,,METAR,1013.0
KJFZ 150955Z AUTO 24004KT 10SM CLR 21/18 A3022 RMK AO2 T02080181,KJFZ,2015-06-15T09:55:00Z,37.07,-81.8,20.8,18.1,240,4,,10.0,30.221457,,,TRUE,TRUE,,,,,,,CLR,,,,,,,,VFR,,,,,,,,,,,,METAR,809.0
KJES 150955Z AUTO 00000KT 10SM CLR 21/20 A3011 RMK AO2,KJES,2015-06-15T09:55:00Z,31.55,-81.88,21.0,20.0,0,0,,10.0,30.109253,,,TRUE,TRUE,,,,,,,CLR,,,,,,,,VFR,,,,,,,,,,,,METAR,33.0
KJDD 150955Z AUTO 00000KT 5SM BR FEW009 23/23 A2998 RMK AO2,KJDD,2015-06-15T09:55:00Z,32.75,-95.5,23.0,23.0,0,0,,5.0,29.97933,,,TRUE,TRUE,,,,,,BR,FEW,900,,,,,,,MVFR,,,,,,,,,,,,METAR,132.0
KJAS 150955Z AUTO 09004KT 10SM SCT007 25/24 A2998 RMK AO2 T02460236,KJAS,2015-06-15T09:55:00Z,30.88,-94.03,24.6,23.6,90,4,,10.0,29.97933,,,TRUE,TRUE,,,,,,,SCT,700,,,,,,,VFR,,,,,,,,,,,,METAR,65.0
KIZA 150955Z AUTO 00000KT 7SM OVC005 12/11 A2985 RMK AO2,KIZA,2015-06-15T09:55:00Z,34.6,-120.07,12.0,11.0,0,0,,7.0,29.84941,,,TRUE,TRUE,,,,,,,OVC,500,,,,,,,IFR,,,,,,,,,,,,METAR,205.0
KIXA 150955Z AUTO 23003KT 7SM CLR 22/21 A3004 RMK AO2,KIXA,2015-06-15T09:55:00Z,36.33,-77.63,22.0,21.0,230,3,,7.0,30.041338,,,TRUE,TRUE,,,,,,,CLR,,,,,,,,VFR,,,,,,,,,,,,METAR,44.0
KIPN 150955Z AUTO 11025KT 10SM 28/25 A2998 RMK A01,KIPN,2015-06-15T09:55:00Z,28.08,-87.98,28.0,25.0,110,25,,10.0,29.97933,,,TRUE,TRUE,,,,,,,,,,,,,,,,,,,,,,,,,,,METAR,41.0
KIPJ 150955Z AUTO 00000KT 10SM CLR 20/19 A3010 RMK AO2 T01950186,KIPJ,2015-06-15T09:55:00Z,35.48,-81.17,19.5,18.6,0,0,,10.0,30.100393,,,TRUE,TRUE,,,,,,,CLR,,,,,,,,VFR,,,,,,,,,,,,METAR,267.0
KIKT 150955Z AUTO 12024KT 10SM BKN021 BKN032 28/25 A2999 RMK A01,KIKT,2015-06-15T09:55:00Z,28.52,-88.28,28.0,25.0,120,24,,10.0,29.991142,,,TRUE,TRUE,,,,,,,BKN,2100,BKN,3200,,,,,MVFR,,,,,,,,,,,,METAR,25.0
KIIY 150955Z AUTO 00000KT 10SM CLR 25/24 A3013 RMK AO2,KIIY,2015-06-15T09:55:00Z,33.78,-82.82,25.0,24.0,0,0,,10.0,30.129921,,,TRUE,TRUE,,,,,,,CLR,,,,,,,,VFR,,,,,,,,,,,,METAR,197.0
KIIB 150955Z AUTO 09004KT 7SM RA SCT065 SCT075 BKN120 21/20 A2992 RMK AO2 P0001,KIIB,2015-06-15T09:55:00Z,42.45,-91.95,21.0,20.0,90,4,,7.0,29.920275,,,TRUE,TRUE,,,,,,RA,SCT,6500,SCT,7500,BKN,12000,,,VFR,,,,,,0.01,,,,,,METAR,298.0
KIGQ 150955Z AUTO 22004KT 7SM SCT008 BKN032 22/20 A2996 RMK AO2 T02170202,KIGQ,2015-06-15T09:55:00Z,41.53,-87.53,21.7,20.2,220,4,,7.0,29.958662,,,TRUE,TRUE,,,,,,,SCT,800,BKN,3200,,,,,VFR,,,,,,,,,,,,METAR,188.0
KIFA 150955Z AUTO 21003KT 7SM DZ OVC110 21/20 A2992 RMK AO2 P0001 T02070200,KIFA,2015-06-15T09:55:00Z,42.47,-93.27,20.7,20.0,210,3,,7.0,29.920275,,,TRUE,TRUE,,,,,,DZ,OVC,11000,,,,,,,VFR,,,,,,0.01,,,,,,METAR,347.0
KI39 150955Z AUTO 20004KT 10SM CLR 23/19 A3011 RMK AO2,KI39,2015-06-15T09:55:00Z,37.63,-84.33,23.0,19.0,200,4,,10.0,30.109253,,,TRUE,TRUE,,,,,,,CLR,,,,,,,,VFR,,,,,,,,,,,,METAR,306.0
KI35 150955Z AUTO 00000KT 1/4SM 19/19 A3018 RMK AO1,KI35,2015-06-15T09:55:00Z,36.87,-83.37,19.0,19.0,0,0,,0.25,30.180119,,,TRUE,TRUE,,,,,,,,,,,,,,,,,,,,,,,,,,,METAR,473.0
KHZL 150955Z AUTO 25003KT 10SM SCT014 SCT032 BKN075 21/19 A3003 RMK AO2,KHZL,2015-06-15T09:55:00Z,40.98,-76.0,21.0,19.0,250,3,,10.0,30.029528,,,TRUE,TRUE,,,,,,,SCT,1400,SCT,3200,BKN,7500,,,VFR,,,,,,,,,,,,METAR,489.0
KHVE 150955Z AUTO 00000KT 10SM CLR 18/09 A3003 RMK AO2,KHVE,2015-06-15T09:55:00Z,38.42,-110.7,18.0,9.0,0,0,,10.0,30.029528,,,TRUE,TRUE,,,,,,,CLR,,,,,,,,VFR,,,,,,,,,,,,METAR,1350.0
KHUM 150955Z AUTO 06004KT 7SM SCT021 SCT031 24/24 A2997 RMK AO2 T02440239,KHUM,2015-06-15T09:55:00Z,29.57,-90.67,24.4,23.9,60,4,,7.0,29.970472,,,TRUE,TRUE,,,,,,,SCT,2100,SCT,3100,,,,,VFR,,,,,,,,,,,,METAR,3.0
KHSB 150955Z AUTO 00000KT 10SM CLR 23/23 A3004 RMK AO2 T02250225,KHSB,2015-06-15T09:55:00Z,37.82,-88.55,22.5,22.5,0,0,,10.0,30.041338,,,TRUE,TRUE,,,,,,,CLR,,,,,,,,VFR,,,,,,,,,,,,METAR,121.0
KHQZ 150955Z AUTO 14004KT 10SM BKN014 BKN021 24/23 A2996 RMK AO1 T02400226,KHQZ,2015-06-15T09:55:00Z,32.75,-96.53,24.0,22.6,140,4,,10.0,29.958662,,,TRUE,TRUE,,,,,,,BKN,1400,BKN,2100,,,,,MVFR,,,,,,,,,,,,METAR,136.0
KHQU 150955Z AUTO 00000KT 7SM CLR 22/22 A3016 RMK AO1 T02170217,KHQU,2015-06-15T09:55:00Z,33.53,-82.52,21.7,21.7,0,0,,7.0,30.159449,,,TRUE,TRUE,,,,,,,CLR,,,,,,,,VFR,,,,,,,,,,,,METAR,152.0
KHNZ 150955Z AUTO 00000KT 7SM CLR 21/20 A3006 RMK AO2 T02110196,KHNZ,2015-06-15T09:55:00Z,36.37,-78.53,21.1,19.6,0,0,,7.0,30.059055,,,TRUE,TRUE,,,,,,,CLR,,,,,,,,VFR,,,,,,,,,,,,METAR,161.0
KHLX 150955Z AUTO 29004KT 10SM CLR 21/18 A3022 RMK AO2 T02050175,KHLX,2015-06-15T09:55:00Z,36.77,-80.82,20.5,17.5,290,4,,10.0,30.221457,,,TRUE,TRUE,,,,,,,CLR,,,,,,,,VFR,,,,,,,,,,,,METAR,834.0
KHHV 150955Z AUTO 11016KT 10SM FEW019 28/24 A2984 RMK A01,KHHV,2015-06-15T09:55:00Z,26.93,-94.68,28.0,24.0,110,16,,10.0,29.840551,,,TRUE,TRUE,,,,,,,FEW,1900,,,,,,,VFR,,,,,,,,,,,,METAR,25.0
KHHF 150955Z AUTO 00000KT 10SM BKN065 OVC075 19/19 A2998 RMK AO2 T01900185,KHHF,2015-06-15T09:55:00Z,35.9,-100.4,19.0,18.5,0,0,,10.0,29.97933,,,TRUE,TRUE,,,,,,,BKN,6500,OVC,7500,,,,,VFR,,,,,,,,,,,,METAR,712.0
KHBI 150955Z AUTO 00000KT 10SM CLR 21/20 A3011 RMK AO2 T02140201,KHBI,2015-06-15T09:55:00Z,35.65,-79.9,21.4,20.1,0,0,,10.0,30.109253,,,TRUE,TRUE,,,,,,,CLR,,,,,,,,VFR,,,,,,,,,,,,METAR,205.0
KGZL 150955Z AUTO 15004KT 10SM BKN036 BKN044 OVC120 23/21 A2998 RMK AO2,KGZL,2015-06-15T09:55:00Z,35.28,-95.1,23.0,21.0,150,4,,10.0,29.97933,,,TRUE,TRUE,,,,,,,BKN,3600,BKN,4400,OVC,12000,,,VFR,,,,,,,,,,,,METAR,183.0
K6B0 150955Z AUTO 00000KT 7SM RA SCT030 SCT046 OVC090 16/16 A2997 RMK AO2 P0008 T01630163,K6B0,2015-06-15T09:55:00Z,43.98,-73.1,16.3,16.3,0,0,,7.0,29.970472,,,TRUE,TRUE,,,,,,RA,SCT,3000,SCT,4600,OVC,9000,,,VFR,,,,,,0.08,,,,,,METAR,149.0
K6A2 150955Z AUTO 00000KT 10SM CLR 21/21 A3014 RMK AO2,K6A2,2015-06-15T09:55:00Z,33.23,-84.27,21.0,21.0,0,0,,10.0,30.138779,,,TRUE,TRUE,,,,,,,CLR,,,,,,,,VFR,,,,,,,,,,,,METAR,292.0
K6A1 150955Z AUTO 00000KT 10SM 25/25 A3013 RMK AO2 T02450245,K6A1,2015-06-15T09:55:00Z,32.57,-84.25,24.5,24.5,0,0,,10.0,30.129921,,,TRUE,TRUE,,,,,,,,,,,,,,,,,,,,,,,,,,,METAR,203.0
K66R 150955Z AUTO 00000KT 10SM SCT022 SCT042 24/23 A2991 RMK AO2 T02350232,K66R,2015-06-15T09:55:00Z,29.65,-96.52,23.5,23.2,0,0,,10.0,29.911417,,,TRUE,TRUE,,,,,,,SCT,2200,SCT,4200,,,,,VFR,,,,,,,,,,,,METAR,74.0
K5R8 150955Z AUTO 10003KT 7SM -RA SCT007 BKN021 OVC060 24/24 A2997 RMK AO2 P0002 T02350235,K5R8,2015-06-15T09:55:00Z,30.43,-93.47,23.5,23.5,100,3,,7.0,29.970472,,,TRUE,TRUE,,,,,,-RA,SCT,700,BKN,2100,OVC,6000,,,MVFR,,,,,,0.02,,,,,,METAR,24.0
K5C1 150955Z AUTO 14003KT 7SM OVC005 22/22 A2996 RMK AO1 P0001,K5C1,2015-06-15T09:55:00Z,29.72,-98.7,22.0,22.0,140,3,,7.0,29.958662,,,TRUE,TRUE,,,,,,,OVC,500,,,,,,,IFR,,,,,,0.01,,,,,,METAR,423.0
K5A6 150955Z AUTO 00000KT 10SM CLR 21/20 A3007 RMK AO2 T02050202,K5A6,2015-06-15T09:55:00Z,33.47,-89.73,20.5,20.2,0,0,,10.0,30.070866,,,TRUE,TRUE,,,,,,,CLR,,,,,,,,VFR,,,,,,,,,,,,METAR,111.0
K54J 150955Z AUTO 04004KT 10SM CLR 23/23 A3008 RMK AO2 T02300227,K54J,2015-06-15T09:55:00Z,30.73,-86.15,23.0,22.7,40,4,,10.0,30.079725,,,TRUE,TRUE,,,,,,,CLR,,,,,,,,VFR,,,,,,,,,,,,METAR,88.0
K4O4 150955Z AUTO 16004KT 10SM OVC008 23/21 A2999 RMK AO2,K4O4,2015-06-15T09:55:00Z,33.92,-94.87,23.0,21.0,160,4,,10.0,29.991142,,,TRUE,TRUE,,,,,,,OVC,800,,,,,,,IFR,,,,,,,,,,,,METAR,144.0
K4A9 150955Z AUTO 00000KT 7SM CLR 18/16 A3013 RMK AO2,K4A9,2015-06-15T09:55:00Z,34.47,-85.72,18.0,16.0,0,0,,7.0,30.129921,,,TRUE,TRUE,,,,,,,CLR,,,,,,,,VFR,,,,,,,,,,,,METAR,267.0
K4A7 150955Z AUTO 00000KT 10SM CLR 21/21 A3014 RMK AO2 T02130206,K4A7,2015-06-15T09:55:00Z,33.38,-84.33,21.3,20.6,0,0,,10.0,30.138779,,,TRUE,TRUE,,,,,,,CLR,,,,,,,,VFR,,,,,,,,,,,,METAR,266.0
K49A 150955Z AUTO 36003KT 7SM CLR A3020 RMK AO2,K49A,2015-06-15T09:55:00Z,34.63,-84.53,,,360,3,,7.0,30.200787,,,TRUE,TRUE,,,,,,,CLR,,,,,,,,VFR,,,,,,,,,,,,METAR,453.0
K46D 150955Z AUTO 26005KT 10SM CLR 09/09 A3010 RMK AO2,K46D,2015-06-15T09:55:00Z,47.45,-99.15,9.0,9.0,260,5,,10.0,30.100393,,,TRUE,TRUE,,,,,,,CLR,,,,,,,,VFR,,,,,,,,,,,,METAR,490.0
K40J 150955Z AUTO 00000KT 10SM CLR 22/21 A3009 RMK AO2 T02150209,K40J,2015-06-15T09:55:00Z,30.07,-83.57,21.5,20.9,0,0,,10.0,30.088583,,,TRUE,TRUE,,,,,,,CLR,,,,,,,,VFR,,,,,,,,,,,,METAR,13.0
K3R7 150955Z AUTO 09007KT 10SM BKN070 BKN080 23/23 A2996 RMK AO2 T02330231,K3R7,2015-06-15T09:55:00Z,30.25,-92.67,23.3,23.1,90,7,,10.0,29.958662,,,TRUE,TRUE,,,,,,,BKN,7000,BKN,8000,,,,,VFR,,,,,,,,,,,,METAR,7.0
K3N8 150955Z AUTO 33005KT 10SM CLR 12/11 A3001 RMK AO2 T01200109,K3N8,2015-06-15T09:55:00Z,47.25,-95.88,12.0,10.9,330,5,,10.0,30.008858,,,TRUE,TRUE,,,,,,,CLR,,,,,,,,VFR,,,,,,,,,,,,METAR,383.0
K3LF 150955Z AUTO 20004KT 7SM CLR 21/20 A2999 RMK AO2 T02100200,K3LF,2015-06-15T09:55:00Z,39.17,-89.67,21.0,20.0,200,4,,7.0,29.991142,,,TRUE,TRUE,,,,,,,CLR,,,,,,,,VFR,,,,,,,,,,,,METAR,210.0
K3I2 150955Z AUTO 00000KT 10SM CLR 22/20 A3007 RMK AO2,K3I2,2015-06-15T09:55:00Z,38.92,-82.1,22.0,20.0,0,0,,10.0,30.070866,,,TRUE,TRUE,,,,,,,CLR,,,,,,,,VFR,,,,,,,,,,,,METAR,196.0
K3D2 150955Z AUTO 00000KT M1/4SM FG OVC003 14/14 A2990 RMK AO2 T01400139,K3D2,2015-06-15T09:55:00Z,45.13,-87.18,14.0,13.9,0,0,,0.25,29.899607,,,TRUE,TRUE,,,,,,FG,OVC,300,,,,,,,LIFR,,,,,,,,,,,,METAR,234.0
K36U 150955Z AUTO 00000KT 10SM CLR 11/06 A3009 RMK AO2,K36U,2015-06-15T09:55:00Z,40.48,-111.43,11.0,6.0,0,0,,10.0,30.088583,,,TRUE,TRUE,,,,,,,CLR,,,,,,,,VFR,,,,,,,,,,,,METAR,1718.0
K2I0 150955Z AUTO 21004KT 10SM CLR 24/21 A3006 RMK AO2 T02400211,K2I0,2015-06-15T09:55:00Z,37.35,-87.4,24.0,21.1,210,4,,10.0,30.059055,,,TRUE,TRUE,,,,,,,CLR,,,,,,,,VFR,,,,,,,,,,,,METAR,134.0
K2G9 150955Z AUTO 26009KT 7SM RA BKN015 BKN027 OVC110 18/18 A3010 RMK AO2 P0023,K2G9,2015-06-15T09:55:00Z,40.03,-79.02,18.0,18.0,260,9,,7.0,30.100393,,,TRUE,TRUE,,,,,,RA,BKN,1500,BKN,2700,OVC,11000,,,MVFR,,,,,,0.23,,,,,,METAR,693.0
K2D5 150955Z AUTO 31006KT 10SM 13/13 A3005 RMK AO2,K2D5,2015-06-15T09:55:00Z,46.17,-98.08,13.0,13.0,310,6,,10.0,30.050198,,,TRUE,TRUE,,,,,,,,,,,,,,,,,,,,,,,,,,,METAR,407.0
K2C8 150955Z AUTO 31007KT 10SM CLR 12/08 A3003 RMK AO2,K2C8,2015-06-15T09:55:00Z,48.78,-97.63,12.0,8.0,310,7,,10.0,30.029528,,,TRUE,TRUE,,,,,,,CLR,,,,,,,,VFR,,,,,,,,,,,,METAR,272.0
K1R7 150955Z AUTO 10004KT OVC001 23/23 A3006 RMK AO2,K1R7,2015-06-15T09:55:00Z,31.6,-90.42,23.0,23.0,100,4,,,30.059055,,,TRUE,TRUE,,,,,,,OVC,100,,,,,,,,,,,,,,,,,,,METAR,149.0
K1L0 150955Z AUTO 07003KT 10SM CLR 26/24 A2998 RMK AO2 T02560238,K1L0,2015-06-15T09:55:00Z,30.08,-90.58,25.6,23.8,70,3,,10.0,29.97933,,,TRUE,TRUE,,,,,,,CLR,,,,,,,,VFR,,,,,,,,,,,,METAR,2.0
K1K1 150955Z AUTO 08003KT 10SM OVC009 20/19 A2994 RMK AO2 T02000191,K1K1,2015-06-15T09:55:00Z,37.77,-97.12,20.0,19.1,80,3,,10.0,29.940945,,,TRUE,TRUE,,,,,,,OVC,900,,,,,,,IFR,,,,,,,,,,,,METAR,416.0
K1II 150955Z AUTO 00000KT 10SM SCT015 BKN026 BKN039 22/21 A3005 RMK AO2 LTG DSNT N,K1II,2015-06-15T09:55:00Z,39.33,-86.03,22.0,21.0,0,0,,10.0,30.050198,,,TRUE,TRUE,,,,,,,SCT,1500,BKN,2600,BKN,3900,,,MVFR,,,,,,,,,,,,METAR,214.0
K1H2 150955Z AUTO 16004KT 7SM CLR 22/21 A3002 RMK AO2 T02210206,K1H2,2015-06-15T09:55:00Z,39.07,-88.53,22.1,20.6,160,4,,7.0,30.02067,,,TRUE,TRUE,,,,,,,CLR,,,,,,,,VFR,,,,,,,,,,,,METAR,179.0
K1A9 150955Z AUTO 00000KT 10SM CLR 21/21 A3008 RMK AO2 T02110210,K1A9,2015-06-15T09:55:00Z,32.43,-86.52,21.1,21.0,0,0,,10.0,30.079725,,,TRUE,TRUE,,,,,,,CLR,,,,,,,,VFR,,,,,,,,,,,,METAR,69.0
K1A6 150955Z AUTO 00000KT 10SM CLR 18/18 A3017 RMK AO2 T01820180,K1A6,2015-06-15T09:55:00Z,36.62,-83.73,18.2,18.0,0,0,,10.0,30.171259,,,TRUE,TRUE,,,,,,,CLR,,,,,,,,VFR,,,,,,,,,,,,METAR,352.0
K1A5 150955Z AUTO 00000KT 14/14 A3025 RMK AO2 T01420142 PWINO,K1A5,2015-06-15T09:55:00Z,35.22,-83.42,14.2,14.2,0,0,,,30.250984,,,TRUE,TRUE,,,,,TRUE,,,,,,,,,,,,,,,,,,,,,,METAR,616.0
K19A 150955Z AUTO 00000KT 10SM CLR 21/21 A3015 RMK AO2,K19A,2015-06-15T09:55:00Z,34.18,-83.57,21.0,21.0,0,0,,10.0,30.15059,,,TRUE,TRUE,,,,,,,CLR,,,,,,,,VFR,,,,,,,,,,,,METAR,290.0
K18A 150955Z AUTO 00000KT 10SM CLR 20/20 A3014 RMK AO2 T02000198,K18A,2015-06-15T09:55:00Z,34.35,-83.13,20.0,19.8,0,0,,10.0,30.138779,,,TRUE,TRUE,,,,,,,CLR,,,,,,,,VFR,,,,,,,,,,,,METAR,271.0
K11R 150955Z AUTO 00000KT 7SM CLR 24/24 A2993 RMK AO2 T02400236,K11R,2015-06-15T09:55:00Z,30.22,-96.37,24.0,23.6,0,0,,7.0,29.929134,,,TRUE,TRUE,,,,,,,CLR,,,,,,,,VFR,,,,,,,,,,,,METAR,94.0
K0V4 150955Z AUTO 00000KT 10SM CLR 22/22 A3006 RMK AO1 T02200220,K0V4,2015-06-15T09:55:00Z,37.15,-79.02,22.0,22.0,0,0,,10.0,30.059055,,,TRUE,TRUE,,,,,,,CLR,,,,,,,,VFR,,,,,,,,,,,,METAR,182.0
K0E0 150955Z AUTO 00000KT 10SM CLR 10/08 A3020 RMK AO2 T00980076,K0E0,2015-06-15T09:55:00Z,34.98,-106.0,9.8,7.6,0,0,,10.0,30.200787,,,TRUE,TRUE,,,,,,,CLR,,,,,,,,VFR,,,,,,,,,,,,METAR,1890.0
K06D 150955Z AUTO 31010KT 10SM CLR 10/07 A3010 RMK AO2,K06D,2015-06-15T09:55:00Z,48.88,-99.62,10.0,7.0,310,10,,10.0,30.100393,,,TRUE,TRUE,,,,,,,CLR,,,,,,,,VFR,,,,,,,,,,,,METAR,556.0
KXLL 150955Z AUTO 00000KT 4SM BR OVC009 23/22 A2997 RMK AO2,KXLL,2015-06-15T09:55:00Z,40.57,-75.48,23.0,22.0,0,0,,4.0,29.970472,,,TRUE,TRUE,,,,,,BR,OVC,900,,,,,,,IFR,,,,,,,,,,,,METAR,122.0
KXIH 150955Z AUTO 14018G24KT 8SM FEW021 SCT030 BKN055 27/23 A2988 RMK A01,KXIH,2015-06-15T09:55:00Z,29.18,-94.52,27.0,23.0,140,18,24,8.0,29.878937,,,TRUE,TRUE,,,,,,,FEW,2100,SCT,3000,BKN,5500,,,VFR,,,,,,,,,,,,METAR,75.0
KXBP 150955Z AUTO 15004KT 10SM OVC012 23/22 A2996 RMK AO2 T02300218,KXBP,2015-06-15T09:55:00Z,33.18,-97.83,23.0,21.8,150,4,,10.0,29.958662,,,TRUE,TRUE,,,,,,,OVC,1200,,,,,,,MVFR,,,,,,,,,,,,METAR,260.0
KWDR 150955Z AUTO 00000KT 10SM CLR 22/21 A3017 RMK AO1,KWDR,2015-06-15T09:55:00Z,33.98,-83.67,22.0,21.0,0,0,,10.0,30.171259,,,TRUE,TRUE,,,,,,,CLR,,,,,,,,VFR,,,,,,,,,,,,METAR,287.0
KW99 150955Z AUTO 00000KT 10SM SCT095 24/18 A3005 RMK AO2 LTG DSNT E T02350183,KW99,2015-06-15T09:55:00Z,39.0,-79.15,23.5,18.3,0,0,,10.0,30.050198,,,TRUE,TRUE,,,,,,,SCT,9500,,,,,,,VFR,,,,,,,,,,,,METAR,293.0
KW96 150955Z AUTO 00000KT 7SM SCT090 22/21 A3002 RMK AO1 T02170214,KW96,2015-06-15T09:55:00Z,37.5,-77.12,21.7,21.4,0,0,,7.0,30.02067,,,TRUE,TRUE,,,,,,,SCT,9000,,,,,,,VFR,,,,,,,,,,,,METAR,37.0
KW81 150955Z AUTO 00000KT 10SM CLR 20/19 A3004 RMK AO1 T01980190,KW81,2015-06-15T09:55:00Z,37.18,-78.1,19.8,19.0,0,0,,10.0,30.041338,,,TRUE,TRUE,,,,,,,CLR,,,,,,,,VFR,,,,,,,,,,,,METAR,129.0
KW75 150955Z AUTO 22005KT 10SM CLR 23/22 A3000 RMK AO1 T02330220,KW75,2015-06-15T09:55:00Z,37.6,-76.45,23.3,22.0,220,5,,10.0,30.0,,,TRUE,TRUE,,,,,,,CLR,,,,,,,,VFR,,,,,,,,,,,,METAR,9.0
KW31 150955Z AUTO 10SM CLR 21/20 A3005 RMK AO1 T02050200,KW31,2015-06-15T09:55:00Z,36.95,-78.18,20.5,20.0,,,,10.0,30.050198,,,TRUE,TRUE,,,,,,,CLR,,,,,,,,VFR,,,,,,,,,,,,METAR,162.0
KW13 150955Z AUTO 24006KT 10SM CLR 23/19 A3009 RMK AO1 T02310194,KW13,2015-06-15T09:55:00Z,38.08,-78.95,23.1,19.4,240,6,,10.0,30.088583,,,TRUE,TRUE,,,,,,,CLR,,,,,,,,VFR,,,,,,,,,,,,METAR,443.0
KVTI 150955Z AUTO 15004KT 7SM -RA SCT003 BKN008 BKN014 21/21 A2991 RMK AO2 P0002 T02130205,KVTI,2015-06-15T09:55:00Z,42.22,-92.02,21.3,20.5,150,4,,7.0,29.911417,,,TRUE,TRUE,,,,,,-RA,SCT,300,BKN,800,BKN,1400,,,IFR,,,,,,0.02,,,,,,METAR,255.0
KVQT 150955Z AUTO 11020KT 10SM FEW019 SCT023 SCT032 27/24 A2989 RMK A01,KVQT,2015-06-15T09:55:00Z,28.27,-92.27,27.0,24.0,110,20,,10.0,29.890747,,,TRUE,TRUE,,,,,,,FEW,1900,SCT,2300,SCT,3200,,,VFR,,,,,,,,,,,,METAR,25.0
KVOA 150955Z AUTO 11019KT 10SM CLR 29/25 A3000 RMK A01,KVOA,2015-06-15T09:55:00Z,29.23,-87.78,29.0,25.0,110,19,,10.0,30.0,,,TRUE,TRUE,,,,,,,CLR,,,,,,,,VFR,,,,,,,,,,,,METAR,53.0
KVKY 150955Z AUTO 13016KT 10SM FEW017 28/24 A3000 RMK A01,KVKY,2015-06-15T09:55:00Z,29.25,-88.43,28.0,24.0,130,16,,10.0,30.0,,,TRUE,TRUE,,,,,,,FEW,1700,,,,,,,VFR,,,,,,,,,,,,METAR,32.0
KVDI 150955Z AUTO 00000KT 10SM CLR 22/20 A3011 RMK AO2,KVDI,2015-06-15T09:55:00Z,32.2,-82.37,22.0,20.0,0,0,,10.0,30.109253,,,TRUE,TRUE,,,,,,,CLR,,,,,,,,VFR,,,,,,,,,,,,METAR,84.0
KVBS 150955Z AUTO 17021KT 10SM SCT023 OVC100 28/24 A2990 RMK A01,KVBS,2015-06-15T09:55:00Z,29.48,-93.63,28.0,24.0,170,21,,10.0,29.899607,,,TRUE,TRUE,,,,,,,SCT,2300,OVC,10000,,,,,VFR,,,,,,,,,,,,METAR,31.0
KVAF 150955Z AUTO 12013KT 6SM HZ OVC100 27/24 A2984 RMK A01,KVAF,2015-06-15T09:55:00Z,27.35,-94.63,27.0,24.0,120,13,,6.0,29.840551,,,TRUE,TRUE,,,,,,HZ,OVC,10000,,,,,,,VFR,,,,,,,,,,,,METAR,46.0
KUVA 150955Z AUTO 00000KT 7SM BKN060 22/22 A2993 RMK AO2 T02220220,KUVA,2015-06-15T09:55:00Z,29.22,-99.75,22.2,22.0,0,0,,7.0,29.929134,,,TRUE,TRUE,,,,,,,BKN,6000,,,,,,,VFR,,,,,,,,,,,,METAR,287.0
KUNU 150955Z AUTO 13003KT 7SM CLR 19/18 A2992 RMK AO2 T01860179,KUNU,2015-06-15T09:55:00Z,43.42,-88.7,18.6,17.9,130,3,,7.0,29.920275,,,TRUE,TRUE,,,,,,,CLR,,,,,,,,VFR,,,,,,,,,,,,METAR,285.0
KU68 150955Z AUTO 25004KT 10SM OVC075 12/07 A3016 RMK AO2,KU68,2015-06-15T09:55:00Z,44.92,-108.45,12.0,7.0,250,4,,10.0,30.159449,,,TRUE,TRUE,,,,,,,OVC,7500,,,,,,,VFR,,,,,,,,,,,,METAR,1247.0
KTYQ 150955Z AUTO 20007KT 5SM -RA SCT017 SCT024 OVC034 22/20 A3003 RMK AO2 LTG DSNT SE P0002 T02220200,KTYQ,2015-06-15T09:55:00Z,40.03,-86.25,22.2,20.0,200,7,,5.0,30.029528,,,TRUE,TRUE,,,,,,-RA,SCT,1700,SCT,2400,OVC,3400,,,MVFR,,,,,,0.02,,,,,,METAR,281.0
KTTA 150955Z AUTO 00000KT 1/2SM FG VV005 21/21 A3005 RMK AO2 T02100210,KTTA,2015-06-15T09:55:00Z,35.58,-79.1,21.0,21.0,0,0,,0.5,30.050198,,,TRUE,TRUE,,,,,,FG,OVX,0,,,,,,,LIFR,,,,,,,,,,,500,METAR,75.0
KTQH 150955Z AUTO 16003KT 10SM CLR 22/21 A2998 RMK AO2,KTQH,2015-06-15T09:55:00Z,35.93,-95.0,22.0,21.0,160,3,,10.0,29.97933,,,TRUE,TRUE,,,,,,,CLR,,,,,,,,VFR,,,,,,,,,,,,METAR,266.0
KTNB 150955Z AUTO 29011G18KT 10SM CLR 21/15 A3023 RMK AO2 T02060150,KTNB,2015-06-15T09:55:00Z,36.2,-81.65,20.6,15.0,290,11,18,10.0,30.230314,,,TRUE,TRUE,,,,,,,CLR,,,,,,,,VFR,,,,,,,,,,,,METAR,911.0
KTMK 150955Z AUTO 00000KT 7SM CLR 08/07 A2997 RMK AO2,KTMK,2015-06-15T09:55:00Z,45.42,-123.82,8.0,7.0,0,0,,7.0,29.970472,,,TRUE,TRUE,,,,,,,CLR,,,,,,,,VFR,,,,,,,,,,,,METAR,11.0
KTMA 150955Z AUTO 00000KT 10SM CLR 22/20 A3010 RMK AO2 T02180203,KTMA,2015-06-15T09:55:00Z,31.43,-83.48,21.8,20.3,0,0,,10.0,30.100393,,,TRUE,TRUE,,,,,,,CLR,,,,,,,,VFR,,,,,,,,,,,,METAR,109.0
KTBX 150955Z AUTO 33005KT 10SM OVC019 07/06 A3034 RMK AO2,KTBX,2015-06-15T09:55:00Z,43.47,-108.23,7.0,6.0,330,5,,10.0,30.339567,,,TRUE,TRUE,,,,,,,OVC,1900,,,,,,,MVFR,,,,,,,,,,,,METAR,2225.0
KT20 150955Z AUTO 08003KT 10SM SCT010 BKN035 OVC055 25/24 A2990 RMK AO2 P0013 T02450244,KT20,2015-06-15T09:55:00Z,29.52,-97.47,24.5,24.4,80,3,,10.0,29.899607,,,TRUE,TRUE,,,,,,,SCT,1000,BKN,3500,OVC,5500,,,VFR,,,,,,0.13,,,,,,METAR,108.0
KSZT 150955Z AUTO 02012KT 10SM CLR 14/03 A3007 RMK AO2,KSZT,2015-06-15T09:55:00Z,48.3,-116.57,14.0,3.0,20,12,,10.0,30.070866,,,TRUE,TRUE,,,,,,,CLR,,,,,,,,VFR,,,,,,,,,,,,METAR,648.0
KSWW 150955Z AUTO 16006KT 10SM SCT085 BKN120 20/19 A2997 RMK AO2 T02000192,KSWW,2015-06-15T09:55:00Z,32.47,-100.47,20.0,19.2,160,6,,10.0,29.970472,,,TRUE,TRUE,,,,,,,SCT,8500,BKN,12000,,,,,VFR,,,,,,,,,,,,METAR,727.0
KSVC 150955Z AUTO 33009KT 10SM 19/05 A3004 RMK AO2,KSVC,2015-06-15T09:55:00Z,32.63,-108.15,19.0,5.0,330,9,,10.0,30.041338,,,TRUE,TRUE,,,,,,,,,,,,,,,,,,,,,,,,,,,METAR,1659.0
KSUT 150955Z AUTO 00000KT 10SM CLR 25/23 A3006 RMK AO2 T02500230,KSUT,2015-06-15T09:55:00Z,33.93,-78.08,25.0,23.0,0,0,,10.0,30.059055,,,TRUE,TRUE,,,,,,,CLR,,,,,,,,VFR,,,,,,,,,,,,METAR,8.0
KSUN 150955Z AUTO 31009KT 10SM CLR 11/01 A3006 RMK AO2,KSUN,2015-06-15T09:55:00Z,43.5,-114.28,11.0,1.0,310,9,,10.0,30.059055,,,TRUE,TRUE,,,,,,,CLR,,,,,,,,VFR,,,,,,,,,,,,METAR,1620.0
KSQE 150955Z AUTO 11008G16KT 8SM BKN040 BKN055 BKN080 25/24 A2992 RMK A01,KSQE,2015-06-15T09:55:00Z,28.07,-90.82,25.0,24.0,110,8,16,8.0,29.920275,,,TRUE,TRUE,,,,,,,BKN,4000,BKN,5500,BKN,8000,,,VFR,,,,,,,,,,,,METAR,0.0
KSPR 150955Z AUTO VRB10G18KT 3SM HZ FEW004 SCT026 BKN060 27/24 A2991 RMK A01,KSPR,2015-06-15T09:55:00Z,28.6,-91.2,27.0,24.0,0,10,18,3.0,29.911417,,,TRUE,TRUE,,,,,,HZ,FEW,400,SCT,2600,BKN,6000,,,MVFR,,,,,,,,,,,,METAR,31.0
KSLR 150955Z AUTO 00000KT 10SM SCT011 24/23 A3000 RMK AO2 T02350227,KSLR,2015-06-15T09:55:00Z,33.17,-95.62,23.5,22.7,0,0,,10.0,30.0,,,TRUE,TRUE,,,,,,,SCT,1100,,,,,,,VFR,,,,,,,,,,,,METAR,149.0
KSLO 150955Z AUTO 19005KT 10SM CLR 23/21 A3001 RMK AO2 T02340214,KSLO,2015-06-15T09:55:00Z,38.65,-88.97,23.4,21.4,190,5,,10.0,30.008858,,,TRUE,TRUE,,,,,,,CLR,,,,,,,,VFR,,,,,,,,,,,,METAR,175.0
KSIF 150955Z AUTO 00000KT 4SM BR CLR 20/20 A3008 RMK AO2 T01950195,KSIF,2015-06-15T09:55:00Z,36.43,-79.85,19.5,19.5,0,0,,4.0,30.079725,,,TRUE,TRUE,,,,,,BR,CLR,,,,,,,,MVFR,,,,,,,,,,,,METAR,211.0
KSEZ 150955Z AUTO 05010KT 10SM CLR 22/05 A3001 RMK AO2,KSEZ,2015-06-15T09:55:00Z,34.85,-111.78,22.0,5.0,50,10,,10.0,30.008858,,,TRUE,TRUE,,,,,,,CLR,,,,,,,,VFR,,,,,,,,,,,,METAR,1473.0
KSEP 150955Z AUTO 15005KT 7SM SCT008 SCT014 BKN028 23/21 A2999 RMK AO2 T02300211,KSEP,2015-06-15T09:55:00Z,32.22,-98.17,23.0,21.1,150,5,,7.0,29.991142,,,TRUE,TRUE,,,,,,,SCT,800,SCT,1400,BKN,2800,,,MVFR,,,,,,,,,,,,METAR,402.0
KSCF 150955Z AUTO 12021KT 10SM CLR 27/23 A2992 RMK A01,KSCF,2015-06-15T09:55:00Z,29.12,-91.87,27.0,23.0,120,21,,10.0,29.920275,,,TRUE,TRUE,,,,,,,CLR,,,,,,,,VFR,,,,,,,,,,,,METAR,8.0
KSCD 150955Z AUTO 00000KT 7SM CLR 21/21 A3012 RMK AO2 T02080208,KSCD,2015-06-15T09:55:00Z,33.17,-86.3,20.8,20.8,0,0,,7.0,30.121063,,,TRUE,TRUE,,,,,,,CLR,,,,,,,,VFR,,,,,,,,,,,,METAR,173.0
KSBO 150955Z AUTO 00000KT 10SM CLR A3012 RMK AO2,KSBO,2015-06-15T09:55:00Z,32.62,-82.37,,,0,0,,10.0,30.121063,,,TRUE,TRUE,,,,,,,CLR,,,,,,,,VFR,,,,,,,,,,,,METAR,100.0
KSAR 150955Z AUTO 18004KT 10SM CLR 22/21 A3002 RMK AO2 T02200211,KSAR,2015-06-15T09:55:00Z,38.15,-89.7,22.0,21.1,180,4,,10.0,30.02067,,,TRUE,TRUE,,,,,,,CLR,,,,,,,,VFR,,,,,,,,,,,,METAR,164.0
KSAA 150955Z AUTO 00000KT 10SM CLR 07/07 A3021 RMK AO2,KSAA,2015-06-15T09:55:00Z,41.45,-106.83,7.0,7.0,0,0,,10.0,30.209646,,,TRUE,TRUE,,,,,,,CLR,,,,,,,,VFR,,,,,,,,,,,,METAR,2138.0
KRZN 150955Z AUTO 01003KT 10SM OVC055 17/16 A2992 RMK AO2 T01710155,KRZN,2015-06-15T09:55:00Z,45.82,-92.37,17.1,15.5,10,3,,10.0,29.920275,,,TRUE,TRUE,,,,,,,OVC,5500,,,,,,,VFR,,,,,,,,,,,,METAR,301.0
KRYV 150955Z AUTO 00000KT 7SM CLR 18/18 A2991 RMK AO2 T01800180,KRYV,2015-06-15T09:55:00Z,43.17,-88.72,18.0,18.0,0,0,,7.0,29.911417,,,TRUE,TRUE,,,,,,,CLR,,,,,,,,VFR,,,,,,,,,,,,METAR,254.0
KRSV 150955Z AUTO 17004KT 10SM CLR 22/21 A3002 RMK AO2 T02150210,KRSV,2015-06-15T09:55:00Z,39.02,-87.65,21.5,21.0,170,4,,10.0,30.02067,,,TRUE,TRUE,,,,,,,CLR,,,,,,,,VFR,,,,,,,,,,,,METAR,141.0
KSPA 150955Z AUTO 26003KT 10SM CLR 23/20 A3010 RMK AO2,KSPA,2015-06-15T09:55:00Z,34.92,-81.93,23.0,20.0,260,3,,10.0,30.100393,,,TRUE,TRUE,,,,,,,CLR,,,,,,,,VFR,,,,,,,,,,,,METAR,303.0
KLUX 150955Z AUTO 30003KT 10SM CLR 23/23 A3010 RMK AO2,KLUX,2015-06-15T09:55:00Z,34.5,-81.95,23.0,23.0,300,3,,10.0,30.100393,,,TRUE,TRUE,,,,,,,CLR,,,,,,,,VFR,,,,,,,,,,,,METAR,213.0
KIMM 150955Z AUTO 00000KT CLR A3006 RMK A01 P000,KIMM,2015-06-15T09:55:00Z,26.43,-81.4,,,0,0,,,30.059055,,,TRUE,TRUE,,,,,,,CLR,,,,,,,,,,,,,,,,,,,,METAR,12.0
KD55 150955Z AUTO 30009KT 10SM CLR 10/07 A3006 RMK AO2,KD55,2015-06-15T09:55:00Z,48.75,-98.4,10.0,7.0,300,9,,10.0,30.059055,,,TRUE,TRUE,,,,,,,CLR,,,,,,,,VFR,,,,,,,,,,,,METAR,491.0
KCKI 150955Z AUTO 00000KT 10SM CLR 23/23 A3008 RMK AO2,KCKI,2015-06-15T09:55:00Z,33.72,-79.85,23.0,23.0,0,0,,10.0,30.079725,,,TRUE,TRUE,,,,,,,CLR,,,,,,,,VFR,,,,,,,,,,,,METAR,21.0
KBNL 150955Z AUTO 00000KT 10SM CLR 22/21 A3011 RMK AO2,KBNL,2015-06-15T09:55:00Z,33.25,-81.38,22.0,21.0,0,0,,10.0,30.109253,,,TRUE,TRUE,,,,,,,CLR,,,,,,,,VFR,,,,,,,,,,,,METAR,75.0
KLDJ 150955Z AUTO 00000KT 7SM -DZ OVC007 23/23 A2998 RMK AO2 T02320225,KLDJ,2015-06-15T09:55:00Z,40.62,-74.25,23.2,22.5,0,0,,7.0,29.97933,,,TRUE,TRUE,,,,,,-DZ,OVC,700,,,,,,,IFR,,,,,,,,,,,,METAR,7.0
KCXP 150955Z AUTO 00000KT 10SM CLR 14/M02 A2998 RMK AO2,KCXP,2015-06-15T09:55:00Z,39.18,-119.73,14.0,-2.0,0,0,,10.0,29.97933,,,TRUE,TRUE,,,,,,,CLR,,,,,,,,VFR,,,,,,,,,,,,METAR,1435.0
KARW 150955Z AUTO 26005KT 7SM CLR 25/20 A3009 RMK AO2,KARW,2015-06-15T09:55:00Z,32.42,-80.63,25.0,20.0,260,5,,7.0,30.088583,,,TRUE,TRUE,,,,,,,CLR,,,,,,,,VFR,,,,,,,,,,,,METAR,4.0
KVDF 150955Z AUTO 00000KT 7SM CLR 23/22 A3009 RMK AO2,KVDF,2015-06-15T09:55:00Z,28.02,-82.33,23.0,22.0,0,0,,7.0,30.088583,,,TRUE,TRUE,,,,,,,CLR,,,,,,,,VFR,,,,,,,,,,,,METAR,7.0
KORS 150955Z AUTO 00000KT 10SM CLR 13/09 A2993 RMK AO2,KORS,2015-06-15T09:55:00Z,48.7,-122.92,13.0,9.0,0,0,,10.0,29.929134,,,TRUE,TRUE,,,,,,,CLR,,,,,,,,VFR,,,,,,,,,,,,METAR,9.0
KJFX 150955Z AUTO 00000KT 6SM BR CLR 20/20 A3011 RMK A02 P-128,KJFX,2015-06-15T09:55:00Z,33.9,-87.32,20.0,20.0,0,0,,6.0,30.109253,,,TRUE,TRUE,,,,,,BR,CLR,,,,,,,,VFR,,,,,,,,,,,,METAR,148.0
KAIK 150955Z AUTO 25004KT 10SM CLR 22/18 A3014 RMK AO2,KAIK,2015-06-15T09:55:00Z,33.65,-81.68,22.0,18.0,250,4,,10.0,30.138779,,,TRUE,TRUE,,,,,,,CLR,,,,,,,,VFR,,,,,,,,,,,,METAR,161.0
KMHL 150955Z AUTO 13003KT 7SM CLR 22/22 A2995 RMK AO2,KMHL,2015-06-15T09:55:00Z,39.1,-93.2,22.0,22.0,130,3,,7.0,29.949802,,,TRUE,TRUE,,,,,,,CLR,,,,,,,,VFR,,,,,,,,,,,,SPECI,237.0
KGGE 150955Z AUTO 27005KT 10SM CLR 24/24 A3008 RMK AO2,KGGE,2015-06-15T09:55:00Z,33.32,-79.32,24.0,24.0,270,5,,10.0,30.079725,,,TRUE,TRUE,,,,,,,CLR,,,,,,,,VFR,,,,,,,,,,,,METAR,12.0
PAFR 150954Z AUTO 00000KT 10SM CLR 13/07 A3025 RMK AO1,PAFR,2015-06-15T09:54:00Z,61.27,-149.65,13.0,7.0,0,0,,10.0,30.250984,,,TRUE,TRUE,,,,,,,CLR,,,,,,,,VFR,,,,,,,,,,,,METAR,115.0
KACY 150954Z 23006KT 4SM -RA BR BKN027 BKN042 OVC110 23/22 A2999 RMK AO2 RAB48 SLP155 P0000 T02280217 $,KACY,2015-06-15T09:54:00Z,39.45,-74.57,22.8,21.7,230,6,,4.0,29.991142,1015.5,,,TRUE,TRUE,,,,,-RA BR,BKN,2700,BKN,4200,OVC,11000,,,MVFR,,,,,,0.0050,,,,,,METAR,23.0
K12N 150954Z AUTO 00000KT 20/20 A2996 RMK AO1 SLP139 T02000200,K12N,2015-06-15T09:54:00Z,41.02,-74.73,20.0,20.0,0,0,,,29.958662,1013.9,,TRUE,TRUE,,,,,,,,,,,,,,,,,,,,,,,,,,,METAR,177.0
KBKB 150954Z AUTO 00000KT 10SM SCT004 24/22 A2996 RMK AO2 SLP171 T02390217,KBKB,2015-06-15T09:54:00Z,31.0,-92.92,23.9,21.7,0,0,,10.0,29.958662,1017.1,,TRUE,TRUE,,,,,,,SCT,400,,,,,,,VFR,,,,,,,,,,,,METAR,94.0
KMQE 150954Z AUTO 14009KT 14/09 A3008 RMK AO1 SLP195 T01390094,KMQE,2015-06-15T09:54:00Z,42.22,-71.12,13.9,9.4,140,9,,,30.079725,1019.5,,TRUE,TRUE,,,,,,,,,,,,,,,,,,,,,,,,,,,METAR,199.0
K1V4 150954Z AUTO 13/12 A3002 RMK AO1 SLP156 P0003 T01330117,K1V4,2015-06-15T09:54:00Z,44.42,-72.02,13.3,11.7,,,,,30.02067,1015.6,,TRUE,TRUE,,,,,,,,,,,,,,,,,,,,,0.03,,,,,,METAR,210.0
KNKT 150954Z 27003KT 10SM CLR 24/23 A3005 RMK AO2 SLP171 T02390233,KNKT,2015-06-15T09:54:00Z,34.9,-76.88,23.9,23.3,270,3,,10.0,30.050198,1017.1,,,TRUE,,,,,,,CLR,,,,,,,,VFR,,,,,,,,,,,,METAR,9.0
KMTP 150954Z AUTO VRB04KT 18/16 A3009 RMK AO1 SLP189 T01780161,KMTP,2015-06-15T09:54:00Z,41.07,-71.92,17.8,16.1,0,4,,,30.088583,1018.9,,TRUE,TRUE,,,,,,,,,,,,,,,,,,,,,,,,,,,METAR,2.0
CYUA 150954Z AUTO 07002KT 2 1/4SM -RA OVC009 08/ A3042,CYUA,2015-06-15T09:54:00Z,68.95,-137.28,8.0,,70,2,,2.25,30.41929,,,TRUE,,,,,,,-RA,OVC,900,,,,,,,IFR,,,,,,,,,,,,SPECI,38.0
KNFG 150954Z AUTO 00000KT 7SM OVC008 18/15 A2982 RMK AO2 SLP096 T01780150,KNFG,2015-06-15T09:54:00Z,33.28,-117.33,17.8,15.0,0,0,,7.0,29.819881,1009.6,,TRUE,TRUE,,,,,,,OVC,800,,,,,,,IFR,,,,,,,,,,,,METAR,24.0
KNAK 150954Z AUTO 18004KT 7SM CLR 24/23 A2998 RMK AO2 RAE0859 SLP154 P0000 T02390233,KNAK,2015-06-15T09:54:00Z,38.98,-76.48,23.9,23.3,180,4,,7.0,29.97933,1015.4,,TRUE,TRUE,,,,,,,CLR,,,,,,,,VFR,,,,,,0.0050,,,,,,METAR,2.0
KFKS 150954Z AUTO 00000KT 1/2SM FG OVC004 16/16 A2991 RMK AO2 T01600160,KFKS,2015-06-15T09:54:00Z,44.63,-86.2,16.0,16.0,0,0,,0.5,29.911417,,,TRUE,TRUE,,,,,,FG,OVC,400,,,,,,,LIFR,,,,,,,,,,,,METAR,193.0
KIMT 150954Z AUTO 00000KT 3/4SM BR CLR 10/09 A2990 RMK AO2 SLP125 T01000089 TSNO $,KIMT,2015-06-15T09:54:00Z,45.82,-88.12,10.0,8.9,0,0,,0.75,29.899607,1012.5,,TRUE,TRUE,TRUE,,TRUE,,,BR,CLR,,,,,,,,LIFR,,,,,,,,,,,,METAR,349.0
KCVX 150954Z AUTO 00000KT M1/4SM FG OVC001 15/15 A2995 RMK AO2 T01500150,KCVX,2015-06-15T09:54:00Z,45.3,-85.27,15.0,15.0,0,0,,0.25,29.949802,,,TRUE,TRUE,,,,,,FG,OVC,100,,,,,,,LIFR,,,,,,,,,,,,METAR,204.0
KCNB 150954Z AUTO 33006KT 10SM CLR 16/14 A3000 RMK AO2 LTG DSNT E THRU S T01550137,KCNB,2015-06-15T09:54:00Z,44.73,-96.27,15.5,13.7,330,6,,10.0,30.0,,,TRUE,TRUE,,,,,,,CLR,,,,,,,,VFR,,,,,,,,,,,,METAR,364.0
KCKN 150954Z AUTO 34004KT 10SM CLR 12/10 A3003 RMK AO2,KCKN,2015-06-15T09:54:00Z,47.85,-96.62,12.0,10.0,340,4,,10.0,30.029528,,,TRUE,TRUE,,,,,,,CLR,,,,,,,,VFR,,,,,,,,,,,,METAR,273.0
KCFS 150954Z AUTO 26003KT 4SM BR BKN002 OVC006 21/21 A2993 RMK AO2 T02080205,KCFS,2015-06-15T09:54:00Z,43.47,-83.45,20.8,20.5,260,3,,4.0,29.929134,,,TRUE,TRUE,,,,,,BR,BKN,200,OVC,600,,,,,LIFR,,,,,,,,,,,,METAR,214.0
KCFE 150954Z AUTO 33007KT 10SM OVC090 18/15 A2994 RMK AO2 LTG DSNT SW T01820150,KCFE,2015-06-15T09:54:00Z,45.17,-93.85,18.2,15.0,330,7,,10.0,29.940945,,,TRUE,TRUE,,,,,,,OVC,9000,,,,,,,VFR,,,,,,,,,,,,METAR,295.0
KCAD 150954Z AUTO 00000KT 1/4SM FG OVC001 17/17 A2994 RMK AO2 T01770174,KCAD,2015-06-15T09:54:00Z,44.27,-85.42,17.7,17.4,0,0,,0.25,29.940945,,,TRUE,TRUE,,,,,,FG,OVC,100,,,,,,,LIFR,,,,,,,,,,,,METAR,398.0
KACQ 150954Z AUTO 00000KT 10SM BKN100 18/16 A2993 RMK AO2 LTG DSNT W,KACQ,2015-06-15T09:54:00Z,44.07,-93.55,18.0,16.0,0,0,,10.0,29.929134,,,TRUE,TRUE,,,,,,,BKN,10000,,,,,,,VFR,,,,,,,,,,,,METAR,343.0
KACB 150954Z AUTO 00000KT 7SM OVC007 19/18 A2992 RMK AO2 T01880177,KACB,2015-06-15T09:54:00Z,44.98,-85.2,18.8,17.7,0,0,,7.0,29.920275,,,TRUE,TRUE,,,,,,,OVC,700,,,,,,,IFR,,,,,,,,,,,,METAR,190.0
KY70 150954Z AUTO 00000KT 1/4SM FG OVC002 20/19 A2995 RMK AO2 T01950191,KY70,2015-06-15T09:54:00Z,42.93,-85.07,19.5,19.1,0,0,,0.25,29.949802,,,TRUE,TRUE,,,,,,FG,OVC,200,,,,,,,LIFR,,,,,,,,,,,,METAR,250.0
KWLD 150954Z AUTO 18008KT 10SM FEW024 OVC035 23/21 A2994 RMK AO2 SLP124 T02280211,KWLD,2015-06-15T09:54:00Z,37.17,-97.03,22.8,21.1,180,8,,10.0,29.940945,1012.4,,TRUE,TRUE,,,,,,,FEW,2400,OVC,3500,,,,,VFR,,,,,,,,,,,,METAR,350.0
KVTP 150954Z AUTO 00000KT 10SM CLR 08/M01 A3042 RMK AO2,KVTP,2015-06-15T09:54:00Z,37.5,-105.17,8.0,-1.0,0,0,,10.0,30.41929,,,TRUE,TRUE,,,,,,,CLR,,,,,,,,VFR,,,,,,,,,,,,METAR,3114.0
KVSF 150954Z AUTO 13007KT 3SM +RA BR FEW029 OVC055 15/14 A3004 RMK AO2 SLP171 P0024 T01500139 TSNO,KVSF,2015-06-15T09:54:00Z,43.35,-72.52,15.0,13.9,130,7,,3.0,30.041338,1017.1,,TRUE,TRUE,,,TRUE,,,+RA BR,FEW,2900,OVC,5500,,,,,MVFR,,,,,,0.24,,,,,,METAR,175.0
KULM 150954Z AUTO 33006KT 10SM SCT055 18/17 A2993 RMK AO2 LTG DSNT W,KULM,2015-06-15T09:54:00Z,44.32,-94.5,18.0,17.0,330,6,,10.0,29.929134,,,TRUE,TRUE,,,,,,,SCT,5500,,,,,,,VFR,,,,,,,,,,,,METAR,308.0
KUIN 150954Z AUTO 20007KT 10SM SCT075 22/21 A2995 RMK AO2 SLP135 T02220211,KUIN,2015-06-15T09:54:00Z,39.95,-91.2,22.2,21.1,200,7,,10.0,29.949802,1013.5,,TRUE,TRUE,,,,,,,SCT,7500,,,,,,,VFR,,,,,,,,,,,,METAR,234.0
KTWM 150954Z AUTO 00000KT 10SM CLR 16/13 A2992 RMK AO2,KTWM,2015-06-15T09:54:00Z,47.03,-91.75,16.0,13.0,0,0,,10.0,29.920275,,,TRUE,TRUE,,,,,,,CLR,,,,,,,,VFR,,,,,,,,,,,,METAR,328.0
UKLN 150954Z VRB03MPS 9999 VCTS SCT033CB BKN200 27/17 Q1010 1509//70 TEMPO 29011G16MPS 1100 TSRAGR BKN005 BKN020CB,UKLN,2015-06-15T09:54:00Z,48.27,25.98,27.0,17.0,0,6,,6.21,29.822834,,,,,,,,,,VCTS,SCT,3300,BKN,20000,,,,,VFR,,,,,,,,,,,,METAR,252.0
PTTP 150954Z 14003KT 14SM -SHRA SCT017TCU OVC120 28/25 A2983 RMK SHRAB50 TCU ALQDS SLP100 T02750249,PTTP,2015-06-15T09:54:00Z,6.97,158.22,27.5,24.9,140,3,,14.0,29.828741,1010.0,,,,,,,,,-SHRA,SCT,1700,OVC,12000,,,,,VFR,,,,,,,,,,,,METAR,2.0
KBTV 150954Z 00000KT 5SM RA BR BKN036 OVC044 17/15 A2996 RMK AO2 SLP144 P0013 T01670150,KBTV,2015-06-15T09:54:00Z,44.47,-73.15,16.7,15.0,0,0,,5.0,29.958662,1014.4,,,TRUE,,,,,,RA BR,BKN,3600,OVC,4400,,,,,MVFR,,,,,,0.13,,,,,,METAR,105.0
KBFL 150954Z AUTO 00000KT 10SM CLR 23/09 A2976 RMK AO2 SLP071 T02330089,KBFL,2015-06-15T09:54:00Z,35.43,-119.05,23.3,8.9,0,0,,10.0,29.760826,1007.1,,TRUE,TRUE,,,,,,,CLR,,,,,,,,VFR,,,,,,,,,,,,METAR,151.0
KBBB 150954Z AUTO 03003KT 10SM CLR 15/12 A2999 RMK AO2 LTG DSNT SW,KBBB,2015-06-15T09:54:00Z,45.32,-95.65,15.0,12.0,30,3,,10.0,29.991142,,,TRUE,TRUE,,,,,,,CLR,,,,,,,,VFR,,,,,,,,,,,,METAR,317.0
KANE 150954Z AUTO 32004KT 10SM SCT090 19/17 A2991 RMK AO2,KANE,2015-06-15T09:54:00Z,45.15,-93.22,19.0,17.0,320,4,,10.0,29.911417,,,TRUE,TRUE,,,,,,,SCT,9000,,,,,,,VFR,,,,,,,,,,,,METAR,278.0
KAAO 150954Z AUTO 05005KT 10SM OVC010 21/19 A2993 RMK AO2 RAE11 CIG 009V014 SLP121 P0000 T02060194 $,KAAO,2015-06-15T09:54:00Z,37.75,-97.22,20.6,19.4,50,5,,10.0,29.929134,1012.1,,TRUE,TRUE,TRUE,,,,,,OVC,1000,,,,,,,MVFR,,,,,,0.0050,,,,,,METAR,434.0
K33V 150954Z AUTO 00000KT 10SM CLR 06/03 A3027 RMK AO2,K33V,2015-06-15T09:54:00Z,40.75,-106.28,6.0,3.0,0,0,,10.0,30.268702,,,TRUE,TRUE,,,,,,,CLR,,,,,,,,VFR,,,,,,,,,,,,METAR,2484.0
K0CO 150954Z AUTO 22007KT 10SM BKN080 03/00 A3055 RMK AO2,K0CO,2015-06-15T09:54:00Z,39.8,-105.77,3.0,0.0,220,7,,10.0,30.549213,,,TRUE,TRUE,,,,,,,BKN,8000,,,,,,,VFR,,,,,,,,,,,,METAR,3807.0
KGYL 150954Z AUTO 33007KT 10SM CLR 19/17 A2992 RMK AO2 LTG DSNT W T01860171,KGYL,2015-06-15T09:54:00Z,44.77,-94.08,18.6,17.1,330,7,,10.0,29.920275,,,TRUE,TRUE,,,,,,,CLR,,,,,,,,VFR,,,,,,,,,,,,METAR,302.0
KGHW 150954Z AUTO 01003KT 10SM CLR 14/12 A3000 RMK AO2 LTG DSNT S,KGHW,2015-06-15T09:54:00Z,45.63,-95.32,14.0,12.0,10,3,,10.0,30.0,,,TRUE,TRUE,,,,,,,CLR,,,,,,,,VFR,,,,,,,,,,,,METAR,425.0
KGCN 150954Z 06003KT 10SM CLR 09/07 A3016 RMK AO2 SLP120 T00890072,KGCN,2015-06-15T09:54:00Z,35.95,-112.15,8.9,7.2,60,3,,10.0,30.159449,1012.0,,,TRUE,,,,,,,CLR,,,,,,,,VFR,,,,,,,,,,,,METAR,2016.0
KGCK 150954Z AUTO 35006KT 7SM FEW012 FEW018 SCT110 17/16 A3003 RMK AO2 SLP142 T01670161,KGCK,2015-06-15T09:54:00Z,37.92,-100.72,16.7,16.1,350,6,,7.0,30.029528,1014.2,,TRUE,TRUE,,,,,,,FEW,1200,FEW,1800,SCT,11000,,,VFR,,,,,,,,,,,,METAR,877.0
KFZY 150954Z AUTO 29004KT 1/4SM FG VV002 16/15 A2991 RMK AO2 SLP127 T01610150,KFZY,2015-06-15T09:54:00Z,43.35,-76.38,16.1,15.0,290,4,,0.25,29.911417,1012.7,,TRUE,TRUE,,,,,,FG,OVX,0,,,,,,,LIFR,,,,,,,,,,,200,METAR,138.0
KFKA 150954Z AUTO 00000KT 7SM SCT024 19/18 A2994 RMK AO2 T01910180,KFKA,2015-06-15T09:54:00Z,43.68,-92.17,19.1,18.0,0,0,,7.0,29.940945,,,TRUE,TRUE,,,,,,,SCT,2400,,,,,,,VFR,,,,,,,,,,,,METAR,389.0
KFGN 150954Z AUTO 29008KT 7SM CLR 13/11 A2995 RMK AO2,KFGN,2015-06-15T09:54:00Z,49.32,-94.9,13.0,11.0,290,8,,7.0,29.949802,,,TRUE,TRUE,,,,,,,CLR,,,,,,,,VFR,,,,,,,,,,,,METAR,328.0
KFFM 150954Z AUTO 36003KT 10SM CLR 14/13 A3001 RMK AO2,KFFM,2015-06-15T09:54:00Z,46.28,-96.15,14.0,13.0,360,3,,10.0,30.008858,,,TRUE,TRUE,,,,,,,CLR,,,,,,,,VFR,,,,,,,,,,,,METAR,361.0
KFBL 150954Z AUTO 22003KT 10SM CLR 19/17 A2991 RMK AO2 LTG DSNT W,KFBL,2015-06-15T09:54:00Z,44.33,-93.32,19.0,17.0,220,3,,10.0,29.911417,,,TRUE,TRUE,,,,,,,CLR,,,,,,,,VFR,,,,,,,,,,,,METAR,322.0
KEIK 150954Z AUTO 14005KT 10SM OVC045 15/12 A3018 RMK AO2 T01500119,KEIK,2015-06-15T09:54:00Z,40.02,-105.05,15.0,11.9,140,5,,10.0,30.180119,,,TRUE,TRUE,,,,,,,OVC,4500,,,,,,,VFR,,,,,,,,,,,,METAR,1564.0
KDYT 150954Z AUTO 00000KT 10SM SCT085 17/15 A2993 RMK AO2,KDYT,2015-06-15T09:54:00Z,46.72,-92.03,17.0,15.0,0,0,,10.0,29.929134,,,TRUE,TRUE,,,,,,,SCT,8500,,,,,,,VFR,,,,,,,,,,,,METAR,186.0
KDXX 150954Z AUTO 34009KT 10SM CLR 16/14 A2999 RMK AO2 LTG DSNT SE AND S,KDXX,2015-06-15T09:54:00Z,44.98,-96.18,16.0,14.0,340,9,,10.0,29.991142,,,TRUE,TRUE,,,,,,,CLR,,,,,,,,VFR,,,,,,,,,,,,METAR,330.0
KDEC 150954Z AUTO 23007KT 10SM CLR 23/21 A2998 RMK AO2 SLP144 T02280211 TSNO,KDEC,2015-06-15T09:54:00Z,39.83,-88.85,22.8,21.1,230,7,,10.0,29.97933,1014.4,,TRUE,TRUE,,,TRUE,,,,CLR,,,,,,,,VFR,,,,,,,,,,,,METAR,207.0
KDDH 150954Z AUTO 13014G23KT 10SM OVC035 18/15 A2994 RMK AO2 RAE52 SLP135 P0005 T01780150,KDDH,2015-06-15T09:54:00Z,42.9,-73.25,17.8,15.0,130,14,23,10.0,29.940945,1013.5,,TRUE,TRUE,,,,,,,OVC,3500,,,,,,,VFR,,,,,,0.05,,,,,,METAR,244.0
KSYR 150954Z 29008KT 9SM BKN007 OVC024 20/19 A2990 RMK AO2 SLP120 T02000194,KSYR,2015-06-15T09:54:00Z,43.12,-76.1,20.0,19.4,290,8,,9.0,29.899607,1012.0,,,TRUE,,,,,,,BKN,700,OVC,2400,,,,,IFR,,,,,,,,,,,,METAR,127.0
KSYN 150954Z AUTO 24004KT 10SM CLR 20/18 A2989 RMK AO2 T02020177,KSYN,2015-06-15T09:54:00Z,44.47,-93.02,20.2,17.7,240,4,,10.0,29.890747,,,TRUE,TRUE,,,,,,,CLR,,,,,,,,VFR,,,,,,,,,,,,METAR,280.0
KSET 150954Z AUTO 00000KT 10SM CLR 22/21 A2997 RMK AO2 SLP144 T02220211 $,KSET,2015-06-15T09:54:00Z,38.93,-90.43,22.2,21.1,0,0,,10.0,29.970472,1014.4,,TRUE,TRUE,TRUE,,,,,,CLR,,,,,,,,VFR,,,,,,,,,,,,METAR,134.0
KRRT 150954Z AUTO 25004KT 3/4SM BR VV005 12/09 A2999 RMK AO2,KRRT,2015-06-15T09:54:00Z,48.93,-95.33,12.0,9.0,250,4,,0.75,29.991142,,,TRUE,TRUE,,,,,,BR,OVX,0,,,,,,,LIFR,,,,,,,,,,,500,METAR,327.0
KROX 150954Z AUTO 27007KT 10SM CLR 13/10 A2999 RMK AO2,KROX,2015-06-15T09:54:00Z,48.85,-95.7,13.0,10.0,270,7,,10.0,29.991142,,,TRUE,TRUE,,,,,,,CLR,,,,,,,,VFR,,,,,,,,,,,,METAR,323.0
KPWC 150954Z AUTO 00000KT 10SM CLR 11/11 A3002 RMK AO2,KPWC,2015-06-15T09:54:00Z,46.72,-94.37,11.0,11.0,0,0,,10.0,30.02067,,,TRUE,TRUE,,,,,,,CLR,,,,,,,,VFR,,,,,,,,,,,,METAR,395.0
KPSF 150954Z AUTO 10005KT 2 1/2SM +RA BR FEW016 OVC031 16/15 A2998 RMK AO2 SLP128 P0030 T01560150,KPSF,2015-06-15T09:54:00Z,42.43,-73.28,15.6,15.0,100,5,,2.5,29.97933,1012.8,,TRUE,TRUE,,,,,,+RA BR,FEW,1600,OVC,3100,,,,,IFR,,,,,,0.3,,,,,,METAR,355.0
KPQN 150954Z AUTO 03013G17KT 10SM -VCTSRA SCT030 BKN036 OVC046 17/15 A2997 RMK AO2 LTG DSNT ALQDS,KPQN,2015-06-15T09:54:00Z,43.97,-96.32,17.0,15.0,30,13,17,10.0,29.970472,,,TRUE,TRUE,,,,,,VCTS -RA,SCT,3000,BKN,3600,OVC,4600,,,VFR,,,,,,,,,,,,METAR,529.0
KPOV 150954Z AUTO 23005KT 7SM OVC008 21/ A3001 RMK AO2 T0210,KPOV,2015-06-15T09:54:00Z,41.22,-81.25,21.0,,230,5,,7.0,30.008858,,,TRUE,TRUE,,,,,,,OVC,800,,,,,,,IFR,,,,,,,,,,,,METAR,365.0
KPNM 150954Z AUTO 33006KT 10SM SCT045 120 18/16 A2995 RMK AO2,KPNM,2015-06-15T09:54:00Z,45.57,-93.6,18.0,16.0,330,6,,10.0,29.949802,,,TRUE,TRUE,,,,,,,SCT,4500,,,,,,,VFR,,,,,,,,,,,,METAR,298.0
KPEX 150954Z AUTO 30005KT 10SM CLR 13/13 A2998 RMK AO2 T01340128,KPEX,2015-06-15T09:54:00Z,45.37,-94.73,13.4,12.8,300,5,,10.0,29.97933,,,TRUE,TRUE,,,,,,,CLR,,,,,,,,VFR,,,,,,,,,,,,METAR,360.0
KONZ 150954Z AUTO 00000KT 10SM BKN006 BKN050 OVC100 22/21 A2995 RMK AO2 P0005,KONZ,2015-06-15T09:54:00Z,42.1,-83.15,22.0,21.0,0,0,,10.0,29.949802,,,TRUE,TRUE,,,,,,,BKN,600,BKN,5000,OVC,10000,,,IFR,,,,,,0.05,,,,,,METAR,180.0
KMWM 150954Z AUTO 35008KT 7SM BKN006 19/17 A2995 RMK AO2 LTG DSNT W AND NW,KMWM,2015-06-15T09:54:00Z,43.9,-95.1,19.0,17.0,350,8,,7.0,29.949802,,,TRUE,TRUE,,,,,,,BKN,600,,,,,,,IFR,,,,,,,,,,,,METAR,430.0
KMVL 150954Z AUTO 00000KT 10SM -RA FEW050 FEW065 OVC110 16/14 A3001 RMK AO2 SLP161 P0000 T01610139 TSNO,KMVL,2015-06-15T09:54:00Z,44.53,-72.62,16.1,13.9,0,0,,10.0,30.008858,1016.1,,TRUE,TRUE,,,TRUE,,,-RA,FEW,5000,FEW,6500,OVC,11000,,,VFR,,,,,,0.0050,,,,,,METAR,234.0
KMVE 150954Z AUTO 03007KT 10SM CLR 17/14 A2999 RMK AO2 LTG DSNT S,KMVE,2015-06-15T09:54:00Z,44.97,-95.72,17.0,14.0,30,7,,10.0,29.991142,,,TRUE,TRUE,,,,,,,CLR,,,,,,,,VFR,,,,,,,,,,,,METAR,315.0
KMRT 150954Z 10SM BKN090 OVC110 22/21 A3003 RMK AO2 T02200210,KMRT,2015-06-15T09:54:00Z,40.22,-83.35,22.0,21.0,,,,10.0,30.029528,,,,TRUE,,,,,,,BKN,9000,OVC,11000,,,,,VFR,,,,,,,,,,,,METAR,312.0
KMOX 150954Z AUTO 33008KT 10SM CLR 15/14 A2999 RMK AO2 LTG DSNT S,KMOX,2015-06-15T09:54:00Z,45.57,-95.97,15.0,14.0,330,8,,10.0,29.991142,,,TRUE,TRUE,,,,,,,CLR,,,,,,,,VFR,,,,,,,,,,,,METAR,344.0
KMKC 150954Z 23006KT 10SM FEW017 BKN043 23/21 A2991 RMK AO2 SLP120 T02330211,KMKC,2015-06-15T09:54:00Z,39.12,-94.6,23.3,21.1,230,6,,10.0,29.911417,1012.0,,,TRUE,,,,,,,FEW,1700,BKN,4300,,,,,VFR,,,,,,,,,,,,METAR,227.0
KMJQ 150954Z AUTO 35004KT 10SM SCT007 20/18 A2994 RMK AO2,KMJQ,2015-06-15T09:54:00Z,43.63,-94.97,20.0,18.0,350,4,,10.0,29.940945,,,TRUE,TRUE,,,,,,,SCT,700,,,,,,,VFR,,,,,,,,,,,,METAR,441.0
KLYV 150954Z AUTO 02006KT 10SM -RA SCT034 BKN055 OVC110 18/16 A2994 RMK AO2 LTG DSNT W THRU NE P0001,KLYV,2015-06-15T09:54:00Z,43.62,-96.22,18.0,16.0,20,6,,10.0,29.940945,,,TRUE,TRUE,,,,,,-RA,SCT,3400,BKN,5500,OVC,11000,,,VFR,,,,,,0.01,,,,,,METAR,436.0
KLWM 150954Z AUTO 00000KT 10SM -RA OVC095 15/12 A3011 RMK AO2 SLP197 P0002 T01500117,KLWM,2015-06-15T09:54:00Z,42.72,-71.13,15.0,11.7,0,0,,10.0,30.109253,1019.7,,TRUE,TRUE,,,,,,-RA,OVC,9500,,,,,,,VFR,,,,,,0.02,,,,,,METAR,54.0
KIZG 150954Z AUTO 00000KT 10SM OVC048 13/11 A3010 RMK AO2 SLP192 T01330106,KIZG,2015-06-15T09:54:00Z,43.98,-70.95,13.3,10.6,0,0,,10.0,30.100393,1019.2,,TRUE,TRUE,,,,,,,OVC,4800,,,,,,,VFR,,,,,,,,,,,,METAR,135.0
KHZX 150954Z AUTO 32003KT 10SM CLR 12/11 A2998 RMK AO2,KHZX,2015-06-15T09:54:00Z,46.62,-93.32,12.0,11.0,320,3,,10.0,29.97933,,,TRUE,TRUE,,,,,,,CLR,,,,,,,,VFR,,,,,,,,,,,,METAR,374.0
KHCO 150954Z AUTO 32005KT 10SM CLR 09/08 A3001 RMK AO2,KHCO,2015-06-15T09:54:00Z,48.75,-96.93,9.0,8.0,320,5,,10.0,30.008858,,,TRUE,TRUE,,,,,,,CLR,,,,,,,,VFR,,,,,,,,,,,,METAR,250.0
PAKN 150954Z 16007KT 10SM FEW200 10/08 A3030 RMK AO2 SLP260 T01000078,PAKN,2015-06-15T09:54:00Z,58.68,-156.65,10.0,7.8,160,7,,10.0,30.301182,1026.0,,,TRUE,,,,,,,FEW,20000,,,,,,,VFR,,,,,,,,,,,,METAR,17.0
PAHN 150954Z AUTO 30006KT 10SM CLR 19/07 A3016 RMK AO2 SLP217 T01940067 TSNO,PAHN,2015-06-15T09:54:00Z,59.25,-135.52,19.4,6.7,300,6,,10.0,30.159449,1021.7,,TRUE,TRUE,,,TRUE,,,,CLR,,,,,,,,VFR,,,,,,,,,,,,METAR,5.0
PGSN 150954Z 09007KT 10SM SCT021 27/24 A2986 RMK AO2 SLP131 T02720239,PGSN,2015-06-15T09:54:00Z,15.12,145.72,27.2,23.9,90,7,,10.0,29.861221,1013.1,,,TRUE,,,,,,,SCT,2100,,,,,,,VFR,,,,,,,,,,,,METAR,65.0
PHOG 150954Z AUTO 00000KT 10SM CLR 22/19 A2997 RMK AO2 SLP152 T02220189 403170194 TSNO,PHOG,2015-06-15T09:54:00Z,20.9,-156.43,22.2,18.9,0,0,,10.0,29.970472,1015.2,,TRUE,TRUE,,,TRUE,,,,CLR,,,,,,,,VFR,,,,31.7,19.4,,,,,,,METAR,12.0
PHMK 150954Z AUTO 04006KT 10SM FEW100 23/19 A2997 RMK AO2 SLP151 T02330194 403060211 TSNO,PHMK,2015-06-15T09:54:00Z,21.15,-157.1,23.3,19.4,40,6,,10.0,29.970472,1015.1,,TRUE,TRUE,,,TRUE,,,,FEW,10000,,,,,,,VFR,,,,30.6,21.1,,,,,,,METAR,141.0
KYNG 150954Z 23007KT 5SM BR SCT005 BKN010 OVC035 22/19 A3000 RMK AO2 T02170194 $,KYNG,2015-06-15T09:54:00Z,41.25,-80.67,21.7,19.4,230,7,,5.0,30.0,,,,TRUE,TRUE,,,,,BR,SCT,500,BKN,1000,OVC,3500,,,MVFR,,,,,,,,,,,,METAR,360.0
KWAL 150954Z AUTO 21004KT 2SM BR OVC002 24/24 A3001 RMK AO2 SLP160 T02390239,KWAL,2015-06-15T09:54:00Z,37.93,-75.47,23.9,23.9,210,4,,2.0,30.008858,1016.0,,TRUE,TRUE,,,,,,BR,OVC,200,,,,,,,LIFR,,,,,,,,,,,,METAR,14.0
KVTA 150954Z AUTO 00000KT 10SM FEW034 SCT050 BKN065 22/21 A3004 RMK AO2 SLP163 T02170206,KVTA,2015-06-15T09:54:00Z,40.02,-82.47,21.7,20.6,0,0,,10.0,30.041338,1016.3,,TRUE,TRUE,,,,,,,FEW,3400,SCT,5000,BKN,6500,,,VFR,,,,,,,,,,,,METAR,268.0
KVAY 150954Z AUTO 19003KT 2SM BR OVC007 22/22 A2996 RMK AO2 RAB0859E26 SLP144 P0007 T02220217,KVAY,2015-06-15T09:54:00Z,39.93,-74.83,22.2,21.7,190,3,,2.0,29.958662,1014.4,,TRUE,TRUE,,,,,,BR,OVC,700,,,,,,,IFR,,,,,,0.07,,,,,,METAR,15.0
KUZA 150954Z AUTO 00000KT 10SM CLR 21/20 A3011 RMK AO2 SLP179 T02110200,KUZA,2015-06-15T09:54:00Z,34.98,-81.05,21.1,20.0,0,0,,10.0,30.109253,1017.9,,TRUE,TRUE,,,,,,,CLR,,,,,,,,VFR,,,,,,,,,,,,METAR,202.0
KTQE 150954Z AUTO 00000KT 10SM -RA FEW120 21/20 A2991 RMK AO2 LTG DSNT NW RAE02B22 SLP113 P0001 T02110200,KTQE,2015-06-15T09:54:00Z,41.77,-96.18,21.1,20.0,0,0,,10.0,29.911417,1011.3,,TRUE,TRUE,,,,,,-RA,FEW,12000,,,,,,,VFR,,,,,,0.01,,,,,,METAR,312.0
KTAD 150954Z AUTO 25014KT 10SM CLR 11/08 A3016 RMK AO2 SLP145 T01110083,KTAD,2015-06-15T09:54:00Z,37.27,-104.33,11.1,8.3,250,14,,10.0,30.159449,1014.5,,TRUE,TRUE,,,,,,,CLR,,,,,,,,VFR,,,,,,,,,,,,METAR,1756.0
KSUS 150954Z AUTO 21003KT 10SM CLR 23/22 A2997 RMK AO2 SLP139 T02280217 $,KSUS,2015-06-15T09:54:00Z,38.65,-90.65,22.8,21.7,210,3,,10.0,29.970472,1013.9,,TRUE,TRUE,TRUE,,,,,,CLR,,,,,,,,VFR,,,,,,,,,,,,METAR,141.0
KOFP 150954Z AUTO 00000KT 7SM CLR 22/22 A3003 RMK AO2 SLP167 T02220217,KOFP,2015-06-15T09:54:00Z,37.7,-77.43,22.2,21.7,0,0,,7.0,30.029528,1016.7,,TRUE,TRUE,,,,,,,CLR,,,,,,,,VFR,,,,,,,,,,,,METAR,62.0
KMRY 150954Z AUTO 24006KT 7SM OVC008 13/10 A2988 RMK AO2 SLP129 T01330100,KMRY,2015-06-15T09:54:00Z,36.58,-121.85,13.3,10.0,240,6,,7.0,29.878937,1012.9,,TRUE,TRUE,,,,,,,OVC,800,,,,,,,IFR,,,,,,,,,,,,METAR,66.0
KMOT 150954Z AUTO 27009KT 10SM CLR 10/06 A3013 RMK AO2 SLP204 T01000056,KMOT,2015-06-15T09:54:00Z,48.25,-101.27,10.0,5.6,270,9,,10.0,30.129921,1020.4,,TRUE,TRUE,,,,,,,CLR,,,,,,,,VFR,,,,,,,,,,,,METAR,519.0
KMIV 150954Z AUTO 20003KT 2 1/2SM -RA BR FEW012 SCT080 BKN100 23/22 A2998 RMK AO2 LTG DSNT SE SLP151 P0010 T02280222,KMIV,2015-06-15T09:54:00Z,39.37,-75.08,22.8,22.2,200,3,,2.5,29.97933,1015.1,,TRUE,TRUE,,,,,,-RA BR,FEW,1200,SCT,8000,BKN,10000,,,IFR,,,,,,0.1,,,,,,METAR,23.0
KMGJ 150954Z AUTO 18005KT 10SM -RA OVC011 20/19 A2993 RMK AO2 RAB44 CIG 009V013 SLP134 P0000 T02000189 TSNO $,KMGJ,2015-06-15T09:54:00Z,41.52,-74.27,20.0,18.9,180,5,,10.0,29.929134,1013.4,,TRUE,TRUE,TRUE,,TRUE,,,-RA,OVC,1100,,,,,,,MVFR,,,,,,0.0050,,,,,,METAR,108.0
KMFI 150954Z AUTO 00000KT 9SM CLR 18/16 A2991 RMK AO2 SLP123 T01780161,KMFI,2015-06-15T09:54:00Z,,,17.8,16.1,0,0,,9.0,29.911417,1012.3,,TRUE,TRUE,,,,,,,CLR,,,,,,,,VFR,,,,,,,,,,,,METAR,
KMEM 150954Z 19005KT 10SM SCT250 23/21 A3005 RMK AO2 SLP170 T02280211,KMEM,2015-06-15T09:54:00Z,35.07,-89.98,22.8,21.1,190,5,,10.0,30.050198,1017.0,,,TRUE,,,,,,,SCT,25000,,,,,,,VFR,,,,,,,,,,,,METAR,86.0
KLYH 150954Z AUTO 00000KT 10SM CLR 20/20 A3009 RMK AO2 SLP179 T02000200,KLYH,2015-06-15T09:54:00Z,37.32,-79.2,20.0,20.0,0,0,,10.0,30.088583,1017.9,,TRUE,TRUE,,,,,,,CLR,,,,,,,,VFR,,,,,,,,,,,,METAR,295.0
KLEX 150954Z 20007KT 10SM CLR 22/21 A3009 RMK AO2 SLP179 T02220206 $,KLEX,2015-06-15T09:54:00Z,38.03,-84.6,22.2,20.6,200,7,,10.0,30.088583,1017.9,,,TRUE,TRUE,,,,,,CLR,,,,,,,,VFR,,,,,,,,,,,,METAR,300.0
KLBT 150954Z AUTO 00000KT 10SM CLR 23/22 A3005 RMK AO2 SLP175 T02330217,KLBT,2015-06-15T09:54:00Z,34.6,-79.07,23.3,21.7,0,0,,10.0,30.050198,1017.5,,TRUE,TRUE,,,,,,,CLR,,,,,,,,VFR,,,,,,,,,,,,METAR,37.0
KLAF 150954Z AUTO 20004KT 10SM FEW009 BKN060 22/21 A2999 RMK AO2 SLP150 T02170211,KLAF,2015-06-15T09:54:00Z,40.42,-86.93,21.7,21.1,200,4,,10.0,29.991142,1015.0,,TRUE,TRUE,,,,,,,FEW,900,BKN,6000,,,,,VFR,,,,,,,,,,,,METAR,182.0
KJST 150954Z AUTO 25008KT 8SM -RA OVC006 19/18 A3007 RMK AO2 CIG 002V008 SLP167 P0008 T01940183,KJST,2015-06-15T09:54:00Z,40.32,-78.83,19.4,18.3,250,8,,8.0,30.070866,1016.7,,TRUE,TRUE,,,,,,-RA,OVC,600,,,,,,,IFR,,,,,,0.08,,,,,,METAR,694.0
KJAN 150954Z AUTO 14003KT 10SM BKN006 23/22 A3005 RMK AO2 SLP172 T02330217,KJAN,2015-06-15T09:54:00Z,32.32,-90.08,23.3,21.7,140,3,,10.0,30.050198,1017.2,,TRUE,TRUE,,,,,,,BKN,600,,,,,,,IFR,,,,,,,,,,,,METAR,91.0
KISW 150954Z AUTO 00000KT 9SM CLR 18/17 A2992 RMK AO2 SLP126 T01830167,KISW,2015-06-15T09:54:00Z,44.37,-89.83,18.3,16.7,0,0,,9.0,29.920275,1012.6,,TRUE,TRUE,,,,,,,CLR,,,,,,,,VFR,,,,,,,,,,,,METAR,307.0
KIPT 150954Z AUTO 22004KT 9SM SCT024 BKN031 21/20 A2995 RMK AO2 SLP137 T02110200,KIPT,2015-06-15T09:54:00Z,41.25,-76.92,21.1,20.0,220,4,,9.0,29.949802,1013.7,,TRUE,TRUE,,,,,,,SCT,2400,BKN,3100,,,,,VFR,,,,,,,,,,,,METAR,164.0
KINT 150954Z AUTO 30003KT 10SM CLR 23/20 A3011 RMK AO2 SLP181 T02330200,KINT,2015-06-15T09:54:00Z,36.13,-80.22,23.3,20.0,300,3,,10.0,30.109253,1018.1,,TRUE,TRUE,,,,,,,CLR,,,,,,,,VFR,,,,,,,,,,,,METAR,291.0
KSJN 150954Z AUTO 00000KT 10SM CLR 13/02 A3008 RMK AO2 SLP095 T01330022,KSJN,2015-06-15T09:54:00Z,34.52,-109.38,13.3,2.2,0,0,,10.0,30.079725,1009.5,,TRUE,TRUE,,,,,,,CLR,,,,,,,,VFR,,,,,,,,,,,,METAR,1745.0
KSBY 150954Z 19004KT 1SM BR OVC002 23/23 A3000 RMK AO2 SLP160 T02280228,KSBY,2015-06-15T09:54:00Z,38.33,-75.5,22.8,22.8,190,4,,1.0,30.0,1016.0,,,TRUE,,,,,,BR,OVC,200,,,,,,,LIFR,,,,,,,,,,,,METAR,19.0
KSBN 150954Z 23006KT 8SM FEW008 BKN017 22/22 A2996 RMK AO2 RAE32 SLP140 P0002 T02220217,KSBN,2015-06-15T09:54:00Z,41.7,-86.32,22.2,21.7,230,6,,8.0,29.958662,1014.0,,,TRUE,,,,,,,FEW,800,BKN,1700,,,,,MVFR,,,,,,0.02,,,,,,METAR,237.0
KRST 150954Z 00000KT 7SM FEW007 SCT015 SCT075 20/19 A2993 RMK AO2 SLP129 T02000194,KRST,2015-06-15T09:54:00Z,43.9,-92.5,20.0,19.4,0,0,,7.0,29.929134,1012.9,,,TRUE,,,,,,,FEW,700,SCT,1500,SCT,7500,,,VFR,,,,,,,,,,,,METAR,403.0
KROC 150954Z 35006KT 1/2SM R04/4500VP6000FT FG OVC004 19/18 A2992 RMK AO2 SLP134 T01940183,KROC,2015-06-15T09:54:00Z,43.12,-77.68,19.4,18.3,350,6,,0.5,29.920275,1013.4,,,TRUE,,,,,,FG,OVC,400,,,,,,,LIFR,,,,,,,,,,,,METAR,178.0
KROA 150954Z 00000KT 10SM FEW250 22/20 A3011 RMK AO2 SLP186 T02220200,KROA,2015-06-15T09:54:00Z,37.32,-79.97,22.2,20.0,0,0,,10.0,30.109253,1018.6,,,TRUE,,,,,,,FEW,25000,,,,,,,VFR,,,,,,,,,,,,METAR,362.0
KRKS 150954Z AUTO 06009KT 10SM CLR 09/08 A3019 RMK AO2 SLP163 T00940083,KRKS,2015-06-15T09:54:00Z,41.6,-109.07,9.4,8.3,60,9,,10.0,30.188976,1016.3,,TRUE,TRUE,,,,,,,CLR,,,,,,,,VFR,,,,,,,,,,,,METAR,2060.0
KRIC 150954Z 18004KT 9SM FEW095 SCT300 23/21 A3002 RMK AO2 SLP167 T02280211 $,KRIC,2015-06-15T09:54:00Z,37.52,-77.32,22.8,21.1,180,4,,9.0,30.02067,1016.7,,,TRUE,TRUE,,,,,,FEW,9500,SCT,30000,,,,,VFR,,,,,,,,,,,,METAR,50.0
KRFD 150954Z 17006KT 5SM -RA BR BKN035 BKN049 OVC075 22/21 A2994 RMK AO2 SLP133 OCNL LTGIC DSNT W RAE20B35DZB01E04 TSE31 CB DSNT W P0020 T02220211 $,KRFD,2015-06-15T09:54:00Z,42.2,-89.1,22.2,21.1,170,6,,5.0,29.940945,1013.3,,,TRUE,TRUE,,,,,-RA BR,BKN,3500,BKN,4900,OVC,7500,,,MVFR,,,,,,0.2,,,,,,METAR,221.0
KRDG 150954Z AUTO 25003KT 5SM BR FEW085 23/22 A2995 RMK AO2 RAB03E18 SLP144 P0001 T02330217,KRDG,2015-06-15T09:54:00Z,40.37,-75.97,23.3,21.7,250,3,,5.0,29.949802,1014.4,,TRUE,TRUE,,,,,,BR,FEW,8500,,,,,,,MVFR,,,,,,0.01,,,,,,METAR,109.0
KRBL 150954Z AUTO 13004KT 10SM CLR 21/12 A2977 RMK AO2 SLP076 T02110117,KRBL,2015-06-15T09:54:00Z,40.15,-122.25,21.1,11.7,130,4,,10.0,29.769686,1007.6,,TRUE,TRUE,,,,,,,CLR,,,,,,,,VFR,,,,,,,,,,,,METAR,104.0
KPTW 150954Z AUTO 21003KT 3SM -RA BR FEW007 FEW100 23/23 A2998 RMK AO2 RAB42 SLP148 P0001 T02280228 $,KPTW,2015-06-15T09:54:00Z,40.23,-75.55,22.8,22.8,210,3,,3.0,29.97933,1014.8,,TRUE,TRUE,TRUE,,,,,-RA BR,FEW,700,FEW,10000,,,,,MVFR,,,,,,0.01,,,,,,METAR,92.0
KPNE 150954Z AUTO 00000KT 2SM HZ OVC004 24/21 A2997 RMK AO2 RAB15E24 SLP148 P0000 T02390211 TSNO,KPNE,2015-06-15T09:54:00Z,40.08,-75.02,23.9,21.1,0,0,,2.0,29.970472,1014.8,,TRUE,TRUE,,,TRUE,,,HZ,OVC,400,,,,,,,LIFR,,,,,,0.0050,,,,,,METAR,28.0
KPLN 150954Z AUTO 00000KT 5SM BR OVC003 17/17 A2992 RMK AO2 SLP129 T01720167,KPLN,2015-06-15T09:54:00Z,45.57,-84.8,17.2,16.7,0,0,,5.0,29.920275,1012.9,,TRUE,TRUE,,,,,,BR,OVC,300,,,,,,,LIFR,,,,,,,,,,,,METAR,217.0
KPIA 150954Z 21007KT 10SM FEW033 BKN060 OVC070 23/21 A2995 RMK AO2 SLP136 T02330211,KPIA,2015-06-15T09:54:00Z,40.67,-89.68,23.3,21.1,210,7,,10.0,29.949802,1013.6,,,TRUE,,,,,,,FEW,3300,BKN,6000,OVC,7000,,,VFR,,,,,,,,,,,,METAR,205.0
KPHL 150954Z 20007KT 3SM BR BKN007 BKN012 BKN090 24/22 A2997 RMK AO2 RAE01 SLP149 P0000 T02390222 $,KPHL,2015-06-15T09:54:00Z,39.87,-75.23,23.9,22.2,200,7,,3.0,29.970472,1014.9,,,TRUE,TRUE,,,,,BR,BKN,700,BKN,1200,BKN,9000,,,IFR,,,,,,0.0050,,,,,,METAR,18.0
KPHF 150954Z 22004KT 8SM CLR 26/22 A3002 RMK AO2 SLP166 T02610222,KPHF,2015-06-15T09:54:00Z,37.13,-76.5,26.1,22.2,220,4,,8.0,30.02067,1016.6,,,TRUE,,,,,,,CLR,,,,,,,,VFR,,,,,,,,,,,,METAR,12.0
KORH 150954Z AUTO 12006KT 5SM RA BR OVC060 13/11 A3009 RMK AO2 SLP187 P0018 T01330111,KORH,2015-06-15T09:54:00Z,42.27,-71.87,13.3,11.1,120,6,,5.0,30.088583,1018.7,,TRUE,TRUE,,,,,,RA BR,OVC,6000,,,,,,,MVFR,,,,,,0.18,,,,,,METAR,304.0
KOLS 150954Z AUTO 04005KT 10SM CLR 19/06 A2994 RMK AO2 SLP059 T01940061,KOLS,2015-06-15T09:54:00Z,31.42,-110.85,19.4,6.1,40,5,,10.0,29.940945,1005.9,,TRUE,TRUE,,,,,,,CLR,,,,,,,,VFR,,,,,,,,,,,,METAR,1184.0
KIND 150954Z 23011KT 4SM -RA BR SCT028 BKN049 OVC075 22/21 A3001 RMK AO2 SLP156 TSB10E43 OCNL LTGIC DSNT E CB DSNT E MOV NE P0030 T02220206 $,KIND,2015-06-15T09:54:00Z,39.72,-86.3,22.2,20.6,230,11,,4.0,30.008858,1015.6,,,TRUE,TRUE,,,,,-RA BR,SCT,2800,BKN,4900,OVC,7500,,,MVFR,,,,,,0.3,,,,,,METAR,241.0
KIMS 150954Z AUTO 20005KT 10SM CLR 23/20 A3007 RMK AO1,KIMS,2015-06-15T09:54:00Z,38.75,-85.47,23.0,20.0,200,5,,10.0,30.070866,,,TRUE,TRUE,,,,,,,CLR,,,,,,,,VFR,,,,,,,,,,,,METAR,250.0
KILN 150954Z AUTO 30007KT 10SM FEW020 SCT030 BKN055 23/20 A3006 RMK AO2 RAB39E48 SLP164 P0000 T02330200,KILN,2015-06-15T09:54:00Z,39.43,-83.8,23.3,20.0,300,7,,10.0,30.059055,1016.4,,TRUE,TRUE,,,,,,,FEW,2000,SCT,3000,BKN,5500,,,VFR,,,,,,0.0050,,,,,,METAR,322.0
KHWD 150954Z 29008KT 10SM OVC012 13/10 A2987 RMK AO2 SLP123 T01280100,KHWD,2015-06-15T09:54:00Z,37.67,-122.12,12.8,10.0,290,8,,10.0,29.870079,1012.3,,,TRUE,,,,,,,OVC,1200,,,,,,,MVFR,,,,,,,,,,,,METAR,21.0
KGSO 150954Z 00000KT 10SM FEW250 23/21 A3009 RMK AO2 SLP175 T02280211,KGSO,2015-06-15T09:54:00Z,36.1,-79.95,22.8,21.1,0,0,,10.0,30.088583,1017.5,,,TRUE,,,,,,,FEW,25000,,,,,,,VFR,,,,,,,,,,,,METAR,275.0
KGED 150954Z AUTO 22005KT 4SM BR BKN090 23/22 A3000 RMK AO2 SLP157 T02330222,KGED,2015-06-15T09:54:00Z,38.68,-75.37,23.3,22.2,220,5,,4.0,30.0,1015.7,,TRUE,TRUE,,,,,,BR,BKN,9000,,,,,,,MVFR,,,,,,,,,,,,METAR,19.0
KFWA 150954Z 24008KT 10SM OVC015 22/21 A3000 RMK AO2 SLP153 T02220211 $,KFWA,2015-06-15T09:54:00Z,40.98,-85.18,22.2,21.1,240,8,,10.0,30.0,1015.3,,,TRUE,TRUE,,,,,,OVC,1500,,,,,,,MVFR,,,,,,,,,,,,METAR,248.0
KFIG 150954Z AUTO 21004KT 10SM BKN007 OVC011 21/19 A3002 RMK AO2 SLP157 T02060194,KFIG,2015-06-15T09:54:00Z,41.05,-78.42,20.6,19.4,210,4,,10.0,30.02067,1015.7,,TRUE,TRUE,,,,,,,BKN,700,OVC,1100,,,,,IFR,,,,,,,,,,,,METAR,462.0
KEWN 150954Z 00000KT 9SM CLR 24/23 A3005 RMK AO2 SLP174 T02390228,KEWN,2015-06-15T09:54:00Z,35.07,-77.05,23.9,22.8,0,0,,9.0,30.050198,1017.4,,,TRUE,,,,,,,CLR,,,,,,,,VFR,,,,,,,,,,,,METAR,3.0
KEUG 150954Z AUTO 00000KT 10SM CLR 12/09 A2991 RMK AO2 SLP126 T01170089,KEUG,2015-06-15T09:54:00Z,44.13,-123.22,11.7,8.9,0,0,,10.0,29.911417,1012.6,,TRUE,TRUE,,,,,,,CLR,,,,,,,,VFR,,,,,,,,,,,,METAR,114.0
KECG 150954Z AUTO 00000KT 5SM BR CLR 23/23 A3003 RMK AO2 SLP168 T02280228,KECG,2015-06-15T09:54:00Z,36.27,-76.18,22.8,22.8,0,0,,5.0,30.029528,1016.8,,TRUE,TRUE,,,,,,BR,CLR,,,,,,,,MVFR,,,,,,,,,,,,METAR,11.0
KDYL 150954Z AUTO 22007KT 5SM BR OVC005 22/22 A2996 RMK AO2 RAB30E47 CIG 003V010 SLP140 P0000 T02220222,KDYL,2015-06-15T09:54:00Z,40.33,-75.12,22.2,22.2,220,7,,5.0,29.958662,1014.0,,TRUE,TRUE,,,,,,BR,OVC,500,,,,,,,IFR,,,,,,0.0050,,,,,,METAR,117.0
KDSV 150954Z AUTO 00000KT 10SM BKN019 OVC028 21/21 A2993 RMK AO2 SLP141 T02110206,KDSV,2015-06-15T09:54:00Z,42.57,-77.72,21.1,20.6,0,0,,10.0,29.929134,1014.1,,TRUE,TRUE,,,,,,,BKN,1900,OVC,2800,,,,,MVFR,,,,,,,,,,,,METAR,198.0
KDSM 150954Z 00000KT 9SM -RA OVC019 20/19 A2991 RMK AO2 SLP122 P0028 T02000189 $,KDSM,2015-06-15T09:54:00Z,41.53,-93.67,20.0,18.9,0,0,,9.0,29.911417,1012.2,,,TRUE,TRUE,,,,,-RA,OVC,1900,,,,,,,MVFR,,,,,,0.28,,,,,,METAR,295.0
KCRW 150954Z 00000KT 10SM FEW300 21/20 A3009 RMK AO2 SLP179 VLY FG T02110200,KCRW,2015-06-15T09:54:00Z,38.38,-81.58,21.1,20.0,0,0,,10.0,30.088583,1017.9,,,TRUE,,,,,,,FEW,30000,,,,,,,VFR,,,,,,,,,,,,METAR,309.0
KCOU 150954Z AUTO 18007KT 10SM CLR 22/21 A2997 RMK AO2 SLP140 T02170206,KCOU,2015-06-15T09:54:00Z,38.82,-92.22,21.7,20.6,180,7,,10.0,29.970472,1014.0,,TRUE,TRUE,,,,,,,CLR,,,,,,,,VFR,,,,,,,,,,,,METAR,271.0
KCOS 150954Z 34014G19KT 10SM FEW120 13/10 A3021 RMK AO2 SLP174 T01330100 $,KCOS,2015-06-15T09:54:00Z,38.82,-104.68,13.3,10.0,340,14,19,10.0,30.209646,1017.4,,,TRUE,TRUE,,,,,,FEW,12000,,,,,,,VFR,,,,,,,,,,,,METAR,1856.0
KCEU 150954Z AUTO 27003KT 10SM CLR 23/19 A3014 RMK AO2 SLP194 T02280189,KCEU,2015-06-15T09:54:00Z,34.67,-82.88,22.8,18.9,270,3,,10.0,30.138779,1019.4,,TRUE,TRUE,,,,,,,CLR,,,,,,,,VFR,,,,,,,,,,,,METAR,268.0
KCAR 150954Z AUTO 00000KT 10SM CLR 08/06 A3012 RMK AO2 SLP202 T00830056,KCAR,2015-06-15T09:54:00Z,46.87,-68.02,8.3,5.6,0,0,,10.0,30.121063,1020.2,,TRUE,TRUE,,,,,,,CLR,,,,,,,,VFR,,,,,,,,,,,,METAR,191.0
KBWI 150954Z 20003KT 2SM BR FEW045 SCT160 BKN240 23/23 A2998 RMK AO2 SLP151 T02330228,KBWI,2015-06-15T09:54:00Z,39.17,-76.68,23.3,22.8,200,3,,2.0,29.97933,1015.1,,,TRUE,,,,,,BR,FEW,4500,SCT,16000,BKN,24000,,,IFR,,,,,,,,,,,,METAR,59.0
KBUY 150954Z AUTO 00000KT 10SM CLR 22/21 A3007 RMK AO2 SLP175 T02220211,KBUY,2015-06-15T09:54:00Z,36.05,-79.47,22.2,21.1,0,0,,10.0,30.070866,1017.5,,TRUE,TRUE,,,,,,,CLR,,,,,,,,VFR,,,,,,,,,,,,METAR,180.0
KBUF 150954Z 22005KT 1/4SM R23/1800V2200FT FG VV002 19/19 A2993 RMK AO2 SLP130 T01940189 $,KBUF,2015-06-15T09:54:00Z,42.93,-78.73,19.4,18.9,220,5,,0.25,29.929134,1013.0,,,TRUE,TRUE,,,,,FG,OVX,0,,,,,,,LIFR,,,,,,,,,,,200,METAR,211.0
KBOS 150954Z 13004KT 10SM -RA SCT070 OVC090 15/12 A3010 RMK AO2 SLP193 P0001 T01500117,KBOS,2015-06-15T09:54:00Z,42.37,-71.02,15.0,11.7,130,4,,10.0,30.100393,1019.3,,,TRUE,,,,,,-RA,SCT,7000,OVC,9000,,,,,VFR,,,,,,0.01,,,,,,METAR,6.0
KAVP 150954Z AUTO 24008KT 9SM OVC012 23/21 A2996 RMK AO2 SLP136 T02280206,KAVP,2015-06-15T09:54:00Z,41.33,-75.72,22.8,20.6,240,8,,9.0,29.958662,1013.6,,TRUE,TRUE,,,,,,,OVC,1200,,,,,,,MVFR,,,,,,,,,,,,METAR,291.0
KAVL 150954Z AUTO 25003KT 10SM CLR 17/16 A3021 RMK AO2 SLP208 T01670156,KAVL,2015-06-15T09:54:00Z,35.43,-82.53,16.7,15.6,250,3,,10.0,30.209646,1020.8,,TRUE,TRUE,,,,,,,CLR,,,,,,,,VFR,,,,,,,,,,,,METAR,670.0
KAUW 150954Z AUTO 00000KT 8SM CLR 16/16 A2989 RMK AO2 SLP122 T01610156,KAUW,2015-06-15T09:54:00Z,44.93,-89.62,16.1,15.6,0,0,,8.0,29.890747,1012.2,,TRUE,TRUE,,,,,,,CLR,,,,,,,,VFR,,,,,,,,,,,,METAR,362.0
KJYM 150954Z AUTO 31006KT 5SM RA SCT007 BKN015 OVC047 22/22 A2999 RMK AO2 T02230223,KJYM,2015-06-15T09:54:00Z,41.92,-84.58,22.3,22.3,310,6,,5.0,29.991142,,,TRUE,TRUE,,,,,,RA,SCT,700,BKN,1500,OVC,4700,,,MVFR,,,,,,,,,,,,METAR,360.0
KIRS 150954Z AUTO 00000KT 7SM BKN026 BKN048 22/22 A2997 RMK AO2,KIRS,2015-06-15T09:54:00Z,41.8,-85.43,22.0,22.0,0,0,,7.0,29.970472,,,TRUE,TRUE,,,,,,,BKN,2600,BKN,4800,,,,,MVFR,,,,,,,,,,,,METAR,282.0
KHYX 150954Z AUTO 28005KT 5SM BR OVC004 21/21 A2994 RMK AO2,KHYX,2015-06-15T09:54:00Z,43.43,-83.87,21.0,21.0,280,5,,5.0,29.940945,,,TRUE,TRUE,,,,,,BR,OVC,400,,,,,,,LIFR,,,,,,,,,,,,METAR,183.0
KHAI 150954Z AUTO 00000KT 10SM SCT013 BKN020 OVC037 22/22 A2997 RMK AO2 T02210215,KHAI,2015-06-15T09:54:00Z,41.97,-85.6,22.1,21.5,0,0,,10.0,29.970472,,,TRUE,TRUE,,,,,,,SCT,1300,BKN,2000,OVC,3700,,,MVFR,,,,,,,,,,,,METAR,251.0
KLNK 150954Z AUTO 04009KT 1 1/4SM +RA BR OVC030 19/19 A2991 RMK AO2 SLP119 P0055 T01940189,KLNK,2015-06-15T09:54:00Z,40.85,-96.77,19.4,18.9,40,9,,1.25,29.911417,1011.9,,TRUE,TRUE,,,,,,+RA BR,OVC,3000,,,,,,,IFR,,,,,,0.55,,,,,,METAR,364.0
KMCD 150954Z AUTO 27004KT 1/4SM FG OVC001 14/14 A2991 RMK AO2 T01380138,KMCD,2015-06-15T09:54:00Z,45.85,-84.63,13.8,13.8,270,4,,0.25,29.911417,,,TRUE,TRUE,,,,,,FG,OVC,100,,,,,,,LIFR,,,,,,,,,,,,METAR,226.0
KRQB 150954Z AUTO 14004KT M1/4SM FG OVC002 18/18 A2994 RMK AO2 T01810175,KRQB,2015-06-15T09:54:00Z,43.72,-85.5,18.1,17.5,140,4,,0.25,29.940945,,,TRUE,TRUE,,,,,,FG,OVC,200,,,,,,,LIFR,,,,,,,,,,,,METAR,302.0
KRNP 150954Z AUTO 28004KT 5SM BR BKN007 21/20 A2994 RMK AO2 T02080198,KRNP,2015-06-15T09:54:00Z,43.0,-84.13,20.8,19.8,280,4,,5.0,29.940945,,,TRUE,TRUE,,,,,,BR,BKN,700,,,,,,,IFR,,,,,,,,,,,,METAR,224.0
KPZQ 150954Z AUTO 00000KT 1/4SM FG OVC001 15/14 A2993 RMK AO2 T01450144,KPZQ,2015-06-15T09:54:00Z,45.4,-83.82,14.5,14.4,0,0,,0.25,29.929134,,,TRUE,TRUE,,,,,,FG,OVC,100,,,,,,,LIFR,,,,,,,,,,,,METAR,204.0
KOZW 150954Z AUTO 00000KT 1/4SM FG VV002 19/19 A2997 RMK AO2 T01920189,KOZW,2015-06-15T09:54:00Z,42.62,-83.97,19.2,18.9,0,0,,0.25,29.970472,,,TRUE,TRUE,,,,,,FG,OVX,0,,,,,,,LIFR,,,,,,,,,,,200,METAR,293.0
KDMH 150954Z AUTO 24/23 A2998 RMK AO1 SLP153 T02440228,KDMH,2015-06-15T09:54:00Z,39.28,-76.62,24.4,22.8,,,,,29.97933,1015.3,,TRUE,TRUE,,,,,,,,,,,,,,,,,,,,,,,,,,,METAR,5.0
KSLH 150954Z AUTO 00000KT M1/4SM FG OVC001 13/13 A2991 RMK AO2 T01320132,KSLH,2015-06-15T09:54:00Z,45.65,-84.52,13.2,13.2,0,0,,0.25,29.911417,,,TRUE,TRUE,,,,,,FG,OVC,100,,,,,,,LIFR,,,,,,,,,,,,METAR,195.0
KALO 150954Z AUTO 00000KT 9SM -RA BKN110 21/21 A2989 RMK AO2 SLP115 P0003 T02110206 $,KALO,2015-06-15T09:54:00Z,42.55,-92.4,21.1,20.6,0,0,,9.0,29.890747,1011.5,,TRUE,TRUE,TRUE,,,,,-RA,BKN,11000,,,,,,,VFR,,,,,,0.03,,,,,,METAR,264.0
KAKR 150954Z AUTO 22007KT 10SM BKN013 OVC019 23/21 A3000 RMK AO2 SLP151 T02280211,KAKR,2015-06-15T09:54:00Z,41.03,-81.47,22.8,21.1,220,7,,10.0,30.0,1015.1,,TRUE,TRUE,,,,,,,BKN,1300,OVC,1900,,,,,MVFR,,,,,,,,,,,,METAR,363.0
KAKQ 150954Z AUTO 00000KT 5SM BR CLR 22/21 A3003 RMK AO2 SLP168 T02170206 TSNO $,KAKQ,2015-06-15T09:54:00Z,36.98,-77.0,21.7,20.6,0,0,,5.0,30.029528,1016.8,,TRUE,TRUE,TRUE,,TRUE,,,BR,CLR,,,,,,,,MVFR,,,,,,,,,,,,METAR,34.0
KAKH 150954Z AUTO 00000KT 10SM CLR 21/19 A3010 RMK AO2 SLP185 T02060189,KAKH,2015-06-15T09:54:00Z,35.2,-81.15,20.6,18.9,0,0,,10.0,30.100393,1018.5,,TRUE,TRUE,,,,,,,CLR,,,,,,,,VFR,,,,,,,,,,,,METAR,243.0
KAQP 150954Z AUTO 36004KT 10SM CLR 16/13 A2999 RMK AO2 LTG DSNT S,KAQP,2015-06-15T09:54:00Z,45.22,-96.0,16.0,13.0,360,4,,10.0,29.991142,,,TRUE,TRUE,,,,,,,CLR,,,,,,,,VFR,,,,,,,,,,,,METAR,311.0
KAPN 150954Z AUTO 17003KT 1/4SM FG VV002 17/17 A2992 RMK AO2 SLP132 T01720167,KAPN,2015-06-15T09:54:00Z,45.07,-83.57,17.2,16.7,170,3,,0.25,29.920275,1013.2,,TRUE,TRUE,,,,,,FG,OVX,0,,,,,,,LIFR,,,,,,,,,,,200,METAR,210.0
KAPC 150954Z AUTO 28007KT 9SM OVC010 12/10 A2983 RMK AO2 SLP092 T01170100,KAPC,2015-06-15T09:54:00Z,38.2,-122.28,11.7,10.0,280,7,,9.0,29.828741,1009.2,,TRUE,TRUE,,,,,,,OVC,1000,,,,,,,MVFR,,,,,,,,,,,,METAR,13.0
KMOP 150954Z AUTO 00000KT 1SM BR VV007 18/18 A2994 RMK AO2 VIS 1/2V3 T01810175,KMOP,2015-06-15T09:54:00Z,43.62,-84.73,18.1,17.5,0,0,,1.0,29.940945,,,TRUE,TRUE,,,,,,BR,OVX,0,,,,,,,LIFR,,,,,,,,,,,700,METAR,230.0
KLWT 150954Z AUTO 11006KT 10SM CLR 06/03 A3024 RMK AO2 SLP235 T00560033,KLWT,2015-06-15T09:54:00Z,47.03,-109.47,5.6,3.3,110,6,,10.0,30.239174,1023.5,,TRUE,TRUE,,,,,,,CLR,,,,,,,,VFR,,,,,,,,,,,,METAR,1270.0
OAHR 150954Z 01015G26KT CAVOK 32/M08 Q1011 RMK SKC VIS MIN 9999 BLU,OAHR,2015-06-15T09:54:00Z,34.22,62.22,32.0,-8.0,10,15,26,6.21,29.852362,,,,,,,,,,,CAVOK,,,,,,,,VFR,,,,,,,,,,,,METAR,964.0
KESN 150954Z AUTO 03003KT 5SM BR SCT070 SCT080 25/25 A3003 RMK AO2 T02480248,KESN,2015-06-15T09:54:00Z,38.8,-76.07,24.8,24.8,30,3,,5.0,30.029528,,,TRUE,TRUE,,,,,,BR,SCT,7000,SCT,8000,,,,,MVFR,,,,,,,,,,,,METAR,22.0
PGUM 150954Z 08008KT 10SM FEW020 28/24 A2986 RMK AO2 SLP102 T02780239,PGUM,2015-06-15T09:54:00Z,13.48,144.8,27.8,23.9,80,8,,10.0,29.861221,1010.2,,,TRUE,,,,,,,FEW,2000,,,,,,,VFR,,,,,,,,,,,,METAR,91.0
CYPX 150954Z AUTO 12009KT 9SM -RA OVC017 09/07 A2954 RMK SLP003,CYPX,2015-06-15T09:54:00Z,60.03,-77.27,9.0,7.0,120,9,,9.0,29.53937,1000.3,,TRUE,,,,,,,-RA,OVC,1700,,,,,,,MVFR,,,,,,,,,,,,SPECI,23.0
CYQA 150954Z AUTO 14003KT 9SM OVC004 16/16 A2992 RMK SLP132 DENSITY ALT 1200FT,CYQA,2015-06-15T09:54:00Z,44.97,-79.28,16.0,16.0,140,3,,9.0,29.920275,1013.2,,TRUE,,,,,,,,OVC,400,,,,,,,LIFR,,,,,,,,,,,,SPECI,282.0
PAYA 150953Z 00000KT 10SM FEW090 SCT200 11/05 A3015 RMK AO2 SLP210 T01060050,PAYA,2015-06-15T09:53:00Z,59.52,-139.67,10.6,5.0,0,0,,10.0,30.15059,1021.0,,,TRUE,,,,,,,FEW,9000,SCT,20000,,,,,VFR,,,,,,,,,,,,METAR,11.0
PAWD 150953Z AUTO 01014G20KT 10SM CLR 18/06 A3022 RMK AO2 SLP234 T01780056 TSNO $,PAWD,2015-06-15T09:53:00Z,60.12,-149.42,17.8,5.6,10,14,20,10.0,30.221457,1023.4,,TRUE,TRUE,TRUE,,TRUE,,,,CLR,,,,,,,,VFR,,,,,,,,,,,,METAR,23.0
PAVL 150953Z AUTO 21018KT 4SM BR BKN010 OVC023 07/04 A3041 RMK AO2 SLP296 T00670044 TSNO,PAVL,2015-06-15T09:53:00Z,67.73,-164.55,6.7,4.4,210,18,,4.0,30.410433,1029.6,,TRUE,TRUE,,,TRUE,,,BR,BKN,1000,OVC,2300,,,,,MVFR,,,,,,,,,,,,METAR,3.0
PATO 150953Z AUTO 00000KT 10SM CLR 07/05 A3026 RMK AO2 SLP248 T00670050 TSNO,PATO,2015-06-15T09:53:00Z,60.78,-148.85,6.7,5.0,0,0,,10.0,30.259842,1024.8,,TRUE,TRUE,,,TRUE,,,,CLR,,,,,,,,VFR,,,,,,,,,,,,METAR,31.0
KFFT 150953Z AUTO 20004KT 10SM CLR 22/20 A3007 RMK AO2 SLP172 T02170200,KFFT,2015-06-15T09:53:00Z,38.18,-84.9,21.7,20.0,200,4,,10.0,30.070866,1017.2,,TRUE,TRUE,,,,,,,CLR,,,,,,,,VFR,,,,,,,,,,,,METAR,236.0
KFFC 150953Z AUTO 00000KT 1 3/4SM BR CLR 21/19 A3014 RMK AO2 SLP199 T02060194,KFFC,2015-06-15T09:53:00Z,33.35,-84.57,20.6,19.4,0,0,,1.75,30.138779,1019.9,,TRUE,TRUE,,,,,,BR,CLR,,,,,,,,IFR,,,,,,,,,,,,METAR,262.0
KFDY 150953Z AUTO 24006KT 10SM FEW027 BKN055 23/21 A2999 RMK AO2 SLP143 T02280206,KFDY,2015-06-15T09:53:00Z,41.02,-83.67,22.8,20.6,240,6,,10.0,29.991142,1014.3,,TRUE,TRUE,,,,,,,FEW,2700,BKN,5500,,,,,VFR,,,,,,,,,,,,METAR,247.0
KFDR 150953Z AUTO 06009KT 10SM -RA SCT046 BKN100 BKN120 20/19 A2991 RMK AO2 SLP109 P0020 T02000194,KFDR,2015-06-15T09:53:00Z,34.35,-98.98,20.0,19.4,60,9,,10.0,29.911417,1010.9,,TRUE,TRUE,,,,,,-RA,SCT,4600,BKN,10000,BKN,12000,,,VFR,,,,,,0.2,,,,,,METAR,386.0
KFCM 150953Z AUTO 35005KT 10SM FEW085 20/17 A2990 RMK AO2 SLP119 T02000167,KFCM,2015-06-15T09:53:00Z,44.83,-93.47,20.0,16.7,350,5,,10.0,29.899607,1011.9,,TRUE,TRUE,,,,,,,FEW,8500,,,,,,,VFR,,,,,,,,,,,,METAR,280.0
KFAY 150953Z AUTO 27005KT 10SM CLR 26/21 A3005 RMK AO2 SLP167 T02560206,KFAY,2015-06-15T09:53:00Z,34.98,-78.88,25.6,20.6,270,5,,10.0,30.050198,1016.7,,TRUE,TRUE,,,,,,,CLR,,,,,,,,VFR,,,,,,,,,,,,METAR,55.0
KFAT 150953Z 31007KT 10SM BKN250 21/12 A2975 RMK AO2 SLP070 T02110117,KFAT,2015-06-15T09:53:00Z,36.78,-119.72,21.1,11.7,310,7,,10.0,29.749016,1007.0,,,TRUE,,,,,,,BKN,25000,,,,,,,VFR,,,,,,,,,,,,METAR,104.0
KFAR 150953Z 34008KT 10SM CLR 14/12 A3002 RMK AO2 SLP165 T01390117,KFAR,2015-06-15T09:53:00Z,46.93,-96.82,13.9,11.7,340,8,,10.0,30.02067,1016.5,,,TRUE,,,,,,,CLR,,,,,,,,VFR,,,,,,,,,,,,METAR,277.0
KEYW 150953Z AUTO 11009KT 10SM CLR A3001 RMK AO2 SLP163 $,KEYW,2015-06-15T09:53:00Z,24.55,-81.75,,,110,9,,10.0,30.008858,1016.3,,TRUE,TRUE,TRUE,,,,,,CLR,,,,,,,,VFR,,,,,,,,,,,,METAR,5.0
KEYE 150953Z AUTO 23006KT 6SM RA BR FEW011 BKN027 OVC050 22/21 A3002 RMK AO2 LTG DSNT E RAE04B28 SLP158 P0014 T02220211,KEYE,2015-06-15T09:53:00Z,39.83,-86.3,22.2,21.1,230,6,,6.0,30.02067,1015.8,,TRUE,TRUE,,,,,,RA BR,FEW,1100,BKN,2700,OVC,5000,,,MVFR,,,,,,0.14,,,,,,METAR,248.0
KEWB 150953Z AUTO 12009KT 10SM -RA FEW090 BKN120 16/09 A3008 RMK AO2 RAB30 SLP186 P0000 T01610089 $,KEWB,2015-06-15T09:53:00Z,41.68,-70.95,16.1,8.9,120,9,,10.0,30.079725,1018.6,,TRUE,TRUE,TRUE,,,,,-RA,FEW,9000,BKN,12000,,,,,VFR,,,,,,0.0050,,,,,,METAR,23.0
KEVW 150953Z AUTO 15003KT 10SM CLR 11/04 A3017 RMK AO2 SLP122 T01110039,KEVW,2015-06-15T09:53:00Z,41.27,-111.03,11.1,3.9,150,3,,10.0,30.171259,1012.2,,TRUE,TRUE,,,,,,,CLR,,,,,,,,VFR,,,,,,,,,,,,METAR,2177.0
KESF 150953Z AUTO 00000KT 7SM CLR 23/21 A3000 RMK AO2 SLP156 T02330211,KESF,2015-06-15T09:53:00Z,31.4,-92.28,23.3,21.1,0,0,,7.0,30.0,1015.6,,TRUE,TRUE,,,,,,,CLR,,,,,,,,VFR,,,,,,,,,,,,METAR,28.0
KEQY 150953Z AUTO 00000KT 10SM CLR 22/20 A3009 RMK AO2 SLP184 T02170200,KEQY,2015-06-15T09:53:00Z,35.02,-80.62,21.7,20.0,0,0,,10.0,30.088583,1018.4,,TRUE,TRUE,,,,,,,CLR,,,,,,,,VFR,,,,,,,,,,,,METAR,212.0
KEPH 150953Z AUTO 34008KT 10SM CLR 17/M01 A2996 RMK AO2 SLP139 T01721006,KEPH,2015-06-15T09:53:00Z,47.3,-119.52,17.2,-0.6,340,8,,10.0,29.958662,1013.9,,TRUE,TRUE,,,,,,,CLR,,,,,,,,VFR,,,,,,,,,,,,METAR,383.0
KENW 150953Z AUTO 25003KT 8SM FEW029 BKN080 OVC100 21/21 A2993 RMK AO2 RAE43 SLP130 P0004 T02110206,KENW,2015-06-15T09:53:00Z,42.6,-87.93,21.1,20.6,250,3,,8.0,29.929134,1013.0,,TRUE,TRUE,,,,,,,FEW,2900,BKN,8000,OVC,10000,,,VFR,,,,,,0.04,,,,,,METAR,219.0
KEMP 150953Z AUTO 19004KT 10SM -RA FEW016 BKN060 OVC075 19/19 A2993 RMK AO2 RAB0854 SLP129 P0009 T01940189,KEMP,2015-06-15T09:53:00Z,38.33,-96.2,19.4,18.9,190,4,,10.0,29.929134,1012.9,,TRUE,TRUE,,,,,,-RA,FEW,1600,BKN,6000,OVC,7500,,,VFR,,,,,,0.09,,,,,,METAR,367.0
KELN 150953Z AUTO 00000KT 10SM CLR 11/02 A2998 RMK AO2 SLP144 T01110017,KELN,2015-06-15T09:53:00Z,47.03,-120.53,11.1,1.7,0,0,,10.0,29.97933,1014.4,,TRUE,TRUE,,,,,,,CLR,,,,,,,,VFR,,,,,,,,,,,,METAR,519.0
KELM 150953Z 00000KT 9SM BKN024 OVC040 22/21 A2993 RMK AO2 SLP130 T02170211,KELM,2015-06-15T09:53:00Z,42.15,-76.9,21.7,21.1,0,0,,9.0,29.929134,1013.0,,,TRUE,,,,,,,BKN,2400,OVC,4000,,,,,MVFR,,,,,,,,,,,,METAR,302.0
KELD 150953Z AUTO 16004KT 10SM OVC004 23/22 A3002 RMK AO2 SLP161 T02280222 $,KELD,2015-06-15T09:53:00Z,33.22,-92.82,22.8,22.2,160,4,,10.0,30.02067,1016.1,,TRUE,TRUE,TRUE,,,,,,OVC,400,,,,,,,LIFR,,,,,,,,,,,,METAR,81.0
KEET 150953Z AUTO 00000KT 6SM BR CLR 22/21 A3011 RMK AO2 SLP189 T02220211,KEET,2015-06-15T09:53:00Z,33.18,-86.78,22.2,21.1,0,0,,6.0,30.109253,1018.9,,TRUE,TRUE,,,,,,BR,CLR,,,,,,,,VFR,,,,,,,,,,,,METAR,173.0
KEEO 150953Z AUTO 00000KT 10SM CLR 10/06 A3017 RMK AO2 SLP131 T01000061,KEEO,2015-06-15T09:53:00Z,40.05,-107.88,10.0,6.1,0,0,,10.0,30.171259,1013.1,,TRUE,TRUE,,,,,,,CLR,,,,,,,,VFR,,,,,,,,,,,,METAR,1930.0
KECP 150953Z AUTO 03005KT 5SM BR CLR 23/22 A3006 RMK AO2 SLP189 T02280217 $,KECP,2015-06-15T09:53:00Z,30.35,-85.8,22.8,21.7,30,5,,5.0,30.059055,1018.9,,TRUE,TRUE,TRUE,,,,,BR,CLR,,,,,,,,MVFR,,,,,,,,,,,,METAR,21.0
KDWH 150953Z 07003KT 10SM FEW022 25/23 A2992 RMK AO2 SLP130 T02500233,KDWH,2015-06-15T09:53:00Z,30.07,-95.55,25.0,23.3,70,3,,10.0,29.920275,1013.0,,,TRUE,,,,,,,FEW,2200,,,,,,,VFR,,,,,,,,,,,,METAR,46.0
KDVT 150953Z AUTO 00000KT 10SM CLR 28/07 A2972 RMK AO2 SLP035 T02830067,KDVT,2015-06-15T09:53:00Z,33.68,-112.07,28.3,6.7,0,0,,10.0,29.719488,1003.5,,TRUE,TRUE,,,,,,,CLR,,,,,,,,VFR,,,,,,,,,,,,METAR,443.0
KDVP 150953Z AUTO 35011KT 7SM VCTS SCT029 BKN040 BKN120 17/17 A2998 RMK AO2 LTG DSNT N AND W T01720165,KDVP,2015-06-15T09:53:00Z,43.98,-95.78,17.2,16.5,350,11,,7.0,29.97933,,,TRUE,TRUE,,,,,,VCTS,SCT,2900,BKN,4000,BKN,12000,,,VFR,,,,,,,,,,,,METAR,495.0
KDUJ 150953Z AUTO 25008KT 4SM BR OVC002 21/19 A3002 RMK AO2 SLP152 T02060194,KDUJ,2015-06-15T09:53:00Z,41.17,-78.9,20.6,19.4,250,8,,4.0,30.02067,1015.2,,TRUE,TRUE,,,,,,BR,OVC,200,,,,,,,LIFR,,,,,,,,,,,,METAR,554.0
KDTW 150953Z 20003KT 6SM BR SCT035 BKN075 OVC200 22/21 A2996 RMK AO2 SLP141 T02170211 $,KDTW,2015-06-15T09:53:00Z,42.23,-83.33,21.7,21.1,200,3,,6.0,29.958662,1014.1,,,TRUE,TRUE,,,,,BR,SCT,3500,BKN,7500,OVC,20000,,,VFR,,,,,,,,,,,,METAR,195.0
KDTS 150953Z AUTO 07003KT 10SM CLR 26/25 A3005 RMK AO2 SLP176 T02610250 TSNO,KDTS,2015-06-15T09:53:00Z,30.4,-86.47,26.1,25.0,70,3,,10.0,30.050198,1017.6,,TRUE,TRUE,,,TRUE,,,,CLR,,,,,,,,VFR,,,,,,,,,,,,METAR,5.0
KDTO 150953Z AUTO 17010KT 10SM SCT017 OVC022 24/22 A2995 RMK AO2 RAE0859 SLP131 P0000 T02440222,KDTO,2015-06-15T09:53:00Z,33.2,-97.2,24.4,22.2,170,10,,10.0,29.949802,1013.1,,TRUE,TRUE,,,,,,,SCT,1700,OVC,2200,,,,,MVFR,,,,,,0.0050,,,,,,METAR,196.0
KDTN 150953Z AUTO 13006KT 10SM BKN011 24/22 A2999 RMK AO2 SLP151 T02390222,KDTN,2015-06-15T09:53:00Z,32.55,-93.75,23.9,22.2,130,6,,10.0,29.991142,1015.1,,TRUE,TRUE,,,,,,,BKN,1100,,,,,,,MVFR,,,,,,,,,,,,METAR,53.0
KDRT 150953Z AUTO 09008KT 10SM FEW120 22/19 A2983 RMK AO2 RAE20 SLP084 P0029 T02170194,KDRT,2015-06-15T09:53:00Z,29.37,-100.92,21.7,19.4,90,8,,10.0,29.828741,1008.4,,TRUE,TRUE,,,,,,,FEW,12000,,,,,,,VFR,,,,,,0.29,,,,,,METAR,313.0
KDRO 150953Z AUTO 00000KT 10SM CLR 09/08 A3019 RMK AO2 SLP149 T00940083,KDRO,2015-06-15T09:53:00Z,37.15,-107.77,9.4,8.3,0,0,,10.0,30.188976,1014.9,,TRUE,TRUE,,,,,,,CLR,,,,,,,,VFR,,,,,,,,,,,,METAR,2035.0
KDNL 150953Z AUTO 30006KT 10SM CLR 26/20 A3011 RMK AO2 SLP189 T02610200,KDNL,2015-06-15T09:53:00Z,33.47,-82.03,26.1,20.0,300,6,,10.0,30.109253,1018.9,,TRUE,TRUE,,,,,,,CLR,,,,,,,,VFR,,,,,,,,,,,,METAR,130.0
KDMO 150953Z AUTO 17008KT 10SM CLR 22/21 A2996 RMK AO2 SLP135 T02220206 TSNO,KDMO,2015-06-15T09:53:00Z,38.72,-93.17,22.2,20.6,170,8,,10.0,29.958662,1013.5,,TRUE,TRUE,,,TRUE,,,,CLR,,,,,,,,VFR,,,,,,,,,,,,METAR,274.0
KDMN 150953Z AUTO 31003KT 10SM CLR 20/06 A2994 RMK AO2 SLP055 T02000056,KDMN,2015-06-15T09:53:00Z,32.27,-107.72,20.0,5.6,310,3,,10.0,29.940945,1005.5,,TRUE,TRUE,,,,,,,CLR,,,,,,,,VFR,,,,,,,,,,,,METAR,1311.0
KDLN 150953Z AUTO 10006KT 10SM CLR 08/04 A3015 RMK AO2 SLP175 T00780039,KDLN,2015-06-15T09:53:00Z,45.25,-112.55,7.8,3.9,100,6,,10.0,30.15059,1017.5,,TRUE,TRUE,,,,,,,CLR,,,,,,,,VFR,,,,,,,,,,,,METAR,1591.0
KDKK 150953Z AUTO 26010KT 8SM OVC004 20/19 A2994 RMK AO2 RAE38 SLP134 P0005 T02000194,KDKK,2015-06-15T09:53:00Z,42.5,-79.28,20.0,19.4,260,10,,8.0,29.940945,1013.4,,TRUE,TRUE,,,,,,,OVC,400,,,,,,,LIFR,,,,,,0.05,,,,,,METAR,202.0
KDHT 150953Z AUTO 36010KT 10SM CLR 17/15 A3007 RMK AO2 SLP126 T01670150,KDHT,2015-06-15T09:53:00Z,36.02,-102.55,16.7,15.0,360,10,,10.0,30.070866,1012.6,,TRUE,TRUE,,,,,,,CLR,,,,,,,,VFR,,,,,,,,,,,,METAR,1217.0
KDHN 150953Z AUTO 00000KT 10SM CLR 23/22 A3013 RMK AO2 SLP196 T02330222,KDHN,2015-06-15T09:53:00Z,31.32,-85.45,23.3,22.2,0,0,,10.0,30.129921,1019.6,,TRUE,TRUE,,,,,,,CLR,,,,,,,,VFR,,,,,,,,,,,,METAR,113.0
KDGW 150953Z AUTO 00000KT 10SM OVC023 13/12 A3018 RMK AO2 RAB28E39 SLP173 P0000 T01330122,KDGW,2015-06-15T09:53:00Z,42.8,-105.38,13.3,12.2,0,0,,10.0,30.180119,1017.3,,TRUE,TRUE,,,,,,,OVC,2300,,,,,,,MVFR,,,,,,0.0050,,,,,,METAR,1499.0
KDFW 150953Z 16007KT 10SM FEW022 SCT032 BKN160 25/22 A2994 RMK AO2 SLP128 T02440222 $,KDFW,2015-06-15T09:53:00Z,32.9,-97.02,24.4,22.2,160,7,,10.0,29.940945,1012.8,,,TRUE,TRUE,,,,,,FEW,2200,SCT,3200,BKN,16000,,,VFR,,,,,,,,,,,,METAR,174.0
KDFI 150953Z AUTO 22004KT 10SM BKN013 23/21 A2998 RMK AO2 SLP146 T02280211,KDFI,2015-06-15T09:53:00Z,41.33,-84.43,22.8,21.1,220,4,,10.0,29.97933,1014.6,,TRUE,TRUE,,,,,,,BKN,1300,,,,,,,MVFR,,,,,,,,,,,,METAR,219.0
KDEW 150953Z AUTO 04009KT 10SM CLR 14/03 A3003 RMK AO2 SLP158 T01440033,KDEW,2015-06-15T09:53:00Z,47.97,-117.43,14.4,3.3,40,9,,10.0,30.029528,1015.8,,TRUE,TRUE,,,,,,,CLR,,,,,,,,VFR,,,,,,,,,,,,METAR,674.0
KDET 150953Z AUTO 24003KT 4SM BR BKN085 21/21 A2995 RMK AO2 SLP137 T02110206,KDET,2015-06-15T09:53:00Z,42.4,-83.02,21.1,20.6,240,3,,4.0,29.949802,1013.7,,TRUE,TRUE,,,,,,BR,BKN,8500,,,,,,,MVFR,,,,,,,,,,,,METAR,190.0
KDEQ 150953Z AUTO 17005KT 10SM OVC009 24/23 A2998 RMK AO2 SLP147 T02390228 $,KDEQ,2015-06-15T09:53:00Z,34.05,-94.4,23.9,22.8,170,5,,10.0,29.97933,1014.7,,TRUE,TRUE,TRUE,,,,,,OVC,900,,,,,,,IFR,,,,,,,,,,,,METAR,106.0
KDEN 150953Z 26006KT 10SM FEW060 SCT120 12/09 A3020 RMK AO2 SLP159 T01170094,KDEN,2015-06-15T09:53:00Z,39.85,-104.65,11.7,9.4,260,6,,10.0,30.200787,1015.9,,,TRUE,,,,,,,FEW,6000,SCT,12000,,,,,VFR,,,,,,,,,,,,METAR,1640.0
KDCU 150953Z AUTO 00000KT 9SM CLR 21/21 A3011 RMK AO2 SLP187 T02110206,KDCU,2015-06-15T09:53:00Z,34.65,-86.95,21.1,20.6,0,0,,9.0,30.109253,1018.7,,TRUE,TRUE,,,,,,,CLR,,,,,,,,VFR,,,,,,,,,,,,METAR,176.0
KDBQ 150953Z AUTO 25003KT 4SM -RA BR SCT005 OVC012 22/21 A2993 RMK AO2 LTG DSNT SE AND S SLP129 P0025 T02170211,KDBQ,2015-06-15T09:53:00Z,42.4,-90.7,21.7,21.1,250,3,,4.0,29.929134,1012.9,,TRUE,TRUE,,,,,,-RA BR,SCT,500,OVC,1200,,,,,MVFR,,,,,,0.25,,,,,,METAR,326.0
KDAN 150953Z AUTO 23004KT 7SM CLR 21/19 A3007 RMK AO2 SLP172 T02110194,KDAN,2015-06-15T09:53:00Z,36.57,-79.33,21.1,19.4,230,4,,7.0,30.070866,1017.2,,TRUE,TRUE,,,,,,,CLR,,,,,,,,VFR,,,,,,,,,,,,METAR,175.0
KDAL 150953Z 16011KT 10SM FEW010 FEW040 BKN230 26/22 A2994 RMK AO2 SLP130 T02560222 $,KDAL,2015-06-15T09:53:00Z,32.85,-96.85,25.6,22.2,160,11,,10.0,29.940945,1013.0,,,TRUE,TRUE,,,,,,FEW,1000,FEW,4000,BKN,23000,,,VFR,,,,,,,,,,,,METAR,158.0
KDAB 150953Z 00000KT 8SM MIFG FEW040 23/22 A3010 RMK AO2 SLP192 T02280222 $,KDAB,2015-06-15T09:53:00Z,29.18,-81.07,22.8,22.2,0,0,,8.0,30.100393,1019.2,,,TRUE,TRUE,,,,,MIFG,FEW,4000,,,,,,,VFR,,,,,,,,,,,,METAR,9.0
KCYS 150953Z AUTO 31003KT 10SM FEW100 11/09 A3020 RMK AO2 SLP149 T01110089 TSNO,KCYS,2015-06-15T09:53:00Z,41.15,-104.8,11.1,8.9,310,3,,10.0,30.200787,1014.9,,TRUE,TRUE,,,TRUE,,,,FEW,10000,,,,,,,VFR,,,,,,,,,,,,METAR,1868.0
KCXO 150953Z AUTO 10004KT 10SM FEW018 23/22 A2994 RMK AO2 SLP133 T02330222,KCXO,2015-06-15T09:53:00Z,30.35,-95.42,23.3,22.2,100,4,,10.0,29.940945,1013.3,,TRUE,TRUE,,,,,,,FEW,1800,,,,,,,VFR,,,,,,,,,,,,METAR,75.0
KCUT 150953Z AUTO 06008KT 10SM BKN005 BKN075 11/09 A3021 RMK AO2 RAE32 CIG 003V008 SLP186 P0008 T01060094 $,KCUT,2015-06-15T09:53:00Z,43.73,-103.62,10.6,9.4,60,8,,10.0,30.209646,1018.6,,TRUE,TRUE,TRUE,,,,,,BKN,500,BKN,7500,,,,,IFR,,,,,,0.08,,,,,,METAR,1725.0
KCUB 150953Z AUTO 00000KT 10SM CLR 23/21 A3010 RMK AO2 SLP188 T02330211,KCUB,2015-06-15T09:53:00Z,33.97,-81.0,23.3,21.1,0,0,,10.0,30.100393,1018.8,,TRUE,TRUE,,,,,,,CLR,,,,,,,,VFR,,,,,,,,,,,,METAR,56.0
KCSV 150953Z AUTO 00000KT 10SM CLR 19/17 A3019 RMK AO2 SLP203 T01940172,KCSV,2015-06-15T09:53:00Z,35.95,-85.08,19.4,17.2,0,0,,10.0,30.188976,1020.3,,TRUE,TRUE,,,,,,,CLR,,,,,,,,VFR,,,,,,,,,,,,METAR,570.0
KCSM 150953Z AUTO 19008KT 10SM -RA SCT110 19/18 A2997 RMK AO2 SLP123 P0014 T01890183,KCSM,2015-06-15T09:53:00Z,35.35,-99.2,18.9,18.3,190,8,,10.0,29.970472,1012.3,,TRUE,TRUE,,,,,,-RA,SCT,11000,,,,,,,VFR,,,,,,0.14,,,,,,METAR,588.0
KCRS 150953Z AUTO 15009KT 9SM OVC005 24/23 A2997 RMK AO2 SLP144 T02440228 $,KCRS,2015-06-15T09:53:00Z,32.03,-96.4,24.4,22.8,150,9,,9.0,29.970472,1014.4,,TRUE,TRUE,TRUE,,,,,,OVC,500,,,,,,,IFR,,,,,,,,,,,,METAR,133.0
KCRQ 150953Z AUTO 00000KT 10SM OVC007 17/16 A2981 RMK AO2 SLP092 T01720156 TSNO,KCRQ,2015-06-15T09:53:00Z,33.13,-117.28,17.2,15.6,0,0,,10.0,29.811024,1009.2,,TRUE,TRUE,,,TRUE,,,,OVC,700,,,,,,,IFR,,,,,,,,,,,,METAR,99.0
KCRG 150953Z 15003KT 10SM CLR 23/21 A3009 RMK AO2 SLP189 T02280211 $,KCRG,2015-06-15T09:53:00Z,30.33,-81.52,22.8,21.1,150,3,,10.0,30.088583,1018.9,,,TRUE,TRUE,,,,,,CLR,,,,,,,,VFR,,,,,,,,,,,,METAR,13.0
KCRE 150953Z AUTO 29004KT 10SM CLR 25/23 A3006 RMK AO1 SLP180 T02500228,KCRE,2015-06-15T09:53:00Z,33.82,-78.72,25.0,22.8,290,4,,10.0,30.059055,1018.0,,TRUE,TRUE,,,,,,,CLR,,,,,,,,VFR,,,,,,,,,,,,METAR,10.0
KCPR 150953Z AUTO 36007KT 10SM SCT010 BKN014 OVC025 11/10 A3020 RMK AO2 SLP174 T01110100,KCPR,2015-06-15T09:53:00Z,42.9,-106.47,11.1,10.0,360,7,,10.0,30.200787,1017.4,,TRUE,TRUE,,,,,,,SCT,1000,BKN,1400,OVC,2500,,,MVFR,,,,,,,,,,,,METAR,1621.0
KCOT 150953Z AUTO 06004KT 10SM CLR 24/22 A2989 RMK AO2 SLP114 T02390222,KCOT,2015-06-15T09:53:00Z,28.45,-99.22,23.9,22.2,60,4,,10.0,29.890747,1011.4,,TRUE,TRUE,,,,,,,CLR,,,,,,,,VFR,,,,,,,,,,,,METAR,140.0
KCNY 150953Z AUTO 27004KT 10SM CLR 18/09 A3000 RMK AO2 SLP099 T01780094,KCNY,2015-06-15T09:53:00Z,38.77,-109.75,17.8,9.4,270,4,,10.0,30.0,1009.9,,TRUE,TRUE,,,,,,,CLR,,,,,,,,VFR,,,,,,,,,,,,METAR,1390.0
KCNO 150953Z AUTO 27003KT 4SM BR OVC008 18/16 A2983 RMK AO2 SLP095 T01780161,KCNO,2015-06-15T09:53:00Z,33.98,-117.62,17.8,16.1,270,3,,4.0,29.828741,1009.5,,TRUE,TRUE,,,,,,BR,OVC,800,,,,,,,IFR,,,,,,,,,,,,METAR,207.0
KCNM 150953Z AUTO 00000KT 10SM CLR 18/14 A2999 RMK AO2 SLP103 T01830144,KCNM,2015-06-15T09:53:00Z,32.33,-104.25,18.3,14.4,0,0,,10.0,29.991142,1010.3,,TRUE,TRUE,,,,,,,CLR,,,,,,,,VFR,,,,,,,,,,,,METAR,985.0
KCMX 150953Z AUTO 29006KT 10SM CLR 12/11 A2988 RMK AO2 SLP119 T01220111,KCMX,2015-06-15T09:53:00Z,47.17,-88.48,12.2,11.1,290,6,,10.0,29.878937,1011.9,,TRUE,TRUE,,,,,,,CLR,,,,,,,,VFR,,,,,,,,,,,,METAR,326.0
KCMI 150953Z AUTO 21004KT 9SM CLR 22/21 A2998 RMK AO2 SLP146 T02220211,KCMI,2015-06-15T09:53:00Z,40.03,-88.27,22.2,21.1,210,4,,9.0,29.97933,1014.6,,TRUE,TRUE,,,,,,,CLR,,,,,,,,VFR,,,,,,,,,,,,METAR,228.0
KCLM 150953Z AUTO 27006KT 10SM CLR 15/07 A2996 RMK AO2 SLP145 T01500067,KCLM,2015-06-15T09:53:00Z,48.12,-123.5,15.0,6.7,270,6,,10.0,29.958662,1014.5,,TRUE,TRUE,,,,,,,CLR,,,,,,,,VFR,,,,,,,,,,,,METAR,85.0
KCLL 150953Z AUTO 05003KT 10SM CLR 23/23 A2993 RMK AO2 SLP131 T02330228,KCLL,2015-06-15T09:53:00Z,30.58,-96.37,23.3,22.8,50,3,,10.0,29.929134,1013.1,,TRUE,TRUE,,,,,,,CLR,,,,,,,,VFR,,,,,,,,,,,,METAR,96.0
KCKB 150953Z AUTO 20005KT 10SM CLR 23/20 A3007 RMK AO2 SLP167 T02280200 TSNO,KCKB,2015-06-15T09:53:00Z,39.3,-80.22,22.8,20.0,200,5,,10.0,30.070866,1016.7,,TRUE,TRUE,,,TRUE,,,,CLR,,,,,,,,VFR,,,,,,,,,,,,METAR,360.0
KCHO 150953Z 00000KT 10SM CLR 23/20 A3002 RMK AO2 SLP158 T02330200,KCHO,2015-06-15T09:53:00Z,38.13,-78.45,23.3,20.0,0,0,,10.0,30.02067,1015.8,,,TRUE,,,,,,,CLR,,,,,,,,VFR,,,,,,,,,,,,METAR,192.0
KCHA 150953Z 00000KT 10SM SCT250 21/19 A3013 RMK AO2 SLP194 FIRST T02110194,KCHA,2015-06-15T09:53:00Z,35.03,-85.2,21.1,19.4,0,0,,10.0,30.129921,1019.4,,,TRUE,,,,,,,SCT,25000,,,,,,,VFR,,,,,,,,,,,,METAR,210.0
KCGI 150953Z AUTO 19008KT 10SM CLR 23/22 A3001 RMK AO2 SLP159 T02280217 TSNO $,KCGI,2015-06-15T09:53:00Z,37.23,-89.58,22.8,21.7,190,8,,10.0,30.008858,1015.9,,TRUE,TRUE,TRUE,,TRUE,,,,CLR,,,,,,,,VFR,,,,,,,,,,,,METAR,102.0
KCEZ 150953Z AUTO 00000KT 10SM CLR 10/08 A3014 RMK AO2 SLP135 T01000078,KCEZ,2015-06-15T09:53:00Z,37.3,-108.63,10.0,7.8,0,0,,10.0,30.138779,1013.5,,TRUE,TRUE,,,,,,,CLR,,,,,,,,VFR,,,,,,,,,,,,METAR,1797.0
KCEW 150953Z AUTO 00000KT 8SM CLR 20/19 A3008 RMK AO2 SLP184 T02000194,KCEW,2015-06-15T09:53:00Z,30.78,-86.52,20.0,19.4,0,0,,8.0,30.079725,1018.4,,TRUE,TRUE,,,,,,,CLR,,,,,,,,VFR,,,,,,,,,,,,METAR,55.0
KCDW 150953Z AUTO 00000KT 6SM BR OVC005 20/19 A2997 RMK AO2 RAE34 SLP152 P0000 T02000189 TSNO,KCDW,2015-06-15T09:53:00Z,40.88,-74.28,20.0,18.9,0,0,,6.0,29.970472,1015.2,,TRUE,TRUE,,,TRUE,,,BR,OVC,500,,,,,,,IFR,,,,,,0.0050,,,,,,METAR,64.0
KCDS 150953Z AUTO 11005KT 10SM FEW120 19/18 A2996 RMK AO2 SLP119 T01940183,KCDS,2015-06-15T09:53:00Z,34.43,-100.28,19.4,18.3,110,5,,10.0,29.958662,1011.9,,TRUE,TRUE,,,,,,,FEW,12000,,,,,,,VFR,,,,,,,,,,,,METAR,594.0
KCDR 150953Z AUTO 33006KT 6SM -RA BR FEW027 FEW048 OVC085 14/14 A3018 RMK AO2 PRESRR SLP204 P0011 T01440139,KCDR,2015-06-15T09:53:00Z,42.83,-103.1,14.4,13.9,330,6,,6.0,30.180119,1020.4,,TRUE,TRUE,,,,,,-RA BR,FEW,2700,FEW,4800,OVC,8500,,,VFR,,,,,,0.11,,,,,,METAR,1010.0
KCDC 150953Z AUTO 08003KT 10SM CLR 15/09 A3005 RMK AO2 SLP110 T01500089,KCDC,2015-06-15T09:53:00Z,37.7,-113.1,15.0,8.9,80,3,,10.0,30.050198,1011.0,,TRUE,TRUE,,,,,,,CLR,,,,,,,,VFR,,,,,,,,,,,,METAR,1714.0
KCCR 150953Z 20012KT 9SM CLR 13/09 A2982 RMK AO2 SLP084 T01330094 PWINO $,KCCR,2015-06-15T09:53:00Z,38.0,-122.05,13.3,9.4,200,12,,9.0,29.819881,1008.4,,,TRUE,TRUE,,,,TRUE,,CLR,,,,,,,,VFR,,,,,,,,,,,,METAR,11.0
KCAG 150953Z AUTO 00000KT 10SM CLR 07/05 A3016 RMK AO2 SLP152 T00720050,KCAG,2015-06-15T09:53:00Z,40.5,-107.52,7.2,5.0,0,0,,10.0,30.159449,1015.2,,TRUE,TRUE,,,,,,,CLR,,,,,,,,VFR,,,,,,,,,,,,METAR,1887.0
KBYI 150953Z AUTO 14004KT 10SM CLR 11/05 A2996 RMK AO2 SLP107 T01110050,KBYI,2015-06-15T09:53:00Z,42.55,-113.77,11.1,5.0,140,4,,10.0,29.958662,1010.7,,TRUE,TRUE,,,,,,,CLR,,,,,,,,VFR,,,,,,,,,,,,METAR,1264.0
KBYG 150953Z AUTO 18004KT 10SM FEW027 BKN036 OVC044 11/08 A3023 RMK AO2 SLP208 T01110083 $,KBYG,2015-06-15T09:53:00Z,44.38,-106.72,11.1,8.3,180,4,,10.0,30.230314,1020.8,,TRUE,TRUE,TRUE,,,,,,FEW,2700,BKN,3600,OVC,4400,,,VFR,,,,,,,,,,,,METAR,1497.0
KBWG 150953Z AUTO 21006KT 10SM CLR 24/21 A3009 RMK AO2 SLP181 T02390206,KBWG,2015-06-15T09:53:00Z,36.97,-86.42,23.9,20.6,210,6,,10.0,30.088583,1018.1,,TRUE,TRUE,,,,,,,CLR,,,,,,,,VFR,,,,,,,,,,,,METAR,168.0
KBVY 150953Z AUTO 13004KT 10SM -RA FEW075 OVC100 15/11 A3010 RMK AO2 RAE05B26 SLP187 P0001 T01500111 $,KBVY,2015-06-15T09:53:00Z,42.58,-70.92,15.0,11.1,130,4,,10.0,30.100393,1018.7,,TRUE,TRUE,TRUE,,,,,-RA,FEW,7500,OVC,10000,,,,,VFR,,,,,,0.01,,,,,,METAR,28.0
KBVO 150953Z AUTO 20005KT 10SM BKN016 23/22 A2994 RMK AO2 SLP128 T02280222 TSNO,KBVO,2015-06-15T09:53:00Z,36.77,-96.02,22.8,22.2,200,5,,10.0,29.940945,1012.8,,TRUE,TRUE,,,TRUE,,,,BKN,1600,,,,,,,MVFR,,,,,,,,,,,,METAR,210.0
KBUR 150953Z 14004KT 6SM BR OVC005 17/15 A2981 RMK AO2 SLP083 T01720150,KBUR,2015-06-15T09:53:00Z,34.2,-118.37,17.2,15.0,140,4,,6.0,29.811024,1008.3,,,TRUE,,,,,,BR,OVC,500,,,,,,,IFR,,,,,,,,,,,,METAR,217.0
KBTR 150953Z AUTO VRB03KT 10SM CLR 23/23 A2999 RMK AO2 SLP156 T02330228 TSNO $,KBTR,2015-06-15T09:53:00Z,30.53,-91.15,23.3,22.8,0,3,,10.0,29.991142,1015.6,,TRUE,TRUE,TRUE,,TRUE,,,,CLR,,,,,,,,VFR,,,,,,,,,,,,METAR,21.0
KBTM 150953Z AUTO 00000KT 10SM OVC033 08/02 A3021 RMK AO2 SLP197 T00780022,KBTM,2015-06-15T09:53:00Z,45.97,-112.5,7.8,2.2,0,0,,10.0,30.209646,1019.7,,TRUE,TRUE,,,,,,,OVC,3300,,,,,,,VFR,,,,,,,,,,,,METAR,1688.0
KBTL 150953Z 24003KT 8SM BKN007 OVC012 23/21 A2997 RMK AO2 RAE08 CIG 005V011 SLP142 P0000 T02280211 $,KBTL,2015-06-15T09:53:00Z,42.32,-85.23,22.8,21.1,240,3,,8.0,29.970472,1014.2,,,TRUE,TRUE,,,,,,BKN,700,OVC,1200,,,,,IFR,,,,,,0.0050,,,,,,METAR,290.0
KBRO 150953Z 00000KT 10SM SCT018 25/24 A2981 RMK AO2 SLP093 T02500239,KBRO,2015-06-15T09:53:00Z,25.92,-97.42,25.0,23.9,0,0,,10.0,29.811024,1009.3,,,TRUE,,,,,,,SCT,1800,,,,,,,VFR,,,,,,,,,,,,METAR,7.0
KBRL 150953Z AUTO 18004KT 10SM SCT003 BKN090 22/22 A2992 RMK AO2 RAB27E36 SLP127 P0001 T02220217,KBRL,2015-06-15T09:53:00Z,40.77,-91.13,22.2,21.7,180,4,,10.0,29.920275,1012.7,,TRUE,TRUE,,,,,,,SCT,300,BKN,9000,,,,,VFR,,,,,,0.01,,,,,,METAR,211.0
KBRD 150953Z AUTO 34004KT 10SM CLR 13/12 A2998 RMK AO2 SLP151 T01330122 $,KBRD,2015-06-15T09:53:00Z,46.4,-94.13,13.3,12.2,340,4,,10.0,29.97933,1015.1,,TRUE,TRUE,TRUE,,,,,,CLR,,,,,,,,VFR,,,,,,,,,,,,METAR,372.0
PHJR 150953Z AUTO 00000KT 10SM FEW002 22/18 A2998 RMK AO2 SLP157 T02220178 402940206 TSNO,PHJR,2015-06-15T09:53:00Z,21.32,-158.07,22.2,17.8,0,0,,10.0,29.97933,1015.7,,TRUE,TRUE,,,TRUE,,,,FEW,200,,,,,,,VFR,,,,29.4,20.6,,,,,,,METAR,15.0
PHLI 150953Z 29007KT 10SM BKN032 23/19 A2999 RMK AO2 SLP153 T02330194 402890200,PHLI,2015-06-15T09:53:00Z,21.97,-159.33,23.3,19.4,290,7,,10.0,29.991142,1015.3,,,TRUE,,,,,,,BKN,3200,,,,,,,VFR,,,,28.9,20.0,,,,,,,METAR,45.0
PHKO 150953Z AUTO 08003KT 10SM CLR 25/21 A2993 RMK AO2 SLP135 T02500206 403000233 TSNO,PHKO,2015-06-15T09:53:00Z,19.73,-156.05,25.0,20.6,80,3,,10.0,29.929134,1013.5,,TRUE,TRUE,,,TRUE,,,,CLR,,,,,,,,VFR,,,,30.0,23.3,,,,,,,METAR,27.0
PHTO 150953Z AUTO 23005KT 10SM FEW065 BKN090 22/19 A2997 RMK AO2 SLP148 T02220189 402830211 TSNO,PHTO,2015-06-15T09:53:00Z,19.72,-155.05,22.2,18.9,230,5,,10.0,29.970472,1014.8,,TRUE,TRUE,,,TRUE,,,,FEW,6500,BKN,9000,,,,,VFR,,,,28.3,21.1,,,,,,,METAR,12.0
PHNL 150953Z 34003KT 10SM FEW024 25/19 A2996 RMK AO2 SLP144 T02500194 403170228,PHNL,2015-06-15T09:53:00Z,21.33,-157.92,25.0,19.4,340,3,,10.0,29.958662,1014.4,,,TRUE,,,,,,,FEW,2400,,,,,,,VFR,,,,31.7,22.8,,,,,,,METAR,4.0
KAUG 150953Z AUTO 15003KT 10SM FEW060 11/08 A3011 RMK AO2 SLP195 T01110083,KAUG,2015-06-15T09:53:00Z,44.32,-69.8,11.1,8.3,150,3,,10.0,30.109253,1019.5,,TRUE,TRUE,,,,,,,FEW,6000,,,,,,,VFR,,,,,,,,,,,,METAR,109.0
KATY 150953Z AUTO 36007KT 10SM CLR 13/12 A3001 RMK AO2 SLP157 T01280117 TSNO,KATY,2015-06-15T09:53:00Z,44.9,-97.15,12.8,11.7,360,7,,10.0,30.008858,1015.7,,TRUE,TRUE,,,TRUE,,,,CLR,,,,,,,,VFR,,,,,,,,,,,,METAR,532.0
KASX 150953Z AUTO 25005KT 5SM BR FEW050 BKN065 BKN090 14/14 A2993 RMK AO2 SLP134 T01440139 $,KASX,2015-06-15T09:53:00Z,46.55,-90.92,14.4,13.9,250,5,,5.0,29.929134,1013.4,,TRUE,TRUE,TRUE,,,,,BR,FEW,5000,BKN,6500,BKN,9000,,,MVFR,,,,,,,,,,,,METAR,251.0
KASE 150953Z AUTO 19006KT 10SM CLR 08/04 A3026 RMK AO2 SLP132 T00830039,KASE,2015-06-15T09:53:00Z,39.23,-106.87,8.3,3.9,190,6,,10.0,30.259842,1013.2,,TRUE,TRUE,,,,,,,CLR,,,,,,,,VFR,,,,,,,,,,,,METAR,2354.0
KASD 150953Z AUTO 03003KT 10SM FEW021 SCT028 24/24 A3000 RMK AO2 SLP159 T02390239 $,KASD,2015-06-15T09:53:00Z,30.35,-89.82,23.9,23.9,30,3,,10.0,30.0,1015.9,,TRUE,TRUE,TRUE,,,,,,FEW,2100,SCT,2800,,,,,VFR,,,,,,,,,,,,METAR,9.0
KARB 150953Z AUTO 26004KT 7SM BKN007 BKN046 OVC090 22/21 A2996 RMK AO2 SLP139 T02220211,KARB,2015-06-15T09:53:00Z,42.22,-83.73,22.2,21.1,260,4,,7.0,29.958662,1013.9,,TRUE,TRUE,,,,,,,BKN,700,BKN,4600,OVC,9000,,,IFR,,,,,,,,,,,,METAR,251.0
KARA 150953Z AUTO 06006KT 10SM CLR 24/23 A2996 RMK AO2 SLP145 T02440233,KARA,2015-06-15T09:53:00Z,30.03,-91.88,24.4,23.3,60,6,,10.0,29.958662,1014.5,,TRUE,TRUE,,,,,,,CLR,,,,,,,,VFR,,,,,,,,,,,,METAR,18.0
KAPF 150953Z 08006KT 10SM FEW017 24/23 A3004 RMK AO2 SLP171 T02440233,KAPF,2015-06-15T09:53:00Z,26.15,-81.77,24.4,23.3,80,6,,10.0,30.041338,1017.1,,,TRUE,,,,,,,FEW,1700,,,,,,,VFR,,,,,,,,,,,,METAR,3.0
KAPA 150953Z 00000KT 10SM FEW110 FEW200 12/10 A3021 RMK AO2 SLP170 T01220100,KAPA,2015-06-15T09:53:00Z,39.57,-104.85,12.2,10.0,0,0,,10.0,30.209646,1017.0,,,TRUE,,,,,,,FEW,11000,FEW,20000,,,,,VFR,,,,,,,,,,,,METAR,1775.0
KAOO 150953Z AUTO 21008KT 10SM FEW070 FEW090 BKN120 20/19 A3003 RMK AO2 RAE42 SLP159 P0005 T02000189,KAOO,2015-06-15T09:53:00Z,40.3,-78.32,20.0,18.9,210,8,,10.0,30.029528,1015.9,,TRUE,TRUE,,,,,,,FEW,7000,FEW,9000,BKN,12000,,,VFR,,,,,,0.05,,,,,,METAR,455.0
KAOH 150953Z AUTO 24008KT 10SM CLR 22/21 A3001 RMK AO2 SLP154 T02220206 $,KAOH,2015-06-15T09:53:00Z,40.7,-84.02,22.2,20.6,240,8,,10.0,30.008858,1015.4,,TRUE,TRUE,TRUE,,,,,,CLR,,,,,,,,VFR,,,,,,,,,,,,METAR,296.0
KANB 150953Z AUTO 06003KT 10SM CLR 22/20 A3012 RMK AO2 SLP188 T02170200,KANB,2015-06-15T09:53:00Z,33.58,-85.85,21.7,20.0,60,3,,10.0,30.121063,1018.8,,TRUE,TRUE,,,,,,,CLR,,,,,,,,VFR,,,,,,,,,,,,METAR,183.0
KAMW 150953Z AUTO 23005KT 3SM RA BR BKN009 OVC100 21/19 A2991 RMK AO2 SLP119 P0011 T02060194,KAMW,2015-06-15T09:53:00Z,41.98,-93.62,20.6,19.4,230,5,,3.0,29.911417,1011.9,,TRUE,TRUE,,,,,,RA BR,BKN,900,OVC,10000,,,,,IFR,,,,,,0.11,,,,,,METAR,279.0
KAMG 150953Z AUTO 00000KT 5SM BR CLR 20/19 A3010 RMK AO2 SLP190 T02000194,KAMG,2015-06-15T09:53:00Z,31.53,-82.5,20.0,19.4,0,0,,5.0,30.100393,1019.0,,TRUE,TRUE,,,,,,BR,CLR,,,,,,,,MVFR,,,,,,,,,,,,METAR,59.0
KAMA 150953Z AUTO 00000KT 10SM FEW041 16/16 A3004 RMK AO2 SLP124 T01610156,KAMA,2015-06-15T09:53:00Z,35.22,-101.72,16.1,15.6,0,0,,10.0,30.041338,1012.4,,TRUE,TRUE,,,,,,,FEW,4100,,,,,,,VFR,,,,,,,,,,,,METAR,1093.0
KALW 150953Z AUTO 14004KT 10SM CLR 15/02 A2991 RMK AO2 SLP122 T01500017,KALW,2015-06-15T09:53:00Z,46.1,-118.28,15.0,1.7,140,4,,10.0,29.911417,1012.2,,TRUE,TRUE,,,,,,,CLR,,,,,,,,VFR,,,,,,,,,,,,METAR,363.0
KALI 150953Z AUTO 00000KT 10SM -RA FEW015 SCT021 BKN033 26/24 A2985 RMK AO2 RAB47 SLP106 P0000 T02560244 $,KALI,2015-06-15T09:53:00Z,27.73,-98.02,25.6,24.4,0,0,,10.0,29.84941,1010.6,,TRUE,TRUE,TRUE,,,,,-RA,FEW,1500,SCT,2100,BKN,3300,,,VFR,,,,,,0.0050,,,,,,METAR,53.0
KAKO 150953Z AUTO A3013 RMK AO2 SLPNO PWINO $,KAKO,2015-06-15T09:53:00Z,40.17,-103.22,,,,,,,30.129921,,,TRUE,TRUE,TRUE,,,,TRUE,,,,,,,,,,,,,,,,,,,,,,METAR,1421.0
KAIA 150953Z AUTO 02010KT 10SM OVC090 15/14 A3012 RMK AO2 LTG DSNT NE RAE38 TSE14 SLP159 P0008 T01500144 $,KAIA,2015-06-15T09:53:00Z,42.05,-102.8,15.0,14.4,20,10,,10.0,30.121063,1015.9,,TRUE,TRUE,TRUE,,,,,,OVC,9000,,,,,,,VFR,,,,,,0.08,,,,,,METAR,1196.0
KAGS 150953Z AUTO 00000KT 10SM CLR 21/20 A3009 RMK AO2 SLP188 T02060200,KAGS,2015-06-15T09:53:00Z,33.37,-81.97,20.6,20.0,0,0,,10.0,30.088583,1018.8,,TRUE,TRUE,,,,,,,CLR,,,,,,,,VFR,,,,,,,,,,,,METAR,44.0
KAGC 150953Z AUTO 23007KT 4SM RA BR FEW039 BKN095 OVC110 21/18 A3004 RMK AO2 SLP168 P0013 T02060183 TSNO,KAGC,2015-06-15T09:53:00Z,40.35,-79.92,20.6,18.3,230,7,,4.0,30.041338,1016.8,,TRUE,TRUE,,,TRUE,,,RA BR,FEW,3900,BKN,9500,OVC,11000,,,MVFR,,,,,,0.13,,,,,,METAR,389.0
KAFW 150953Z 17006KT 10SM FEW026 BKN150 OVC200 24/22 A2994 RMK AO2 SLP124 T02390217 $,KAFW,2015-06-15T09:53:00Z,32.97,-97.32,23.9,21.7,170,6,,10.0,29.940945,1012.4,,,TRUE,TRUE,,,,,,FEW,2600,BKN,15000,OVC,20000,,,VFR,,,,,,,,,,,,METAR,233.0
KAEX 150953Z 10005KT 10SM CLR 23/23 A2997 RMK AO2 SLP152 T02330228,KAEX,2015-06-15T09:53:00Z,31.33,-92.57,23.3,22.8,100,5,,10.0,29.970472,1015.2,,,TRUE,,,,,,,CLR,,,,,,,,VFR,,,,,,,,,,,,METAR,27.0
KADG 150953Z AUTO 28005KT 7SM FEW035 BKN045 BKN095 22/21 A2997 RMK AO2 RAB0858E31 SLP147 P0000 T02220211 TSNO,KADG,2015-06-15T09:53:00Z,41.87,-84.08,22.2,21.1,280,5,,7.0,29.970472,1014.7,,TRUE,TRUE,,,TRUE,,,,FEW,3500,BKN,4500,BKN,9500,,,VFR,,,,,,0.0050,,,,,,METAR,241.0
KACV 150953Z AUTO 14005KT 10SM OVC008 11/09 A2991 RMK AO2 SLP135 T01060094,KACV,2015-06-15T09:53:00Z,40.98,-124.1,10.6,9.4,140,5,,10.0,29.911417,1013.5,,TRUE,TRUE,,,,,,,OVC,800,,,,,,,IFR,,,,,,,,,,,,METAR,67.0
KACK 150953Z AUTO 13009KT 10SM OVC060 14/11 A3011 RMK AO2 SLP196 T01440106 $,KACK,2015-06-15T09:53:00Z,41.25,-70.07,14.4,10.6,130,9,,10.0,30.109253,1019.6,,TRUE,TRUE,TRUE,,,,,,OVC,6000,,,,,,,VFR,,,,,,,,,,,,METAR,16.0
KABY 150953Z AUTO 00000KT 10SM CLR 23/21 A3011 RMK AO2 SLP195 T02330211,KABY,2015-06-15T09:53:00Z,31.53,-84.2,23.3,21.1,0,0,,10.0,30.109253,1019.5,,TRUE,TRUE,,,,,,,CLR,,,,,,,,VFR,,,,,,,,,,,,METAR,58.0
KABR 150953Z AUTO 32005KT 8SM CLR 13/12 A3005 RMK AO2 SLP171 T01280122,KABR,2015-06-15T09:53:00Z,45.45,-98.42,12.8,12.2,320,5,,8.0,30.050198,1017.1,,TRUE,TRUE,,,,,,,CLR,,,,,,,,VFR,,,,,,,,,,,,METAR,397.0
KAAF 150953Z AUTO 03003KT 10SM CLR 24/21 A3006 RMK AO2 SLP179 T02390211 $,KAAF,2015-06-15T09:53:00Z,29.73,-85.03,23.9,21.1,30,3,,10.0,30.059055,1017.9,,TRUE,TRUE,TRUE,,,,,,CLR,,,,,,,,VFR,,,,,,,,,,,,METAR,5.0
PATK 150953Z AUTO 02006KT 10SM CLR 18/01 A3029 RMK AO2 SLP259 T01780006 TSNO $,PATK,2015-06-15T09:53:00Z,62.3,-150.1,17.8,0.6,20,6,,10.0,30.28937,1025.9,,TRUE,TRUE,TRUE,,TRUE,,,,CLR,,,,,,,,VFR,,,,,,,,,,,,METAR,109.0
PASO 150953Z AUTO 01003KT 10SM CLR 11/08 A3027 RMK AO2 SLP249 T01060078 TSNO $,PASO,2015-06-15T09:53:00Z,59.45,-151.7,10.6,7.8,10,3,,10.0,30.268702,1024.9,,TRUE,TRUE,TRUE,,TRUE,,,,CLR,,,,,,,,VFR,,,,,,,,,,,,METAR,9.0
PASN 150953Z 09008KT 5SM -DZ BR OVC007 06/05 A3055 RMK AO2 SLP345 P0000 T00560050,PASN,2015-06-15T09:53:00Z,57.15,-170.22,5.6,5.0,90,8,,5.0,30.549213,1034.5,,,TRUE,,,,,,-DZ BR,OVC,700,,,,,,,IFR,,,,,,0.0050,,,,,,METAR,29.0
PASI 150953Z 00000KT 10SM CLR 14/11 A3006 RMK AO2 SLP179 T01440111,PASI,2015-06-15T09:53:00Z,57.07,-135.35,14.4,11.1,0,0,,10.0,30.059055,1017.9,,,TRUE,,,,,,,CLR,,,,,,,,VFR,,,,,,,,,,,,METAR,5.0
PASC 150953Z 09008KT 10SM SCT200 10/07 A3034 RMK AO2 SLP275 T01000072,PASC,2015-06-15T09:53:00Z,70.2,-148.47,10.0,7.2,90,8,,10.0,30.339567,1027.5,,,TRUE,,,,,,,SCT,20000,,,,,,,VFR,,,,,,,,,,,,METAR,15.0
PAQT 150953Z AUTO 11005KT 10SM CLR 11/08 A3033 RMK AO2 SLP270 T01060083 TSNO,PAQT,2015-06-15T09:53:00Z,70.22,-151.0,10.6,8.3,110,5,,10.0,30.33071,1027.0,,TRUE,TRUE,,,TRUE,,,,CLR,,,,,,,,VFR,,,,,,,,,,,,METAR,12.0
PAPB 150953Z AUTO 07005KT 4SM BR OVC005 06/06 A3054 RMK AO2 RAB25E33 SLP329 P0000 T00610056 TSNO,PAPB,2015-06-15T09:53:00Z,56.58,-169.67,6.1,5.6,70,5,,4.0,30.540354,1032.9,,TRUE,TRUE,,,TRUE,,,BR,OVC,500,,,,,,,IFR,,,,,,0.0050,,,,,,METAR,35.0
PAOT 150953Z 32012KT 10SM FEW080 11/07 A3045 RMK AO2 SLP311 T01110072,PAOT,2015-06-15T09:53:00Z,66.87,-162.58,11.1,7.2,320,12,,10.0,30.448818,1031.1,,,TRUE,,,,,,,FEW,8000,,,,,,,VFR,,,,,,,,,,,,METAR,3.0
PAOR 150953Z 00000KT 10SM FEW060 BKN090 13/06 A3036 RMK AO2 SLP280 T01330056,PAOR,2015-06-15T09:53:00Z,62.97,-141.93,13.3,5.6,0,0,,10.0,30.360237,1028.0,,,TRUE,,,,,,,FEW,6000,BKN,9000,,,,,VFR,,,,,,,,,,,,METAR,523.0
PANN 150953Z AUTO 00000KT 10SM CLR 11/09 A3033 RMK AO2 SLP277 T01110089 TSNO,PANN,2015-06-15T09:53:00Z,64.55,-149.08,11.1,8.9,0,0,,10.0,30.33071,1027.7,,TRUE,TRUE,,,TRUE,,,,CLR,,,,,,,,VFR,,,,,,,,,,,,METAR,110.0
PANC 150953Z 15007KT 10SM FEW095 18/08 A3024 RMK AO2 SLP238 FU FEW095 T01780078 $,PANC,2015-06-15T09:53:00Z,61.17,-150.02,17.8,7.8,150,7,,10.0,30.239174,1023.8,,,TRUE,TRUE,,,,,,FEW,9500,,,,,,,VFR,,,,,,,,,,,,METAR,38.0
PAMR 150953Z 05004KT 10SM FEW090 SCT140 17/06 A3024 RMK AO2 SLP240 ACSL NE T01720061 $,PAMR,2015-06-15T09:53:00Z,61.22,-149.85,17.2,6.1,50,4,,10.0,30.239174,1024.0,,,TRUE,TRUE,,,,,,FEW,9000,SCT,14000,,,,,VFR,,,,,,,,,,,,METAR,41.0
PAMC 150953Z 29003KT 10SM CLR 16/06 A3038 RMK AO2 SLP290 T01560056,PAMC,2015-06-15T09:53:00Z,62.97,-155.62,15.6,5.6,290,3,,10.0,30.380905,1029.0,,,TRUE,,,,,,,CLR,,,,,,,,VFR,,,,,,,,,,,,METAR,103.0
PALH 150953Z 11003KT 10SM CLR 16/08 A3025 RMK AO2 SLP242 T01610078,PALH,2015-06-15T09:53:00Z,61.18,-149.97,16.1,7.8,110,3,,10.0,30.250984,1024.2,,,TRUE,,,,,,,CLR,,,,,,,,VFR,,,,,,,,,,,,METAR,22.0
PAKV 150953Z AUTO 23006KT 10SM CLR 12/04 A3047 RMK AO2 SLP320 T01170039 TSNO,PAKV,2015-06-15T09:53:00Z,64.33,-158.75,11.7,3.9,230,6,,10.0,30.469488,1032.0,,TRUE,TRUE,,,TRUE,,,,CLR,,,,,,,,VFR,,,,,,,,,,,,METAR,61.0
PAKT 150953Z AUTO 00000KT 10SM BKN110 13/09 A3004 RMK AO2 SLP174 T01330089 TSNO,PAKT,2015-06-15T09:53:00Z,55.35,-131.7,13.3,8.9,0,0,,10.0,30.041338,1017.4,,TRUE,TRUE,,,TRUE,,,,BKN,11000,,,,,,,VFR,,,,,,,,,,,,METAR,28.0
PAJN 150953Z 24003KT 10SM FEW120 SCT140 BKN170 13/09 A3012 RMK AO2 SLP200 T01330094 $,PAJN,2015-06-15T09:53:00Z,58.37,-134.58,13.3,9.4,240,3,,10.0,30.121063,1020.0,,,TRUE,TRUE,,,,,,FEW,12000,SCT,14000,BKN,17000,,,VFR,,,,,,,,,,,,METAR,5.0
PAIL 150953Z AUTO 02003KT 10SM CLR 13/08 A3031 RMK AO2 SLP265 T01330078 TSNO,PAIL,2015-06-15T09:53:00Z,59.75,-154.92,13.3,7.8,20,3,,10.0,30.31004,1026.5,,TRUE,TRUE,,,TRUE,,,,CLR,,,,,,,,VFR,,,,,,,,,,,,METAR,49.0
PAHO 150953Z AUTO 06006KT 10SM CLR 13/08 A3028 RMK AO2 SLP253 T01280083 TSNO,PAHO,2015-06-15T09:53:00Z,59.63,-151.5,12.8,8.3,60,6,,10.0,30.280512,1025.3,,TRUE,TRUE,,,TRUE,,,,CLR,,,,,,,,VFR,,,,,,,,,,,,METAR,28.0
PAGY 150953Z AUTO 03003KT 10SM CLR 16/08 A3018 RMK AO2 SLP219 T01560078 TSNO,PAGY,2015-06-15T09:53:00Z,59.47,-135.3,15.6,7.8,30,3,,10.0,30.180119,1021.9,,TRUE,TRUE,,,TRUE,,,,CLR,,,,,,,,VFR,,,,,,,,,,,,METAR,5.0
PAGK 150953Z AUTO 34009KT 10SM CLR 15/M01 A3033 RMK AO2 SLP265 T01501006 TSNO $,PAGK,2015-06-15T09:53:00Z,62.15,-145.45,15.0,-0.6,340,9,,10.0,30.33071,1026.5,,TRUE,TRUE,TRUE,,TRUE,,,,CLR,,,,,,,,VFR,,,,,,,,,,,,METAR,481.0
PAFA 150953Z 00000KT 10SM FEW080 14/07 A3034 RMK AO2 SLP278 T01440067,PAFA,2015-06-15T09:53:00Z,64.8,-147.88,14.4,6.7,0,0,,10.0,30.339567,1027.8,,,TRUE,,,,,,,FEW,8000,,,,,,,VFR,,,,,,,,,,,,METAR,132.0
PAEN 150953Z AUTO 20007KT 10SM OVC090 12/07 A3026 RMK AO2 SLP247 T01220072 TSNO,PAEN,2015-06-15T09:53:00Z,60.57,-151.25,12.2,7.2,200,7,,10.0,30.259842,1024.7,,TRUE,TRUE,,,TRUE,,,,OVC,9000,,,,,,,VFR,,,,,,,,,,,,METAR,27.0
PAEG 150953Z AUTO 00000KT 10SM CLR 09/04 A3035 RMK AO1 SLP281 T00940044 TSNO $,PAEG,2015-06-15T09:53:00Z,64.78,-141.15,9.4,4.4,0,0,,10.0,30.351377,1028.1,,TRUE,TRUE,TRUE,,TRUE,,,,CLR,,,,,,,,VFR,,,,,,,,,,,,METAR,268.0
PADQ 150953Z 26004KT 10SM FEW250 13/08 A3026 RMK AO2 SLP248 T01330083,PADQ,2015-06-15T09:53:00Z,57.75,-152.5,13.3,8.3,260,4,,10.0,30.259842,1024.8,,,TRUE,,,,,,,FEW,25000,,,,,,,VFR,,,,,,,,,,,,METAR,34.0
PADE 150953Z AUTO 26006KT 10SM CLR 09/04 A3045 RMK AO2 SLP311 T00890044 TSNO,PADE,2015-06-15T09:53:00Z,66.07,-162.77,8.9,4.4,260,6,,10.0,30.448818,1031.1,,TRUE,TRUE,,,TRUE,,,,CLR,,,,,,,,VFR,,,,,,,,,,,,METAR,5.0
PACV 150953Z 00000KT 10SM BKN180 11/05 A3020 RMK AO2 SLP226 T01060050,PACV,2015-06-15T09:53:00Z,60.5,-145.5,10.6,5.0,0,0,,10.0,30.200787,1022.6,,,TRUE,,,,,,,BKN,18000,,,,,,,VFR,,,,,,,,,,,,METAR,12.0
PACD 150953Z 34007KT 10SM OVC003 06/06 A3044 RMK AO2 SLP306 T00610056 $,PACD,2015-06-15T09:53:00Z,55.2,-162.72,6.1,5.6,340,7,,10.0,30.43996,1030.6,,,TRUE,TRUE,,,,,,OVC,300,,,,,,,LIFR,,,,,,,,,,,,METAR,30.0
PABT 150953Z 00000KT 10SM FEW090 12/04 A3034 RMK AO2 SLP281 T01170044,PABT,2015-06-15T09:53:00Z,66.92,-151.52,11.7,4.4,0,0,,10.0,30.339567,1028.1,,,TRUE,,,,,,,FEW,9000,,,,,,,VFR,,,,,,,,,,,,METAR,195.0
PABI 150953Z AUTO 21006KT 10SM CLR 13/03 A3040 RMK AO2 SLP296 T01330033 TSNO,PABI,2015-06-15T09:53:00Z,64.0,-145.73,13.3,3.3,210,6,,10.0,30.398623,1029.6,,TRUE,TRUE,,,TRUE,,,,CLR,,,,,,,,VFR,,,,,,,,,,,,METAR,386.0
PABE 150953Z 31010KT 10SM CLR 12/09 A3048 RMK AO2 SLP323 T01220089 $,PABE,2015-06-15T09:53:00Z,60.78,-161.85,12.2,8.9,310,10,,10.0,30.481298,1032.3,,,TRUE,TRUE,,,,,,CLR,,,,,,,,VFR,,,,,,,,,,,,METAR,41.0
PAAQ 150953Z AUTO 05003KT 10SM CLR 12/08 A3024 RMK AO2 SLP239 T01220078 TSNO $,PAAQ,2015-06-15T09:53:00Z,61.6,-149.08,12.2,7.8,50,3,,10.0,30.239174,1023.9,,TRUE,TRUE,TRUE,,TRUE,,,,CLR,,,,,,,,VFR,,,,,,,,,,,,METAR,73.0
KBPT 150953Z AUTO 12014KT 10SM FEW047 OVC065 27/19 A2992 RMK AO2 RAB03E19 SLP130 P0000 T02720194,KBPT,2015-06-15T09:53:00Z,29.95,-94.03,27.2,19.4,120,14,,10.0,29.920275,1013.0,,TRUE,TRUE,,,,,,,FEW,4700,OVC,6500,,,,,VFR,,,,,,0.0050,,,,,,METAR,5.0
KBPK 150953Z AUTO 20004KT 10SM CLR 22/20 A3002 RMK AO2 SLP157 T02170200,KBPK,2015-06-15T09:53:00Z,36.37,-92.47,21.7,20.0,200,4,,10.0,30.02067,1015.7,,TRUE,TRUE,,,,,,,CLR,,,,,,,,VFR,,,,,,,,,,,,METAR,280.0
KBPI 150953Z AUTO 32005KT 10SM CLR 06/03 A3022 RMK AO2 SLP146 T00610028,KBPI,2015-06-15T09:53:00Z,42.58,-110.1,6.1,2.8,320,5,,10.0,30.221457,1014.6,,TRUE,TRUE,,,,,,,CLR,,,,,,,,VFR,,,,,,,,,,,,METAR,2117.0
KBOI 150953Z 21004KT 10SM CLR 16/01 A2991 RMK AO2 SLP104 T01560011,KBOI,2015-06-15T09:53:00Z,43.57,-116.23,15.6,1.1,210,4,,10.0,29.911417,1010.4,,,TRUE,,,,,,,CLR,,,,,,,,VFR,,,,,,,,,,,,METAR,875.0
KBNO 150953Z AUTO 28004KT 10SM CLR 08/M03 A2998 RMK AO2 SLP125 T00831028,KBNO,2015-06-15T09:53:00Z,43.6,-118.95,8.3,-2.8,280,4,,10.0,29.97933,1012.5,,TRUE,TRUE,,,,,,,CLR,,,,,,,,VFR,,,,,,,,,,,,METAR,1264.0
KBNA 150953Z 00000KT 10SM FEW250 22/21 A3011 RMK AO2 SLP188 T02170206,KBNA,2015-06-15T09:53:00Z,36.12,-86.68,21.7,20.6,0,0,,10.0,30.109253,1018.8,,,TRUE,,,,,,,FEW,25000,,,,,,,VFR,,,,,,,,,,,,METAR,210.0
KBMQ 150953Z AUTO 17006KT 10SM -RA OVC005 23/22 A2998 RMK AO2 RAB42 SLP134 P0000 T02330222,KBMQ,2015-06-15T09:53:00Z,30.73,-98.23,23.3,22.2,170,6,,10.0,29.97933,1013.4,,TRUE,TRUE,,,,,,-RA,OVC,500,,,,,,,IFR,,,,,,0.0050,,,,,,METAR,389.0
KBMG 150953Z AUTO 00000KT 10SM CLR 22/21 A3004 RMK AO2 SLP163 T02220211,KBMG,2015-06-15T09:53:00Z,39.15,-86.62,22.2,21.1,0,0,,10.0,30.041338,1016.3,,TRUE,TRUE,,,,,,,CLR,,,,,,,,VFR,,,,,,,,,,,,METAR,257.0
KBLI 150953Z AUTO 00000KT 10SM FEW120 14/12 A2994 RMK AO2 SLP144 T01390122,KBLI,2015-06-15T09:53:00Z,48.8,-122.53,13.9,12.2,0,0,,10.0,29.940945,1014.4,,TRUE,TRUE,,,,,,,FEW,12000,,,,,,,VFR,,,,,,,,,,,,METAR,50.0
KBKV 150953Z AUTO 09004KT 10SM CLR 23/21 A3010 RMK AO2 SLP189 T02280206 $,KBKV,2015-06-15T09:53:00Z,28.47,-82.45,22.8,20.6,90,4,,10.0,30.100393,1018.9,,TRUE,TRUE,TRUE,,,,,,CLR,,,,,,,,VFR,,,,,,,,,,,,METAR,20.0
KBKL 150953Z AUTO 22010KT 10SM BKN055 BKN075 23/21 A2997 RMK AO2 SLP144 T02280206,KBKL,2015-06-15T09:53:00Z,41.53,-81.67,22.8,20.6,220,10,,10.0,29.970472,1014.4,,TRUE,TRUE,,,,,,,BKN,5500,BKN,7500,,,,,VFR,,,,,,,,,,,,METAR,184.0
KBKE 150953Z AUTO 00000KT 10SM CLR 06/02 A3000 RMK AO2 SLP147 T00560017,KBKE,2015-06-15T09:53:00Z,44.85,-117.82,5.6,1.7,0,0,,10.0,30.0,1014.7,,TRUE,TRUE,,,,,,,CLR,,,,,,,,VFR,,,,,,,,,,,,METAR,1024.0
KBIL 150953Z 02006KT 10SM OVC050 13/06 A3020 RMK AO2 SLP209 T01280056,KBIL,2015-06-15T09:53:00Z,45.8,-108.55,12.8,5.6,20,6,,10.0,30.200787,1020.9,,,TRUE,,,,,,,OVC,5000,,,,,,,VFR,,,,,,,,,,,,METAR,1091.0
KBHM 150953Z 00000KT 10SM CLR 24/21 A3013 RMK AO2 SLP192 T02390206 $,KBHM,2015-06-15T09:53:00Z,33.57,-86.75,23.9,20.6,0,0,,10.0,30.129921,1019.2,,,TRUE,TRUE,,,,,,CLR,,,,,,,,VFR,,,,,,,,,,,,METAR,197.0
KBGR 150953Z 19004KT 10SM BKN200 12/10 A3012 RMK AO2 SLP197 T01220100,KBGR,2015-06-15T09:53:00Z,44.8,-68.82,12.2,10.0,190,4,,10.0,30.121063,1019.7,,,TRUE,,,,,,,BKN,20000,,,,,,,VFR,,,,,,,,,,,,METAR,57.0
KBGM 150953Z 26009KT 5SM BR OVC005 20/19 A2995 RMK AO2 CIG 003V007 SLP134 T02000194,KBGM,2015-06-15T09:53:00Z,42.22,-75.98,20.0,19.4,260,9,,5.0,29.949802,1013.4,,,TRUE,,,,,,BR,OVC,500,,,,,,,IFR,,,,,,,,,,,,METAR,490.0
KBFM 150953Z AUTO 07007KT 10SM CLR 26/24 A3005 RMK AO2 SLP176 T02560239,KBFM,2015-06-15T09:53:00Z,30.62,-88.07,25.6,23.9,70,7,,10.0,30.050198,1017.6,,TRUE,TRUE,,,,,,,CLR,,,,,,,,VFR,,,,,,,,,,,,METAR,20.0
KBFI 150953Z 32003KT 10SM CLR 18/08 A2995 RMK AO2 SLP140 T01830078,KBFI,2015-06-15T09:53:00Z,47.55,-122.32,18.3,7.8,320,3,,10.0,29.949802,1014.0,,,TRUE,,,,,,,CLR,,,,,,,,VFR,,,,,,,,,,,,METAR,4.0
KBFF 150953Z AUTO 04010KT 10SM OVC036 16/16 A3015 RMK AO2 SLP164 T01610161 $,KBFF,2015-06-15T09:53:00Z,41.87,-103.58,16.1,16.1,40,10,,10.0,30.15059,1016.4,,TRUE,TRUE,TRUE,,,,,,OVC,3600,,,,,,,VFR,,,,,,,,,,,,METAR,1203.0
KBFD 150953Z AUTO 26005KT 4SM BR OVC002 19/19 A3001 RMK AO2 SLP146 T01940189,KBFD,2015-06-15T09:53:00Z,41.8,-78.63,19.4,18.9,260,5,,4.0,30.008858,1014.6,,TRUE,TRUE,,,,,,BR,OVC,200,,,,,,,LIFR,,,,,,,,,,,,METAR,647.0
KBEH 150953Z AUTO 19003KT 10SM FEW012 BKN036 OVC050 21/21 A2995 RMK AO2 RAE15 SLP137 P0008 T02110206 $,KBEH,2015-06-15T09:53:00Z,42.13,-86.42,21.1,20.6,190,3,,10.0,29.949802,1013.7,,TRUE,TRUE,TRUE,,,,,,FEW,1200,BKN,3600,OVC,5000,,,VFR,,,,,,0.08,,,,,,METAR,191.0
KBDE 150953Z AUTO 29006KT 10SM CLR 12/10 A2996 RMK AO2 SLP148 T01170100 TSNO,KBDE,2015-06-15T09:53:00Z,48.73,-94.62,11.7,10.0,290,6,,10.0,29.958662,1014.8,,TRUE,TRUE,,,TRUE,,,,CLR,,,,,,,,VFR,,,,,,,,,,,,METAR,329.0
KBCE 150953Z AUTO 26005KT 10SM BKN100 09/05 A3024 RMK AO2 SLP126 T00890050,KBCE,2015-06-15T09:53:00Z,37.7,-112.15,8.9,5.0,260,5,,10.0,30.239174,1012.6,,TRUE,TRUE,,,,,,,BKN,10000,,,,,,,VFR,,,,,,,,,,,,METAR,2312.0
KBAF 150953Z 13007KT 5SM -RA BR FEW006 BKN025 OVC055 17/15 A3002 RMK AO2 SLP165 P0017 T01670150,KBAF,2015-06-15T09:53:00Z,42.17,-72.72,16.7,15.0,130,7,,5.0,30.02067,1016.5,,,TRUE,,,,,,-RA BR,FEW,600,BKN,2500,OVC,5500,,,MVFR,,,,,,0.17,,,,,,METAR,83.0
KAZO 150953Z 23003KT 8SM OVC010 21/21 A2997 RMK AO2 SLP143 T02110211 $,KAZO,2015-06-15T09:53:00Z,42.23,-85.55,21.1,21.1,230,3,,8.0,29.970472,1014.3,,,TRUE,TRUE,,,,,,OVC,1000,,,,,,,MVFR,,,,,,,,,,,,METAR,272.0
KAXN 150953Z AUTO 33006KT 10SM CLR 13/12 A3001 RMK AO2 SLP161 T01280122,KAXN,2015-06-15T09:53:00Z,45.87,-95.4,12.8,12.2,330,6,,10.0,30.008858,1016.1,,TRUE,TRUE,,,,,,,CLR,,,,,,,,VFR,,,,,,,,,,,,METAR,433.0
KAWM 150953Z AUTO 17005KT 10SM CLR 23/23 A3003 RMK AO2 SLP163 T02280228 $,KAWM,2015-06-15T09:53:00Z,35.13,-90.23,22.8,22.8,170,5,,10.0,30.029528,1016.3,,TRUE,TRUE,TRUE,,,,,,CLR,,,,,,,,VFR,,,,,,,,,,,,METAR,65.0
KAUS 150953Z 00000KT 10SM FEW011 FEW017 22/22 A2992 RMK AO2 SLP125 T02220222,KAUS,2015-06-15T09:53:00Z,30.18,-97.68,22.2,22.2,0,0,,10.0,29.920275,1012.5,,,TRUE,,,,,,,FEW,1100,FEW,1700,,,,,VFR,,,,,,,,,,,,METAR,166.0
PAOM 150953Z 23004KT 10SM OVC006 05/05 A3054 RMK AO2 SLP341 T00500050,PAOM,2015-06-15T09:53:00Z,64.5,-165.43,5.0,5.0,230,4,,10.0,30.540354,1034.1,,,TRUE,,,,,,,OVC,600,,,,,,,IFR,,,,,,,,,,,,METAR,11.0
KMGY 150953Z AUTO 23004KT 10SM BKN041 22/21 A3004 RMK AO2 RAB0855E32 SLP164 P0009 T02220211,KMGY,2015-06-15T09:53:00Z,39.6,-84.23,22.2,21.1,230,4,,10.0,30.041338,1016.4,,TRUE,TRUE,,,,,,,BKN,4100,,,,,,,VFR,,,,,,0.09,,,,,,METAR,289.0
KNEW 150953Z AUTO 11009KT 10SM CLR 29/24 A2999 RMK AO2 SLP150 T02890244 TSNO,KNEW,2015-06-15T09:53:00Z,30.05,-90.03,28.9,24.4,110,9,,10.0,29.991142,1015.0,,TRUE,TRUE,,,TRUE,,,,CLR,,,,,,,,VFR,,,,,,,,,,,,METAR,3.0
KMYV 150953Z AUTO 18008KT 10SM CLR 15/10 A2976 RMK AO2 SLP081 T01500100,KMYV,2015-06-15T09:53:00Z,39.1,-121.57,15.0,10.0,180,8,,10.0,29.760826,1008.1,,TRUE,TRUE,,,,,,,CLR,,,,,,,,VFR,,,,,,,,,,,,METAR,21.0
KMYF 150953Z AUTO 33005KT 10SM OVC010 18/15 A2982 RMK AO2 SLP093 T01830150 TSNO,KMYF,2015-06-15T09:53:00Z,32.82,-117.13,18.3,15.0,330,5,,10.0,29.819881,1009.3,,TRUE,TRUE,,,TRUE,,,,OVC,1000,,,,,,,MVFR,,,,,,,,,,,,METAR,136.0
KMWL 150953Z AUTO 14007KT 10SM SCT015 BKN090 22/21 A2994 RMK AO2 SLP123 T02220211,KMWL,2015-06-15T09:53:00Z,32.78,-98.07,22.2,21.1,140,7,,10.0,29.940945,1012.3,,TRUE,TRUE,,,,,,,SCT,1500,BKN,9000,,,,,VFR,,,,,,,,,,,,METAR,284.0
KMVY 150953Z 13008G16KT 10SM -RA OVC100 16/09 A3010 RMK AO2 RAB42 SLP191 P0000 T01610094 $,KMVY,2015-06-15T09:53:00Z,41.4,-70.62,16.1,9.4,130,8,16,10.0,30.100393,1019.1,,,TRUE,TRUE,,,,,-RA,OVC,10000,,,,,,,VFR,,,,,,0.0050,,,,,,METAR,16.0
KMTO 150953Z AUTO 21005KT 10SM CLR 23/22 A2998 RMK AO2 SLP147 T02280217 TSNO,KMTO,2015-06-15T09:53:00Z,39.47,-88.27,22.8,21.7,210,5,,10.0,29.97933,1014.7,,TRUE,TRUE,,,TRUE,,,,CLR,,,,,,,,VFR,,,,,,,,,,,,METAR,214.0
KMTJ 150953Z AUTO 00000KT 10SM CLR 14/07 A3015 RMK AO2 SLP129 T01390067,KMTJ,2015-06-15T09:53:00Z,38.5,-107.9,13.9,6.7,0,0,,10.0,30.15059,1012.9,,TRUE,TRUE,,,,,,,CLR,,,,,,,,VFR,,,,,,,,,,,,METAR,1750.0
KMTH 150953Z AUTO 10007KT 10SM CLR 28/25 A3002 RMK AO2 SLP163 T02780250,KMTH,2015-06-15T09:53:00Z,24.73,-81.05,27.8,25.0,100,7,,10.0,30.02067,1016.3,,TRUE,TRUE,,,,,,,CLR,,,,,,,,VFR,,,,,,,,,,,,METAR,2.0
KMSY 150953Z 07003KT 10SM FEW250 26/23 A2998 RMK AO2 SLP156 T02560228 $,KMSY,2015-06-15T09:53:00Z,30.0,-90.25,25.6,22.8,70,3,,10.0,29.97933,1015.6,,,TRUE,TRUE,,,,,,FEW,25000,,,,,,,VFR,,,,,,,,,,,,METAR,5.0
KMSS 150953Z AUTO 05003KT 10SM BKN028 OVC048 16/13 A2991 RMK AO2 SLP128 T01560133,KMSS,2015-06-15T09:53:00Z,44.93,-74.85,15.6,13.3,50,3,,10.0,29.911417,1012.8,,TRUE,TRUE,,,,,,,BKN,2800,OVC,4800,,,,,MVFR,,,,,,,,,,,,METAR,66.0
KMSP 150953Z 33006KT 10SM BKN085 BKN220 20/17 A2990 RMK AO2 SLP120 T02000172,KMSP,2015-06-15T09:53:00Z,44.88,-93.23,20.0,17.2,330,6,,10.0,29.899607,1012.0,,,TRUE,,,,,,,BKN,8500,BKN,22000,,,,,VFR,,,,,,,,,,,,METAR,265.0
KMSO 150953Z AUTO 11010KT 10SM CLR 13/01 A3014 RMK AO2 SLP193 T01330011,KMSO,2015-06-15T09:53:00Z,46.92,-114.1,13.3,1.1,110,10,,10.0,30.138779,1019.3,,TRUE,TRUE,,,,,,,CLR,,,,,,,,VFR,,,,,,,,,,,,METAR,975.0
KOAK 150953Z 24008KT 10SM OVC010 13/09 A2987 RMK AO2 SLP113 T01280094,KOAK,2015-06-15T09:53:00Z,37.72,-122.23,12.8,9.4,240,8,,10.0,29.870079,1011.3,,,TRUE,,,,,,,OVC,1000,,,,,,,MVFR,,,,,,,,,,,,METAR,26.0
KMGW 150953Z AUTO 00000KT 5SM -RA BR FEW001 SCT027 BKN036 22/20 A3007 RMK AO2 RAB47 SLP173 P0000 T02170200 TSNO,KMGW,2015-06-15T09:53:00Z,39.65,-79.92,21.7,20.0,0,0,,5.0,30.070866,1017.3,,TRUE,TRUE,,,TRUE,,,-RA BR,FEW,100,SCT,2700,BKN,3600,,,MVFR,,,,,,0.0050,,,,,,METAR,378.0
KMGM 150953Z AUTO 00000KT 10SM CLR 22/21 A3009 RMK AO2 SLP188 T02220206,KMGM,2015-06-15T09:53:00Z,32.3,-86.4,22.2,20.6,0,0,,10.0,30.088583,1018.8,,TRUE,TRUE,,,,,,,CLR,,,,,,,,VFR,,,,,,,,,,,,METAR,63.0
KMFR 150953Z AUTO 00000KT 10SM CLR 14/07 A2988 RMK AO2 SLP108 T01440067,KMFR,2015-06-15T09:53:00Z,42.38,-122.87,14.4,6.7,0,0,,10.0,29.878937,1010.8,,TRUE,TRUE,,,,,,,CLR,,,,,,,,VFR,,,,,,,,,,,,METAR,396.0
KMFE 150953Z AUTO 06004KT 10SM FEW017 27/23 A2983 RMK AO2 SLP098 T02670233,KMFE,2015-06-15T09:53:00Z,26.18,-98.25,26.7,23.3,60,4,,10.0,29.828741,1009.8,,TRUE,TRUE,,,,,,,FEW,1700,,,,,,,VFR,,,,,,,,,,,,METAR,38.0
KMDW 150953Z 22005KT 10SM FEW007 SCT050 BKN250 23/22 A2994 RMK AO2 SLP127 CB DSNT NE T02280217 PNO $,KMDW,2015-06-15T09:53:00Z,41.78,-87.75,22.8,21.7,220,5,,10.0,29.940945,1012.7,,,TRUE,TRUE,,,,,,FEW,700,SCT,5000,BKN,25000,,,VFR,,,,,,,,,,,,METAR,188.0
KMCW 150953Z AUTO 02003KT 6SM BR SCT020 SCT048 21/20 A2994 RMK AO2 SLP124 T02060200 $,KMCW,2015-06-15T09:53:00Z,43.15,-93.33,20.6,20.0,20,3,,6.0,29.940945,1012.4,,TRUE,TRUE,TRUE,,,,,BR,SCT,2000,SCT,4800,,,,,VFR,,,,,,,,,,,,METAR,369.0
KMCO 150953Z COR 00000KT 12006KT 10SM FEW025 24/23 A3010 RMK SPLNO,KMCO,2015-06-15T09:53:00Z,28.42,-81.33,24.0,23.0,0,0,,10.0,30.100393,,TRUE,,,,,,,,,FEW,2500,,,,,,,VFR,,,,,,,,,,,,METAR,29.0
KMCN 150953Z AUTO 00000KT 8SM CLR 21/20 A3011 RMK AO2 SLP192 T02060200 TSNO,KMCN,2015-06-15T09:53:00Z,32.68,-83.65,20.6,20.0,0,0,,8.0,30.109253,1019.2,,TRUE,TRUE,,,TRUE,,,,CLR,,,,,,,,VFR,,,,,,,,,,,,METAR,109.0
KMCK 150953Z AUTO 06003KT 10SM CLR 16/15 A3002 RMK AO2 SLP145 T01560150,KMCK,2015-06-15T09:53:00Z,40.2,-100.58,15.6,15.0,60,3,,10.0,30.02067,1014.5,,TRUE,TRUE,,,,,,,CLR,,,,,,,,VFR,,,,,,,,,,,,METAR,782.0
KMCI 150953Z 21011KT 10SM BKN014 OVC200 22/21 A2991 RMK AO2 SLP118 T02170206,KMCI,2015-06-15T09:53:00Z,39.3,-94.73,21.7,20.6,210,11,,10.0,29.911417,1011.8,,,TRUE,,,,,,,BKN,1400,OVC,20000,,,,,MVFR,,,,,,,,,,,,METAR,320.0
KMCE 150953Z AUTO 32006KT 10SM CLR 18/09 A2975 RMK AO2 SLP071 T01780094 $,KMCE,2015-06-15T09:53:00Z,37.28,-120.5,17.8,9.4,320,6,,10.0,29.749016,1007.1,,TRUE,TRUE,TRUE,,,,,,CLR,,,,,,,,VFR,,,,,,,,,,,,METAR,47.0
KMCB 150953Z AUTO 10003KT 7SM OVC004 23/23 A3003 RMK AO2 SLP163 T02330233,KMCB,2015-06-15T09:53:00Z,31.18,-90.47,23.3,23.3,100,3,,7.0,30.029528,1016.3,,TRUE,TRUE,,,,,,,OVC,400,,,,,,,LIFR,,,,,,,,,,,,METAR,124.0
KMBS 150953Z 29004KT 9SM SCT012 21/19 A2995 RMK AO2 SLP137 T02060189,KMBS,2015-06-15T09:53:00Z,43.53,-84.08,20.6,18.9,290,4,,9.0,29.949802,1013.7,,,TRUE,,,,,,,SCT,1200,,,,,,,VFR,,,,,,,,,,,,METAR,202.0
KMAI 150953Z AUTO 00000KT 10SM -RA CLR 23/22 A3008 RMK AO2 RAB0856 SLP184 P0000 T02280222,KMAI,2015-06-15T09:53:00Z,30.83,-85.18,22.8,22.2,0,0,,10.0,30.079725,1018.4,,TRUE,TRUE,,,,,,-RA,CLR,,,,,,,,VFR,,,,,,0.0050,,,,,,METAR,32.0
KMAF 150953Z 00000KT 10SM SCT090 OVC110 20/17 A2998 RMK AO2 SLP105 T02000167,KMAF,2015-06-15T09:53:00Z,31.95,-102.2,20.0,16.7,0,0,,10.0,29.97933,1010.5,,,TRUE,,,,,,,SCT,9000,OVC,11000,,,,,VFR,,,,,,,,,,,,METAR,874.0
KMAE 150953Z AUTO 31003KT 10SM CLR 17/11 A2976 RMK AO2 SLP073 T01720111,KMAE,2015-06-15T09:53:00Z,36.98,-120.12,17.2,11.1,310,3,,10.0,29.760826,1007.3,,TRUE,TRUE,,,,,,,CLR,,,,,,,,VFR,,,,,,,,,,,,METAR,77.0
KLXV 150953Z AUTO 07005KT 10SM CLR 01/01 A3040 RMK AO2 SLP163 T00060006,KLXV,2015-06-15T09:53:00Z,39.23,-106.32,0.6,0.6,70,5,,10.0,30.398623,1016.3,,TRUE,TRUE,,,,,,,CLR,,,,,,,,VFR,,,,,,,,,,,,METAR,3028.0
KLXT 150953Z AUTO 20007KT 10SM CLR 22/20 A2993 RMK AO2 SLP124 T02220200,KLXT,2015-06-15T09:53:00Z,38.97,-94.37,22.2,20.0,200,7,,10.0,29.929134,1012.4,,TRUE,TRUE,,,,,,,CLR,,,,,,,,VFR,,,,,,,,,,,,METAR,306.0
KLWV 150953Z AUTO 16004KT 9SM CLR 22/21 A3002 RMK AO2 SLP163 T02220211,KLWV,2015-06-15T09:53:00Z,38.77,-87.6,22.2,21.1,160,4,,9.0,30.02067,1016.3,,TRUE,TRUE,,,,,,,CLR,,,,,,,,VFR,,,,,,,,,,,,METAR,131.0
KLWD 150953Z AUTO 18004KT 10SM SCT013 SCT020 BKN044 22/21 A2991 RMK AO2 RAE0854B26E39 SLP117 P0009 T02170206 $,KLWD,2015-06-15T09:53:00Z,40.63,-93.9,21.7,20.6,180,4,,10.0,29.911417,1011.7,,TRUE,TRUE,TRUE,,,,,,SCT,1300,SCT,2000,BKN,4400,,,VFR,,,,,,0.09,,,,,,METAR,346.0
KLVS 150953Z AUTO 02009KT 10SM CLR 09/07 A3023 RMK AO2 SLP154 T00940072,KLVS,2015-06-15T09:53:00Z,35.65,-105.13,9.4,7.2,20,9,,10.0,30.230314,1015.4,,TRUE,TRUE,,,,,,,CLR,,,,,,,,VFR,,,,,,,,,,,,METAR,2091.0
KLVM 150953Z AUTO 09017KT 10SM CLR 12/06 A3017 RMK AO2 SLP192 T01170061 $,KLVM,2015-06-15T09:53:00Z,45.7,-110.43,11.7,6.1,90,17,,10.0,30.171259,1019.2,,TRUE,TRUE,TRUE,,,,,,CLR,,,,,,,,VFR,,,,,,,,,,,,METAR,1418.0
KLVK 150953Z AUTO 29008KT 9SM CLR 13/10 A2984 RMK AO2 SLP101 T01330100 $,KLVK,2015-06-15T09:53:00Z,37.7,-121.82,13.3,10.0,290,8,,9.0,29.840551,1010.1,,TRUE,TRUE,TRUE,,,,,,CLR,,,,,,,,VFR,,,,,,,,,,,,METAR,117.0
KGLD 150953Z AUTO 27006KT 10SM CLR 13/13 A3007 RMK AO2 SLP148 T01330128,KGLD,2015-06-15T09:53:00Z,39.37,-101.7,13.3,12.8,270,6,,10.0,30.070866,1014.8,,TRUE,TRUE,,,,,,,CLR,,,,,,,,VFR,,,,,,,,,,,,METAR,1113.0
KGKY 150953Z AUTO 15004KT 10SM FEW011 24/22 A2995 RMK AO2 SLP133 T02440222 PNO $,KGKY,2015-06-15T09:53:00Z,32.67,-97.1,24.4,22.2,150,4,,10.0,29.949802,1013.3,,TRUE,TRUE,TRUE,,,,,,FEW,1100,,,,,,,VFR,,,,,,,,,,,,METAR,192.0
KGKJ 150953Z AUTO 23003KT 2 1/2SM BR OVC003 21/19 A3000 RMK AO2 SLP150 T02110194 TSNO,KGKJ,2015-06-15T09:53:00Z,41.63,-80.22,21.1,19.4,230,3,,2.5,30.0,1015.0,,TRUE,TRUE,,,TRUE,,,BR,OVC,300,,,,,,,LIFR,,,,,,,,,,,,METAR,428.0
KGJT 150953Z AUTO 10011KT 10SM CLR 18/07 A3004 RMK AO2 SLP099 T01830072,KGJT,2015-06-15T09:53:00Z,39.12,-108.52,18.3,7.2,100,11,,10.0,30.041338,1009.9,,TRUE,TRUE,,,,,,,CLR,,,,,,,,VFR,,,,,,,,,,,,METAR,1475.0
KGGW 150953Z AUTO 00000KT 10SM CLR 08/03 A3023 RMK AO2 SLP239 T00830033,KGGW,2015-06-15T09:53:00Z,48.22,-106.62,8.3,3.3,0,0,,10.0,30.230314,1023.9,,TRUE,TRUE,,,,,,,CLR,,,,,,,,VFR,,,,,,,,,,,,METAR,694.0
KGGG 150953Z AUTO 15009KT 10SM BKN007 BKN011 24/23 A2997 RMK AO2 SLP143 T02440228 $,KGGG,2015-06-15T09:53:00Z,32.38,-94.72,24.4,22.8,150,9,,10.0,29.970472,1014.3,,TRUE,TRUE,TRUE,,,,,,BKN,700,BKN,1100,,,,,IFR,,,,,,,,,,,,METAR,107.0
KGFK 150953Z AUTO 28005KT 10SM CLR 09/08 A3003 RMK AO2 SLP170 T00940078 TSNO,KGFK,2015-06-15T09:53:00Z,47.95,-97.18,9.4,7.8,280,5,,10.0,30.029528,1017.0,,TRUE,TRUE,,,TRUE,,,,CLR,,,,,,,,VFR,,,,,,,,,,,,METAR,258.0
KGEZ 150953Z AUTO 27008KT 4SM VCTS RA BR SCT010 BKN025 OVC050 23/21 A3004 RMK AO2 RAB0856 SLP165 P0022 T02330211,KGEZ,2015-06-15T09:53:00Z,39.58,-85.8,23.3,21.1,270,8,,4.0,30.041338,1016.5,,TRUE,TRUE,,,,,,VCTS RA BR,SCT,1000,BKN,2500,OVC,5000,,,MVFR,,,,,,0.22,,,,,,METAR,245.0
KGEY 150953Z AUTO 29004KT 10SM OVC070 14/07 A3015 RMK AO2 SLP180 T01440067 $,KGEY,2015-06-15T09:53:00Z,44.52,-108.08,14.4,6.7,290,4,,10.0,30.15059,1018.0,,TRUE,TRUE,TRUE,,,,,,OVC,7000,,,,,,,VFR,,,,,,,,,,,,METAR,1191.0
KGEG 150953Z 03006KT 10SM SCT250 14/03 A3001 RMK AO2 SLP151 T01440033,KGEG,2015-06-15T09:53:00Z,47.62,-117.53,14.4,3.3,30,6,,10.0,30.008858,1015.1,,,TRUE,,,,,,,SCT,25000,,,,,,,VFR,,,,,,,,,,,,METAR,735.0
KGCC 150953Z AUTO 35003KT 10SM OVC065 12/11 A3017 RMK AO2 RAE05 SLP190 P0001 T01220106 $,KGCC,2015-06-15T09:53:00Z,44.33,-105.55,12.2,10.6,350,3,,10.0,30.171259,1019.0,,TRUE,TRUE,TRUE,,,,,,OVC,6500,,,,,,,VFR,,,,,,0.01,,,,,,METAR,1320.0
KFYV 150953Z AUTO 00000KT 10SM FEW014 22/21 A3001 RMK AO2 SLP145 T02170211,KFYV,2015-06-15T09:53:00Z,36.02,-94.17,21.7,21.1,0,0,,10.0,30.008858,1014.5,,TRUE,TRUE,,,,,,,FEW,1400,,,,,,,VFR,,,,,,,,,,,,METAR,379.0
KFXE 150953Z 10008KT 10SM SCT040 27/24 A3005 RMK AO2 SLP177 T02670239,KFXE,2015-06-15T09:53:00Z,26.2,-80.18,26.7,23.9,100,8,,10.0,30.050198,1017.7,,,TRUE,,,,,,,SCT,4000,,,,,,,VFR,,,,,,,,,,,,METAR,6.0
KFWN 150953Z AUTO 22003KT 3SM -RA BR OVC006 21/19 A2996 RMK AO2 RAB48 SLP142 P0000 T02060189,KFWN,2015-06-15T09:53:00Z,41.2,-74.63,20.6,18.9,220,3,,3.0,29.958662,1014.2,,TRUE,TRUE,,,,,,-RA BR,OVC,600,,,,,,,IFR,,,,,,0.0050,,,,,,METAR,133.0
KFUL 150953Z 20003KT 9SM OVC012 19/16 A2981 RMK AO2 SLP093 T01890156,KFUL,2015-06-15T09:53:00Z,33.87,-117.98,18.9,15.6,200,3,,9.0,29.811024,1009.3,,,TRUE,,,,,,,OVC,1200,,,,,,,MVFR,,,,,,,,,,,,METAR,35.0
KFTY 150953Z 00000KT 10SM CLR 22/20 A3013 RMK AO2 SLP194 T02170200,KFTY,2015-06-15T09:53:00Z,33.78,-84.52,21.7,20.0,0,0,,10.0,30.129921,1019.4,,,TRUE,,,,,,,CLR,,,,,,,,VFR,,,,,,,,,,,,METAR,263.0
KFTW 150953Z AUTO 15008KT 10SM BKN013 24/22 A2994 RMK AO2 SLP128 T02440222,KFTW,2015-06-15T09:53:00Z,32.83,-97.37,24.4,22.2,150,8,,10.0,29.940945,1012.8,,TRUE,TRUE,,,,,,,BKN,1300,,,,,,,MVFR,,,,,,,,,,,,METAR,214.0
KFST 150953Z AUTO 11009KT 10SM CLR 20/17 A2996 RMK AO2 SLP095 T02000167,KFST,2015-06-15T09:53:00Z,30.92,-102.92,20.0,16.7,110,9,,10.0,29.958662,1009.5,,TRUE,TRUE,,,,,,,CLR,,,,,,,,VFR,,,,,,,,,,,,METAR,918.0
KFSM 150953Z AUTO 06004KT 10SM FEW029 23/21 A2998 RMK AO2 SLP147 T02280211,KFSM,2015-06-15T09:53:00Z,35.33,-94.37,22.8,21.1,60,4,,10.0,29.97933,1014.7,,TRUE,TRUE,,,,,,,FEW,2900,,,,,,,VFR,,,,,,,,,,,,METAR,140.0
KFRG 150953Z AUTO 14010KT 6SM -RA BR SCT006 BKN014 OVC019 19/18 A3000 RMK AO2 SLP157 P0025 T01940183,KFRG,2015-06-15T09:53:00Z,40.73,-73.42,19.4,18.3,140,10,,6.0,30.0,1015.7,,TRUE,TRUE,,,,,,-RA BR,SCT,600,BKN,1400,OVC,1900,,,MVFR,,,,,,0.25,,,,,,METAR,21.0
KFPR 150953Z AUTO 00000KT 10SM CLR 23/22 A3007 RMK AO2 SLP182 T02330222 TSNO,KFPR,2015-06-15T09:53:00Z,27.5,-80.38,23.3,22.2,0,0,,10.0,30.070866,1018.2,,TRUE,TRUE,,,TRUE,,,,CLR,,,,,,,,VFR,,,,,,,,,,,,METAR,13.0
KFOZ 150953Z AUTO 00000KT 2 1/2SM BR CLR 06/06 A2998 RMK AO2 VIS 1V5,KFOZ,2015-06-15T09:53:00Z,47.77,-93.65,6.0,6.0,0,0,,2.5,29.97933,,,TRUE,TRUE,,,,,,BR,CLR,,,,,,,,IFR,,,,,,,,,,,,METAR,411.0
KFOK 150953Z AUTO 14010G16KT 4SM RA BR BKN021 BKN043 OVC085 18/18 A3005 RMK AO2 RAB0857 SLP174 P0007 T01830178 TSNO,KFOK,2015-06-15T09:53:00Z,40.85,-72.62,18.3,17.8,140,10,16,4.0,30.050198,1017.4,,TRUE,TRUE,,,TRUE,,,RA BR,BKN,2100,BKN,4300,OVC,8500,,,MVFR,,,,,,0.07,,,,,,METAR,33.0
KFOE 150953Z AUTO 20009KT 10SM CLR 22/20 A2990 RMK AO2 SLP115 T02220200,KFOE,2015-06-15T09:53:00Z,38.93,-95.65,22.2,20.0,200,9,,10.0,29.899607,1011.5,,TRUE,TRUE,,,,,,,CLR,,,,,,,,VFR,,,,,,,,,,,,METAR,320.0
KFNT 150953Z 28006KT 6SM BR OVC008 22/20 A2995 RMK AO2 SLP136 T02220200,KFNT,2015-06-15T09:53:00Z,42.97,-83.75,22.2,20.0,280,6,,6.0,29.949802,1013.6,,,TRUE,,,,,,BR,OVC,800,,,,,,,IFR,,,,,,,,,,,,METAR,233.0
KFNB 150953Z AUTO 00000KT 10SM 22/21 A2987 RMK AO2 SLP106 T02170206,KFNB,2015-06-15T09:53:00Z,40.07,-95.58,21.7,20.6,0,0,,10.0,29.870079,1010.6,,TRUE,TRUE,,,,,,,,,,,,,,,,,,,,,,,,,,,METAR,300.0
KFMY 150953Z AUTO 09003KT 10SM CLR 24/23 A3004 RMK AO2 SLP175 T02390233,KFMY,2015-06-15T09:53:00Z,26.58,-81.87,23.9,23.3,90,3,,10.0,30.041338,1017.5,,TRUE,TRUE,,,,,,,CLR,,,,,,,,VFR,,,,,,,,,,,,METAR,4.0
KFMN 150953Z AUTO 04003KT 10SM CLR 13/10 A3011 RMK AO2 SLP143 T01280100,KFMN,2015-06-15T09:53:00Z,36.75,-108.23,12.8,10.0,40,3,,10.0,30.109253,1014.3,,TRUE,TRUE,,,,,,,CLR,,,,,,,,VFR,,,,,,,,,,,,METAR,1685.0
KFLO 150953Z 00000KT 10SM CLR 24/21 A3007 RMK AO2 SLP179 T02390211,KFLO,2015-06-15T09:53:00Z,34.18,-79.73,23.9,21.1,0,0,,10.0,30.070866,1017.9,,,TRUE,,,,,,,CLR,,,,,,,,VFR,,,,,,,,,,,,METAR,44.0
KFLL 150953Z 12012KT 10SM FEW020CB SCT027 SCT033 28/24 A3004 RMK AO2 SLP172 CB NE MOV W T02780244,KFLL,2015-06-15T09:53:00Z,26.07,-80.15,27.8,24.4,120,12,,10.0,30.041338,1017.2,,,TRUE,,,,,,,FEW,2000,SCT,2700,SCT,3300,,,VFR,,,,,,,,,,,,METAR,3.0
KFLD 150953Z AUTO 18003KT 10SM CLR 19/18 A2991 RMK AO2 SLP123 T01890183,KFLD,2015-06-15T09:53:00Z,43.77,-88.48,18.9,18.3,180,3,,10.0,29.911417,1012.3,,TRUE,TRUE,,,,,,,CLR,,,,,,,,VFR,,,,,,,,,,,,METAR,240.0
KFHR 150953Z AUTO 00000KT 10SM CLR 09/07 A2996 RMK AO2 SLP145 T00940072 $,KFHR,2015-06-15T09:53:00Z,48.52,-123.03,9.4,7.2,0,0,,10.0,29.958662,1014.5,,TRUE,TRUE,TRUE,,,,,,CLR,,,,,,,,VFR,,,,,,,,,,,,METAR,32.0
KMIC 150953Z AUTO 33004KT 10SM CLR 19/16 A2990 RMK AO2 SLP120 T01940156 TSNO,KMIC,2015-06-15T09:53:00Z,45.07,-93.35,19.4,15.6,330,4,,10.0,29.899607,1012.0,,TRUE,TRUE,,,TRUE,,,,CLR,,,,,,,,VFR,,,,,,,,,,,,METAR,265.0
KMIE 150953Z 23006KT 10SM BKN030 22/21 A3002 RMK AO2 SLP154 T02220206,KMIE,2015-06-15T09:53:00Z,40.23,-85.4,22.2,20.6,230,6,,10.0,30.02067,1015.4,,,TRUE,,,,,,,BKN,3000,,,,,,,MVFR,,,,,,,,,,,,METAR,285.0
KODX 150953Z AUTO 33010KT 10SM CLR 18/17 A2997 RMK AO2 LTG DSNT W RAE22 SLP138 P0001 T01780167 $,KODX,2015-06-15T09:53:00Z,41.62,-98.95,17.8,16.7,330,10,,10.0,29.970472,1013.8,,TRUE,TRUE,TRUE,,,,,,CLR,,,,,,,,VFR,,,,,,0.01,,,,,,METAR,631.0
KODO 150953Z AUTO 12004KT 10SM CLR 21/16 A3000 RMK AO2 SLP109 T02060161 $,KODO,2015-06-15T09:53:00Z,31.92,-102.4,20.6,16.1,120,4,,10.0,30.0,1010.9,,TRUE,TRUE,TRUE,,,,,,CLR,,,,,,,,VFR,,,,,,,,,,,,METAR,902.0
KMIA 150953Z COR 09006KT 10SM FEW017 BKN250 27/24 A3004 RMK AO2 SLP173 T02670239,KMIA,2015-06-15T09:53:00Z,25.8,-80.28,26.7,23.9,90,6,,10.0,30.041338,1017.3,TRUE,,TRUE,,,,,,,FEW,1700,BKN,25000,,,,,VFR,,,,,,,,,,,,METAR,3.0
KMHT 150953Z 14004KT 7SM -RA BKN050 BKN070 OVC090 15/12 A3008 RMK AO2 SLP198 P0002 T01500117,KMHT,2015-06-15T09:53:00Z,42.93,-71.43,15.0,11.7,140,4,,7.0,30.079725,1019.8,,,TRUE,,,,,,-RA,BKN,5000,BKN,7000,OVC,9000,,,VFR,,,,,,0.02,,,,,,METAR,81.0
KMHE 150953Z AUTO 01008KT 10SM CLR 17/15 A3000 RMK AO2 SLP151 T01670150,KMHE,2015-06-15T09:53:00Z,43.77,-98.02,16.7,15.0,10,8,,10.0,30.0,1015.1,,TRUE,TRUE,,,,,,,CLR,,,,,,,,VFR,,,,,,,,,,,,METAR,397.0
KMIW 150953Z AUTO 00000KT 8SM -RA OVC005 21/20 A2990 RMK AO2 SLP118 P0009 T02060200,KMIW,2015-06-15T09:53:00Z,42.12,-92.92,20.6,20.0,0,0,,8.0,29.899607,1011.8,,TRUE,TRUE,,,,,,-RA,OVC,500,,,,,,,IFR,,,,,,0.09,,,,,,METAR,296.0
KHOT 150953Z AUTO 00000KT 10SM OVC005 23/22 A3003 RMK AO2 SLP162 T02280217,KHOT,2015-06-15T09:53:00Z,34.48,-93.1,22.8,21.7,0,0,,10.0,30.029528,1016.2,,TRUE,TRUE,,,,,,,OVC,500,,,,,,,IFR,,,,,,,,,,,,METAR,162.0
KHOU 150953Z 11005KT 10SM FEW021 SCT045 26/23 A2990 RMK AO2 SLP127 T02610228 $,KHOU,2015-06-15T09:53:00Z,29.63,-95.28,26.1,22.8,110,5,,10.0,29.899607,1012.7,,,TRUE,TRUE,,,,,,FEW,2100,SCT,4500,,,,,VFR,,,,,,,,,,,,METAR,36.0
KHQM 150953Z AUTO 28004KT 6SM BR CLR 11/09 A2997 RMK AO2 SLP153 T01110094,KHQM,2015-06-15T09:53:00Z,46.97,-123.93,11.1,9.4,280,4,,6.0,29.970472,1015.3,,TRUE,TRUE,,,,,,BR,CLR,,,,,,,,VFR,,,,,,,,,,,,METAR,7.0
KHRI 150953Z AUTO 14005KT 10SM CLR 13/04 A2990 RMK AO2 SLP119 T01330039,KHRI,2015-06-15T09:53:00Z,45.83,-119.27,13.3,3.9,140,5,,10.0,29.899607,1011.9,,TRUE,TRUE,,,,,,,CLR,,,,,,,,VFR,,,,,,,,,,,,METAR,195.0
KHRO 150953Z AUTO 16007KT 10SM SCT015 21/21 A3003 RMK AO2 RAB02E13 SLP154 P0000 T02110206,KHRO,2015-06-15T09:53:00Z,36.27,-93.15,21.1,20.6,160,7,,10.0,30.029528,1015.4,,TRUE,TRUE,,,,,,,SCT,1500,,,,,,,VFR,,,,,,0.0050,,,,,,METAR,417.0
KHSI 150953Z AUTO 03005KT 10SM OVC110 19/18 A2996 RMK AO2 RAE12 SLP130 P0000 T01890178,KHSI,2015-06-15T09:53:00Z,40.6,-98.43,18.9,17.8,30,5,,10.0,29.958662,1013.0,,TRUE,TRUE,,,,,,,OVC,11000,,,,,,,VFR,,,,,,0.0050,,,,,,METAR,591.0
KHTL 150953Z AUTO 28004KT 9SM CLR 18/17 A2995 RMK AO2 SLP139 T01780172,KHTL,2015-06-15T09:53:00Z,44.35,-84.67,17.8,17.2,280,4,,9.0,29.949802,1013.9,,TRUE,TRUE,,,,,,,CLR,,,,,,,,VFR,,,,,,,,,,,,METAR,351.0
KHSV 150953Z AUTO 09003KT 10SM CLR 23/20 A3010 RMK AO2 SLP185 T02330200,KHSV,2015-06-15T09:53:00Z,34.65,-86.78,23.3,20.0,90,3,,10.0,30.100393,1018.5,,TRUE,TRUE,,,,,,,CLR,,,,,,,,VFR,,,,,,,,,,,,METAR,191.0
KHUF 150953Z 19004KT 10SM CLR 22/21 A3001 RMK AO2 RAE16 TSE09 SLP156 P0001 T02220211,KHUF,2015-06-15T09:53:00Z,39.45,-87.3,22.2,21.1,190,4,,10.0,30.008858,1015.6,,,TRUE,,,,,,,CLR,,,,,,,,VFR,,,,,,0.01,,,,,,METAR,179.0
KHUL 150953Z AUTO VRB03KT 10SM CLR 09/07 A3011 RMK AO2 SLP198 T00890072,KHUL,2015-06-15T09:53:00Z,46.12,-67.8,8.9,7.2,0,3,,10.0,30.109253,1019.8,,TRUE,TRUE,,,,,,,CLR,,,,,,,,VFR,,,,,,,,,,,,METAR,150.0
KHVR 150953Z AUTO 00000KT 10SM CLR 05/02 A3026 RMK AO2 SLP249 T00500022,KHVR,2015-06-15T09:53:00Z,48.55,-109.77,5.0,2.2,0,0,,10.0,30.259842,1024.9,,TRUE,TRUE,,,,,,,CLR,,,,,,,,VFR,,,,,,,,,,,,METAR,787.0
KHWO 150953Z AUTO 11006KT 10SM CLR 26/24 A3006 RMK AO2 SLP178 T02610239 TSNO,KHWO,2015-06-15T09:53:00Z,26.0,-80.23,26.1,23.9,110,6,,10.0,30.059055,1017.8,,TRUE,TRUE,,,TRUE,,,,CLR,,,,,,,,VFR,,,,,,,,,,,,METAR,2.0
KHYR 150953Z AUTO 01004KT 10SM BKN055 BKN070 BKN110 17/14 A2992 RMK AO2 SLP127 T01670144 $,KHYR,2015-06-15T09:53:00Z,46.02,-91.45,16.7,14.4,10,4,,10.0,29.920275,1012.7,,TRUE,TRUE,TRUE,,,,,,BKN,5500,BKN,7000,BKN,11000,,,VFR,,,,,,,,,,,,METAR,370.0
KIAG 150953Z AUTO 00000KT 1/2SM R28R/2000V2800FT FG VV003 19/18 A2992 RMK AO2 SLP127 T01890183,KIAG,2015-06-15T09:53:00Z,43.12,-78.93,18.9,18.3,0,0,,0.5,29.920275,1012.7,,TRUE,TRUE,,,,,,FG,OVX,0,,,,,,,LIFR,,,,,,,,,,,300,METAR,182.0
KHZY 150953Z AUTO 23005KT 9SM OVC012 21/21 A2998 RMK AO2 SLP145 T02110206,KHZY,2015-06-15T09:53:00Z,41.78,-80.7,21.1,20.6,230,5,,9.0,29.97933,1014.5,,TRUE,TRUE,,,,,,,OVC,1200,,,,,,,MVFR,,,,,,,,,,,,METAR,276.0
KIAH 150953Z 10006KT 10SM FEW018 SCT050 24/23 A2991 RMK AO2 SLP128 T02440233,KIAH,2015-06-15T09:53:00Z,30.0,-95.37,24.4,23.3,100,6,,10.0,29.911417,1012.8,,,TRUE,,,,,,,FEW,1800,SCT,5000,,,,,VFR,,,,,,,,,,,,METAR,36.0
KICR 150953Z AUTO 35006KT 10SM FEW085 16/13 A3006 RMK AO2 SLP166 T01560133,KICR,2015-06-15T09:53:00Z,43.38,-99.85,15.6,13.3,350,6,,10.0,30.059055,1016.6,,TRUE,TRUE,,,,,,,FEW,8500,,,,,,,VFR,,,,,,,,,,,,METAR,621.0
KICT 150953Z 07006KT 10SM BKN008 22/20 A2991 RMK AO2 RAE0855B12E50 SLP114 P0000 T02170200,KICT,2015-06-15T09:53:00Z,37.65,-97.43,21.7,20.0,70,6,,10.0,29.911417,1011.4,,,TRUE,,,,,,,BKN,800,,,,,,,IFR,,,,,,0.0050,,,,,,METAR,407.0
KIDA 150953Z AUTO 34005KT 10SM CLR 07/04 A3003 RMK AO2 SLP137 T00670039,KIDA,2015-06-15T09:53:00Z,43.52,-112.07,6.7,3.9,340,5,,10.0,30.029528,1013.7,,TRUE,TRUE,,,,,,,CLR,,,,,,,,VFR,,,,,,,,,,,,METAR,1453.0
KILM 150953Z 00000KT 10SM BKN075 26/23 A3005 RMK AO2 SLP176 T02560228,KILM,2015-06-15T09:53:00Z,34.27,-77.9,25.6,22.8,0,0,,10.0,30.050198,1017.6,,,TRUE,,,,,,,BKN,7500,,,,,,,VFR,,,,,,,,,,,,METAR,9.0
KIML 150953Z AUTO 36007KT 10SM CLR 16/14 A3006 RMK AO2 SLP152 T01560144,KIML,2015-06-15T09:53:00Z,40.52,-101.62,15.6,14.4,360,7,,10.0,30.059055,1015.2,,TRUE,TRUE,,,,,,,CLR,,,,,,,,VFR,,,,,,,,,,,,METAR,998.0
KHVN 150953Z 14011KT 1 1/2SM RA BR BKN006 BKN027 OVC070 18/17 A3001 RMK AO2 SLP163 P0030 T01830172,KHVN,2015-06-15T09:53:00Z,41.27,-72.87,18.3,17.2,140,11,,1.5,30.008858,1016.3,,,TRUE,,,,,,RA BR,BKN,600,BKN,2700,OVC,7000,,,IFR,,,,,,0.3,,,,,,METAR,4.0
KINK 150953Z AUTO 00000KT 10SM CLR 19/17 A2996 RMK AO2 SLP098 T01940172,KINK,2015-06-15T09:53:00Z,31.78,-103.2,19.4,17.2,0,0,,10.0,29.958662,1009.8,,TRUE,TRUE,,,,,,,CLR,,,,,,,,VFR,,,,,,,,,,,,METAR,855.0
KITR 150953Z AUTO 02003KT 10SM CLR 14/13 A3011 RMK AO2 SLP154 T01440128,KITR,2015-06-15T09:53:00Z,39.23,-102.28,14.4,12.8,20,3,,10.0,30.109253,1015.4,,TRUE,TRUE,,,,,,,CLR,,,,,,,,VFR,,,,,,,,,,,,METAR,1279.0
KIPL 150953Z AUTO 14009KT 10SM CLR 26/17 A2963 RMK AO2 SLP033 T02610172,KIPL,2015-06-15T09:53:00Z,32.83,-115.58,26.1,17.2,140,9,,10.0,29.630905,1003.3,,TRUE,TRUE,,,,,,,CLR,,,,,,,,VFR,,,,,,,,,,,,METAR,-17.0
KHIO 150953Z AUTO 29004KT 10SM CLR 15/08 A2989 RMK AO2 SLP116 T01500078,KHIO,2015-06-15T09:53:00Z,45.55,-122.95,15.0,7.8,290,4,,10.0,29.890747,1011.6,,TRUE,TRUE,,,,,,,CLR,,,,,,,,VFR,,,,,,,,,,,,METAR,68.0
KHIB 150953Z AUTO 32003KT 1/4SM FG VV001 07/07 A2997 RMK AO2 SLP151 T00670067,KHIB,2015-06-15T09:53:00Z,47.38,-92.83,6.7,6.7,320,3,,0.25,29.970472,1015.1,,TRUE,TRUE,,,,,,FG,OVX,0,,,,,,,LIFR,,,,,,,,,,,100,METAR,412.0
KHHR 150953Z AUTO 00000KT 7SM OVC007 18/16 A2982 RMK AO2 SLP095 T01780156,KHHR,2015-06-15T09:53:00Z,33.92,-118.33,17.8,15.6,0,0,,7.0,29.819881,1009.5,,TRUE,TRUE,,,,,,,OVC,700,,,,,,,IFR,,,,,,,,,,,,METAR,18.0
KHGR 150953Z AUTO 18005KT 6SM -RA BR SCT110 22/21 A3002 RMK AO2 LTG DSNT SE AND SW TSB0854E16 SLP170 P0018 T02220211,KHGR,2015-06-15T09:53:00Z,39.7,-77.73,22.2,21.1,180,5,,6.0,30.02067,1017.0,,TRUE,TRUE,,,,,,-RA BR,SCT,11000,,,,,,,VFR,,,,,,0.18,,,,,,METAR,224.0
KHFD 150953Z 14008KT 3SM +RA BR BKN007 BKN010 OVC014 17/16 A3003 RMK AO2 SLP167 P0030 T01720161,KHFD,2015-06-15T09:53:00Z,41.73,-72.65,17.2,16.1,140,8,,3.0,30.029528,1016.7,,,TRUE,,,,,,+RA BR,BKN,700,BKN,1000,OVC,1400,,,IFR,,,,,,0.3,,,,,,METAR,4.0
KHEI 150953Z AUTO 10SM CLR 07/06 A3017 RMK AO2 SLP213 T00720056 $,KHEI,2015-06-15T09:53:00Z,46.02,-102.65,7.2,5.6,,,,10.0,30.171259,1021.3,,TRUE,TRUE,TRUE,,,,,,CLR,,,,,,,,VFR,,,,,,,,,,,,METAR,828.0
KHBR 150953Z AUTO 11005KT 6SM RA BR SCT090 BKN110 19/18 A2994 RMK AO2 SLP123 T01890183 PNO $,KHBR,2015-06-15T09:53:00Z,34.98,-99.05,18.9,18.3,110,5,,6.0,29.940945,1012.3,,TRUE,TRUE,TRUE,,,,,RA BR,SCT,9000,BKN,11000,,,,,VFR,,,,,,,,,,,,METAR,473.0
KHBG 150953Z AUTO 00000KT 1/2SM FG VV002 22/22 A3005 RMK AO2 SLP174 T02220217,KHBG,2015-06-15T09:53:00Z,31.27,-89.25,22.2,21.7,0,0,,0.5,30.050198,1017.4,,TRUE,TRUE,,,,,,FG,OVX,0,,,,,,,LIFR,,,,,,,,,,,200,METAR,44.0
KHAO 150953Z AUTO 00000KT 7SM CLR 22/21 A3005 RMK AO2 SLP170 T02170211,KHAO,2015-06-15T09:53:00Z,39.37,-84.52,21.7,21.1,0,0,,7.0,30.050198,1017.0,,TRUE,TRUE,,,,,,,CLR,,,,,,,,VFR,,,,,,,,,,,,METAR,188.0
KGZH 150953Z AUTO 00000KT 10SM CLR 19/19 A3008 RMK AO2 SLP182 T01940189,KGZH,2015-06-15T09:53:00Z,31.42,-87.05,19.4,18.9,0,0,,10.0,30.079725,1018.2,,TRUE,TRUE,,,,,,,CLR,,,,,,,,VFR,,,,,,,,,,,,METAR,78.0
KGWO 150953Z AUTO 17004KT 10SM CLR 23/21 A3006 RMK AO2 SLP176 T02280206,KGWO,2015-06-15T09:53:00Z,33.5,-90.08,22.8,20.6,170,4,,10.0,30.059055,1017.6,,TRUE,TRUE,,,,,,,CLR,,,,,,,,VFR,,,,,,,,,,,,METAR,44.0
KGVL 150953Z AUTO 28003KT 10SM CLR 22/21 A3018 RMK AO2 SLP201 T02220206,KGVL,2015-06-15T09:53:00Z,34.27,-83.83,22.2,20.6,280,3,,10.0,30.180119,1020.1,,TRUE,TRUE,,,,,,,CLR,,,,,,,,VFR,,,,,,,,,,,,METAR,386.0
KGUY 150953Z AUTO 00000KT 10SM OVC004 17/17 A3002 RMK AO2 SLP123 T01720167,KGUY,2015-06-15T09:53:00Z,36.68,-101.5,17.2,16.7,0,0,,10.0,30.02067,1012.3,,TRUE,TRUE,,,,,,,OVC,400,,,,,,,LIFR,,,,,,,,,,,,METAR,948.0
KGUP 150953Z AUTO 00000KT 10SM CLR 09/04 A3017 RMK AO2 SLP078 T00940044,KGUP,2015-06-15T09:53:00Z,35.52,-108.8,9.4,4.4,0,0,,10.0,30.171259,1007.8,,TRUE,TRUE,,,,,,,CLR,,,,,,,,VFR,,,,,,,,,,,,METAR,1971.0
KGTF 150953Z 05007KT 10SM CLR 06/02 A3023 RMK AO2 SLP243 T00610017,KGTF,2015-06-15T09:53:00Z,47.47,-111.38,6.1,1.7,50,7,,10.0,30.230314,1024.3,,,TRUE,,,,,,,CLR,,,,,,,,VFR,,,,,,,,,,,,METAR,1119.0
KGSP 150953Z 00000KT 10SM CLR 21/19 A3011 RMK AO2 SLP186 T02110194,KGSP,2015-06-15T09:53:00Z,34.9,-82.22,21.1,19.4,0,0,,10.0,30.109253,1018.6,,,TRUE,,,,,,,CLR,,,,,,,,VFR,,,,,,,,,,,,METAR,287.0
KGSH 150953Z AUTO 21005KT 8SM BKN009 OVC017 23/22 A2997 RMK AO2 CIG 006V013 SLP142 T02280217,KGSH,2015-06-15T09:53:00Z,41.53,-85.78,22.8,21.7,210,5,,8.0,29.970472,1014.2,,TRUE,TRUE,,,,,,,BKN,900,OVC,1700,,,,,IFR,,,,,,,,,,,,METAR,252.0
KGRR 150953Z 19003KT 1/8SM R26L/0600V1000FT FG VV002 19/19 A2995 RMK AO2 SLP138 FIRST AUGMENTED OBS OF THE DAY T01890189,KGRR,2015-06-15T09:53:00Z,42.88,-85.52,18.9,18.9,190,3,,0.13,29.949802,1013.8,,,TRUE,,,,,,FG,OVX,0,,,,,,,LIFR,,,,,,,,,,,200,METAR,237.0
KGPT 150953Z AUTO 04005KT 10SM SCT020 25/23 A3002 RMK AO2 SLP164 T02500233,KGPT,2015-06-15T09:53:00Z,30.42,-89.08,25.0,23.3,40,5,,10.0,30.02067,1016.4,,TRUE,TRUE,,,,,,,SCT,2000,,,,,,,VFR,,,,,,,,,,,,METAR,14.0
KGOK 150953Z AUTO 22006KT 10SM CLR 22/19 A2993 RMK AO2 SLP126 T02170194,KGOK,2015-06-15T09:53:00Z,35.85,-97.4,21.7,19.4,220,6,,10.0,29.929134,1012.6,,TRUE,TRUE,,,,,,,CLR,,,,,,,,VFR,,,,,,,,,,,,METAR,324.0
KGNV 150953Z 00000KT 9SM CLR 20/19 A3009 RMK AO2 SLP187 T02000194 $,KGNV,2015-06-15T09:53:00Z,29.7,-82.28,20.0,19.4,0,0,,9.0,30.088583,1018.7,,,TRUE,TRUE,,,,,,CLR,,,,,,,,VFR,,,,,,,,,,,,METAR,45.0
KGMU 150953Z AUTO 00000KT 10SM CLR 22/20 A3014 RMK AO2 SLP195 T02220200,KGMU,2015-06-15T09:53:00Z,34.85,-82.35,22.2,20.0,0,0,,10.0,30.138779,1019.5,,TRUE,TRUE,,,,,,,CLR,,,,,,,,VFR,,,,,,,,,,,,METAR,315.0
KGLR 150953Z AUTO 25003KT 10SM OVC007 17/17 A2994 RMK AO2 CIG 006V009 SLP136 T01720172 $,KGLR,2015-06-15T09:53:00Z,45.02,-84.68,17.2,17.2,250,3,,10.0,29.940945,1013.6,,TRUE,TRUE,TRUE,,,,,,OVC,700,,,,,,,IFR,,,,,,,,,,,,METAR,407.0
KGLH 150953Z AUTO 15005KT 10SM CLR 23/23 A3003 RMK AO2 SLP174 T02330228 $,KGLH,2015-06-15T09:53:00Z,33.5,-90.98,23.3,22.8,150,5,,10.0,30.029528,1017.4,,TRUE,TRUE,TRUE,,,,,,CLR,,,,,,,,VFR,,,,,,,,,,,,METAR,45.0
KJBR 150953Z AUTO 18004KT 10SM CLR 23/22 A3003 RMK AO2 SLP164 T02280222,KJBR,2015-06-15T09:53:00Z,35.83,-90.65,22.8,22.2,180,4,,10.0,30.029528,1016.4,,TRUE,TRUE,,,,,,,CLR,,,,,,,,VFR,,,,,,,,,,,,METAR,79.0
KIXD 150953Z AUTO 23004KT 10SM BKN013 BKN043 22/21 A2993 RMK AO2 SLP124 T02220206 $,KIXD,2015-06-15T09:53:00Z,38.82,-94.88,22.2,20.6,230,4,,10.0,29.929134,1012.4,,TRUE,TRUE,TRUE,,,,,,BKN,1300,BKN,4300,,,,,MVFR,,,,,,,,,,,,METAR,342.0
KIWI 150953Z AUTO 00000KT 10SM SCT055 11/09 A3013 RMK AO2 SLP202 T01060094,KIWI,2015-06-15T09:53:00Z,43.97,-69.72,10.6,9.4,0,0,,10.0,30.129921,1020.2,,TRUE,TRUE,,,,,,,SCT,5500,,,,,,,VFR,,,,,,,,,,,,METAR,20.0
KCKC 150953Z AUTO 32004KT 10SM CLR 12/09 A2994 RMK AO2,KCKC,2015-06-15T09:53:00Z,47.83,-90.37,12.0,9.0,320,4,,10.0,29.940945,,,TRUE,TRUE,,,,,,,CLR,,,,,,,,VFR,,,,,,,,,,,,METAR,548.0
KAMN 150953Z AUTO 00000KT 1/4SM FG OVC004 18/18 A2995 RMK AO2 T01770176,KAMN,2015-06-15T09:53:00Z,43.32,-84.68,17.7,17.6,0,0,,0.25,29.949802,,,TRUE,TRUE,,,,,,FG,OVC,400,,,,,,,LIFR,,,,,,,,,,,,METAR,230.0
KVVV 150953Z AUTO 34008KT 10SM CLR 15/13 A3000 RMK AO2,KVVV,2015-06-15T09:53:00Z,45.3,-96.42,15.0,13.0,340,8,,10.0,30.0,,,TRUE,TRUE,,,,,,,CLR,,,,,,,,VFR,,,,,,,,,,,,METAR,335.0
KTOB 150953Z AUTO 22003KT 3SM BR BKN090 21/19 A2992 RMK AO2,KTOB,2015-06-15T09:53:00Z,44.02,-92.82,21.0,19.0,220,3,,3.0,29.920275,,,TRUE,TRUE,,,,,,BR,BKN,9000,,,,,,,MVFR,,,,,,,,,,,,METAR,398.0
KBJI 150953Z AUTO 28005KT 10SM CLR 11/10 A3000 RMK AO2 T01050097,KBJI,2015-06-15T09:53:00Z,47.5,-94.92,10.5,9.7,280,5,,10.0,30.0,,,TRUE,TRUE,,,,,,,CLR,,,,,,,,VFR,,,,,,,,,,,,METAR,420.0
KAIT 150953Z AUTO 00000KT 5SM HZ CLR 12/08 A2997 RMK AO2,KAIT,2015-06-15T09:53:00Z,46.53,-93.67,12.0,8.0,0,0,,5.0,29.970472,,,TRUE,TRUE,,,,,,HZ,CLR,,,,,,,,MVFR,,,,,,,,,,,,METAR,367.0
K9MN 150953Z AUTO 16005KT 10SM CLR 21/21 A2992 RMK AO1 T02100210,K9MN,2015-06-15T09:53:00Z,44.02,-92.48,21.0,21.0,160,5,,10.0,29.920275,,,TRUE,TRUE,,,,,,,CLR,,,,,,,,VFR,,,,,,,,,,,,METAR,355.0
K04W 150953Z AUTO 35004KT 10SM OVC041 17/15 A2994 RMK AO2,K04W,2015-06-15T09:53:00Z,46.02,-92.9,17.0,15.0,350,4,,10.0,29.940945,,,TRUE,TRUE,,,,,,,OVC,4100,,,,,,,VFR,,,,,,,,,,,,METAR,311.0
KFVE 150953Z AUTO 10005KT 10SM CLR 08/04 A3011 RMK AO2 SLP196 T00830044,KFVE,2015-06-15T09:53:00Z,47.28,-68.3,8.3,4.4,100,5,,10.0,30.109253,1019.6,,TRUE,TRUE,,,,,,,CLR,,,,,,,,VFR,,,,,,,,,,,,METAR,301.0
KEVM 150953Z AUTO 00000KT M1/4SM FG VV000 11/11 A2997 RMK AO2,KEVM,2015-06-15T09:53:00Z,47.42,-92.5,11.0,11.0,0,0,,0.25,29.970472,,,TRUE,TRUE,,,,,,FG,OVX,0,,,,,,,LIFR,,,,,,,,,,,0,METAR,421.0
KELO 150953Z AUTO 29003KT 1/4SM FG OVC001 11/11 A2996 RMK AO2 P0001,KELO,2015-06-15T09:53:00Z,47.82,-91.82,11.0,11.0,290,3,,0.25,29.958662,,,TRUE,TRUE,,,,,,FG,OVC,100,,,,,,,LIFR,,,,,,0.01,,,,,,METAR,443.0
KSGS 150953Z AUTO 34005KT 10SM SCT085 21/18 A2989 RMK AO2 T02100181,KSGS,2015-06-15T09:53:00Z,44.87,-93.03,21.0,18.1,340,5,,10.0,29.890747,,,TRUE,TRUE,,,,,,,SCT,8500,,,,,,,VFR,,,,,,,,,,,,METAR,250.0
KSAZ 150953Z AUTO 00000KT 7SM CLR 11/11 A3000 RMK AO2,KSAZ,2015-06-15T09:53:00Z,46.37,-94.8,11.0,11.0,0,0,,7.0,30.0,,,TRUE,TRUE,,,,,,,CLR,,,,,,,,VFR,,,,,,,,,,,,METAR,392.0
KRMY 150953Z AUTO 23003KT 10SM OVC007 22/21 A2997 RMK AO2 T02180210,KRMY,2015-06-15T09:53:00Z,42.23,-84.95,21.8,21.0,230,3,,10.0,29.970472,,,TRUE,TRUE,,,,,,,OVC,700,,,,,,,IFR,,,,,,,,,,,,METAR,287.0
KOVL 150953Z AUTO 34011KT 10SM BKN055 BKN070 BKN120 16/13 A2994 RMK AO2 LTG DSNT SW,KOVL,2015-06-15T09:53:00Z,44.78,-95.03,16.0,13.0,340,11,,10.0,29.940945,,,TRUE,TRUE,,,,,,,BKN,5500,BKN,7000,BKN,12000,,,VFR,,,,,,,,,,,,METAR,328.0
KOSC 150953Z AUTO 00000KT M1/4SM FG OVC003 15/15 A2993 RMK AO2 T01580158,KOSC,2015-06-15T09:53:00Z,44.45,-83.4,15.8,15.8,0,0,,0.25,29.929134,,,TRUE,TRUE,,,,,,FG,OVC,300,,,,,,,LIFR,,,,,,,,,,,,METAR,193.0
KONA 150953Z AUTO 32003KT 7SM CLR 21/20 A2991 RMK AO2,KONA,2015-06-15T09:53:00Z,44.07,-91.7,21.0,20.0,320,3,,7.0,29.911417,,,TRUE,TRUE,,,,,,,CLR,,,,,,,,VFR,,,,,,,,,,,,METAR,200.0
KLJF 150953Z AUTO 34008KT 10SM CLR 17/16 A2996 RMK AO2 LTG DSNT SW,KLJF,2015-06-15T09:53:00Z,45.1,-94.52,17.0,16.0,340,8,,10.0,29.958662,,,TRUE,TRUE,,,,,,,CLR,,,,,,,,VFR,,,,,,,,,,,,METAR,348.0
KLBF 150953Z AUTO 02009KT 10SM OVC039 17/15 A3005 RMK AO2 SLP151 T01720150 $,KLBF,2015-06-15T09:53:00Z,41.12,-100.67,17.2,15.0,20,9,,10.0,30.050198,1015.1,,TRUE,TRUE,TRUE,,,,,,OVC,3900,,,,,,,VFR,,,,,,,,,,,,METAR,847.0
KIKW 150953Z AUTO 00000KT 7SM OVC012 20/19 A2994 RMK AO2 T01990191,KIKW,2015-06-15T09:53:00Z,43.67,-84.27,19.9,19.1,0,0,,7.0,29.940945,,,TRUE,TRUE,,,,,,,OVC,1200,,,,,,,MVFR,,,,,,,,,,,,METAR,194.0
TIST 150953Z AUTO 08006KT 10SM OVC025 26/23 A3003 RMK AO2 SLP168 T02560228 TSNO,TIST,2015-06-15T09:53:00Z,18.33,-64.98,25.6,22.8,80,6,,10.0,30.029528,1016.8,,TRUE,TRUE,,,TRUE,,,,OVC,2500,,,,,,,MVFR,,,,,,,,,,,,METAR,7.0
TISX 150953Z AUTO 06006KT 10SM OVC018 26/22 A3004 RMK AO2 SLP170 T02560217 TSNO,TISX,2015-06-15T09:53:00Z,17.7,-64.8,25.6,21.7,60,6,,10.0,30.041338,1017.0,,TRUE,TRUE,,,TRUE,,,,OVC,1800,,,,,,,MVFR,,,,,,,,,,,,METAR,19.0
KFSE 150953Z AUTO 32005KT 10SM CLR 11/11 A3002 RMK AO2,KFSE,2015-06-15T09:53:00Z,47.58,-95.77,11.0,11.0,320,5,,10.0,30.02067,,,TRUE,TRUE,,,,,,,CLR,,,,,,,,VFR,,,,,,,,,,,,METAR,389.0
KHLC 150953Z AUTO 30005KT 10SM OVC110 18/16 A2998 RMK AO2 SLP133 T01780161 $,KHLC,2015-06-15T09:53:00Z,39.37,-99.83,17.8,16.1,300,5,,10.0,29.97933,1013.3,,TRUE,TRUE,TRUE,,,,,,OVC,11000,,,,,,,VFR,,,,,,,,,,,,METAR,669.0
KHKY 150953Z AUTO 30004KT 10SM CLR 22/19 A3012 RMK AO2 SLP174 T02170189,KHKY,2015-06-15T09:53:00Z,35.75,-81.38,21.7,18.9,300,4,,10.0,30.121063,1017.4,,TRUE,TRUE,,,,,,,CLR,,,,,,,,VFR,,,,,,,,,,,,METAR,354.0
KHKS 150953Z 12005KT 10SM CLR 23/22 A3005 RMK AO2 SLP168 T02330222,KHKS,2015-06-15T09:53:00Z,32.33,-90.22,23.3,22.2,120,5,,10.0,30.050198,1016.8,,,TRUE,,,,,,,CLR,,,,,,,,VFR,,,,,,,,,,,,METAR,108.0
KHKA 150953Z AUTO 18006KT 10SM CLR 23/23 A3004 RMK AO2 SLP170 T02330228 $,KHKA,2015-06-15T09:53:00Z,35.93,-89.83,23.3,22.8,180,6,,10.0,30.041338,1017.0,,TRUE,TRUE,TRUE,,,,,,CLR,,,,,,,,VFR,,,,,,,,,,,,METAR,78.0
KHJO 150953Z AUTO 31007KT 10SM CLR 21/11 A2974 RMK AO2 SLP071 T02060111,KHJO,2015-06-15T09:53:00Z,36.32,-119.62,20.6,11.1,310,7,,10.0,29.740158,1007.1,,TRUE,TRUE,,,,,,,CLR,,,,,,,,VFR,,,,,,,,,,,,METAR,74.0
KHLN 150953Z AUTO 26007KT 10SM FEW070 10/03 A3020 RMK AO2 SLP228 T01000028,KHLN,2015-06-15T09:53:00Z,46.6,-111.98,10.0,2.8,260,7,,10.0,30.200787,1022.8,,TRUE,TRUE,,,,,,,FEW,7000,,,,,,,VFR,,,,,,,,,,,,METAR,1182.0
KHLG 150953Z AUTO 19004KT 10SM CLR 21/19 A3005 RMK AO2 RAE33 SLP168 P0001 T02060194,KHLG,2015-06-15T09:53:00Z,40.17,-80.65,20.6,19.4,190,4,,10.0,30.050198,1016.8,,TRUE,TRUE,,,,,,,CLR,,,,,,,,VFR,,,,,,0.01,,,,,,METAR,372.0
KOWD 150953Z AUTO 00000KT 10SM SCT060 BKN070 OVC110 15/12 A3009 RMK AO2 SLP187 T01500117,KOWD,2015-06-15T09:53:00Z,42.18,-71.17,15.0,11.7,0,0,,10.0,30.088583,1018.7,,TRUE,TRUE,,,,,,,SCT,6000,BKN,7000,OVC,11000,,,VFR,,,,,,,,,,,,METAR,19.0
KOVS 150953Z AUTO 00000KT 5SM -RA BR SCT110 20/19 A2990 RMK AO2 SLP123 P0003 T02000194 $,KOVS,2015-06-15T09:53:00Z,43.15,-90.68,20.0,19.4,0,0,,5.0,29.899607,1012.3,,TRUE,TRUE,TRUE,,,,,-RA BR,SCT,11000,,,,,,,MVFR,,,,,,0.03,,,,,,METAR,202.0
KOVE 150953Z AUTO 15005KT 10SM CLR 17/11 A2978 RMK AO2 SLP085 T01720111 $,KOVE,2015-06-15T09:53:00Z,39.5,-121.62,17.2,11.1,150,5,,10.0,29.778543,1008.5,,TRUE,TRUE,TRUE,,,,,,CLR,,,,,,,,VFR,,,,,,,,,,,,METAR,58.0
KOTM 150953Z AUTO 17004KT 10SM BKN110 21/21 A2988 RMK AO2 LTG DSNT W AND NW SLP112 T02110211,KOTM,2015-06-15T09:53:00Z,41.1,-92.45,21.1,21.1,170,4,,10.0,29.878937,1011.2,,TRUE,TRUE,,,,,,,BKN,11000,,,,,,,VFR,,,,,,,,,,,,METAR,256.0
KOSU 150953Z AUTO 26005KT 10SM FEW065 SCT080 OVC110 22/21 A3003 RMK AO2 RAB13E49 SLP161 P0004 T02220206,KOSU,2015-06-15T09:53:00Z,40.08,-83.08,22.2,20.6,260,5,,10.0,30.029528,1016.1,,TRUE,TRUE,,,,,,,FEW,6500,SCT,8000,OVC,11000,,,VFR,,,,,,0.04,,,,,,METAR,280.0
KOSH 150953Z AUTO 21004KT 10SM CLR 20/18 A2990 RMK AO2 SLP113 T02000178,KOSH,2015-06-15T09:53:00Z,43.97,-88.55,20.0,17.8,210,4,,10.0,29.899607,1011.3,,TRUE,TRUE,,,,,,,CLR,,,,,,,,VFR,,,,,,,,,,,,METAR,248.0
KORL 150953Z AUTO 12005KT 10SM CLR 23/22 A3009 RMK AO2 SLP193 T02330222,KORL,2015-06-15T09:53:00Z,28.55,-81.33,23.3,22.2,120,5,,10.0,30.088583,1019.3,,TRUE,TRUE,,,,,,,CLR,,,,,,,,VFR,,,,,,,,,,,,METAR,37.0
KOPF 150953Z AUTO 10005KT 10SM CLR 26/24 A3005 RMK AO2 SLP175 T02610239,KOPF,2015-06-15T09:53:00Z,25.92,-80.28,26.1,23.9,100,5,,10.0,30.050198,1017.5,,TRUE,TRUE,,,,,,,CLR,,,,,,,,VFR,,,,,,,,,,,,METAR,16.0
KONT 150953Z 28005KT 4SM BR SCT015 16/14 A2982 RMK AO2 SLP084 T01610144,KONT,2015-06-15T09:53:00Z,34.05,-117.58,16.1,14.4,280,5,,4.0,29.819881,1008.4,,,TRUE,,,,,,BR,SCT,1500,,,,,,,MVFR,,,,,,,,,,,,METAR,274.0
KONO 150953Z AUTO 00000KT 10SM CLR 17/02 A2992 RMK AO2 SLP115 T01720017,KONO,2015-06-15T09:53:00Z,44.02,-117.02,17.2,1.7,0,0,,10.0,29.920275,1011.5,,TRUE,TRUE,,,,,,,CLR,,,,,,,,VFR,,,,,,,,,,,,METAR,667.0
KOMK 150953Z AUTO 35010KT 10SM CLR 16/03 A3001 RMK AO2 SLP157 T01610033,KOMK,2015-06-15T09:53:00Z,48.47,-119.52,16.1,3.3,350,10,,10.0,30.008858,1015.7,,TRUE,TRUE,,,,,,,CLR,,,,,,,,VFR,,,,,,,,,,,,METAR,395.0
KOLF 150953Z AUTO 09003KT 10SM CLR 08/04 A3024 RMK AO2 SLP241 T00780039,KOLF,2015-06-15T09:53:00Z,48.1,-105.58,7.8,3.9,90,3,,10.0,30.239174,1024.1,,TRUE,TRUE,,,,,,,CLR,,,,,,,,VFR,,,,,,,,,,,,METAR,604.0
KOJC 150953Z AUTO 23005KT 10SM FEW013 SCT044 22/21 A2992 RMK AO2 SLP121 T02220206,KOJC,2015-06-15T09:53:00Z,38.85,-94.73,22.2,20.6,230,5,,10.0,29.920275,1012.1,,TRUE,TRUE,,,,,,,FEW,1300,SCT,4400,,,,,VFR,,,,,,,,,,,,METAR,326.0
KOGD 150953Z AUTO 16007KT 10SM CLR 19/06 A2997 RMK AO2 SLP087 T01890061 TSNO,KOGD,2015-06-15T09:53:00Z,41.2,-112.02,18.9,6.1,160,7,,10.0,29.970472,1008.7,,TRUE,TRUE,,,TRUE,,,,CLR,,,,,,,,VFR,,,,,,,,,,,,METAR,1353.0
MMTG 150953Z 00000KT 10SM BKN090 OVC300 21/20 A2989 RMK 8/077 ISOLD ST,MMTG,2015-06-15T09:53:00Z,16.57,-93.03,21.0,20.0,0,0,,10.0,29.890747,,,,,,,,,,,BKN,9000,OVC,30000,,,,,VFR,,,,,,,,,,,,METAR,528.0
KLVJ 150953Z AUTO 11005KT 10SM CLR 27/23 A2991 RMK AO2 SLP128 T02670228,KLVJ,2015-06-15T09:53:00Z,29.52,-95.25,26.7,22.8,110,5,,10.0,29.911417,1012.8,,TRUE,TRUE,,,,,,,CLR,,,,,,,,VFR,,,,,,,,,,,,METAR,12.0
KLUK 150953Z AUTO 20005KT 10SM FEW080 22/21 A3004 RMK AO2 SLP168 T02220211,KLUK,2015-06-15T09:53:00Z,39.1,-84.42,22.2,21.1,200,5,,10.0,30.041338,1016.8,,TRUE,TRUE,,,,,,,FEW,8000,,,,,,,VFR,,,,,,,,,,,,METAR,155.0
KLSE 150953Z AUTO 14003KT 10SM CLR 21/19 A2989 RMK AO2 SLP111 T02060189,KLSE,2015-06-15T09:53:00Z,43.88,-91.25,20.6,18.9,140,3,,10.0,29.890747,1011.1,,TRUE,TRUE,,,,,,,CLR,,,,,,,,VFR,,,,,,,,,,,,METAR,199.0
KLPR 150953Z AUTO 27005KT 10SM FEW033 SCT060 BKN080 22/21 A2999 RMK AO2 SLP149 T02170211 TSNO $,KLPR,2015-06-15T09:53:00Z,41.35,-82.18,21.7,21.1,270,5,,10.0,29.991142,1014.9,,TRUE,TRUE,TRUE,,TRUE,,,,FEW,3300,SCT,6000,BKN,8000,,,VFR,,,,,,,,,,,,METAR,241.0
KLOZ 150953Z AUTO 00000KT 10SM CLR 21/18 A3014 RMK AO2 SLP192 T02060178,KLOZ,2015-06-15T09:53:00Z,37.08,-84.07,20.6,17.8,0,0,,10.0,30.138779,1019.2,,TRUE,TRUE,,,,,,,CLR,,,,,,,,VFR,,,,,,,,,,,,METAR,362.0
KLOU 150953Z AUTO 20004KT 10SM CLR 25/21 A3006 RMK AO2 SLP172 T02500206,KLOU,2015-06-15T09:53:00Z,38.22,-85.67,25.0,20.6,200,4,,10.0,30.059055,1017.2,,TRUE,TRUE,,,,,,,CLR,,,,,,,,VFR,,,,,,,,,,,,METAR,164.0
KLOL 150953Z AUTO 12003KT 10SM CLR 16/M01 A2991 RMK AO2 SLP085 T01561011,KLOL,2015-06-15T09:53:00Z,40.07,-118.57,15.6,-1.1,120,3,,10.0,29.911417,1008.5,,TRUE,TRUE,,,,,,,CLR,,,,,,,,VFR,,,,,,,,,,,,METAR,1189.0
KLNS 150953Z 25005KT 10SM FEW035 SCT070 SCT090 23/22 A2998 RMK AO2 SLP148 T02330217,KLNS,2015-06-15T09:53:00Z,40.12,-76.3,23.3,21.7,250,5,,10.0,29.97933,1014.8,,,TRUE,,,,,,,FEW,3500,SCT,7000,SCT,9000,,,VFR,,,,,,,,,,,,METAR,125.0
KLMT 150953Z AUTO 00000KT 10SM CLR 13/03 A2995 RMK AO2 SLP098 T01330028,KLMT,2015-06-15T09:53:00Z,42.15,-121.72,13.3,2.8,0,0,,10.0,29.949802,1009.8,,TRUE,TRUE,,,,,,,CLR,,,,,,,,VFR,,,,,,,,,,,,METAR,1246.0
KLLQ 150953Z AUTO 15003KT CLR 23/23 A3002 RMK AO2 SLP161 T02280228 $,KLLQ,2015-06-15T09:53:00Z,33.63,-91.75,22.8,22.8,150,3,,,30.02067,1016.1,,TRUE,TRUE,TRUE,,,,,,CLR,,,,,,,,,,,,,,,,,,,,METAR,83.0
KLIT 150953Z 00000KT 10SM FEW009 BKN110 23/21 A3002 RMK AO2 SLP164 T02330206,KLIT,2015-06-15T09:53:00Z,34.73,-92.23,23.3,20.6,0,0,,10.0,30.02067,1016.4,,,TRUE,,,,,,,FEW,900,BKN,11000,,,,,VFR,,,,,,,,,,,,METAR,79.0
KLHX 150953Z AUTO 31008KT 10SM CLR 13/11 A3010 RMK AO2 SLP143 T01330111,KLHX,2015-06-15T09:53:00Z,38.05,-103.52,13.3,11.1,310,8,,10.0,30.100393,1014.3,,TRUE,TRUE,,,,,,,CLR,,,,,,,,VFR,,,,,,,,,,,,METAR,1277.0
KLHQ 150953Z AUTO 20003KT 10SM FEW050 22/21 A3005 RMK AO2 RAB42E52 SLP165 P0000 T02220211,KLHQ,2015-06-15T09:53:00Z,39.75,-82.67,22.2,21.1,200,3,,10.0,30.050198,1016.5,,TRUE,TRUE,,,,,,,FEW,5000,,,,,,,VFR,,,,,,0.0050,,,,,,METAR,260.0
KLGB 150953Z 17003KT 8SM OVC012 19/16 A2981 RMK AO2 SLP095 T01890156,KLGB,2015-06-15T09:53:00Z,33.82,-118.15,18.9,15.6,170,3,,8.0,29.811024,1009.5,,,TRUE,,,,,,,OVC,1200,,,,,,,MVFR,,,,,,,,,,,,METAR,10.0
KLFT 150953Z 04004KT 10SM SCT003 24/23 A2997 RMK AO2 SLP146 T02390228,KLFT,2015-06-15T09:53:00Z,30.2,-92.0,23.9,22.8,40,4,,10.0,29.970472,1014.6,,,TRUE,,,,,,,SCT,300,,,,,,,VFR,,,,,,,,,,,,METAR,11.0
KLFK 150953Z AUTO 11005KT 9SM OVC007 24/23 A2996 RMK AO2 SLP140 T02440228,KLFK,2015-06-15T09:53:00Z,31.23,-94.75,24.4,22.8,110,5,,9.0,29.958662,1014.0,,TRUE,TRUE,,,,,,,OVC,700,,,,,,,IFR,,,,,,,,,,,,METAR,88.0
KLEE 150953Z AUTO 13007KT 10SM CLR 25/23 A3010 RMK AO2 SLP192 T02500233,KLEE,2015-06-15T09:53:00Z,28.82,-81.82,25.0,23.3,130,7,,10.0,30.100393,1019.2,,TRUE,TRUE,,,,,,,CLR,,,,,,,,VFR,,,,,,,,,,,,METAR,23.0
KLEB 150953Z 05003KT 6SM -RA BR BKN019 OVC065 14/13 A3004 RMK AO2 SLP166 P0008 T01440133,KLEB,2015-06-15T09:53:00Z,43.63,-72.3,14.4,13.3,50,3,,6.0,30.041338,1016.6,,,TRUE,,,,,,-RA BR,BKN,1900,OVC,6500,,,,,MVFR,,,,,,0.08,,,,,,METAR,171.0
KLCH 150953Z AUTO 12006KT 10SM -RA FEW015 SCT065 BKN100 24/23 A2995 RMK AO2 RAE29B47 SLP149 P0016 T02390228,KLCH,2015-06-15T09:53:00Z,30.13,-93.22,23.9,22.8,120,6,,10.0,29.949802,1014.9,,TRUE,TRUE,,,,,,-RA,FEW,1500,SCT,6500,BKN,10000,,,VFR,,,,,,0.16,,,,,,METAR,4.0
KLBX 150953Z AUTO 04003KT 10SM -RA SCT025 BKN034 OVC065 26/24 A2989 RMK AO2 RAB50 SLP120 P0000 T02610239,KLBX,2015-06-15T09:53:00Z,29.12,-95.47,26.1,23.9,40,3,,10.0,29.890747,1012.0,,TRUE,TRUE,,,,,,-RA,SCT,2500,BKN,3400,OVC,6500,,,VFR,,,,,,0.0050,,,,,,METAR,6.0
KLBB 150953Z 00000KT 10SM FEW110 BKN150 BKN160 19/17 A3000 RMK AO2 SLP113 T01890172 $,KLBB,2015-06-15T09:53:00Z,33.67,-101.82,18.9,17.2,0,0,,10.0,30.0,1011.3,,,TRUE,TRUE,,,,,,FEW,11000,BKN,15000,BKN,16000,,,VFR,,,,,,,,,,,,METAR,993.0
KLAX 150953Z 00000KT 2 1/2SM BR VV004 17/16 A2982 RMK AO2 SLP095 VIS SW-N 1 1/2 ASOS VIS 7 T01670156,KLAX,2015-06-15T09:53:00Z,33.93,-118.38,16.7,15.6,0,0,,2.5,29.819881,1009.5,,,TRUE,,,,,,BR,OVX,0,,,,,,,LIFR,,,,,,,,,,,400,METAR,46.0
KLAW 150953Z AUTO 00000KT 10SM SCT022 BKN037 OVC045 21/19 A2995 RMK AO2 RAB17E45 SLP131 P0015 T02110194 TSNO,KLAW,2015-06-15T09:53:00Z,34.55,-98.42,21.1,19.4,0,0,,10.0,29.949802,1013.1,,TRUE,TRUE,,,TRUE,,,,SCT,2200,BKN,3700,OVC,4500,,,VFR,,,,,,0.15,,,,,,METAR,337.0
KLAR 150953Z AUTO 16010KT 10SM CLR 10/07 A3022 RMK AO2 SLP128 T01000067,KLAR,2015-06-15T09:53:00Z,41.32,-105.67,10.0,6.7,160,10,,10.0,30.221457,1012.8,,TRUE,TRUE,,,,,,,CLR,,,,,,,,VFR,,,,,,,,,,,,METAR,2216.0
KLAN 150953Z 27004KT 6SM BR OVC005 20/19 A2996 RMK AO2 SLP141 T02000189,KLAN,2015-06-15T09:53:00Z,42.78,-84.58,20.0,18.9,270,4,,6.0,29.958662,1014.1,,,TRUE,,,,,,BR,OVC,500,,,,,,,IFR,,,,,,,,,,,,METAR,264.0
KLAA 150953Z AUTO 00000KT 8SM CLR 13/12 A3006 RMK AO2 SLP141 T01280122 TSNO,KLAA,2015-06-15T09:53:00Z,38.07,-102.68,12.8,12.2,0,0,,8.0,30.059055,1014.1,,TRUE,TRUE,,,TRUE,,,,CLR,,,,,,,,VFR,,,,,,,,,,,,METAR,1119.0
KJKL 150953Z AUTO 00000KT 10SM CLR 22/19 A3013 RMK AO2 SLP188 T02220189,KJKL,2015-06-15T09:53:00Z,37.6,-83.32,22.2,18.9,0,0,,10.0,30.129921,1018.8,,TRUE,TRUE,,,,,,,CLR,,,,,,,,VFR,,,,,,,,,,,,METAR,416.0
KJER 150953Z AUTO 11004KT 10SM CLR 13/02 A2996 RMK AO2 SLP111 T01330022,KJER,2015-06-15T09:53:00Z,42.72,-114.45,13.3,2.2,110,4,,10.0,29.958662,1011.1,,TRUE,TRUE,,,,,,,CLR,,,,,,,,VFR,,,,,,,,,,,,METAR,1222.0
KJEF 150953Z AUTO 10003KT 10SM BKN070 23/21 A2996 RMK AO2 SLP130 T02280211 TSNO,KJEF,2015-06-15T09:53:00Z,38.6,-92.15,22.8,21.1,100,3,,10.0,29.958662,1013.0,,TRUE,TRUE,,,TRUE,,,,BKN,7000,,,,,,,VFR,,,,,,,,,,,,METAR,168.0
KRUE 150953Z AUTO 11003KT 10SM SCT016 OVC024 23/22 A3001 RMK AO2 SLP155 T02330217,KRUE,2015-06-15T09:53:00Z,35.25,-93.1,23.3,21.7,110,3,,10.0,30.008858,1015.5,,TRUE,TRUE,,,,,,,SCT,1600,OVC,2400,,,,,MVFR,,,,,,,,,,,,METAR,115.0
KRTN 150953Z AUTO 06006KT 10SM CLR 09/08 A3019 RMK AO2 SLP147 T00940083,KRTN,2015-06-15T09:53:00Z,36.73,-104.5,9.4,8.3,60,6,,10.0,30.188976,1014.7,,TRUE,TRUE,,,,,,,CLR,,,,,,,,VFR,,,,,,,,,,,,METAR,1936.0
KRSW 150953Z AUTO 00000KT 10SM CLR 23/22 A3005 RMK AO2 SLP174 T02330222,KRSW,2015-06-15T09:53:00Z,26.53,-81.75,23.3,22.2,0,0,,10.0,30.050198,1017.4,,TRUE,TRUE,,,,,,,CLR,,,,,,,,VFR,,,,,,,,,,,,METAR,10.0
KRSL 150953Z AUTO 31008KT 10SM BKN019 OVC075 18/17 A2995 RMK AO2 SLP127 T01780172,KRSL,2015-06-15T09:53:00Z,38.87,-98.82,17.8,17.2,310,8,,10.0,29.949802,1012.7,,TRUE,TRUE,,,,,,,BKN,1900,OVC,7500,,,,,MVFR,,,,,,,,,,,,METAR,567.0
KPKB 150953Z AUTO 25003KT 10SM FEW047 SCT080 23/20 A3008 RMK AO2 LTG DSNT NE SLP178 T02330200,KPKB,2015-06-15T09:53:00Z,39.35,-81.42,23.3,20.0,250,3,,10.0,30.079725,1017.8,,TRUE,TRUE,,,,,,,FEW,4700,SCT,8000,,,,,VFR,,,,,,,,,,,,METAR,262.0
KPIR 150953Z AUTO 33003KT 10SM CLR 12/12 A3007 RMK AO2 SLP175 T01220117,KPIR,2015-06-15T09:53:00Z,44.38,-100.28,12.2,11.7,330,3,,10.0,30.070866,1017.5,,TRUE,TRUE,,,,,,,CLR,,,,,,,,VFR,,,,,,,,,,,,METAR,526.0
KPIL 150953Z AUTO 15003KT 10SM CLR 25/23 A2981 RMK AO2 SLP092 T02500233,KPIL,2015-06-15T09:53:00Z,26.17,-97.33,25.0,23.3,150,3,,10.0,29.811024,1009.2,,TRUE,TRUE,,,,,,,CLR,,,,,,,,VFR,,,,,,,,,,,,METAR,5.0
KPIH 150953Z AUTO 12008KT 10SM CLR 11/06 A3001 RMK AO2 SLP121 T01060056,KPIH,2015-06-15T09:53:00Z,42.92,-112.57,10.6,5.6,120,8,,10.0,30.008858,1012.1,,TRUE,TRUE,,,,,,,CLR,,,,,,,,VFR,,,,,,,,,,,,METAR,1359.0
KPIE 150953Z 11006KT 10SM CLR 26/24 A3007 RMK AO2 SLP182 T02560239,KPIE,2015-06-15T09:53:00Z,27.92,-82.68,25.6,23.9,110,6,,10.0,30.070866,1018.2,,,TRUE,,,,,,,CLR,,,,,,,,VFR,,,,,,,,,,,,METAR,4.0
KPHD 150953Z AUTO 22004KT 2SM -RA BR FEW026 BKN040 OVC050 23/21 A3003 RMK AO2 RAB44 SLP162 P0004 T02280206,KPHD,2015-06-15T09:53:00Z,40.47,-81.42,22.8,20.6,220,4,,2.0,30.029528,1016.2,,TRUE,TRUE,,,,,,-RA BR,FEW,2600,BKN,4000,OVC,5000,,,IFR,,,,,,0.04,,,,,,METAR,272.0
KPGD 150953Z AUTO 06004KT 10SM CLR 22/22 A3007 RMK AO2 SLP181 T02170217,KPGD,2015-06-15T09:53:00Z,26.92,-82.0,21.7,21.7,60,4,,10.0,30.070866,1018.1,,TRUE,TRUE,,,,,,,CLR,,,,,,,,VFR,,,,,,,,,,,,METAR,7.0
KPEO 150953Z AUTO 20003KT 9SM FEW023 OVC042 21/20 A2993 RMK AO2 SLP129 T02110200 $,KPEO,2015-06-15T09:53:00Z,42.65,-77.05,21.1,20.0,200,3,,9.0,29.929134,1012.9,,TRUE,TRUE,TRUE,,,,,,FEW,2300,OVC,4200,,,,,VFR,,,,,,,,,,,,METAR,256.0
KPDX 150953Z 29004KT 10SM CLR 17/10 A2989 RMK AO2 SLP121 T01720100,KPDX,2015-06-15T09:53:00Z,45.6,-122.62,17.2,10.0,290,4,,10.0,29.890747,1012.1,,,TRUE,,,,,,,CLR,,,,,,,,VFR,,,,,,,,,,,,METAR,7.0
KPDT 150953Z AUTO 15008KT 10SM CLR 13/03 A2992 RMK AO2 SLP117 T01280028,KPDT,2015-06-15T09:53:00Z,45.7,-118.83,12.8,2.8,150,8,,10.0,29.920275,1011.7,,TRUE,TRUE,,,,,,,CLR,,,,,,,,VFR,,,,,,,,,,,,METAR,462.0
KPDK 150953Z AUTO 00000KT 7SM CLR 22/21 A3014 RMK AO2 SLP188 T02170206 TSNO,KPDK,2015-06-15T09:53:00Z,33.88,-84.3,21.7,20.6,0,0,,7.0,30.138779,1018.8,,TRUE,TRUE,,,TRUE,,,,CLR,,,,,,,,VFR,,,,,,,,,,,,METAR,302.0
KPBI 150953Z 11008KT 10SM FEW020 FEW250 27/23 A3007 RMK AO2 SLP180 T02670228 $,KPBI,2015-06-15T09:53:00Z,26.68,-80.1,26.7,22.8,110,8,,10.0,30.070866,1018.0,,,TRUE,TRUE,,,,,,FEW,2000,FEW,25000,,,,,VFR,,,,,,,,,,,,METAR,6.0
KPBG 150953Z AUTO 00000KT 6SM RA BR BKN018 BKN023 OVC036 15/14 A2995 RMK AO2 SLP141 P0005 T01500144,KPBG,2015-06-15T09:53:00Z,44.65,-73.47,15.0,14.4,0,0,,6.0,29.949802,1014.1,,TRUE,TRUE,,,,,,RA BR,BKN,1800,BKN,2300,OVC,3600,,,MVFR,,,,,,0.05,,,,,,METAR,72.0
KPBF 150953Z AUTO 16004KT 10SM CLR 23/22 A3003 RMK AO2 SLP165 T02280222,KPBF,2015-06-15T09:53:00Z,34.18,-91.93,22.8,22.2,160,4,,10.0,30.029528,1016.5,,TRUE,TRUE,,,,,,,CLR,,,,,,,,VFR,,,,,,,,,,,,METAR,62.0
KPAH 150953Z AUTO 00000KT 10SM CLR 24/21 A3003 RMK AO2 SLP164 T02390211,KPAH,2015-06-15T09:53:00Z,37.07,-88.77,23.9,21.1,0,0,,10.0,30.029528,1016.4,,TRUE,TRUE,,,,,,,CLR,,,,,,,,VFR,,,,,,,,,,,,METAR,119.0
KPAE 150953Z AUTO 01003KT 10SM CLR 15/06 A2996 RMK AO2 SLP144 T01500056,KPAE,2015-06-15T09:53:00Z,47.92,-122.28,15.0,5.6,10,3,,10.0,29.958662,1014.4,,TRUE,TRUE,,,,,,,CLR,,,,,,,,VFR,,,,,,,,,,,,METAR,180.0
KOXB 150953Z AUTO 21005KT 5SM BR CLR 24/23 A3000 RMK AO2 SLP158 T02390228 TSNO,KOXB,2015-06-15T09:53:00Z,38.32,-75.12,23.9,22.8,210,5,,5.0,30.0,1015.8,,TRUE,TRUE,,,TRUE,,,BR,CLR,,,,,,,,MVFR,,,,,,,,,,,,METAR,3.0
KRVS 150953Z 18005KT 10SM OVC012 23/22 A2994 RMK AO2 SLP143 T02330217,KRVS,2015-06-15T09:53:00Z,36.05,-95.98,23.3,21.7,180,5,,10.0,29.940945,1014.3,,,TRUE,,,,,,,OVC,1200,,,,,,,MVFR,,,,,,,,,,,,METAR,200.0
KRWF 150953Z AUTO 34009KT 10SM BKN050 BKN070 18/16 A2994 RMK AO2 LTG DSNT W RAB27E40 SLP133 P0000 T01780156,KRWF,2015-06-15T09:53:00Z,44.55,-95.08,17.8,15.6,340,9,,10.0,29.940945,1013.3,,TRUE,TRUE,,,,,,,BKN,5000,BKN,7000,,,,,VFR,,,,,,0.0050,,,,,,METAR,311.0
KRWI 150953Z AUTO 00000KT 6SM BR CLR 22/22 A3005 RMK AO2 SLP173 T02220217 $,KRWI,2015-06-15T09:53:00Z,35.85,-77.9,22.2,21.7,0,0,,6.0,30.050198,1017.3,,TRUE,TRUE,TRUE,,,,,BR,CLR,,,,,,,,VFR,,,,,,,,,,,,METAR,47.0
KVWU 150953Z AUTO 30009KT 10SM CLR 15/12 A2997 RMK AO2,KVWU,2015-06-15T09:53:00Z,48.15,-94.52,15.0,12.0,300,9,,10.0,29.970472,,,TRUE,TRUE,,,,,,,CLR,,,,,,,,VFR,,,,,,,,,,,,METAR,360.0
KSHR 150953Z AUTO 00000KT 9SM VCTS RA OVC044 12/09 A3021 RMK AO2 RAB15 SLP215 P0002 T01220094,KSHR,2015-06-15T09:53:00Z,44.77,-106.97,12.2,9.4,0,0,,9.0,30.209646,1021.5,,TRUE,TRUE,,,,,,VCTS RA,OVC,4400,,,,,,,VFR,,,,,,0.02,,,,,,METAR,1202.0
KSHN 150953Z AUTO 30004KT 10SM CLR 12/07 A2994 RMK AO2 SLP137 T01220072,KSHN,2015-06-15T09:53:00Z,47.23,-123.13,12.2,7.2,300,4,,10.0,29.940945,1013.7,,TRUE,TRUE,,,,,,,CLR,,,,,,,,VFR,,,,,,,,,,,,METAR,82.0
KSGR 150953Z AUTO 11006KT 10SM CLR 26/23 A2990 RMK AO2 SLP125 T02560233,KSGR,2015-06-15T09:53:00Z,29.62,-95.65,25.6,23.3,110,6,,10.0,29.899607,1012.5,,TRUE,TRUE,,,,,,,CLR,,,,,,,,VFR,,,,,,,,,,,,METAR,2.0
KSFF 150953Z AUTO 00000KT 10SM CLR 12/06 A3002 RMK AO2 SLP153 T01220061,KSFF,2015-06-15T09:53:00Z,47.68,-117.32,12.2,6.1,0,0,,10.0,30.02067,1015.3,,TRUE,TRUE,,,,,,,CLR,,,,,,,,VFR,,,,,,,,,,,,METAR,609.0
KSFB 150953Z AUTO 00000KT 10SM CLR 23/22 A3009 RMK AO2 SLP189 T02330222,KSFB,2015-06-15T09:53:00Z,28.77,-81.22,23.3,22.2,0,0,,10.0,30.088583,1018.9,,TRUE,TRUE,,,,,,,CLR,,,,,,,,VFR,,,,,,,,,,,,METAR,17.0
KSEG 150953Z AUTO 22004KT 4SM -RA BR FEW085 BKN110 22/21 RMK AO2 RAB17 SLPNO P0003 T02170206 $,KSEG,2015-06-15T09:53:00Z,40.82,-76.87,21.7,20.6,220,4,,4.0,,,,TRUE,TRUE,TRUE,,,,,-RA BR,FEW,8500,BKN,11000,,,,,MVFR,,,,,,0.03,,,,,,METAR,134.0
KSEA 150953Z 01007KT 10SM FEW110 17/07 A2995 RMK AO2 SLP146 T01670072,KSEA,2015-06-15T09:53:00Z,47.45,-122.32,16.7,7.2,10,7,,10.0,29.949802,1014.6,,,TRUE,,,,,,,FEW,11000,,,,,,,VFR,,,,,,,,,,,,METAR,136.0
KSDM 150953Z AUTO 00000KT 10SM OVC009 18/16 A2981 RMK AO2 SLP089 T01780156,KSDM,2015-06-15T09:53:00Z,32.58,-117.0,17.8,15.6,0,0,,10.0,29.811024,1008.9,,TRUE,TRUE,,,,,,,OVC,900,,,,,,,IFR,,,,,,,,,,,,METAR,159.0
KSDL 150953Z 00000KT 10SM CLR 31/07 A2974 RMK AO2 SLP040 T03060072,KSDL,2015-06-15T09:53:00Z,33.62,-111.92,30.6,7.2,0,0,,10.0,29.740158,1004.0,,,TRUE,,,,,,,CLR,,,,,,,,VFR,,,,,,,,,,,,METAR,447.0
KSBM 150953Z AUTO 00000KT 6SM BR CLR 18/17 A2990 RMK AO2 SLP123 T01780167,KSBM,2015-06-15T09:53:00Z,43.78,-87.85,17.8,16.7,0,0,,6.0,29.899607,1012.3,,TRUE,TRUE,,,,,,BR,CLR,,,,,,,,VFR,,,,,,,,,,,,METAR,232.0
KSBA 150953Z AUTO 06003KT 9SM OVC007 16/13 A2982 RMK AO2 SLP097 T01560133,KSBA,2015-06-15T09:53:00Z,34.43,-119.85,15.6,13.3,60,3,,9.0,29.819881,1009.7,,TRUE,TRUE,,,,,,,OVC,700,,,,,,,IFR,,,,,,,,,,,,METAR,3.0
KSAV 150953Z 00000KT 10SM CLR 23/20 A3011 RMK AO2 SLP194 FIRST AUGMENTED OBSERVATION T02330200,KSAV,2015-06-15T09:53:00Z,32.12,-81.2,23.3,20.0,0,0,,10.0,30.109253,1019.4,,,TRUE,,,,,,,CLR,,,,,,,,VFR,,,,,,,,,,,,METAR,14.0
KSAF 150953Z AUTO 10005KT 10SM CLR 12/08 A3019 RMK AO2 SLP127 T01220078,KSAF,2015-06-15T09:53:00Z,35.62,-106.1,12.2,7.8,100,5,,10.0,30.188976,1012.7,,TRUE,TRUE,,,,,,,CLR,,,,,,,,VFR,,,,,,,,,,,,METAR,1930.0
KSAC 150953Z 19010G15KT 10SM CLR 13/11 A2977 RMK AO2 SLP081 T01330106,KSAC,2015-06-15T09:53:00Z,38.5,-121.5,13.3,10.6,190,10,15,10.0,29.769686,1008.1,,,TRUE,,,,,,,CLR,,,,,,,,VFR,,,,,,,,,,,,METAR,11.0
KRXE 150953Z AUTO 04007KT 10SM CLR 09/03 A3004 RMK AO2 SLP136 T00940028,KRXE,2015-06-15T09:53:00Z,43.83,-111.8,9.4,2.8,40,7,,10.0,30.041338,1013.6,,TRUE,TRUE,,,,,,,CLR,,,,,,,,VFR,,,,,,,,,,,,METAR,1480.0
KRWL 150953Z AUTO 05005KT 10SM CLR 10/08 A3020 RMK AO2 SLP136 T01000083,KRWL,2015-06-15T09:53:00Z,41.78,-107.2,10.0,8.3,50,5,,10.0,30.200787,1013.6,,TRUE,TRUE,,,,,,,CLR,,,,,,,,VFR,,,,,,,,,,,,METAR,2077.0
KTEW 150953Z AUTO 00000KT 1/4SM FG OVC002 18/18 A2996 RMK AO2,KTEW,2015-06-15T09:53:00Z,42.57,-84.42,18.0,18.0,0,0,,0.25,29.958662,,,TRUE,TRUE,,,,,,FG,OVC,200,,,,,,,LIFR,,,,,,,,,,,,METAR,280.0
KGFL 150953Z AUTO 06003KT 5SM BR SCT018 OVC025 17/16 A2995 RMK AO2 RAE43 SLP139 P0005 T01670156,KGFL,2015-06-15T09:53:00Z,43.33,-73.62,16.7,15.6,60,3,,5.0,29.949802,1013.9,,TRUE,TRUE,,,,,,BR,SCT,1800,OVC,2500,,,,,MVFR,,,,,,0.05,,,,,,METAR,103.0
KGRI 150953Z AUTO 08011KT 10SM -RA BKN120 18/17 A2996 RMK AO2 RAB12 SLP137 P0001 T01830167,KGRI,2015-06-15T09:53:00Z,40.97,-98.32,18.3,16.7,80,11,,10.0,29.958662,1013.7,,TRUE,TRUE,,,,,,-RA,BKN,12000,,,,,,,VFR,,,,,,0.01,,,,,,METAR,561.0
KZZV 150953Z AUTO 20003KT 10SM FEW025 22/20 A3005 RMK AO2 RAB0857E33 SLP166 P0046 T02170200 $,KZZV,2015-06-15T09:53:00Z,39.95,-81.9,21.7,20.0,200,3,,10.0,30.050198,1016.6,,TRUE,TRUE,TRUE,,,,,,FEW,2500,,,,,,,VFR,,,,,,0.46,,,,,,METAR,268.0
KYKM 150953Z AUTO 27008KT 10SM CLR 12/03 A2995 RMK AO2 SLP137 T01220028 $,KYKM,2015-06-15T09:53:00Z,46.57,-120.53,12.2,2.8,270,8,,10.0,29.949802,1013.7,,TRUE,TRUE,TRUE,,,,,,CLR,,,,,,,,VFR,,,,,,,,,,,,METAR,324.0
KYIP 150953Z AUTO 23004KT 8SM OVC090 23/21 A2996 RMK AO2 SLP138 T02330211 TSNO,KYIP,2015-06-15T09:53:00Z,42.23,-83.53,23.3,21.1,230,4,,8.0,29.958662,1013.8,,TRUE,TRUE,,,TRUE,,,,OVC,9000,,,,,,,VFR,,,,,,,,,,,,METAR,215.0
KXNA 150953Z AUTO 18006KT 10SM FEW120 22/21 A3000 RMK AO2 SLP141 T02220211,KXNA,2015-06-15T09:53:00Z,36.28,-94.3,22.2,21.1,180,6,,10.0,30.0,1014.1,,TRUE,TRUE,,,,,,,FEW,12000,,,,,,,VFR,,,,,,,,,,,,METAR,392.0
KWVI 150953Z AUTO 28003KT 7SM OVC007 12/11 A2987 RMK AO2 SLP115 T01220106,KWVI,2015-06-15T09:53:00Z,36.93,-121.78,12.2,10.6,280,3,,7.0,29.870079,1011.5,,TRUE,TRUE,,,,,,,OVC,700,,,,,,,IFR,,,,,,,,,,,,METAR,43.0
KWST 150953Z AUTO 11005KT 6SM -RA BR OVC070 16/14 A3008 RMK AO2 SLP184 P0004 T01610144 $,KWST,2015-06-15T09:53:00Z,41.35,-71.8,16.1,14.4,110,5,,6.0,30.079725,1018.4,,TRUE,TRUE,TRUE,,,,,-RA BR,OVC,7000,,,,,,,VFR,,,,,,0.04,,,,,,METAR,21.0
KMSN 150953Z AUTO 00000KT 10SM -RA CLR 20/18 A2991 RMK AO2 RAB36 SLP123 P0000 T02000183,KMSN,2015-06-15T09:53:00Z,43.13,-89.35,20.0,18.3,0,0,,10.0,29.911417,1012.3,,TRUE,TRUE,,,,,,-RA,CLR,,,,,,,,VFR,,,,,,0.0050,,,,,,METAR,261.0
KMRB 150953Z AUTO 00000KT 7SM -RA SCT050 BKN075 OVC110 22/21 A3004 RMK AO2 RAB16 SLP168 P0008 T02220206 TSNO,KMRB,2015-06-15T09:53:00Z,39.4,-77.98,22.2,20.6,0,0,,7.0,30.041338,1016.8,,TRUE,TRUE,,,TRUE,,,-RA,SCT,5000,BKN,7500,OVC,11000,,,VFR,,,,,,0.08,,,,,,METAR,164.0
KMPO 150953Z AUTO 27009KT 7SM BKN008 21/19 A2999 RMK AO2 CIG 005V013 SLP143 T02060189 PNO $,KMPO,2015-06-15T09:53:00Z,41.13,-75.38,20.6,18.9,270,9,,7.0,29.991142,1014.3,,TRUE,TRUE,TRUE,,,,,,BKN,800,,,,,,,IFR,,,,,,,,,,,,METAR,577.0
KMOD 150953Z AUTO 33007KT 10SM CLR 17/08 A2976 RMK AO2 SLP077 T01720083,KMOD,2015-06-15T09:53:00Z,37.62,-120.95,17.2,8.3,330,7,,10.0,29.760826,1007.7,,TRUE,TRUE,,,,,,,CLR,,,,,,,,VFR,,,,,,,,,,,,METAR,29.0
KMNN 150953Z AUTO 24007KT 10SM BKN060 OVC110 22/21 A3002 RMK AO2 SLP158 T02220206 TSNO,KMNN,2015-06-15T09:53:00Z,40.62,-83.07,22.2,20.6,240,7,,10.0,30.02067,1015.8,,TRUE,TRUE,,,TRUE,,,,BKN,6000,OVC,11000,,,,,VFR,,,,,,,,,,,,METAR,301.0
KMMV 150953Z AUTO 27003KT 10SM CLR 12/09 A2990 RMK AO2 SLP122 T01220089,KMMV,2015-06-15T09:53:00Z,45.2,-123.13,12.2,8.9,270,3,,10.0,29.899607,1012.2,,TRUE,TRUE,,,,,,,CLR,,,,,,,,VFR,,,,,,,,,,,,METAR,48.0
KMLU 150953Z AUTO 13003KT 10SM CLR 23/23 A3002 RMK AO2 SLP163 T02280228,KMLU,2015-06-15T09:53:00Z,32.52,-92.03,22.8,22.8,130,3,,10.0,30.02067,1016.3,,TRUE,TRUE,,,,,,,CLR,,,,,,,,VFR,,,,,,,,,,,,METAR,29.0
KMLT 150953Z AUTO 16003KT 10SM CLR 10/08 A3012 RMK AO2 SLP205 T01000078,KMLT,2015-06-15T09:53:00Z,45.65,-68.7,10.0,7.8,160,3,,10.0,30.121063,1020.5,,TRUE,TRUE,,,,,,,CLR,,,,,,,,VFR,,,,,,,,,,,,METAR,123.0
KMLS 150953Z AUTO 03006KT 10SM CLR 09/07 A3019 RMK AO2 SLP218 T00940067,KMLS,2015-06-15T09:53:00Z,46.43,-105.88,9.4,6.7,30,6,,10.0,30.188976,1021.8,,TRUE,TRUE,,,,,,,CLR,,,,,,,,VFR,,,,,,,,,,,,METAR,801.0
KMLP 150953Z AUTO VRB06KT 10SM CLR 08/01 A3016 RMK AO2 SLP134 T00780006,KMLP,2015-06-15T09:53:00Z,47.45,-115.67,7.8,0.6,0,6,,10.0,30.159449,1013.4,,TRUE,TRUE,,,,,,,CLR,,,,,,,,VFR,,,,,,,,,,,,METAR,1837.0
KMLC 150953Z AUTO VRB04KT 10SM SCT013 BKN037 BKN065 24/22 A2997 RMK AO2 SLP141 T02390222,KMLC,2015-06-15T09:53:00Z,34.88,-95.78,23.9,22.2,0,4,,10.0,29.970472,1014.1,,TRUE,TRUE,,,,,,,SCT,1300,BKN,3700,BKN,6500,,,VFR,,,,,,,,,,,,METAR,232.0
KMLB 150953Z 12004KT 10SM CLR 26/23 A3008 RMK AO2 SLP186 T02610228,KMLB,2015-06-15T09:53:00Z,28.1,-80.65,26.1,22.8,120,4,,10.0,30.079725,1018.6,,,TRUE,,,,,,,CLR,,,,,,,,VFR,,,,,,,,,,,,METAR,11.0
KMKO 150953Z AUTO 18005KT 10SM SCT036 BKN110 23/22 A2997 RMK AO2 SLP143 T02280217,KMKO,2015-06-15T09:53:00Z,35.65,-95.37,22.8,21.7,180,5,,10.0,29.970472,1014.3,,TRUE,TRUE,,,,,,,SCT,3600,BKN,11000,,,,,VFR,,,,,,,,,,,,METAR,185.0
KMKL 150953Z AUTO 00000KT 10SM CLR 21/19 A3007 RMK AO2 SLP176 T02110194,KMKL,2015-06-15T09:53:00Z,35.6,-88.92,21.1,19.4,0,0,,10.0,30.070866,1017.6,,TRUE,TRUE,,,,,,,CLR,,,,,,,,VFR,,,,,,,,,,,,METAR,128.0
KRQE 150953Z AUTO 00000KT 10SM CLR 11/07 A3019 RMK AO2 SLP110 T01060067 TSNO,KRQE,2015-06-15T09:53:00Z,35.65,-109.07,10.6,6.7,0,0,,10.0,30.188976,1011.0,,TRUE,TRUE,,,TRUE,,,,CLR,,,,,,,,VFR,,,,,,,,,,,,METAR,2055.0
KRNT 150953Z AUTO 34006KT 10SM CLR 18/08 A2994 RMK AO2 SLP143 T01780083,KRNT,2015-06-15T09:53:00Z,47.5,-122.22,17.8,8.3,340,6,,10.0,29.940945,1014.3,,TRUE,TRUE,,,,,,,CLR,,,,,,,,VFR,,,,,,,,,,,,METAR,21.0
KRNM 150953Z AUTO 00000KT 5SM BR OVC003 16/14 A2983 RMK AO2 SLP085 T01560139 $,KRNM,2015-06-15T09:53:00Z,33.03,-116.92,15.6,13.9,0,0,,5.0,29.828741,1008.5,,TRUE,TRUE,TRUE,,,,,BR,OVC,300,,,,,,,LIFR,,,,,,,,,,,,METAR,427.0
KRMG 150953Z AUTO 36003KT 10SM CLR 21/19 A3012 RMK AO2 SLP189 T02060189,KRMG,2015-06-15T09:53:00Z,34.35,-85.17,20.6,18.9,360,3,,10.0,30.121063,1018.9,,TRUE,TRUE,,,,,,,CLR,,,,,,,,VFR,,,,,,,,,,,,METAR,193.0
KRME 150953Z AUTO 13003KT 10SM OVC015 18/17 A2991 RMK AO2 RAE28 SLP126 T01780172 PNO $,KRME,2015-06-15T09:53:00Z,43.22,-75.4,17.8,17.2,130,3,,10.0,29.911417,1012.6,,TRUE,TRUE,TRUE,,,,,,OVC,1500,,,,,,,MVFR,,,,,,,,,,,,METAR,154.0
KRKP 150953Z AUTO 13007KT 10SM CLR 28/23 A2985 RMK AO2 RAB0854E07 SLP108 P0000 T02780233,KRKP,2015-06-15T09:53:00Z,28.08,-97.05,27.8,23.3,130,7,,10.0,29.84941,1010.8,,TRUE,TRUE,,,,,,,CLR,,,,,,,,VFR,,,,,,0.0050,,,,,,METAR,6.0
KRIW 150953Z AUTO 09008KT 10SM OVC050 12/09 A3020 RMK AO2 SLP167 T01220089,KRIW,2015-06-15T09:53:00Z,43.07,-108.47,12.2,8.9,90,8,,10.0,30.200787,1016.7,,TRUE,TRUE,,,,,,,OVC,5000,,,,,,,VFR,,,,,,,,,,,,METAR,1697.0
KRIL 150953Z AUTO 05003KT 10SM CLR 13/06 A3012 RMK AO2 SLP130 T01280056,KRIL,2015-06-15T09:53:00Z,39.53,-107.73,12.8,5.6,50,3,,10.0,30.121063,1013.0,,TRUE,TRUE,,,,,,,CLR,,,,,,,,VFR,,,,,,,,,,,,METAR,1678.0
KRHI 150953Z AUTO 00000KT 1 1/4SM BR SCT002 11/11 A2993 RMK AO2 SLP133 T01110106,KRHI,2015-06-15T09:53:00Z,45.63,-89.48,11.1,10.6,0,0,,1.25,29.929134,1013.3,,TRUE,TRUE,,,,,,BR,SCT,200,,,,,,,IFR,,,,,,,,,,,,METAR,485.0
KRDD 150953Z 00000KT 10SM CLR 23/14 A2976 RMK AO2 SLP071 T02330144 $,KRDD,2015-06-15T09:53:00Z,40.52,-122.3,23.3,14.4,0,0,,10.0,29.760826,1007.1,,,TRUE,TRUE,,,,,,CLR,,,,,,,,VFR,,,,,,,,,,,,METAR,155.0
KRBG 150953Z AUTO 00000KT 10SM CLR 16/09 A2991 RMK AO2 SLP127 T01560089,KRBG,2015-06-15T09:53:00Z,43.23,-123.35,15.6,8.9,0,0,,10.0,29.911417,1012.7,,TRUE,TRUE,,,,,,,CLR,,,,,,,,VFR,,,,,,,,,,,,METAR,154.0
KRBD 150953Z 14008KT 10SM FEW010 FEW070 23/22 A2994 RMK AO2 SLP129 T02330222,KRBD,2015-06-15T09:53:00Z,32.68,-96.87,23.3,22.2,140,8,,10.0,29.940945,1012.9,,,TRUE,,,,,,,FEW,1000,FEW,7000,,,,,VFR,,,,,,,,,,,,METAR,203.0
KRAL 150953Z AUTO 26003KT 7SM CLR 17/15 A2983 RMK AO2 SLP085 T01670150,KRAL,2015-06-15T09:53:00Z,33.95,-117.45,16.7,15.0,260,3,,7.0,29.828741,1008.5,,TRUE,TRUE,,,,,,,CLR,,,,,,,,VFR,,,,,,,,,,,,METAR,252.0
KRAC 150953Z AUTO 22003KT 9SM BKN100 20/19 A2994 RMK AO2 RAB06E50 SLP134 P0001 T02000189,KRAC,2015-06-15T09:53:00Z,42.77,-87.82,20.0,18.9,220,3,,9.0,29.940945,1013.4,,TRUE,TRUE,,,,,,,BKN,10000,,,,,,,VFR,,,,,,0.01,,,,,,METAR,203.0
KPWA 150953Z AUTO 24006KT 10SM SCT080 21/18 A2994 RMK AO2 SLP125 T02060178,KPWA,2015-06-15T09:53:00Z,35.53,-97.65,20.6,17.8,240,6,,10.0,29.940945,1012.5,,TRUE,TRUE,,,,,,,SCT,8000,,,,,,,VFR,,,,,,,,,,,,METAR,397.0
KPUW 150953Z AUTO 00000KT 10SM CLR 07/03 A2999 RMK AO2 SLP151 T00670033,KPUW,2015-06-15T09:53:00Z,46.75,-117.12,6.7,3.3,0,0,,10.0,29.991142,1015.1,,TRUE,TRUE,,,,,,,CLR,,,,,,,,VFR,,,,,,,,,,,,METAR,773.0
KPUC 150953Z AUTO 02005KT 10SM CLR 12/09 A3011 RMK AO2 SLP118 T01170089 TSNO,KPUC,2015-06-15T09:53:00Z,39.62,-110.75,11.7,8.9,20,5,,10.0,30.109253,1011.8,,TRUE,TRUE,,,TRUE,,,,CLR,,,,,,,,VFR,,,,,,,,,,,,METAR,2091.0
KPUB 150953Z AUTO 06006KT 10SM CLR 11/10 A3012 RMK AO2 SLP165 T01110100,KPUB,2015-06-15T09:53:00Z,38.28,-104.5,11.1,10.0,60,6,,10.0,30.121063,1016.5,,TRUE,TRUE,,,,,,,CLR,,,,,,,,VFR,,,,,,,,,,,,METAR,1420.0
KPTK 150953Z 00000KT 9SM FEW010 FEW080 BKN250 19/19 A2995 RMK AO2 SLP136 FIRST AUGMENTED OBS OF THE DAY T01940194 $,KPTK,2015-06-15T09:53:00Z,42.67,-83.42,19.4,19.4,0,0,,9.0,29.949802,1013.6,,,TRUE,TRUE,,,,,,FEW,1000,FEW,8000,BKN,25000,,,VFR,,,,,,,,,,,,METAR,299.0
KPSX 150953Z AUTO 09005KT 10SM FEW090 26/24 A2987 RMK AO2 RAE00 SLP113 P0000 T02610244,KPSX,2015-06-15T09:53:00Z,28.72,-96.25,26.1,24.4,90,5,,10.0,29.870079,1011.3,,TRUE,TRUE,,,,,,,FEW,9000,,,,,,,VFR,,,,,,0.0050,,,,,,METAR,5.0
KPSP 150953Z 36006KT 10SM CLR 30/14 A2970 RMK AO2 SLP051 T03000139,KPSP,2015-06-15T09:53:00Z,33.82,-116.5,30.0,13.9,360,6,,10.0,29.698818,1005.1,,,TRUE,,,,,,,CLR,,,,,,,,VFR,,,,,,,,,,,,METAR,135.0
KPSC 150953Z AUTO 01005KT 10SM CLR 12/06 A2991 RMK AO2 SLP127 T01220061,KPSC,2015-06-15T09:53:00Z,46.27,-119.12,12.2,6.1,10,5,,10.0,29.911417,1012.7,,TRUE,TRUE,,,,,,,CLR,,,,,,,,VFR,,,,,,,,,,,,METAR,121.0
KPRC 150953Z AUTO 22005KT 10SM CLR 18/07 A3003 RMK AO2 SLP077 T01780067,KPRC,2015-06-15T09:53:00Z,34.65,-112.42,17.8,6.7,220,5,,10.0,30.029528,1007.7,,TRUE,TRUE,,,,,,,CLR,,,,,,,,VFR,,,,,,,,,,,,METAR,1524.0
KPRB 150953Z AUTO 00000KT 10SM CLR 11/09 A2985 RMK AO2 SLP100 T01110089 TSNO,KPRB,2015-06-15T09:53:00Z,35.67,-120.63,11.1,8.9,0,0,,10.0,29.84941,1010.0,,TRUE,TRUE,,,TRUE,,,,CLR,,,,,,,,VFR,,,,,,,,,,,,METAR,245.0
KPQL 150953Z AUTO 06003KT 9SM CLR 24/23 A3003 RMK AO2 SLP170 T02390233 TSNO,KPQL,2015-06-15T09:53:00Z,30.47,-88.53,23.9,23.3,60,3,,9.0,30.029528,1017.0,,TRUE,TRUE,,,TRUE,,,,CLR,,,,,,,,VFR,,,,,,,,,,,,METAR,6.0
KPOU 150953Z 13009KT 7SM -RA OVC015 19/17 A2993 RMK AO2 RAB41 SLP132 P0004 T01890172,KPOU,2015-06-15T09:53:00Z,41.63,-73.88,18.9,17.2,130,9,,7.0,29.929134,1013.2,,,TRUE,,,,,,-RA,OVC,1500,,,,,,,MVFR,,,,,,0.04,,,,,,METAR,46.0
KPOF 150953Z AUTO 20004KT 10SM CLR 23/21 A3002 RMK AO2 SLP159 T02280211,KPOF,2015-06-15T09:53:00Z,36.77,-90.32,22.8,21.1,200,4,,10.0,30.02067,1015.9,,TRUE,TRUE,,,,,,,CLR,,,,,,,,VFR,,,,,,,,,,,,METAR,99.0
KPNS 150953Z AUTO 06005KT 10SM CLR 24/23 A3004 RMK AO2 SLP174 T02390233 $,KPNS,2015-06-15T09:53:00Z,30.48,-87.18,23.9,23.3,60,5,,10.0,30.041338,1017.4,,TRUE,TRUE,TRUE,,,,,,CLR,,,,,,,,VFR,,,,,,,,,,,,METAR,38.0
KPNC 150953Z AUTO 18003KT 10SM FEW016 23/21 A2992 RMK AO2 SLP118 T02280211,KPNC,2015-06-15T09:53:00Z,36.73,-97.1,22.8,21.1,180,3,,10.0,29.920275,1011.8,,TRUE,TRUE,,,,,,,FEW,1600,,,,,,,VFR,,,,,,,,,,,,METAR,308.0
KPMP 150953Z AUTO 10010KT 10SM CLR 27/24 A3005 RMK AO2 SLP176 T02720239,KPMP,2015-06-15T09:53:00Z,26.25,-80.12,27.2,23.9,100,10,,10.0,30.050198,1017.6,,TRUE,TRUE,,,,,,,CLR,,,,,,,,VFR,,,,,,,,,,,,METAR,6.0
KPMD 150953Z AUTO 19007KT 10SM CLR 23/03 A2985 RMK AO2 SLP072 T02280033,KPMD,2015-06-15T09:53:00Z,34.63,-118.08,22.8,3.3,190,7,,10.0,29.84941,1007.2,,TRUE,TRUE,,,,,,,CLR,,,,,,,,VFR,,,,,,,,,,,,METAR,780.0
KPKD 150953Z AUTO 29003KT 10SM CLR 10/08 A3000 RMK AO2 SLP160 T01000083,KPKD,2015-06-15T09:53:00Z,46.9,-95.07,10.0,8.3,290,3,,10.0,30.0,1016.0,,TRUE,TRUE,,,,,,,CLR,,,,,,,,VFR,,,,,,,,,,,,METAR,442.0
KTVC 150953Z 00000KT 10SM OVC005 19/18 A2990 RMK AO2 SLP124 T01890178,KTVC,2015-06-15T09:53:00Z,44.73,-85.57,18.9,17.8,0,0,,10.0,29.899607,1012.4,,,TRUE,,,,,,,OVC,500,,,,,,,IFR,,,,,,,,,,,,METAR,190.0
KTUS 150953Z 14004KT 10SM CLR 26/06 A2986 RMK AO2 SLP054 T02560056,KTUS,2015-06-15T09:53:00Z,32.13,-110.95,25.6,5.6,140,4,,10.0,29.861221,1005.4,,,TRUE,,,,,,,CLR,,,,,,,,VFR,,,,,,,,,,,,METAR,776.0
KTUL 150953Z 17013KT 10SM SCT011 BKN170 OVC250 24/22 A2993 RMK AO2 SLP126 T02390222 $,KTUL,2015-06-15T09:53:00Z,36.2,-95.88,23.9,22.2,170,13,,10.0,29.929134,1012.6,,,TRUE,TRUE,,,,,,SCT,1100,BKN,17000,OVC,25000,,,VFR,,,,,,,,,,,,METAR,207.0
KTTN 150953Z 20005KT 2SM BR OVC002 22/21 A2996 RMK AO2 RAB04E16 SLP136 P0000 T02170211,KTTN,2015-06-15T09:53:00Z,40.28,-74.82,21.7,21.1,200,5,,2.0,29.958662,1013.6,,,TRUE,,,,,,BR,OVC,200,,,,,,,LIFR,,,,,,0.0050,,,,,,METAR,59.0
KTVL 150953Z AUTO 19004KT 10SM CLR 08/00 A3008 RMK AO2 SLP125 T00780000,KTVL,2015-06-15T09:53:00Z,38.9,-120.0,7.8,0.0,190,4,,10.0,30.079725,1012.5,,TRUE,TRUE,,,,,,,CLR,,,,,,,,VFR,,,,,,,,,,,,METAR,1924.0
KOGB 150953Z AUTO 00000KT 10SM CLR 22/21 A3010 RMK AO2 SLP190 T02170206,KOGB,2015-06-15T09:53:00Z,33.47,-80.85,21.7,20.6,0,0,,10.0,30.100393,1019.0,,TRUE,TRUE,,,,,,,CLR,,,,,,,,VFR,,,,,,,,,,,,METAR,59.0
KTVR 150953Z AUTO 00000KT 10SM CLR 22/21 A3003 RMK AO2 SLP174 T02220211,KTVR,2015-06-15T09:53:00Z,32.35,-91.03,22.2,21.1,0,0,,10.0,30.029528,1017.4,,TRUE,TRUE,,,,,,,CLR,,,,,,,,VFR,,,,,,,,,,,,METAR,26.0
KTWF 150953Z AUTO 20008KT 10SM CLR 16/M01 A2994 RMK AO2 SLP084 T01561011,KTWF,2015-06-15T09:53:00Z,42.48,-114.48,15.6,-1.1,200,8,,10.0,29.940945,1008.4,,TRUE,TRUE,,,,,,,CLR,,,,,,,,VFR,,,,,,,,,,,,METAR,1266.0
KTXK 150953Z AUTO 17005KT 9SM BKN006 BKN060 23/22 A3000 RMK AO2 SLP153 T02280222,KTXK,2015-06-15T09:53:00Z,33.45,-93.98,22.8,22.2,170,5,,9.0,30.0,1015.3,,TRUE,TRUE,,,,,,,BKN,600,BKN,6000,,,,,IFR,,,,,,,,,,,,METAR,111.0
KTYR 150953Z AUTO 16006KT 10SM OVC004 24/22 A2998 RMK AO2 SLP144 T02390222,KTYR,2015-06-15T09:53:00Z,32.37,-95.4,23.9,22.2,160,6,,10.0,29.97933,1014.4,,TRUE,TRUE,,,,,,,OVC,400,,,,,,,LIFR,,,,,,,,,,,,METAR,165.0
KTYS 150953Z 00000KT 7SM FEW100 22/19 A3014 RMK AO2 SLP192 T02170194 $,KTYS,2015-06-15T09:53:00Z,35.82,-83.98,21.7,19.4,0,0,,7.0,30.138779,1019.2,,,TRUE,TRUE,,,,,,FEW,10000,,,,,,,VFR,,,,,,,,,,,,METAR,302.0
KUAO 150953Z AUTO 00000KT 10SM CLR 17/09 A2989 RMK AO2 SLP120 T01720094,KUAO,2015-06-15T09:53:00Z,45.25,-122.77,17.2,9.4,0,0,,10.0,29.890747,1012.0,,TRUE,TRUE,,,,,,,CLR,,,,,,,,VFR,,,,,,,,,,,,METAR,59.0
KUIL 150953Z AUTO 00000KT 6SM BR FEW006 08/07 A2999 RMK AO2 SLP154 T00780072,KUIL,2015-06-15T09:53:00Z,47.93,-124.55,7.8,7.2,0,0,,6.0,29.991142,1015.4,,TRUE,TRUE,,,,,,BR,FEW,600,,,,,,,VFR,,,,,,,,,,,,METAR,54.0
KUNO 150953Z AUTO 20007KT 10SM CLR 22/19 A3005 RMK AO2 SLP162 T02170194,KUNO,2015-06-15T09:53:00Z,36.88,-91.9,21.7,19.4,200,7,,10.0,30.050198,1016.2,,TRUE,TRUE,,,,,,,CLR,,,,,,,,VFR,,,,,,,,,,,,METAR,372.0
KUTS 150953Z AUTO 00000KT 10SM FEW008 24/23 A2994 RMK AO2 SLP134 T02390228,KUTS,2015-06-15T09:53:00Z,30.75,-95.58,23.9,22.8,0,0,,10.0,29.940945,1013.4,,TRUE,TRUE,,,,,,,FEW,800,,,,,,,VFR,,,,,,,,,,,,METAR,104.0
KUUU 150953Z AUTO 12006KT 10SM -RA BKN080 OVC100 15/11 A3008 RMK AO2 RAB04 SLP186 P0000 T01500106,KUUU,2015-06-15T09:53:00Z,41.53,-71.28,15.0,10.6,120,6,,10.0,30.079725,1018.6,,TRUE,TRUE,,,,,,-RA,BKN,8000,OVC,10000,,,,,VFR,,,,,,0.0050,,,,,,METAR,51.0
KVCB 150953Z AUTO 24006KT 10SM CLR 14/09 A2976 RMK AO2 SLP075 T01390094,KVCB,2015-06-15T09:53:00Z,38.38,-121.95,13.9,9.4,240,6,,10.0,29.760826,1007.5,,TRUE,TRUE,,,,,,,CLR,,,,,,,,VFR,,,,,,,,,,,,METAR,33.0
KVEL 150953Z AUTO 00000KT 10SM CLR 14/06 A3007 RMK AO2 SLP130 T01390061,KVEL,2015-06-15T09:53:00Z,40.45,-109.52,13.9,6.1,0,0,,10.0,30.070866,1013.0,,TRUE,TRUE,,,,,,,CLR,,,,,,,,VFR,,,,,,,,,,,,METAR,1604.0
KVGT 150953Z 31005KT 10SM CLR 29/06 A2974 RMK AO2 SLP054 T02890061,KVGT,2015-06-15T09:53:00Z,36.22,-115.2,28.9,6.1,310,5,,10.0,29.740158,1005.4,,,TRUE,,,,,,,CLR,,,,,,,,VFR,,,,,,,,,,,,METAR,671.0
KVIH 150953Z AUTO 19008KT 10SM FEW085 22/20 A2999 RMK AO2 SLP142 T02170200 $,KVIH,2015-06-15T09:53:00Z,38.13,-91.77,21.7,20.0,190,8,,10.0,29.991142,1014.2,,TRUE,TRUE,TRUE,,,,,,FEW,8500,,,,,,,VFR,,,,,,,,,,,,METAR,333.0
KVLD 150953Z AUTO 00000KT 10SM CLR 21/19 A3010 RMK AO2 SLP197 T02060194 TSNO,KVLD,2015-06-15T09:53:00Z,30.78,-83.27,20.6,19.4,0,0,,10.0,30.100393,1019.7,,TRUE,TRUE,,,TRUE,,,,CLR,,,,,,,,VFR,,,,,,,,,,,,METAR,62.0
KSNS 150953Z AUTO 21003KT 7SM OVC010 13/11 A2987 RMK AO2 SLP123 T01280106,KSNS,2015-06-15T09:53:00Z,36.67,-121.6,12.8,10.6,210,3,,7.0,29.870079,1012.3,,TRUE,TRUE,,,,,,,OVC,1000,,,,,,,MVFR,,,,,,,,,,,,METAR,30.0
KSNA 150953Z AUTO 00000KT 10SM OVC008 18/16 A2981 RMK AO2 SLP094 T01830161 TSNO,KSNA,2015-06-15T09:53:00Z,33.67,-117.87,18.3,16.1,0,0,,10.0,29.811024,1009.4,,TRUE,TRUE,,,TRUE,,,,OVC,800,,,,,,,IFR,,,,,,,,,,,,METAR,16.0
KSMQ 150953Z AUTO 00000KT 3/4SM -RA BR VV005 20/19 A2995 RMK AO2 RAB23 SLP140 P0000 T02000194,KSMQ,2015-06-15T09:53:00Z,40.62,-74.67,20.0,19.4,0,0,,0.75,29.949802,1014.0,,TRUE,TRUE,,,,,,-RA BR,OVX,0,,,,,,,LIFR,,,,,,0.0050,,,,,500,METAR,30.0
KSMF 150953Z 16008KT 9SM CLR 13/10 A2975 RMK AO2 SLP074 T01330100,KSMF,2015-06-15T09:53:00Z,38.7,-121.6,13.3,10.0,160,8,,9.0,29.749016,1007.4,,,TRUE,,,,,,,CLR,,,,,,,,VFR,,,,,,,,,,,,METAR,6.0
KSLN 150953Z AUTO 28006KT OVC014 20/18 A2992 RMK AO2 SLP120 T02000183 $,KSLN,2015-06-15T09:53:00Z,38.78,-97.65,20.0,18.3,280,6,,,29.920275,1012.0,,TRUE,TRUE,TRUE,,,,,,OVC,1400,,,,,,,,,,,,,,,,,,,METAR,385.0
KSLC 150953Z 15010KT 10SM FEW150 22/09 A2995 RMK AO2 SLP080 T02220089,KSLC,2015-06-15T09:53:00Z,40.77,-111.97,22.2,8.9,150,10,,10.0,29.949802,1008.0,,,TRUE,,,,,,,FEW,15000,,,,,,,VFR,,,,,,,,,,,,METAR,1286.0
KSJC 150953Z AUTO 01005KT 10SM OVC015 13/11 A2986 RMK AO2 SLP112 T01330106,KSJC,2015-06-15T09:53:00Z,37.37,-121.92,13.3,10.6,10,5,,10.0,29.861221,1011.2,,TRUE,TRUE,,,,,,,OVC,1500,,,,,,,MVFR,,,,,,,,,,,,METAR,24.0
KSPG 150953Z AUTO 13009KT 10SM CLR 26/24 A3006 RMK AO2 SLP177 T02560239,KSPG,2015-06-15T09:53:00Z,27.77,-82.63,25.6,23.9,130,9,,10.0,30.059055,1017.7,,TRUE,TRUE,,,,,,,CLR,,,,,,,,VFR,,,,,,,,,,,,METAR,2.0
KSPB 150953Z AUTO 33008KT 10SM CLR 18/07 A2988 RMK AO2 SLP119 T01830067,KSPB,2015-06-15T09:53:00Z,45.77,-122.87,18.3,6.7,330,8,,10.0,29.878937,1011.9,,TRUE,TRUE,,,,,,,CLR,,,,,,,,VFR,,,,,,,,,,,,METAR,14.0
KSNY 150953Z AUTO 04004KT 10SM FEW014 15/14 A3014 RMK AO2 SLP167 T01500139 $,KSNY,2015-06-15T09:53:00Z,41.1,-102.98,15.0,13.9,40,4,,10.0,30.138779,1016.7,,TRUE,TRUE,TRUE,,,,,,FEW,1400,,,,,,,VFR,,,,,,,,,,,,METAR,1307.0
KSTP 150953Z AUTO 31009KT 10SM BKN090 19/18 A2990 RMK AO2 SLP118 T01940178,KSTP,2015-06-15T09:53:00Z,44.93,-93.05,19.4,17.8,310,9,,10.0,29.899607,1011.8,,TRUE,TRUE,,,,,,,BKN,9000,,,,,,,VFR,,,,,,,,,,,,METAR,219.0
KSTJ 150953Z AUTO 19006KT 10SM CLR 23/21 A2989 RMK AO2 SLP113 T02280206 $,KSTJ,2015-06-15T09:53:00Z,39.77,-94.92,22.8,20.6,190,6,,10.0,29.890747,1011.3,,TRUE,TRUE,TRUE,,,,,,CLR,,,,,,,,VFR,,,,,,,,,,,,METAR,247.0
KSTC 150953Z AUTO 33008KT 10SM CLR 16/14 A2996 RMK AO2 SLP147 T01560139,KSTC,2015-06-15T09:53:00Z,45.55,-94.05,15.6,13.9,330,8,,10.0,29.958662,1014.7,,TRUE,TRUE,,,,,,,CLR,,,,,,,,VFR,,,,,,,,,,,,METAR,314.0
KSSF 150953Z AUTO 00000KT 10SM OVC012 24/23 A2990 RMK AO2 SLP112 T02440233,KSSF,2015-06-15T09:53:00Z,29.33,-98.47,24.4,23.3,0,0,,10.0,29.899607,1011.2,,TRUE,TRUE,,,,,,,OVC,1200,,,,,,,MVFR,,,,,,,,,,,,METAR,176.0
KSRQ 150953Z 09006KT 10SM CLR 23/22 A3005 RMK AO2 SLP174 T02330222,KSRQ,2015-06-15T09:53:00Z,27.4,-82.57,23.3,22.2,90,6,,10.0,30.050198,1017.4,,,TRUE,,,,,,,CLR,,,,,,,,VFR,,,,,,,,,,,,METAR,18.0
KSPW 150953Z AUTO 36006KT 10SM OVC023 20/18 A2993 RMK AO2 SLP125 T02000178 TSNO $,KSPW,2015-06-15T09:53:00Z,43.17,-95.22,20.0,17.8,360,6,,10.0,29.929134,1012.5,,TRUE,TRUE,TRUE,,TRUE,,,,OVC,2300,,,,,,,MVFR,,,,,,,,,,,,METAR,403.0
KSWO 150953Z AUTO 21007KT 10SM BKN009 22/22 A2993 RMK AO2 CIG 007V011 SLP121 T02220217 TSNO,KSWO,2015-06-15T09:53:00Z,36.17,-97.08,22.2,21.7,210,7,,10.0,29.929134,1012.1,,TRUE,TRUE,,,TRUE,,,,BKN,900,,,,,,,IFR,,,,,,,,,,,,METAR,290.0
KSTS 150953Z AUTO 10003KT 8SM OVC007 12/10 A2982 RMK AO2 SLP091 T01220100,KSTS,2015-06-15T09:53:00Z,38.5,-122.82,12.2,10.0,100,3,,8.0,29.819881,1009.1,,TRUE,TRUE,,,,,,,OVC,700,,,,,,,IFR,,,,,,,,,,,,METAR,39.0
KLND 150953Z AUTO 34007KT 10SM OVC045 12/09 A3018 RMK AO2 SLP163 T01220089,KLND,2015-06-15T09:53:00Z,42.82,-108.73,12.2,8.9,340,7,,10.0,30.180119,1016.3,,TRUE,TRUE,,,,,,,OVC,4500,,,,,,,VFR,,,,,,,,,,,,METAR,1694.0
KJLN 150953Z AUTO 19007KT 10SM CLR 22/21 A2997 RMK AO2 SLP137 T02220206,KJLN,2015-06-15T09:53:00Z,37.15,-94.5,22.2,20.6,190,7,,10.0,29.970472,1013.7,,TRUE,TRUE,,,,,,,CLR,,,,,,,,VFR,,,,,,,,,,,,METAR,299.0
KTCC 150953Z AUTO VRB03KT 10SM CLR 17/13 A3005 RMK AO2 SLP116 T01670128 TSNO,KTCC,2015-06-15T09:53:00Z,35.18,-103.6,16.7,12.8,0,3,,10.0,30.050198,1011.6,,TRUE,TRUE,,,TRUE,,,,CLR,,,,,,,,VFR,,,,,,,,,,,,METAR,1235.0
KTCL 150953Z AUTO 00000KT 5SM BR CLR 22/21 A3009 RMK AO2 SLP187 T02220211,KTCL,2015-06-15T09:53:00Z,33.22,-87.62,22.2,21.1,0,0,,5.0,30.088583,1018.7,,TRUE,TRUE,,,,,,BR,CLR,,,,,,,,MVFR,,,,,,,,,,,,METAR,49.0
KTDZ 150953Z AUTO 23004KT 10SM OVC010 23/21 A2998 RMK AO2 SLP146 T02280206,KTDZ,2015-06-15T09:53:00Z,41.57,-83.48,22.8,20.6,230,4,,10.0,29.97933,1014.6,,TRUE,TRUE,,,,,,,OVC,1000,,,,,,,MVFR,,,,,,,,,,,,METAR,189.0
KTHV 150953Z AUTO 25008G15KT 10SM -RA CLR 23/21 A3000 RMK AO2 LTG DSNT SW RAB0857 SLP156 P0004 T02280206,KTHV,2015-06-15T09:53:00Z,39.92,-76.88,22.8,20.6,250,8,15,10.0,30.0,1015.6,,TRUE,TRUE,,,,,,-RA,CLR,,,,,,,,VFR,,,,,,0.04,,,,,,METAR,144.0
KSIY 150953Z AUTO 08005KT 10SM CLR 16/04 A2990 RMK AO2 SLP108 T01560044 TSNO,KSIY,2015-06-15T09:53:00Z,41.77,-122.47,15.6,4.4,80,5,,10.0,29.899607,1010.8,,TRUE,TRUE,,,TRUE,,,,CLR,,,,,,,,VFR,,,,,,,,,,,,METAR,807.0
KTIW 150953Z AUTO 26003KT 10SM CLR 13/07 A2995 RMK AO2 SLP139 T01280072,KTIW,2015-06-15T09:53:00Z,47.27,-122.58,12.8,7.2,260,3,,10.0,29.949802,1013.9,,TRUE,TRUE,,,,,,,CLR,,,,,,,,VFR,,,,,,,,,,,,METAR,89.0
KTKI 150953Z AUTO 14007KT 10SM CLR 24/23 A2994 RMK AO2 SLP134 T02440228,KTKI,2015-06-15T09:53:00Z,33.18,-96.58,24.4,22.8,140,7,,10.0,29.940945,1013.4,,TRUE,TRUE,,,,,,,CLR,,,,,,,,VFR,,,,,,,,,,,,METAR,179.0
KTLH 150953Z 00000KT 10SM CLR 23/22 A3008 RMK AO2 SLP185 FIRST AUGMENTED OBS T02330217 $,KTLH,2015-06-15T09:53:00Z,30.4,-84.35,23.3,21.7,0,0,,10.0,30.079725,1018.5,,,TRUE,TRUE,,,,,,CLR,,,,,,,,VFR,,,,,,,,,,,,METAR,19.0
KVPC 150953Z AUTO 00000KT 10SM CLR 19/18 A3014 RMK AO2 SLP193 T01940183,KVPC,2015-06-15T09:53:00Z,34.13,-84.85,19.4,18.3,0,0,,10.0,30.138779,1019.3,,TRUE,TRUE,,,,,,,CLR,,,,,,,,VFR,,,,,,,,,,,,METAR,222.0
KVRB 150953Z AUTO 08003KT 10SM CLR 25/23 A3008 RMK AO2 SLP183 T02500228,KVRB,2015-06-15T09:53:00Z,27.65,-80.42,25.0,22.8,80,3,,10.0,30.079725,1018.3,,TRUE,TRUE,,,,,,,CLR,,,,,,,,VFR,,,,,,,,,,,,METAR,10.0
KVUO 150953Z AUTO 00000KT 10SM CLR 17/08 A2989 RMK AO2 SLP121 T01670083 $,KVUO,2015-06-15T09:53:00Z,45.62,-122.65,16.7,8.3,0,0,,10.0,29.890747,1012.1,,TRUE,TRUE,TRUE,,,,,,CLR,,,,,,,,VFR,,,,,,,,,,,,METAR,8.0
KWRL 150953Z AUTO 30003KT 10SM OVC045 16/08 A3016 RMK AO2 SLP178 T01560078,KWRL,2015-06-15T09:53:00Z,43.97,-107.95,15.6,7.8,300,3,,10.0,30.159449,1017.8,,TRUE,TRUE,,,,,,,OVC,4500,,,,,,,VFR,,,,,,,,,,,,METAR,1271.0
KTTD 150953Z AUTO 00000KT 10SM CLR 13/09 A2988 RMK AO2 SLP117 T01280089,KTTD,2015-06-15T09:53:00Z,45.55,-122.42,12.8,8.9,0,0,,10.0,29.878937,1011.7,,TRUE,TRUE,,,,,,,CLR,,,,,,,,VFR,,,,,,,,,,,,METAR,14.0
KTRL 150953Z AUTO 13005KT 10SM BKN014 24/23 A2997 RMK AO2 SLP142 T02390228 $,KTRL,2015-06-15T09:53:00Z,32.72,-96.27,23.9,22.8,130,5,,10.0,29.970472,1014.2,,TRUE,TRUE,TRUE,,,,,,BKN,1400,,,,,,,MVFR,,,,,,,,,,,,METAR,145.0
KTRI 150953Z 00000KT 9SM FEW250 18/18 A3018 RMK AO2 SLP191 T01830178,KTRI,2015-06-15T09:53:00Z,36.48,-82.4,18.3,17.8,0,0,,9.0,30.180119,1019.1,,,TRUE,,,,,,,FEW,25000,,,,,,,VFR,,,,,,,,,,,,METAR,474.0
KTPA 150953Z 10006KT 10SM CLR 25/23 A3008 RMK AO2 SLP186 T02500233 $,KTPA,2015-06-15T09:53:00Z,27.97,-82.53,25.0,23.3,100,6,,10.0,30.079725,1018.6,,,TRUE,TRUE,,,,,,CLR,,,,,,,,VFR,,,,,,,,,,,,METAR,11.0
KTOP 150953Z AUTO 22003KT 10SM CLR 22/21 A2990 RMK AO2 SLP117 T02170206 $,KTOP,2015-06-15T09:53:00Z,39.07,-95.63,21.7,20.6,220,3,,10.0,29.899607,1011.7,,TRUE,TRUE,TRUE,,,,,,CLR,,,,,,,,VFR,,,,,,,,,,,,METAR,268.0
KTOI 150953Z AUTO 00000KT 10SM CLR 21/20 A3011 RMK AO2 SLP189 T02110200,KTOI,2015-06-15T09:53:00Z,31.85,-86.02,21.1,20.0,0,0,,10.0,30.109253,1018.9,,TRUE,TRUE,,,,,,,CLR,,,,,,,,VFR,,,,,,,,,,,,METAR,118.0
KTMB 150953Z AUTO 00000KT 10SM CLR 25/24 A3004 RMK AO2 RAE0856B09E29 SLP171 P0000 T02500244,KTMB,2015-06-15T09:53:00Z,25.65,-80.43,25.0,24.4,0,0,,10.0,30.041338,1017.1,,TRUE,TRUE,,,,,,,CLR,,,,,,,,VFR,,,,,,0.0050,,,,,,METAR,2.0
KCPS 150953Z AUTO 20005KT 10SM CLR 23/21 A2999 RMK AO2 SLP151 T02330206,KCPS,2015-06-15T09:53:00Z,38.57,-90.15,23.3,20.6,200,5,,10.0,29.991142,1015.1,,TRUE,TRUE,,,,,,,CLR,,,,,,,,VFR,,,,,,,,,,,,METAR,126.0
KGVE 150953Z AUTO 24003KT 10SM CLR 21/21 A3001 RMK AO1,KGVE,2015-06-15T09:53:00Z,38.15,-78.17,21.0,21.0,240,3,,10.0,30.008858,,,TRUE,TRUE,,,,,,,CLR,,,,,,,,VFR,,,,,,,,,,,,METAR,138.0
KRYT 150953Z AUTO 21007KT 180V250 9SM -RA FEW100 BKN120 22/20 A3001 RMK AO2 TSB08E23 SLP151 P0013 T02170200 $,KRYT,2015-06-15T09:53:00Z,39.73,-77.43,21.7,20.0,210,7,,9.0,30.008858,1015.1,,TRUE,TRUE,TRUE,,,,,-RA,FEW,10000,BKN,12000,,,,,VFR,,,,,,0.13,,,,,,METAR,274.0
MUCC 150953Z 10005KT 070V130 9000 SCT015 BKN025 27/25 Q1016,MUCC,2015-06-15T09:53:00Z,22.47,-78.33,27.0,25.0,100,5,,5.59,30.0,,,,,,,,,,,SCT,1500,BKN,2500,,,,,MVFR,,,,,,,,,,,,METAR,4.0
PTKK 150953Z 04010KT 15SM FEW014 BKN280 29/25 A2977 RMK SLP084 T02890252,PTKK,2015-06-15T09:53:00Z,7.47,151.85,28.9,25.2,40,10,,15.0,29.769686,1008.4,,,,,,,,,,FEW,1400,BKN,28000,,,,,VFR,,,,,,,,,,,,METAR,2.0
KUNV 150953Z 23004KT 10SM SCT017 BKN080 OVC110 20/20 A3000,KUNV,2015-06-15T09:53:00Z,40.85,-77.83,20.0,20.0,230,4,,10.0,30.0,,,,,,,,,,,SCT,1700,BKN,8000,OVC,11000,,,VFR,,,,,,,,,,,,METAR,378.0
KLOR 150953Z AUTO 00000KT 9SM CLR 21/20 A3008 RMK AO2 SLP183 T02110200,KLOR,2015-06-15T09:53:00Z,31.35,-85.75,21.1,20.0,0,0,,9.0,30.079725,1018.3,,TRUE,TRUE,,,,,,,CLR,,,,,,,,VFR,,,,,,,,,,,,METAR,74.0
KP68 150953Z AUTO 16003KT 11/M01 A3002 RMK AO1 SLP081 T01111011 $,KP68,2015-06-15T09:53:00Z,39.6,-116.0,11.1,-1.1,160,3,,,30.02067,1008.1,,TRUE,TRUE,TRUE,,,,,,,,,,,,,,,,,,,,,,,,,,METAR,1809.0
KCQC 150953Z AUTO 08006KT 10SM CLR 12/07 A3021 RMK AO2 SLP148 T01170072,KCQC,2015-06-15T09:53:00Z,35.0,-105.67,11.7,7.2,80,6,,10.0,30.209646,1014.8,,TRUE,TRUE,,,,,,,CLR,,,,,,,,VFR,,,,,,,,,,,,METAR,2160.0
TJNR 150953Z AUTO 10004KT 10SM OVC023 27/23 A3005 RMK AO2 SLP176 T02670228 $,TJNR,2015-06-15T09:53:00Z,18.25,-65.63,26.7,22.8,100,4,,10.0,30.050198,1017.6,,TRUE,TRUE,TRUE,,,,,,OVC,2300,,,,,,,MVFR,,,,,,,,,,,,METAR,12.0
KTCS 150953Z AUTO 03016G21KT 10SM SCT120 23/11 A3000 RMK AO2 PK WND 36026/0859 SLP065 T02280106 TSNO,KTCS,2015-06-15T09:53:00Z,33.23,-107.27,22.8,10.6,30,16,21,10.0,30.0,1006.5,,TRUE,TRUE,,,TRUE,,,,SCT,12000,,,,,,,VFR,,,,,,,,,,,,METAR,1469.0
KP92 150953Z AUTO 00000KT 25/24 A2993 RMK AO1 SLP134 T02500244 $,KP92,2015-06-15T09:53:00Z,29.57,-91.53,25.0,24.4,0,0,,,29.929134,1013.4,,TRUE,TRUE,TRUE,,,,,,,,,,,,,,,,,,,,,,,,,,METAR,1.0
KCTY 150953Z AUTO 00000KT 21/19 A3008 RMK AO1 SLP185 T02060194,KCTY,2015-06-15T09:53:00Z,29.63,-83.1,20.6,19.4,0,0,,,30.079725,1018.5,,TRUE,TRUE,,,,,,,,,,,,,,,,,,,,,,,,,,,METAR,13.0
KOQT 150953Z AUTO 00000KT 10SM CLR 21/19 A3016 RMK AO2 SLP193 T02110194,KOQT,2015-06-15T09:53:00Z,36.02,-84.23,21.1,19.4,0,0,,10.0,30.159449,1019.3,,TRUE,TRUE,,,,,,,CLR,,,,,,,,VFR,,,,,,,,,,,,METAR,277.0
KNIP 150953Z 16004KT 10SM FEW010 27/23 A3009 RMK AO2 SLP186 T02720233,KNIP,2015-06-15T09:53:00Z,30.22,-81.67,27.2,23.3,160,4,,10.0,30.088583,1018.6,,,TRUE,,,,,,,FEW,1000,,,,,,,VFR,,,,,,,,,,,,METAR,7.0
KMWT 150953Z AUTO 00000KT 10SM OVC010 23/22 A3000 RMK AO2 SLP147 T02330217,KMWT,2015-06-15T09:53:00Z,34.55,-93.58,23.3,21.7,0,0,,10.0,30.0,1014.7,,TRUE,TRUE,,,,,,,OVC,1000,,,,,,,MVFR,,,,,,,,,,,,METAR,214.0
KHEY 150953Z AUTO 00000KT 10SM CLR 23/23 A3009 RMK AO2 SLP075 T02330233 $,KHEY,2015-06-15T09:53:00Z,31.35,-85.65,23.3,23.3,0,0,,10.0,30.088583,1007.5,,TRUE,TRUE,TRUE,,,,,,CLR,,,,,,,,VFR,,,,,,,,,,,,METAR,97.0
KTUP 150953Z AUTO 00000KT 10SM CLR 22/21 A3008 RMK AO2 SLP181 T02220206 $,KTUP,2015-06-15T09:53:00Z,34.27,-88.77,22.2,20.6,0,0,,10.0,30.079725,1018.1,,TRUE,TRUE,TRUE,,,,,,CLR,,,,,,,,VFR,,,,,,,,,,,,METAR,105.0
KNUI 150953Z AUTO 23005KT 9SM FEW090 24/22 A2999 RMK AO2 SLP155 T02440222 $,KNUI,2015-06-15T09:53:00Z,38.15,-76.43,24.4,22.2,230,5,,9.0,29.991142,1015.5,,TRUE,TRUE,TRUE,,,,,,FEW,9000,,,,,,,VFR,,,,,,,,,,,,METAR,7.0
KGAG 150953Z AUTO 00000KT 10SM SCT017 BKN023 OVC040 20/19 A2998 RMK AO2 SLP126 T02000194,KGAG,2015-06-15T09:53:00Z,36.3,-99.77,20.0,19.4,0,0,,10.0,29.97933,1012.6,,TRUE,TRUE,,,,,,,SCT,1700,BKN,2300,OVC,4000,,,MVFR,,,,,,,,,,,,METAR,668.0
KELY 150953Z AUTO 20014KT 10SM CLR 17/06 A3006 RMK AO2 SLP070 T01720056,KELY,2015-06-15T09:53:00Z,39.3,-114.85,17.2,5.6,200,14,,10.0,30.059055,1007.0,,TRUE,TRUE,,,,,,,CLR,,,,,,,,VFR,,,,,,,,,,,,METAR,1906.0
LKTB 150953Z 01007KT 330V060 9999 -SHRA FEW015CB BKN022 19/15 Q1011 RMK REG QNH 1007,LKTB,2015-06-15T09:53:00Z,49.13,16.68,19.0,15.0,10,7,,6.21,29.852362,,,,,,,,,,-SHRA,FEW,1500,BKN,2200,,,,,MVFR,,,,,,,,,,,,SPECI,246.0
KADC 150952Z AUTO 00000KT 10SM CLR 11/11 A3000 RMK AO2,KADC,2015-06-15T09:52:00Z,46.45,-95.22,11.0,11.0,0,0,,10.0,30.0,,,TRUE,TRUE,,,,,,,CLR,,,,,,,,VFR,,,,,,,,,,,,METAR,418.0
KBML 150952Z AUTO 00000KT 10SM CLR 11/09 A3005 RMK AO2 SLP176 T01110094 $,KBML,2015-06-15T09:52:00Z,44.58,-71.18,11.1,9.4,0,0,,10.0,30.050198,1017.6,,TRUE,TRUE,TRUE,,,,,,CLR,,,,,,,,VFR,,,,,,,,,,,,METAR,345.0
KREO 150952Z AUTO 05007KT 14/ A2995 RMK AO1 SLP104 T0139 $,KREO,2015-06-15T09:52:00Z,42.58,-117.87,13.9,,50,7,,,29.949802,1010.4,,TRUE,TRUE,TRUE,,,,,,,,,,,,,,,,,,,,,,,,,,METAR,1235.0
KBLU 150952Z AUTO 12004KT 10SM CLR 18/M08 A3003 RMK AO2 SLP068 T01831083,KBLU,2015-06-15T09:52:00Z,39.28,-120.7,18.3,-8.3,120,4,,10.0,30.029528,1006.8,,TRUE,TRUE,,,,,,,CLR,,,,,,,,VFR,,,,,,,,,,,,METAR,1609.0
KHUT 150952Z AUTO 27004KT 8SM OVC002 20/18 A2992 RMK AO2 CIG 001V005 SLP112 T02000183,KHUT,2015-06-15T09:52:00Z,38.07,-97.87,20.0,18.3,270,4,,8.0,29.920275,1011.2,,TRUE,TRUE,,,,,,,OVC,200,,,,,,,LIFR,,,,,,,,,,,,METAR,467.0
KN60 150952Z AUTO 33007KT 10/07 A3013 RMK AO1 SLP203 T01000072,KN60,2015-06-15T09:52:00Z,47.65,-101.43,10.0,7.2,330,7,,,30.129921,1020.3,,TRUE,TRUE,,,,,,,,,,,,,,,,,,,,,,,,,,,METAR,582.0
KDRA 150952Z AUTO 00000KT 10SM CLR 29/M01 A2981 RMK AO2 SLP034 T02891006,KDRA,2015-06-15T09:52:00Z,36.62,-116.03,28.9,-0.6,0,0,,10.0,29.811024,1003.4,,TRUE,TRUE,,,,,,,CLR,,,,,,,,VFR,,,,,,,,,,,,METAR,1006.0
KBAX 150952Z AUTO 31003KT 1/4SM FG OVC002 20/20 A2993 RMK AO2 T02020201,KBAX,2015-06-15T09:52:00Z,43.78,-82.98,20.2,20.1,310,3,,0.25,29.929134,,,TRUE,TRUE,,,,,,FG,OVC,200,,,,,,,LIFR,,,,,,,,,,,,METAR,234.0
KAEL 150952Z AUTO 00000KT 10SM BKN110 21/19 A2992 RMK AO2,KAEL,2015-06-15T09:52:00Z,43.68,-93.37,21.0,19.0,0,0,,10.0,29.920275,,,TRUE,TRUE,,,,,,,BKN,11000,,,,,,,VFR,,,,,,,,,,,,METAR,383.0
K5SM 150952Z AUTO 02003KT 10SM SCT065 11/01 A3047 RMK AO2,K5SM,2015-06-15T09:52:00Z,39.43,-107.38,11.0,1.0,20,3,,10.0,30.469488,,,TRUE,TRUE,,,,,,,SCT,6500,,,,,,,VFR,,,,,,,,,,,,METAR,3232.0
KGDB 150952Z AUTO 33007KT 10SM BKN055 BKN100 17/15 A2999 RMK AO2 LTG DSNT SE THRU SW T01720151,KGDB,2015-06-15T09:52:00Z,44.75,-95.55,17.2,15.1,330,7,,10.0,29.991142,,,TRUE,TRUE,,,,,,,BKN,5500,BKN,10000,,,,,VFR,,,,,,,,,,,,METAR,319.0
KD95 150952Z AUTO 29003KT 4SM BR BKN007 OVC011 21/20 A2995 RMK AO2 T02070197,KD95,2015-06-15T09:52:00Z,43.07,-83.27,20.7,19.7,290,3,,4.0,29.949802,,,TRUE,TRUE,,,,,,BR,BKN,700,OVC,1100,,,,,IFR,,,,,,,,,,,,METAR,255.0
KTKC 150952Z AUTO 34011KT 10SM TS OVC043 18/17 A2997 RMK AO2 LTG DSNT ALQS T01820167,KTKC,2015-06-15T09:52:00Z,44.25,-95.62,18.2,16.7,340,11,,10.0,29.970472,,,TRUE,TRUE,,,,,,TS,OVC,4300,,,,,,,VFR,,,,,,,,,,,,METAR,408.0
KPCW 150952Z AUTO 24007KT 10SM SCT014 BKN024 OVC075 24/23 A2997 RMK AO2,KPCW,2015-06-15T09:52:00Z,41.52,-82.87,24.0,23.0,240,7,,10.0,29.970472,,,TRUE,TRUE,,,,,,,SCT,1400,BKN,2400,OVC,7500,,,MVFR,,,,,,,,,,,,METAR,178.0
KMYP 150952Z AUTO 00000KT 10SM SCT050 06/00 A3063 RMK AO2,KMYP,2015-06-15T09:52:00Z,38.48,-106.32,6.0,0.0,0,0,,10.0,30.628937,,,TRUE,TRUE,,,,,,,SCT,5000,,,,,,,VFR,,,,,,,,,,,,METAR,3667.0
KEVV 150952Z 00000KT 6SM BR CLR 22/21 A3004 RMK DENSITY ALTITUDE 013 TSNO,KEVV,2015-06-15T09:52:00Z,38.05,-87.52,22.0,21.0,0,0,,6.0,30.041338,,,,,,,TRUE,,,BR,CLR,,,,,,,,VFR,,,,,,,,,,,,METAR,117.0
KBAN 150952Z AUTO 00000KT 10SM CLR 06/M05 A3010 RMK AO2 SLP095 T00611050 $,KBAN,2015-06-15T09:52:00Z,38.35,-119.52,6.1,-5.0,0,0,,10.0,30.100393,1009.5,,TRUE,TRUE,TRUE,,,,,,CLR,,,,,,,,VFR,,,,,,,,,,,,METAR,2057.0
KGLS 150952Z AUTO 11012KT 10SM SCT070 OVC080 27/24 A2990 RMK AO2 SLP126 T02720239,KGLS,2015-06-15T09:52:00Z,29.27,-94.87,27.2,23.9,110,12,,10.0,29.899607,1012.6,,TRUE,TRUE,,,,,,,SCT,7000,OVC,8000,,,,,VFR,,,,,,,,,,,,METAR,6.0
KHIE 150952Z AUTO 30004KT 9SM -RA OVC110 12/11 A3003 RMK AO2 RAB23 SLP168 P0001 T01220111 TSNO,KHIE,2015-06-15T09:52:00Z,44.37,-71.55,12.2,11.1,300,4,,9.0,30.029528,1016.8,,TRUE,TRUE,,,TRUE,,,-RA,OVC,11000,,,,,,,VFR,,,,,,0.01,,,,,,METAR,318.0
KHRL 150952Z 00000KT 10SM CLR 24/24 A2981 RMK AO2 SLP094 T02440239,KHRL,2015-06-15T09:52:00Z,26.23,-97.65,24.4,23.9,0,0,,10.0,29.811024,1009.4,,,TRUE,,,,,,,CLR,,,,,,,,VFR,,,,,,,,,,,,METAR,10.0
KIAD 150952Z 00000KT 9SM FEW120 OVC230 23/22 A3000 RMK AO2 SLP156 CB DSNT NW-N MOV SE T02280222,KIAD,2015-06-15T09:52:00Z,38.93,-77.45,22.8,22.2,0,0,,9.0,30.0,1015.6,,,TRUE,,,,,,,FEW,12000,OVC,23000,,,,,VFR,,,,,,,,,,,,METAR,93.0
KIEN 150952Z AUTO 30008KT 10SM OVC065 16/13 A3016 RMK AO2 SLP191 T01560128,KIEN,2015-06-15T09:52:00Z,43.03,-102.52,15.6,12.8,300,8,,10.0,30.159449,1019.1,,TRUE,TRUE,,,,,,,OVC,6500,,,,,,,VFR,,,,,,,,,,,,METAR,998.0
KMWH 150952Z AUTO 36009KT 10SM CLR 14/01 A2997 RMK AO2 SLP142 T01440011,KMWH,2015-06-15T09:52:00Z,47.2,-119.32,14.4,1.1,360,9,,10.0,29.970472,1014.2,,TRUE,TRUE,,,,,,,CLR,,,,,,,,VFR,,,,,,,,,,,,METAR,362.0
KMLI 150952Z AUTO 22003KT 10SM FEW018 BKN060 BKN070 23/21 A2992 RMK AO2 RAE07 SLP126 P0001 T02280211 $,KMLI,2015-06-15T09:52:00Z,41.45,-90.52,22.8,21.1,220,3,,10.0,29.920275,1012.6,,TRUE,TRUE,TRUE,,,,,,FEW,1800,BKN,6000,BKN,7000,,,VFR,,,,,,0.01,,,,,,METAR,184.0
KMLF 150952Z AUTO 09005KT 10SM BKN110 19/08 A3002 RMK AO2 SLP095 T01890083,KMLF,2015-06-15T09:52:00Z,38.42,-113.02,18.9,8.3,90,5,,10.0,30.02067,1009.5,,TRUE,TRUE,,,,,,,BKN,11000,,,,,,,VFR,,,,,,,,,,,,METAR,1534.0
KMKE 150952Z 20003KT 10SM FEW100 BKN200 19/18 A2992 RMK AO2 SLP128 T01940178,KMKE,2015-06-15T09:52:00Z,42.95,-87.9,19.4,17.8,200,3,,10.0,29.920275,1012.8,,,TRUE,,,,,,,FEW,10000,BKN,20000,,,,,VFR,,,,,,,,,,,,METAR,206.0
KMHK 150952Z AUTO 21008KT 10SM -RA SCT120 21/19 A2989 RMK AO2 SLP112 P0003 T02060194,KMHK,2015-06-15T09:52:00Z,39.13,-96.68,20.6,19.4,210,8,,10.0,29.890747,1011.2,,TRUE,TRUE,,,,,,-RA,SCT,12000,,,,,,,VFR,,,,,,0.03,,,,,,METAR,317.0
KMFD 150952Z AUTO 22007KT 10SM FEW017 SCT036 BKN090 22/21 A3002 RMK AO2 RAE43 SLP156 P0002 T02170211,KMFD,2015-06-15T09:52:00Z,40.82,-82.52,21.7,21.1,220,7,,10.0,30.02067,1015.6,,TRUE,TRUE,,,,,,,FEW,1700,SCT,3600,BKN,9000,,,VFR,,,,,,0.02,,,,,,METAR,395.0
KMEB 150952Z AUTO 00000KT 6SM BR CLR 22/21 A3007 RMK AO2 SLP178 T02220206,KMEB,2015-06-15T09:52:00Z,34.78,-79.37,22.2,20.6,0,0,,6.0,30.070866,1017.8,,TRUE,TRUE,,,,,,BR,CLR,,,,,,,,VFR,,,,,,,,,,,,METAR,67.0
KMDH 150952Z AUTO 19005KT 10SM CLR 22/21 A3001 RMK AO2 SLP160 T02220206,KMDH,2015-06-15T09:52:00Z,37.78,-89.25,22.2,20.6,190,5,,10.0,30.008858,1016.0,,TRUE,TRUE,,,,,,,CLR,,,,,,,,VFR,,,,,,,,,,,,METAR,130.0
KMBG 150952Z AUTO 34007KT 10SM CLR 13/12 A3006 RMK AO2 SLP175 T01330122,KMBG,2015-06-15T09:52:00Z,45.55,-100.42,13.3,12.2,340,7,,10.0,30.059055,1017.5,,TRUE,TRUE,,,,,,,CLR,,,,,,,,VFR,,,,,,,,,,,,METAR,510.0
KLWC 150952Z AUTO 16006KT 10SM SCT018 22/20 A2991 RMK AO2 SLP121 T02220200,KLWC,2015-06-15T09:52:00Z,39.02,-95.22,22.2,20.0,160,6,,10.0,29.911417,1012.1,,TRUE,TRUE,,,,,,,SCT,1800,,,,,,,VFR,,,,,,,,,,,,METAR,253.0
KISN 150952Z AUTO 36004KT 10SM CLR 09/04 A3020 RMK AO2 SLP226 T00890044,KISN,2015-06-15T09:52:00Z,48.17,-103.63,8.9,4.4,360,4,,10.0,30.200787,1022.6,,TRUE,TRUE,,,,,,,CLR,,,,,,,,VFR,,,,,,,,,,,,METAR,579.0
KIOW 150952Z AUTO 00000KT 10SM FEW018 FEW045 SCT065 22/21 A2992 RMK AO2 SLP128 T02170211,KIOW,2015-06-15T09:52:00Z,41.63,-91.55,21.7,21.1,0,0,,10.0,29.920275,1012.8,,TRUE,TRUE,,,,,,,FEW,1800,FEW,4500,SCT,6500,,,VFR,,,,,,,,,,,,METAR,198.0
KCLT 150952Z 00000KT 10SM FEW200 22/19 A3010 RMK AO2 SLP184 T02220194,KCLT,2015-06-15T09:52:00Z,35.22,-80.95,22.2,19.4,0,0,,10.0,30.100393,1018.4,,,TRUE,,,,,,,FEW,20000,,,,,,,VFR,,,,,,,,,,,,METAR,220.0
KCKV 150952Z AUTO 00000KT 10SM CLR 23/21 A3008 RMK AO2 SLP178 T02280206 $,KCKV,2015-06-15T09:52:00Z,36.62,-87.42,22.8,20.6,0,0,,10.0,30.079725,1017.8,,TRUE,TRUE,TRUE,,,,,,CLR,,,,,,,,VFR,,,,,,,,,,,,METAR,165.0
KCFV 150952Z AUTO 17005KT 10SM SCT015 OVC041 23/22 A2994 RMK AO2 SLP130 T02280217,KCFV,2015-06-15T09:52:00Z,37.08,-95.57,22.8,21.7,170,5,,10.0,29.940945,1013.0,,TRUE,TRUE,,,,,,,SCT,1500,OVC,4100,,,,,VFR,,,,,,,,,,,,METAR,225.0
KBLH 150952Z AUTO 18006KT 10SM CLR 31/03 A2966 RMK AO2 SLP034 T03060028,KBLH,2015-06-15T09:52:00Z,33.62,-114.72,30.6,2.8,180,6,,10.0,29.660433,1003.4,,TRUE,TRUE,,,,,,,CLR,,,,,,,,VFR,,,,,,,,,,,,METAR,119.0
KBLF 150952Z AUTO 27006KT 10SM CLR 21/17 A3022 RMK AO2 SLP188 T02110172,KBLF,2015-06-15T09:52:00Z,37.3,-81.2,21.1,17.2,270,6,,10.0,30.221457,1018.8,,TRUE,TRUE,,,,,,,CLR,,,,,,,,VFR,,,,,,,,,,,,METAR,873.0
KBIS 150952Z AUTO 22004KT 10SM CLR 11/08 A3013 RMK AO2 SLP200 T01060083,KBIS,2015-06-15T09:52:00Z,46.77,-100.75,10.6,8.3,220,4,,10.0,30.129921,1020.0,,TRUE,TRUE,,,,,,,CLR,,,,,,,,VFR,,,,,,,,,,,,METAR,505.0
KBDR 150952Z AUTO 12012KT 4SM -RA BR BKN014 OVC021 18/17 A2999 RMK AO2 SLP156 P0038 T01830172,KBDR,2015-06-15T09:52:00Z,41.17,-73.13,18.3,17.2,120,12,,4.0,29.991142,1015.6,,TRUE,TRUE,,,,,,-RA BR,BKN,1400,OVC,2100,,,,,MVFR,,,,,,0.38,,,,,,METAR,7.0
KATL 150952Z 00000KT 10SM FEW250 25/20 A3014 RMK AO2 SLP194 T02500200,KATL,2015-06-15T09:52:00Z,33.63,-84.45,25.0,20.0,0,0,,10.0,30.138779,1019.4,,,TRUE,,,,,,,FEW,25000,,,,,,,VFR,,,,,,,,,,,,METAR,296.0
KARR 150952Z AUTO 19006KT 3SM BR OVC003 22/21 A2994 RMK AO2 SLP134 T02220206 TSNO $,KARR,2015-06-15T09:52:00Z,41.77,-88.48,22.2,20.6,190,6,,3.0,29.940945,1013.4,,TRUE,TRUE,TRUE,,TRUE,,,BR,OVC,300,,,,,,,LIFR,,,,,,,,,,,,METAR,215.0
KAQW 150952Z AUTO 11008KT 5SM -RA BR FEW012 OVC040 17/16 A2998 RMK AO2 SLP151 P0016 T01670156,KAQW,2015-06-15T09:52:00Z,42.7,-73.17,16.7,15.6,110,8,,5.0,29.97933,1015.1,,TRUE,TRUE,,,,,,-RA BR,FEW,1200,OVC,4000,,,,,MVFR,,,,,,0.16,,,,,,METAR,199.0
KALS 150952Z AUTO 25005KT 10SM CLR 07/06 A3027 RMK AO2 SLP186 T00670056,KALS,2015-06-15T09:52:00Z,37.43,-105.87,6.7,5.6,250,5,,10.0,30.268702,1018.6,,TRUE,TRUE,,,,,,,CLR,,,,,,,,VFR,,,,,,,,,,,,METAR,2299.0
KAFN 150952Z AUTO 15006KT 5SM RA BR SCT036 BKN048 OVC060 13/12 A3009 RMK AO2 SLP188 P0008 T01330117,KAFN,2015-06-15T09:52:00Z,42.8,-72.0,13.3,11.7,150,6,,5.0,30.088583,1018.8,,TRUE,TRUE,,,,,,RA BR,SCT,3600,BKN,4800,OVC,6000,,,MVFR,,,,,,0.08,,,,,,METAR,313.0
KABQ 150952Z 08009KT 10SM CLR 20/07 A3010 RMK AO2 SLP104 T02000067,KABQ,2015-06-15T09:52:00Z,35.05,-106.62,20.0,6.7,80,9,,10.0,30.100393,1010.4,,,TRUE,,,,,,,CLR,,,,,,,,VFR,,,,,,,,,,,,METAR,1618.0
KABI 150952Z 12004KT 10SM OVC042 22/20 A2995 RMK AO2 RAE23 SLP112 P0001 T02170200,KABI,2015-06-15T09:52:00Z,32.42,-99.68,21.7,20.0,120,4,,10.0,29.949802,1011.2,,,TRUE,,,,,,,OVC,4200,,,,,,,VFR,,,,,,0.01,,,,,,METAR,548.0
KORE 150952Z AUTO 12003KT 3SM RA BR FEW009 BKN034 OVC065 14/14 A3007 RMK AO2 SLP180 P0019 T01440139,KORE,2015-06-15T09:52:00Z,42.57,-72.28,14.4,13.9,120,3,,3.0,30.070866,1018.0,,TRUE,TRUE,,,,,,RA BR,FEW,900,BKN,3400,OVC,6500,,,MVFR,,,,,,0.19,,,,,,METAR,164.0
KOMA 150952Z 15005KT 3SM -RA BR SCT055 OVC075 20/19 A2992 RMK AO2 RAB0859E12B28 SLP123 P0005 T02000189 $,KOMA,2015-06-15T09:52:00Z,41.32,-95.9,20.0,18.9,150,5,,3.0,29.920275,1012.3,,,TRUE,TRUE,,,,,-RA BR,SCT,5500,OVC,7500,,,,,MVFR,,,,,,0.05,,,,,,METAR,312.0
KOKC 150952Z 21005KT 10SM FEW075 SCT130 BKN180 20/18 A2993 RMK AO2 SLP122 T02000178,KOKC,2015-06-15T09:52:00Z,35.38,-97.6,20.0,17.8,210,5,,10.0,29.929134,1012.2,,,TRUE,,,,,,,FEW,7500,SCT,13000,BKN,18000,,,VFR,,,,,,,,,,,,METAR,390.0
KOKB 150952Z AUTO 30004KT 10SM OVC007 18/16 A2981 RMK AO2 SLP093 T01830156,KOKB,2015-06-15T09:52:00Z,33.22,-117.35,18.3,15.6,300,4,,10.0,29.811024,1009.3,,TRUE,TRUE,,,,,,,OVC,700,,,,,,,IFR,,,,,,,,,,,,METAR,8.0
KCVG 150952Z 18005KT 10SM SCT080 SCT180 22/21 A3005 RMK AO2 SLP165 T02220206,KCVG,2015-06-15T09:52:00Z,39.05,-84.67,22.2,20.6,180,5,,10.0,30.050198,1016.5,,,TRUE,,,,,,,SCT,8000,SCT,18000,,,,,VFR,,,,,,,,,,,,METAR,269.0
KCQX 150952Z AUTO 15007KT 10SM BKN050 OVC095 13/08 A3012 RMK AO2 SLP202 T01330083,KCQX,2015-06-15T09:52:00Z,41.68,-70.0,13.3,8.3,150,7,,10.0,30.121063,1020.2,,TRUE,TRUE,,,,,,,BKN,5000,OVC,9500,,,,,VFR,,,,,,,,,,,,METAR,19.0
KCNU 150952Z AUTO 18007KT 10SM SCT009 BKN014 OVC060 22/22 A2994 RMK AO2 SLP130 T02220217 $,KCNU,2015-06-15T09:52:00Z,37.67,-95.48,22.2,21.7,180,7,,10.0,29.940945,1013.0,,TRUE,TRUE,TRUE,,,,,,SCT,900,BKN,1400,OVC,6000,,,MVFR,,,,,,,,,,,,METAR,297.0
KDCA 150952Z 20003KT 10SM SCT150 OVC250 26/23 A2999 RMK AO2 SLP156 T02560233,KDCA,2015-06-15T09:52:00Z,38.85,-77.03,25.6,23.3,200,3,,10.0,29.991142,1015.6,,,TRUE,,,,,,,SCT,15000,OVC,25000,,,,,VFR,,,,,,,,,,,,METAR,18.0
KDDC 150952Z AUTO 33004KT 10SM OVC080 17/16 A3000 RMK AO2 SLP135 T01670156,KDDC,2015-06-15T09:52:00Z,37.77,-99.97,16.7,15.6,330,4,,10.0,30.0,1013.5,,TRUE,TRUE,,,,,,,OVC,8000,,,,,,,VFR,,,,,,,,,,,,METAR,789.0
MUSC 150952Z 08002KT 9000 FEW020 BKN060 22/21 Q1017,MUSC,2015-06-15T09:52:00Z,22.5,-79.95,22.0,21.0,80,2,,5.59,30.029528,,,,,,,,,,,FEW,2000,BKN,6000,,,,,VFR,,,,,,,,,,,,METAR,103.0
MUVR 150952Z 11005KT 7000 SCT025 BKN100 23/21 Q1016,MUVR,2015-06-15T09:52:00Z,23.03,-81.43,23.0,21.0,110,5,,4.35,30.0,,,,,,,,,,,SCT,2500,BKN,10000,,,,,MVFR,,,,,,,,,,,,METAR,65.0
CYYT 150952Z 36016G22KT 15SM SCT007 OVC012 04/03 A2993 RMK SF3SC5 SLP139,CYYT,2015-06-15T09:52:00Z,47.62,-52.72,4.0,3.0,360,16,22,15.0,29.929134,1013.9,,,,,,,,,,SCT,700,OVC,1200,,,,,MVFR,,,,,,,,,,,,SPECI,140.0
CYTE 150952Z AUTO 07015KT 9SM SCT017 BKN022 01/00 A2980 RMK SLP094,CYTE,2015-06-15T09:52:00Z,64.22,-76.52,1.0,0.0,70,15,,9.0,29.799213,1009.4,,TRUE,,,,,,,,SCT,1700,BKN,2200,,,,,MVFR,,,,,,,,,,,,METAR,47.0
PTYA 150952Z 12010KT 12SM SCT015CB BKN120 OVC290 26/25 A2976 RMK CB ALQDS SLP079 T02590248,PTYA,2015-06-15T09:52:00Z,9.48,138.08,25.9,24.8,120,10,,12.0,29.760826,1007.9,,,,,,,,,,SCT,1500,BKN,12000,OVC,29000,,,VFR,,,,,,,,,,,,METAR,17.0
KVTN 150952Z AUTO 33006KT 10SM CLR 16/14 A3008 RMK AO2 SLP173 T01560139,KVTN,2015-06-15T09:52:00Z,42.87,-100.55,15.6,13.9,330,6,,10.0,30.079725,1017.3,,TRUE,TRUE,,,,,,,CLR,,,,,,,,VFR,,,,,,,,,,,,METAR,788.0
KTRM 150952Z AUTO 00000KT 10SM CLR 23/15 A2963 RMK AO2 SLP036 T02330150 TSNO,KTRM,2015-06-15T09:52:00Z,33.63,-116.17,23.3,15.0,0,0,,10.0,29.630905,1003.6,,TRUE,TRUE,,,TRUE,,,,CLR,,,,,,,,VFR,,,,,,,,,,,,METAR,-35.0
KTOL 150952Z 25005KT 7SM BKN007 OVC011 22/22 A2997 RMK AO2 RAB10E21 SLP143 P0000 T02220217,KTOL,2015-06-15T09:52:00Z,41.58,-83.8,22.2,21.7,250,5,,7.0,29.970472,1014.3,,,TRUE,,,,,,,BKN,700,OVC,1100,,,,,IFR,,,,,,0.0050,,,,,,METAR,210.0
KTAN 150952Z AUTO 00000KT 9SM -RA FEW090 BKN110 14/12 A3009 RMK AO2 RAB31 SLP187 P0000 T01440122,KTAN,2015-06-15T09:52:00Z,41.88,-71.02,14.4,12.2,0,0,,9.0,30.088583,1018.7,,TRUE,TRUE,,,,,,-RA,FEW,9000,BKN,11000,,,,,VFR,,,,,,0.0050,,,,,,METAR,7.0
KSUX 150952Z 15008KT 10SM BKN017 21/19 A2990 RMK AO2 LTG DSNT S SLP115 T02110189,KSUX,2015-06-15T09:52:00Z,42.38,-96.38,21.1,18.9,150,8,,10.0,29.899607,1011.5,,,TRUE,,,,,,,BKN,1700,,,,,,,MVFR,,,,,,,,,,,,METAR,338.0
KSPS 150952Z AUTO 09003KT 10SM OVC018 22/20 A2995 RMK AO2 SLP126 T02220200,KSPS,2015-06-15T09:52:00Z,33.98,-98.5,22.2,20.0,90,3,,10.0,29.949802,1012.6,,TRUE,TRUE,,,,,,,OVC,1800,,,,,,,MVFR,,,,,,,,,,,,METAR,308.0
KSPI 150952Z AUTO 23005KT 10SM CLR 23/22 A2996 RMK AO2 SLP141 T02330217,KSPI,2015-06-15T09:52:00Z,39.85,-89.68,23.3,21.7,230,5,,10.0,29.958662,1014.1,,TRUE,TRUE,,,,,,,CLR,,,,,,,,VFR,,,,,,,,,,,,METAR,181.0
KSGF 150952Z 16010KT 10SM CLR 22/21 A2999 RMK AO2 SLP141 T02220206,KSGF,2015-06-15T09:52:00Z,37.23,-93.38,22.2,20.6,160,10,,10.0,29.991142,1014.1,,,TRUE,,,,,,,CLR,,,,,,,,VFR,,,,,,,,,,,,METAR,390.0
KRAP 150952Z AUTO 00000KT 9SM -RA SCT048 BKN070 OVC110 14/13 A3017 RMK AO2 SLP201 P0010 T01390128,KRAP,2015-06-15T09:52:00Z,44.05,-103.05,13.9,12.8,0,0,,9.0,30.171259,1020.1,,TRUE,TRUE,,,,,,-RA,SCT,4800,BKN,7000,OVC,11000,,,VFR,,,,,,0.1,,,,,,METAR,965.0
KPYM 150952Z AUTO 13004KT 10SM OVC100 16/11 A3010 RMK AO2 RAE37 SLP192 P0000 T01560106,KPYM,2015-06-15T09:52:00Z,41.92,-70.73,15.6,10.6,130,4,,10.0,30.100393,1019.2,,TRUE,TRUE,,,,,,,OVC,10000,,,,,,,VFR,,,,,,0.0050,,,,,,METAR,43.0
KPWK 150952Z AUTO 23003KT 10SM OVC008 23/21 A2995 RMK AO2 SLP135 T02280211,KPWK,2015-06-15T09:52:00Z,42.12,-87.9,22.8,21.1,230,3,,10.0,29.949802,1013.5,,TRUE,TRUE,,,,,,,OVC,800,,,,,,,IFR,,,,,,,,,,,,METAR,203.0
KPPF 150952Z AUTO 18004KT 10SM BKN016 BKN038 OVC060 23/22 A2996 RMK AO2 SLP134 T02280217,KPPF,2015-06-15T09:52:00Z,37.33,-95.5,22.8,21.7,180,4,,10.0,29.958662,1013.4,,TRUE,TRUE,,,,,,,BKN,1600,BKN,3800,OVC,6000,,,MVFR,,,,,,,,,,,,METAR,274.0
PATA 150952Z AUTO 00000KT 10SM CLR 13/06 A3038 RMK AO2 SLP289 T01280056 TSNO,PATA,2015-06-15T09:52:00Z,65.17,-152.1,12.8,5.6,0,0,,10.0,30.380905,1028.9,,TRUE,TRUE,,,TRUE,,,,CLR,,,,,,,,VFR,,,,,,,,,,,,METAR,67.0
KFIT 150952Z AUTO 12003KT 5SM RA BR BKN050 OVC070 14/12 A3010 RMK AO2 SLP191 P0012 T01440122,KFIT,2015-06-15T09:52:00Z,42.55,-71.75,14.4,12.2,120,3,,5.0,30.100393,1019.1,,TRUE,TRUE,,,,,,RA BR,BKN,5000,OVC,7000,,,,,MVFR,,,,,,0.12,,,,,,METAR,103.0
KEST 150952Z AUTO 36006KT 10SM CLR 19/18 A2992 RMK AO2 SLP124 T01890178,KEST,2015-06-15T09:52:00Z,43.4,-94.75,18.9,17.8,360,6,,10.0,29.920275,1012.4,,TRUE,TRUE,,,,,,,CLR,,,,,,,,VFR,,,,,,,,,,,,METAR,401.0
KDVN 150952Z AUTO 22006KT 10SM SCT010 BKN018 BKN050 23/22 A2992 RMK AO2 LTG DSNT N RAB05E30 SLP126 P0024 T02280217,KDVN,2015-06-15T09:52:00Z,41.62,-90.58,22.8,21.7,220,6,,10.0,29.920275,1012.6,,TRUE,TRUE,,,,,,,SCT,1000,BKN,1800,BKN,5000,,,MVFR,,,,,,0.24,,,,,,METAR,230.0
KDPA 150952Z 20004KT 7SM OVC005 22/21 A2993 RMK AO2 CIG 004V009 SLP129 T02220211,KDPA,2015-06-15T09:52:00Z,41.92,-88.25,22.2,21.1,200,4,,7.0,29.929134,1012.9,,,TRUE,,,,,,,OVC,500,,,,,,,IFR,,,,,,,,,,,,METAR,231.0
KNZY 150952Z AUTO 29003KT 10SM 18/16 A2980 RMK AO2 SLP092 T01780156 $,KNZY,2015-06-15T09:52:00Z,32.7,-117.22,17.8,15.6,290,3,,10.0,29.799213,1009.2,,TRUE,TRUE,TRUE,,,,,,,,,,,,,,,,,,,,,,,,,,METAR,8.0
KNFW 150952Z AUTO 15008KT 10SM BKN014 BKN027 25/22 A2995 RMK AO2 CIG 010 N SLP125 T02500222 $,KNFW,2015-06-15T09:52:00Z,32.78,-97.43,25.0,22.2,150,8,,10.0,29.949802,1012.5,,TRUE,TRUE,TRUE,,,,,,BKN,1400,BKN,2700,,,,,MVFR,,,,,,,,,,,,METAR,198.0
KP69 150952Z AUTO 34004KT 10/06 A3002 RMK AO1 SLP150 T01000061 $,KP69,2015-06-15T09:52:00Z,46.15,-115.6,10.0,6.1,340,4,,,30.02067,1015.0,,TRUE,TRUE,TRUE,,,,,,,,,,,,,,,,,,,,,,,,,,METAR,480.0
KCZZ 150952Z AUTO 05006KT 14/12 A2984 RMK AO1 SLP069 T01440117,KCZZ,2015-06-15T09:52:00Z,32.63,-116.47,14.4,11.7,50,6,,,29.840551,1006.9,,TRUE,TRUE,,,,,,,,,,,,,,,,,,,,,,,,,,,METAR,807.0
KCDJ 150952Z AUTO 00000KT 22/21 A2992 RMK AO1 SLP118 T02220211,KCDJ,2015-06-15T09:52:00Z,39.82,-93.58,22.2,21.1,0,0,,,29.920275,1011.8,,TRUE,TRUE,,,,,,,,,,,,,,,,,,,,,,,,,,,METAR,234.0
KNHK 150952Z 23005KT 10SM SCT100 BKN250 23/22 A2999 RMK AO2 SLP154 T02330222,KNHK,2015-06-15T09:52:00Z,38.27,-76.4,23.3,22.2,230,5,,10.0,29.991142,1015.4,,,TRUE,,,,,,,SCT,10000,BKN,25000,,,,,VFR,,,,,,,,,,,,METAR,12.0
KNRB 150952Z 20004KT 9SM CLR 23/22 A3009 RMK AO2 SLP189 T02280222 $,KNRB,2015-06-15T09:52:00Z,30.38,-81.42,22.8,22.2,200,4,,9.0,30.088583,1018.9,,,TRUE,TRUE,,,,,,CLR,,,,,,,,VFR,,,,,,,,,,,,METAR,5.0
KACT 150951Z 00000KT 9SM SCT007 SCT021 22/22 A2995 RMK AO2 SLP134 T02220217,KACT,2015-06-15T09:51:00Z,31.62,-97.23,22.2,21.7,0,0,,9.0,29.949802,1013.4,,,TRUE,,,,,,,SCT,700,SCT,2100,,,,,VFR,,,,,,,,,,,,METAR,151.0
KABE 150951Z 00000KT 3SM BR OVC009 23/22 A2996 RMK AO2 SLP141 T02330222 $,KABE,2015-06-15T09:51:00Z,40.65,-75.45,23.3,22.2,0,0,,3.0,29.958662,1014.1,,,TRUE,TRUE,,,,,BR,OVC,900,,,,,,,IFR,,,,,,,,,,,,METAR,114.0
MMGL 150951Z 10007KT 8SM BKN030 OVC100 17/16 A3007 RMK 60065 8/57/ -RA E35 OCNL DROPS,MMGL,2015-06-15T09:51:00Z,20.52,-103.32,17.0,16.0,100,7,,8.0,30.070866,,,,,,,,,,,BKN,3000,OVC,10000,,,,,MVFR,,,,,,,,,,,,METAR,1528.0
KCSG 150951Z AUTO 00000KT 10SM CLR 22/21 A3010 RMK AO2 SLP187 T02220211,KCSG,2015-06-15T09:51:00Z,32.52,-84.95,22.2,21.1,0,0,,10.0,30.100393,1018.7,,TRUE,TRUE,,,,,,,CLR,,,,,,,,VFR,,,,,,,,,,,,METAR,135.0
KDAW 150951Z AUTO 00000KT 10SM -RA BKN110 13/11 A3010 RMK AO2 SLP190 P0001 T01280106,KDAW,2015-06-15T09:51:00Z,43.28,-70.92,12.8,10.6,0,0,,10.0,30.100393,1019.0,,TRUE,TRUE,,,,,,-RA,BKN,11000,,,,,,,VFR,,,,,,0.01,,,,,,METAR,100.0
KEKN 150951Z AUTO 26010G18KT 10SM CLR 24/18 A3014 RMK AO2 SLP188 T02390183 TSNO,KEKN,2015-06-15T09:51:00Z,38.88,-79.85,23.9,18.3,260,10,18,10.0,30.138779,1018.8,,TRUE,TRUE,,,TRUE,,,,CLR,,,,,,,,VFR,,,,,,,,,,,,METAR,603.0
KEWR 150951Z 13004KT 7SM -RA BKN008 OVC012 21/20 A2996 RMK AO2 SLP146 P0001 T02060200,KEWR,2015-06-15T09:51:00Z,40.68,-74.17,20.6,20.0,130,4,,7.0,29.958662,1014.6,,,TRUE,,,,,,-RA,BKN,800,OVC,1200,,,,,IFR,,,,,,0.01,,,,,,METAR,7.0
KERI 150951Z 24006KT 10SM BKN010 OVC014 22/20 A2995 RMK AO2 SLP138 T02170200,KERI,2015-06-15T09:51:00Z,42.08,-80.18,21.7,20.0,240,6,,10.0,29.949802,1013.8,,,TRUE,,,,,,,BKN,1000,OVC,1400,,,,,MVFR,,,,,,,,,,,,METAR,222.0
KELP 150951Z 36004KT 10SM FEW180 24/08 A2994 RMK AO2 SLP055 T02390078,KELP,2015-06-15T09:51:00Z,31.82,-106.38,23.9,7.8,360,4,,10.0,29.940945,1005.5,,,TRUE,,,,,,,FEW,18000,,,,,,,VFR,,,,,,,,,,,,METAR,1197.0
KGRB 150951Z AUTO 00000KT 1 3/4SM BR CLR 18/17 A2990 RMK AO2 SLP122 T01830172,KGRB,2015-06-15T09:51:00Z,44.48,-88.13,18.3,17.2,0,0,,1.75,29.899607,1012.2,,TRUE,TRUE,,,,,,BR,CLR,,,,,,,,IFR,,,,,,,,,,,,METAR,208.0
KHSE 150951Z AUTO 00000KT 10SM CLR 24/24 A3004 RMK AO2 SLP172 T02390239 TSNO,KHSE,2015-06-15T09:51:00Z,35.23,-75.62,23.9,23.9,0,0,,10.0,30.041338,1017.2,,TRUE,TRUE,,,TRUE,,,,CLR,,,,,,,,VFR,,,,,,,,,,,,METAR,3.0
KHDO 150951Z AUTO 00000KT 10SM FEW037 OVC045 24/23 A2994 RMK AO2 SLP123 T02390228,KHDO,2015-06-15T09:51:00Z,29.37,-99.17,23.9,22.8,0,0,,10.0,29.940945,1012.3,,TRUE,TRUE,,,,,,,FEW,3700,OVC,4500,,,,,VFR,,,,,,,,,,,,METAR,282.0
KIGM 150951Z AUTO 13009KT 10SM CLR 24/09 A2989 RMK AO2 SLP041 T02440089,KIGM,2015-06-15T09:51:00Z,35.25,-113.93,24.4,8.9,130,9,,10.0,29.890747,1004.1,,TRUE,TRUE,,,,,,,CLR,,,,,,,,VFR,,,,,,,,,,,,METAR,1032.0
KHTS 150951Z AUTO 00000KT 10SM CLR 22/19 A3008 RMK AO2 SLP176 T02170194 TSNO,KHTS,2015-06-15T09:51:00Z,38.37,-82.55,21.7,19.4,0,0,,10.0,30.079725,1017.6,,TRUE,TRUE,,,TRUE,,,,CLR,,,,,,,,VFR,,,,,,,,,,,,METAR,254.0
KILG 150951Z 24003KT 3SM BR BKN004 23/22 A2998 RMK AO2 RAE13 SLP151 P0001 T02280222 $,KILG,2015-06-15T09:51:00Z,39.67,-75.6,22.8,22.2,240,3,,3.0,29.97933,1015.1,,,TRUE,TRUE,,,,,BR,BKN,400,,,,,,,LIFR,,,,,,0.01,,,,,,METAR,28.0
KJCT 150951Z AUTO 00000KT 10SM CLR 23/20 A2996 RMK AO2 SLP106 T02280200,KJCT,2015-06-15T09:51:00Z,30.5,-99.77,22.8,20.0,0,0,,10.0,29.958662,1010.6,,TRUE,TRUE,,,,,,,CLR,,,,,,,,VFR,,,,,,,,,,,,METAR,522.0
KJKJ 150951Z AUTO 34007KT 10SM CLR 14/12 A3002 RMK AO2,KJKJ,2015-06-15T09:51:00Z,46.83,-96.67,14.0,12.0,340,7,,10.0,30.02067,,,TRUE,TRUE,,,,,,,CLR,,,,,,,,VFR,,,,,,,,,,,,METAR,280.0
KHCD 150951Z AUTO 34009KT 10SM SCT090 18/16 A2994 RMK AO2 LTG DSNT SW T01800163,KHCD,2015-06-15T09:51:00Z,44.87,-94.38,18.0,16.3,340,9,,10.0,29.940945,,,TRUE,TRUE,,,,,,,SCT,9000,,,,,,,VFR,,,,,,,,,,,,METAR,323.0
KMWN 150951Z 18021G25KT 0SM -RA FG VV000 07/07 RMK RAB45,KMWN,2015-06-15T09:51:00Z,44.27,-71.3,7.0,7.0,180,21,25,0.0,,,,,,,,,,,-RA FG,OVX,0,,,,,,,LIFR,,,,,,,,,,,0,METAR,1910.0
KAXV 150951Z AUTO 22006KT 10SM CLR 22/22 A3002 RMK AO2,KAXV,2015-06-15T09:51:00Z,40.5,-84.3,22.0,22.0,220,6,,10.0,30.02067,,,TRUE,TRUE,,,,,,,CLR,,,,,,,,VFR,,,,,,,,,,,,METAR,279.0
KGDP 150951Z AUTO 04023G29KT 10SM BKN120 18/10 A3007 RMK AO2 PK WND 05029/0946 SLP088 T01830100,KGDP,2015-06-15T09:51:00Z,31.83,-104.82,18.3,10.0,40,23,29,10.0,30.070866,1008.8,,TRUE,TRUE,,,,,,,BKN,12000,,,,,,,VFR,,,,,,,,,,,,METAR,1692.0
KAHN 150951Z AUTO 32004KT 10SM CLR 23/20 A3014 RMK AO2 SLP197 T02280200,KAHN,2015-06-15T09:51:00Z,33.95,-83.33,22.8,20.0,320,4,,10.0,30.138779,1019.7,,TRUE,TRUE,,,,,,,CLR,,,,,,,,VFR,,,,,,,,,,,,METAR,244.0
KPHX 150951Z 32005KT 10SM CLR 33/07 A2970 RMK AO2 SLP032 T03330067,KPHX,2015-06-15T09:51:00Z,33.43,-112.02,33.3,6.7,320,5,,10.0,29.698818,1003.2,,,TRUE,,,,,,,CLR,,,,,,,,VFR,,,,,,,,,,,,METAR,336.0
KOXR 150951Z 16003KT 8SM OVC009 17/14 A2981 RMK AO2 SLP094 T01670139,KOXR,2015-06-15T09:51:00Z,34.2,-119.2,16.7,13.9,160,3,,8.0,29.811024,1009.4,,,TRUE,,,,,,,OVC,900,,,,,,,IFR,,,,,,,,,,,,METAR,20.0
KORF 150951Z AUTO 20004KT 7SM CLR 24/22 A3002 RMK AO2 SLP166 T02390222 TSNO,KORF,2015-06-15T09:51:00Z,36.9,-76.2,23.9,22.2,200,4,,7.0,30.02067,1016.6,,TRUE,TRUE,,,TRUE,,,,CLR,,,,,,,,VFR,,,,,,,,,,,,METAR,14.0
KORD 150951Z 23003KT 9SM FEW010 SCT030 SCT100 22/21 A2993 RMK AO2 SLP130 T02220211,KORD,2015-06-15T09:51:00Z,41.98,-87.93,22.2,21.1,230,3,,9.0,29.929134,1013.0,,,TRUE,,,,,,,FEW,1000,SCT,3000,SCT,10000,,,VFR,,,,,,,,,,,,METAR,200.0
KMYL 150951Z AUTO 00000KT 10SM CLR 06/01 A3003 RMK AO2 SLP140 T00560011,KMYL,2015-06-15T09:51:00Z,44.9,-116.1,5.6,1.1,0,0,,10.0,30.029528,1014.0,,TRUE,TRUE,,,,,,,CLR,,,,,,,,VFR,,,,,,,,,,,,METAR,1533.0
KLGU 150951Z AUTO 03003KT 10SM CLR 13/08 A2999 RMK AO2 SLP108 T01280078 TSNO,KLGU,2015-06-15T09:51:00Z,41.78,-111.85,12.8,7.8,30,3,,10.0,29.991142,1010.8,,TRUE,TRUE,,,TRUE,,,,CLR,,,,,,,,VFR,,,,,,,,,,,,METAR,1355.0
KLGA 150951Z 17007KT 7SM -RA BKN007 OVC011 21/19 A2997 RMK AO2 SLP147 P0003 T02060189 $,KLGA,2015-06-15T09:51:00Z,40.78,-73.88,20.6,18.9,170,7,,7.0,29.970472,1014.7,,,TRUE,TRUE,,,,,-RA,BKN,700,OVC,1100,,,,,IFR,,,,,,0.03,,,,,,METAR,11.0
KPIT 150951Z 26006KT 6SM -RA BR FEW010 BKN022 OVC060 21/20 A3003 RMK AO2 SLP167 P0018 T02110200 $,KPIT,2015-06-15T09:51:00Z,40.5,-80.27,21.1,20.0,260,6,,6.0,30.029528,1016.7,,,TRUE,TRUE,,,,,-RA BR,FEW,1000,BKN,2200,OVC,6000,,,MVFR,,,,,,0.18,,,,,,METAR,357.0
KP58 150951Z AUTO 30003KT 16/16 A2991 RMK AO1 SLP127 T01610161,KP58,2015-06-15T09:51:00Z,44.02,-82.8,16.1,16.1,300,3,,,29.911417,1012.7,,TRUE,TRUE,,,,,,,,,,,,,,,,,,,,,,,,,,,METAR,179.0
KP59 150951Z AUTO 02003KT 08/07 A2987 RMK AO1 SLP117 T00780067,KP59,2015-06-15T09:51:00Z,47.47,-87.88,7.8,6.7,20,3,,,29.870079,1011.7,,TRUE,TRUE,,,,,,,,,,,,,,,,,,,,,,,,,,,METAR,190.0
KPVD 150951Z 14004KT 10SM -RA FEW020 BKN085 OVC100 16/12 A3009 RMK AO2 SLP190 FIRST AUGMENTED P0003 T01560117,KPVD,2015-06-15T09:51:00Z,41.72,-71.43,15.6,11.7,140,4,,10.0,30.088583,1019.0,,,TRUE,,,,,,-RA,FEW,2000,BKN,8500,OVC,10000,,,VFR,,,,,,0.03,,,,,,METAR,16.0
KPWM 150951Z 15003KT 10SM BKN055 BKN200 14/11 A3011 RMK AO2 SLP194 T01440106,KPWM,2015-06-15T09:51:00Z,43.65,-70.3,14.4,10.6,150,3,,10.0,30.109253,1019.4,,,TRUE,,,,,,,BKN,5500,BKN,20000,,,,,VFR,,,,,,,,,,,,METAR,15.0
KRDU 150951Z 00000KT 9SM FEW250 23/21 A3006 RMK AO2 SLP174 T02280211 $,KRDU,2015-06-15T09:51:00Z,35.9,-78.78,22.8,21.1,0,0,,9.0,30.059055,1017.4,,,TRUE,TRUE,,,,,,FEW,25000,,,,,,,VFR,,,,,,,,,,,,METAR,130.0
KSAN 150951Z 32004KT 10SM OVC010 19/15 A2983 RMK AO2 SLP099 T01890150 $,KSAN,2015-06-15T09:51:00Z,32.73,-117.18,18.9,15.0,320,4,,10.0,29.828741,1009.9,,,TRUE,TRUE,,,,,,OVC,1000,,,,,,,MVFR,,,,,,,,,,,,METAR,12.0
KSAT 150951Z 10005KT 10SM -RA BKN008 OVC021 24/23 A2993 RMK AO2 RAB22 SLP116 P0000 T02440228,KSAT,2015-06-15T09:51:00Z,29.53,-98.47,24.4,22.8,100,5,,10.0,29.929134,1011.6,,,TRUE,,,,,,-RA,BKN,800,OVC,2100,,,,,IFR,,,,,,0.0050,,,,,,METAR,243.0
KAVX 150951Z AUTO 11008KT M1/4SM FG VV002 14/14 A2983 RMK AO2 SLP088 T01440144,KAVX,2015-06-15T09:51:00Z,33.4,-118.42,14.4,14.4,110,8,,0.25,29.828741,1008.8,,TRUE,TRUE,,,,,,FG,OVX,0,,,,,,,LIFR,,,,,,,,,,,200,METAR,482.0
KASH 150951Z AUTO 15003KT 9SM -RA FEW002 SCT031 BKN045 14/13 A3010 RMK AO2 T01440127 P0003 SLP439 $,KASH,2015-06-15T09:51:00Z,42.78,-71.52,14.4,12.7,150,3,,9.0,30.100393,1043.9,,TRUE,TRUE,TRUE,,,,,-RA,FEW,200,SCT,3100,BKN,4500,,,VFR,,,,,,0.03,,,,,,METAR,61.0
KALB 150951Z 16011KT 8SM -RA OVC009 18/17 A2993 RMK AO2 CIG 006V011 SLP133 P0005 T01830167 $,KALB,2015-06-15T09:51:00Z,42.75,-73.8,18.3,16.7,160,11,,8.0,29.929134,1013.3,,,TRUE,TRUE,,,,,-RA,OVC,900,,,,,,,IFR,,,,,,0.05,,,,,,METAR,92.0
KCAK 150951Z 24004KT 3SM RA BR BKN005 OVC009 22/21 A3001 RMK AO2 RAB24 SLP155 P0005 T02170206,KCAK,2015-06-15T09:51:00Z,40.92,-81.45,21.7,20.6,240,4,,3.0,30.008858,1015.5,,,TRUE,,,,,,RA BR,BKN,500,OVC,900,,,,,IFR,,,,,,0.05,,,,,,METAR,377.0
KBKW 150951Z AUTO 22005KT 10SM CLR 19/17 A3019 RMK AO2 SLP186 T01940172,KBKW,2015-06-15T09:51:00Z,37.8,-81.12,19.4,17.2,220,5,,10.0,30.188976,1018.6,,TRUE,TRUE,,,,,,,CLR,,,,,,,,VFR,,,,,,,,,,,,METAR,764.0
KBHK 150951Z AUTO 00000KT 10SM OVC070 10/06 A3020 RMK AO2 SLP218 T01000061 $,KBHK,2015-06-15T09:51:00Z,46.35,-104.25,10.0,6.1,0,0,,10.0,30.200787,1021.8,,TRUE,TRUE,TRUE,,,,,,OVC,7000,,,,,,,VFR,,,,,,,,,,,,METAR,902.0
KBGD 150951Z AUTO 00000KT 10SM FEW050 17/16 A3002 RMK AO2 SLP135 T01670161,KBGD,2015-06-15T09:51:00Z,35.7,-101.4,16.7,16.1,0,0,,10.0,30.02067,1013.5,,TRUE,TRUE,,,,,,,FEW,5000,,,,,,,VFR,,,,,,,,,,,,METAR,927.0
KBDL 150951Z 10006KT 1 1/2SM R06/6000VP6000FT +RA BR BKN006 OVC011 17/15 A3003 RMK AO2 SFC VIS 2 SLP166 P0038 T01670150,KBDL,2015-06-15T09:51:00Z,41.93,-72.68,16.7,15.0,100,6,,1.5,30.029528,1016.6,,,TRUE,,,,,,+RA BR,BKN,600,OVC,1100,,,,,IFR,,,,,,0.38,,,,,,METAR,60.0
KCRP 150951Z 12003KT 10SM FEW017 FEW045 BKN065 26/23 A2985 RMK AO2 SLP106 T02610233 $,KCRP,2015-06-15T09:51:00Z,27.77,-97.5,26.1,23.3,120,3,,10.0,29.84941,1010.6,,,TRUE,TRUE,,,,,,FEW,1700,FEW,4500,BKN,6500,,,VFR,,,,,,,,,,,,METAR,14.0
KCON 150951Z AUTO 10003KT 5SM RA BR OVC042 14/12 A3010 RMK AO2 SLP191 P0006 T01390117,KCON,2015-06-15T09:51:00Z,43.2,-71.5,13.9,11.7,100,3,,5.0,30.100393,1019.1,,TRUE,TRUE,,,,,,RA BR,OVC,4200,,,,,,,MVFR,,,,,,0.06,,,,,,METAR,103.0
KCMH 150951Z 00000KT 10SM FEW024 BKN050 OVC090 22/22 A3003 RMK AO2 SLP161 T02220217 $,KCMH,2015-06-15T09:51:00Z,40.0,-82.88,22.2,21.7,0,0,,10.0,30.029528,1016.1,,,TRUE,TRUE,,,,,,FEW,2400,BKN,5000,OVC,9000,,,VFR,,,,,,,,,,,,METAR,247.0
KMPV 150951Z AUTO 17007KT 7SM -RA SCT038 SCT044 OVC095 14/13 A3005 RMK AO2 SLP173 P0006 T01440133 $,KMPV,2015-06-15T09:51:00Z,44.2,-72.57,14.4,13.3,170,7,,7.0,30.050198,1017.3,,TRUE,TRUE,TRUE,,,,,-RA,SCT,3800,SCT,4400,OVC,9500,,,VFR,,,,,,0.06,,,,,,METAR,343.0
KVNY 150951Z 09003KT 5SM BR OVC004 17/15 A2981 RMK AO2 SLP086 T01670150,KVNY,2015-06-15T09:51:00Z,34.22,-118.48,16.7,15.0,90,3,,5.0,29.811024,1008.6,,,TRUE,,,,,,BR,OVC,400,,,,,,,LIFR,,,,,,,,,,,,METAR,245.0
KVCT 150951Z AUTO 08004KT 10SM SCT019 SCT046 SCT060 25/24 A2988 RMK AO2 SLP117 T02500244,KVCT,2015-06-15T09:51:00Z,28.87,-96.93,25.0,24.4,80,4,,10.0,29.878937,1011.7,,TRUE,TRUE,,,,,,,SCT,1900,SCT,4600,SCT,6000,,,VFR,,,,,,,,,,,,METAR,31.0
KTEB 150951Z 16004KT 5SM BR OVC009 21/19 A2995 RMK AO2 RAE35 SLP143 P0000 T02060189 $,KTEB,2015-06-15T09:51:00Z,40.87,-74.05,20.6,18.9,160,4,,5.0,29.949802,1014.3,,,TRUE,TRUE,,,,,BR,OVC,900,,,,,,,IFR,,,,,,0.0050,,,,,,METAR,7.0
KSTL 150951Z 21005KT 10SM FEW100 SCT150 BKN250 24/21 A2999 RMK AO2 SLP144 T02390206,KSTL,2015-06-15T09:51:00Z,38.75,-90.37,23.9,20.6,210,5,,10.0,29.991142,1014.4,,,TRUE,,,,,,,FEW,10000,SCT,15000,BKN,25000,,,VFR,,,,,,,,,,,,METAR,171.0
KSMX 150951Z AUTO 26006KT 4SM BR OVC005 14/13 A2985 RMK AO2 SLP110 T01390128 TSNO,KSMX,2015-06-15T09:51:00Z,34.9,-120.45,13.9,12.8,260,6,,4.0,29.84941,1011.0,,TRUE,TRUE,,,TRUE,,,BR,OVC,500,,,,,,,IFR,,,,,,,,,,,,METAR,74.0
KSMO 150951Z 00000KT 8SM OVC005 15/15 A2982 RMK AO2 SLP096 T01500150,KSMO,2015-06-15T09:51:00Z,34.02,-118.45,15.0,15.0,0,0,,8.0,29.819881,1009.6,,,TRUE,,,,,,,OVC,500,,,,,,,IFR,,,,,,,,,,,,METAR,57.0
KSLK 150951Z AUTO 07004KT 9SM -RA FEW007 OVC025 13/13 A2993 RMK AO2 SLP129 P0019 T01330128,KSLK,2015-06-15T09:51:00Z,44.4,-74.2,13.3,12.8,70,4,,9.0,29.929134,1012.9,,TRUE,TRUE,,,,,,-RA,FEW,700,OVC,2500,,,,,MVFR,,,,,,0.19,,,,,,METAR,498.0
KSJT 150951Z 26005KT 10SM FEW007 OVC065 21/19 A2999 RMK AO2 LTG DSNT NE RAE38 TSE13 SLP129 P0006 T02060189,KSJT,2015-06-15T09:51:00Z,31.37,-100.5,20.6,18.9,260,5,,10.0,29.991142,1012.9,,,TRUE,,,,,,,FEW,700,OVC,6500,,,,,VFR,,,,,,0.06,,,,,,METAR,576.0
MMCE 150951Z 14013KT 6SM BKN070 BKN250 27/22 A2977 RMK 8/078 HZY,MMCE,2015-06-15T09:51:00Z,18.65,-91.8,27.0,22.0,140,13,,6.0,29.769686,,,,,,,,,,,BKN,7000,BKN,25000,,,,,VFR,,,,,,,,,,,,METAR,2.0
KBVE 150951Z AUTO 10006KT 10SM CLR 27/24 A2999 RMK AO2 SLP155 T02670244,KBVE,2015-06-15T09:51:00Z,29.32,-89.4,26.7,24.4,100,6,,10.0,29.991142,1015.5,,TRUE,TRUE,,,,,,,CLR,,,,,,,,VFR,,,,,,,,,,,,METAR,1.0
KNYC 150951Z AUTO 16004KT 4SM BR OVC006 20/18 A3000 RMK AO2 RAE31 SLP149 P0002 T02000183 $,KNYC,2015-06-15T09:51:00Z,40.78,-73.97,20.0,18.3,160,4,,4.0,30.0,1014.9,,TRUE,TRUE,TRUE,,,,,BR,OVC,600,,,,,,,IFR,,,,,,0.02,,,,,,METAR,11.0
KSNT 150951Z AUTO 00000KT 02/M03 A3013 RMK AO1 SLP132 T00171028,KSNT,2015-06-15T09:51:00Z,44.17,-114.93,1.7,-2.8,0,0,,,30.129921,1013.2,,TRUE,TRUE,,,,,,,,,,,,,,,,,,,,,,,,,,,METAR,1980.0
KSAD 150951Z AUTO 34003KT 10SM CLR 24/06 A2983 RMK AO2 SLP037 T02440056,KSAD,2015-06-15T09:51:00Z,32.85,-109.63,24.4,5.6,340,3,,10.0,29.828741,1003.7,,TRUE,TRUE,,,,,,,CLR,,,,,,,,VFR,,,,,,,,,,,,METAR,962.0
KATT 150951Z AUTO 00000KT 10SM BKN009 OVC018 24/23 A2994 RMK AO2 RAB15E39 SLP128 P0006 T02390228,KATT,2015-06-15T09:51:00Z,30.32,-97.77,23.9,22.8,0,0,,10.0,29.940945,1012.8,,TRUE,TRUE,,,,,,,BKN,900,OVC,1800,,,,,IFR,,,,,,0.06,,,,,,METAR,201.0
ENTO 150950Z 28006KT 200V350 CAVOK 15/02 Q1012,ENTO,2015-06-15T09:50:00Z,59.2,10.27,15.0,2.0,280,6,,6.21,29.88189,,,,,,,,,,,CAVOK,,,,,,,,VFR,,,,,,,,,,,,METAR,88.0
ENTC 150950Z 26007KT 9999 SCT049 11/04 Q1000 NOSIG RMK WIND 2600FT 35004KT,ENTC,2015-06-15T09:50:00Z,69.68,18.92,11.0,4.0,260,7,,6.21,29.52756,,,,,,TRUE,,,,,SCT,4900,,,,,,,VFR,,,,,,,,,,,,METAR,10.0
ENSB 150950Z 12009KT 080V150 9999 FEW030 BKN130 07/00 Q1010 NOSIG RMK WIND 1400FT 11012KT,ENSB,2015-06-15T09:50:00Z,78.25,15.47,7.0,0.0,120,9,,6.21,29.822834,,,,,,TRUE,,,,,FEW,3000,BKN,13000,,,,,VFR,,-1.2,,,,,,,,,,METAR,29.0
ENRY 150950Z 26007KT 200V310 CAVOK 15/01 Q1012 NOSIG,ENRY,2015-06-15T09:50:00Z,59.37,10.77,15.0,1.0,260,7,,6.21,29.88189,,,,,,TRUE,,,,,CAVOK,,,,,,,,VFR,,,,,,,,,,,,METAR,53.0
ENHD 150950Z 30010KT 9999 FEW022 BKN040 12/06 Q1017,ENHD,2015-06-15T09:50:00Z,59.35,5.22,12.0,6.0,300,10,,6.21,30.029528,,,,,,,,,,,FEW,2200,BKN,4000,,,,,VFR,,,,,,,,,,,,METAR,24.0
ENCN 150950Z 30008KT 260V340 CAVOK 15/01 Q1013,ENCN,2015-06-15T09:50:00Z,58.2,8.07,15.0,1.0,300,8,,6.21,29.911417,,,,,,,,,,,CAVOK,,,,,,,,VFR,,,,,,,,,,,,METAR,17.0
ENAL 150950Z 27012KT 7000 FEW016 BKN025 BKN034 08/05 Q1015,ENAL,2015-06-15T09:50:00Z,62.57,6.12,8.0,5.0,270,12,,4.35,29.970472,,,,,,,,,,,FEW,1600,BKN,2500,BKN,3400,,,MVFR,,,,,,,,,,,,METAR,22.0
LGRP 150950Z 26012KT CAVOK 29/13 Q1010 NOSIG,LGRP,2015-06-15T09:50:00Z,36.4,28.08,29.0,13.0,260,12,,6.21,29.822834,,,,,,TRUE,,,,,CAVOK,,,,,,,,VFR,,,,,,,,,,,,METAR,5.0
LGKR 150950Z 15006KT CAVOK 29/18 Q1015 NOSIG,LGKR,2015-06-15T09:50:00Z,39.62,19.92,29.0,18.0,150,6,,6.21,29.970472,,,,,,TRUE,,,,,CAVOK,,,,,,,,VFR,,,,,,,,,,,,METAR,2.0
LGIR 150950Z 00000KT CAVOK 29/14 Q1013 NOSIG,LGIR,2015-06-15T09:50:00Z,35.32,25.17,29.0,14.0,0,0,,6.21,29.911417,,,,,,TRUE,,,,,CAVOK,,,,,,,,VFR,,,,,,,,,,,,METAR,39.0
LGAV 150950Z 08007KT 050V120 CAVOK 32/13 Q1013,LGAV,2015-06-15T09:50:00Z,37.93,23.95,32.0,13.0,80,7,,6.21,29.911417,,,,,,,,,,,CAVOK,,,,,,,,VFR,,,,,,,,,,,,METAR,94.0
EGNS 150950Z 09007KT 050V120 9999 FEW018 13/10 Q1022 NOSIG,EGNS,2015-06-15T09:50:00Z,54.08,-4.63,13.0,10.0,90,7,,6.21,30.177166,,,,,,TRUE,,,,,FEW,1800,,,,,,,VFR,,,,,,,,,,,,METAR,17.0
EFVR 150950Z AUTO 27009KT 220V310 9999 FEW030 BKN037 11/06 Q0998,EFVR,2015-06-15T09:50:00Z,62.17,27.87,11.0,6.0,270,9,,6.21,29.468504,,,TRUE,,,,,,,,FEW,3000,BKN,3700,,,,,VFR,,,,,,,,,,,,METAR,87.0
EFUT 150950Z 29008KT 260V360 9999 BKN025 SCT040 13/07 Q1000,EFUT,2015-06-15T09:50:00Z,60.88,26.92,13.0,7.0,290,8,,6.21,29.52756,,,,,,,,,,,BKN,2500,SCT,4000,,,,,MVFR,,,,,,,,,,,,METAR,100.0
EFSA 150950Z 23009KT 190V290 9999 SCT015 BKN063 12/09 Q0998,EFSA,2015-06-15T09:50:00Z,61.95,28.93,12.0,9.0,230,9,,6.21,29.468504,,,,,,,,,,,SCT,1500,BKN,6300,,,,,VFR,,,,,,,,,,,,METAR,95.0
EFMI 150950Z AUTO 27011KT 220V310 9999 SCT026 SCT037 13/07 Q0999,EFMI,2015-06-15T09:50:00Z,61.68,27.2,13.0,7.0,270,11,,6.21,29.498032,,,TRUE,,,,,,,,SCT,2600,SCT,3700,,,,,VFR,,,,,,,,,,,,METAR,138.0
EFLP 150950Z AUTO 28012KT 250V310 9999 -RA FEW025 SCT032 BKN050 12/09 Q1000,EFLP,2015-06-15T09:50:00Z,61.07,28.13,12.0,9.0,280,12,,6.21,29.52756,,,TRUE,,,,,,,-RA,FEW,2500,SCT,3200,BKN,5000,,,VFR,,,,,,,,,,,,METAR,106.0
EFJO 150950Z AUTO 26013KT 210V310 9999 OVC018 10/08 Q0996,EFJO,2015-06-15T09:50:00Z,62.67,29.62,10.0,8.0,260,13,,6.21,29.409449,,,TRUE,,,,,,,,OVC,1800,,,,,,,MVFR,,,,,,,,,,,,METAR,117.0
ENSH 150950Z 22008KT 190V250 9999 VCSH FEW015 SCT020 BKN035 09/04 Q1000,ENSH,2015-06-15T09:50:00Z,68.25,14.67,9.0,4.0,220,8,,6.21,29.52756,,,,,,,,,,VCSH,FEW,1500,SCT,2000,BKN,3500,,,VFR,,,,,,,,,,,,METAR,9.0
ENRA 150950Z 31003KT 210V340 9999 -SHRA SCT023 BKN032 06/04 Q1003,ENRA,2015-06-15T09:50:00Z,66.37,14.3,6.0,4.0,310,3,,6.21,29.616142,,,,,,,,,,-SHRA,SCT,2300,BKN,3200,,,,,VFR,,,,,,,,,,,,METAR,70.0
ENHF 150950Z 05011KT 9999 VCSH FEW050TCU BKN090 12/02 Q0999 RMK WIND 1254FT 08012KT,ENHF,2015-06-15T09:50:00Z,70.67,23.67,12.0,2.0,50,11,,6.21,29.498032,,,,,,,,,,VCSH,FEW,5000,BKN,9000,,,,,VFR,,,,,,,,,,,,METAR,81.0
ENFG 150950Z 32012KT 9999 FEW040 07/M05 Q1010,ENFG,2015-06-15T09:50:00Z,61.0,9.3,7.0,-5.0,320,12,,6.21,29.822834,,,,,,,,,,,FEW,4000,,,,,,,VFR,,,,,,,,,,,,METAR,822.0
ENBV 150950Z 10015KT CAVOK 08/04 Q1001,ENBV,2015-06-15T09:50:00Z,70.87,29.02,8.0,4.0,100,15,,6.21,29.557087,,,,,,,,,,,CAVOK,,,,,,,,VFR,,,,,,,,,,,,METAR,13.0
ENBN 150950Z 27011KT 9999 VCSH FEW015 SCT020 BKN032 07/04 Q1005,ENBN,2015-06-15T09:50:00Z,65.47,12.22,7.0,4.0,270,11,,6.21,29.675198,,,,,,,,,,VCSH,FEW,1500,SCT,2000,BKN,3200,,,VFR,,,,,,,,,,,,METAR,9.0
ENSF 150950Z AUTO 32015KT 9000NDV -DZ SCT016/// BKN041/// 07/04 Q1017 W///S4,ENSF,2015-06-15T09:50:00Z,61.25,1.85,7.0,4.0,320,15,,,30.029528,,,TRUE,,,,,,,-DZ,,,,,,,,,,,,,,,,,,,,,METAR,10.0
ENFB 150950Z AUTO 31012KT 9999NDV -SHRA SCT019/// BKN041/// 09/04 Q1018 W///S/,ENFB,2015-06-15T09:50:00Z,61.2,1.83,9.0,4.0,310,12,,,30.059055,,,TRUE,,,,,,,-SHRA,,,,,,,,,,,,,,,,,,,,,METAR,10.0
ENSL 150950Z 31008KT 290V050 9999 BKN040 10/03 Q1020 W08/S4,ENSL,2015-06-15T09:50:00Z,58.37,1.9,10.0,3.0,310,8,,6.21,30.11811,,,,,,,,,,,BKN,4000,,,,,,,VFR,,,,,,,,,,,,METAR,50.0
ENOA 150950Z 31014KT 9999 VCSH FEW015 SCT020TCU 07/03 Q1017 W///S4,ENOA,2015-06-15T09:50:00Z,60.5,2.83,7.0,3.0,310,14,,6.21,30.029528,,,,,,,,,,VCSH,FEW,1500,SCT,2000,,,,,VFR,,,,,,,,,,,,METAR,5.0
ENHE 150950Z 32024KT 9999 SCT021 BKN054 07/02 Q1007 W///S4,ENHE,2015-06-15T09:50:00Z,65.33,2.33,7.0,2.0,320,24,,6.21,29.734253,,,,,,,,,,,SCT,2100,BKN,5400,,,,,VFR,,,,,,,,,,,,METAR,1.0
ENGC 150950Z 32017KT 9999 FEW015TCU SCT040 06/04 Q1017 W08/S4,ENGC,2015-06-15T09:50:00Z,61.02,2.02,6.0,4.0,320,17,,6.21,30.029528,,,,,,,,,,,FEW,1500,SCT,4000,,,,,VFR,,,,,,,,,,,,METAR,10.0
ENEK 150950Z 30019KT 9999 SCT025 11/01 Q1021 W12/S4,ENEK,2015-06-15T09:50:00Z,56.53,3.25,11.0,1.0,300,19,,6.21,30.147638,,,,,,,,,,,SCT,2500,,,,,,,VFR,,,,,,,,,,,,METAR,3.0
ENDR 150950Z AUTO 29027KT 08/04 Q1009,ENDR,2015-06-15T09:50:00Z,64.35,7.8,8.0,4.0,290,27,,,29.793306,,,TRUE,,,,,,,,,,,,,,,,,,,,,,,,,,,,METAR,50.0
ENZV 150950Z 32010KT 9999 VCSH FEW020 SCT030 BKN045 10/06 Q1017 TEMPO SHRA,ENZV,2015-06-15T09:50:00Z,58.87,5.62,10.0,6.0,320,10,,6.21,30.029528,,,,,,,,,,VCSH,FEW,2000,SCT,3000,BKN,4500,,,VFR,,,,,,,,,,,,METAR,9.0
ENVA 150950Z 26018KT 6000 RA BKN018 OVC023 07/05 Q1010 TEMPO 27020G30KT 4000 SHRAGS BKN012CB RMK WIND 670FT 27021KT,ENVA,2015-06-15T09:50:00Z,63.47,10.92,7.0,5.0,260,18,,3.73,29.822834,,,,,,,,,,RA,BKN,1800,OVC,2300,,,,,MVFR,,,,,,,,,,,,METAR,17.0
ENOL 150950Z 26020KT 9999 -SHRA SCT012TCU BKN025 07/05 Q1010 TEMPO SHRA BKN012 SCT015CB,ENOL,2015-06-15T09:50:00Z,63.7,9.58,7.0,5.0,260,20,,6.21,29.822834,,,,,,,,,,-SHRA,SCT,1200,BKN,2500,,,,,MVFR,,,,,,,,,,,,METAR,7.0
ENGM 150950Z 29006KT 210V350 CAVOK 13/M02 Q1011 NOSIG,ENGM,2015-06-15T09:50:00Z,60.2,11.1,13.0,-2.0,290,6,,6.21,29.852362,,,,,,TRUE,,,,,CAVOK,,,,,,,,VFR,,,,,,,,,,,,METAR,204.0
ENDU 150950Z 33008KT 300V010 9999 FEW030TCU SCT060 11/01 Q0999 NOSIG,ENDU,2015-06-15T09:50:00Z,69.03,18.55,11.0,1.0,330,8,,6.21,29.498032,,,,,,TRUE,,,,,FEW,3000,SCT,6000,,,,,VFR,,,,,,,,,,,,METAR,79.0
ENBO 150950Z 24013KT 9999 -SHRA FEW010 SCT014CB BKN020 07/05 Q1002 TEMPO SHRAGS BKN014CB,ENBO,2015-06-15T09:50:00Z,67.27,14.37,7.0,5.0,240,13,,6.21,29.586615,,,,,,,,,,-SHRA,FEW,1000,SCT,1400,BKN,2000,,,MVFR,,,,,,,,,,,,METAR,13.0
ENBR 150950Z VRB02KT 9999 VCSH FEW015TCU SCT025 BKN040 09/05 Q1017 TEMPO SHRA RMK WIND 1200FT 30010KT,ENBR,2015-06-15T09:50:00Z,60.28,5.22,9.0,5.0,0,2,,6.21,30.029528,,,,,,,,,,VCSH,FEW,1500,SCT,2500,BKN,4000,,,VFR,,,,,,,,,,,,METAR,50.0
ENAN 150950Z 17007KT 140V210 9999 FEW020 SCT160 09/03 Q1000 TEMPO SHRA SCT012CB,ENAN,2015-06-15T09:50:00Z,69.28,16.13,9.0,3.0,170,7,,6.21,29.52756,,,,,,,,,,,FEW,2000,SCT,16000,,,,,VFR,,,,,,,,,,,,METAR,14.0
ENSS 150950Z 08012KT 9999 FEW010 BKN095 08/05 Q1002 RMK WIND 500FT 07014KT,ENSS,2015-06-15T09:50:00Z,70.33,31.05,8.0,5.0,80,12,,6.21,29.586615,,,,,,,,,,,FEW,1000,BKN,9500,,,,,VFR,,,,,,,,,,,,METAR,12.0
ENSN 150950Z 26008KT 210V300 CAVOK 14/M03 Q1012,ENSN,2015-06-15T09:50:00Z,59.17,9.57,14.0,-3.0,260,8,,6.21,29.88189,,,,,,,,,,,CAVOK,,,,,,,,VFR,,,,,,,,,,,,METAR,14.0
ENSG 150950Z VRB06KT 9999 -SHRA FEW015 BKN045 06/00 Q1014 RMK WIND 3901FT 27017KT,ENSG,2015-06-15T09:50:00Z,61.13,7.12,6.0,0.0,0,6,,6.21,29.940945,,,,,,,,,,-SHRA,FEW,1500,BKN,4500,,,,,VFR,,,,,,,,,,,,METAR,497.0
ENSD 150950Z 26004KT 170V330 9999 VCSH FEW016 SCT025 BKN034 09/04 Q1015 RMK WIND 1138FT 30004KT,ENSD,2015-06-15T09:50:00Z,61.82,6.12,9.0,4.0,260,4,,6.21,29.970472,,,,,,,,,,VCSH,FEW,1600,SCT,2500,BKN,3400,,,VFR,,,,,,,,,,,,METAR,60.0
ENNO 150950Z VRB04KT CAVOK 16/M00 Q1012,ENNO,2015-06-15T09:50:00Z,59.57,9.22,16.0,0.0,0,4,,6.21,29.88189,,,,,,,,,,,CAVOK,,,,,,,,VFR,,,,,,,,,,,,METAR,19.0
EDGS 150950Z 35007KT 9999 BKN008 12/10 Q1017,EDGS,2015-06-15T09:50:00Z,50.7,8.08,12.0,10.0,350,7,,6.21,30.029528,,,,,,,,,,,BKN,800,,,,,,,IFR,,,,,,,,,,,,METAR,602.0
EDBC 150950Z 33008KT 290V030 9999 FEW028 14/06 Q1018,EDBC,2015-06-15T09:50:00Z,51.85,11.42,14.0,6.0,330,8,,6.21,30.059055,,,,,,,,,,,FEW,2800,,,,,,,VFR,,,,,,,,,,,,METAR,181.0
ENNA 150950Z 08012KT 9999 VCSH FEW035 SCT070 BKN090 14/00 Q0998 RMK WIND 1800FT 10023KT,ENNA,2015-06-15T09:50:00Z,70.07,24.97,14.0,0.0,80,12,,6.21,29.468504,,,,,,,,,,VCSH,FEW,3500,SCT,7000,BKN,9000,,,VFR,,2.3,,,,,,,,,,METAR,8.0
ENML 150950Z 27014KT 9999 -SHRA SCT020 BKN035 08/04 Q1014,ENML,2015-06-15T09:50:00Z,62.75,7.27,8.0,4.0,270,14,,6.21,29.940945,,,,,,,,,,-SHRA,SCT,2000,BKN,3500,,,,,VFR,,,,,,,,,,,,METAR,3.0
ENKR 150950Z 06012KT 9999 FEW012 SCT078 12/03 Q0999 RMK WIND 731FT 09017KT,ENKR,2015-06-15T09:50:00Z,69.72,29.88,12.0,3.0,60,12,,6.21,29.498032,,,,,,,,,,,FEW,1200,SCT,7800,,,,,VFR,,,,,,,,,,,,METAR,91.0
ENKB 150950Z 24014KT 9999 VCSH FEW012 SCT025 BKN035 08/05 Q1013,ENKB,2015-06-15T09:50:00Z,63.12,7.82,8.0,5.0,240,14,,6.21,29.911417,,,,,,,,,,VCSH,FEW,1200,SCT,2500,BKN,3500,,,VFR,,,,,,,,,,,,METAR,62.0
ENFL 150950Z 24008KT 220V280 9999 VCSH FEW015 SCT025TCU SCT040 09/04 Q1016,ENFL,2015-06-15T09:50:00Z,61.57,5.02,9.0,4.0,240,8,,6.21,30.0,,,,,,,,,,VCSH,FEW,1500,SCT,2500,SCT,4000,,,VFR,,,,,,,,,,,,METAR,9.0
ENEV 150950Z 26008KT 230V290 9999 SCT031 BKN064 09/03 Q1000 RMK WIND 1400FT 23012KT,ENEV,2015-06-15T09:50:00Z,68.52,16.67,9.0,3.0,260,8,,6.21,29.52756,,,,,,,,,,,SCT,3100,BKN,6400,,,,,VFR,,,,,,,,,,,,METAR,26.0
ENBL 150950Z 24008KT 9999 DZ SCT010 BKN025 06/04 Q1015,ENBL,2015-06-15T09:50:00Z,61.4,5.77,6.0,4.0,240,8,,6.21,29.970472,,,,,,,,,,DZ,SCT,1000,BKN,2500,,,,,MVFR,,,,,,,,,,,,METAR,150.0
ENAT 150950Z 05004KT 020V080 9999 FEW019 SCT040 BKN062 13/00 Q0999 RMK WIND 700FT 01011KT,ENAT,2015-06-15T09:50:00Z,69.97,23.37,13.0,0.0,50,4,,6.21,29.498032,,,,,,,,,,,FEW,1900,SCT,4000,BKN,6200,,,VFR,,,,,,,,,,,,METAR,3.0
ENVD 150950Z 06018KT 9999 FEW025 BKN090 10/03 Q1000,ENVD,2015-06-15T09:50:00Z,70.07,29.85,10.0,3.0,60,18,,6.21,29.52756,,,,,,,,,,,FEW,2500,BKN,9000,,,,,VFR,,,,,,,,,,,,METAR,39.0
ENST 150950Z 26007KT 220V320 9999 -SHRA SCT015TCU BKN025 07/05 Q1004 RMK WIND 300FT 27011KT,ENST,2015-06-15T09:50:00Z,65.97,12.47,7.0,5.0,260,7,,6.21,29.64567,,,,,,,,,,-SHRA,SCT,1500,BKN,2500,,,,,MVFR,,,,,,,,,,,,METAR,17.0
ENSK 150950Z 29005KT 9999 -SHRA FEW014 SCT022 BKN028 06/04 Q1000,ENSK,2015-06-15T09:50:00Z,68.57,15.02,6.0,4.0,290,5,,6.21,29.52756,,,,,,,,,,-SHRA,FEW,1400,SCT,2200,BKN,2800,,,MVFR,,,,,,,,,,,,METAR,3.0
ENRM 150950Z 28012KT 9999 -SHRA SCT014 BKN022 08/05 Q1007,ENRM,2015-06-15T09:50:00Z,64.83,11.13,8.0,5.0,280,12,,6.21,29.734253,,,,,,,,,,-SHRA,SCT,1400,BKN,2200,,,,,MVFR,,,,,,,,,,,,METAR,14.0
ENMS 150950Z VRB02KT 9999 -SH SCT020 BKN030 07/04 Q1004 RMK WIND 412FT VRB04KT,ENMS,2015-06-15T09:50:00Z,65.78,13.22,7.0,4.0,0,2,,6.21,29.64567,,,,,,,,,,-SH,SCT,2000,BKN,3000,,,,,MVFR,,,,,,,,,,,,METAR,70.0
ENNM 150950Z 28009KT 230V330 9999 -SHRA FEW015 SCT022 BKN035 07/05 Q1008,ENNM,2015-06-15T09:50:00Z,64.47,11.57,7.0,5.0,280,9,,6.21,29.763779,,,,,,,,,,-SHRA,FEW,1500,SCT,2200,BKN,3500,,,VFR,,,,,,,,,,,,METAR,2.0
ENNK 150950Z 23011KT 9999 FEW030TCU SCT050 08/04 Q1000,ENNK,2015-06-15T09:50:00Z,68.47,17.38,8.0,4.0,230,11,,6.21,29.52756,,,,,,,,,,,FEW,3000,SCT,5000,,,,,VFR,,,,,,,,,,,,METAR,23.0
ENMH 150950Z 07010KT CAVOK 13/05 Q1001,ENMH,2015-06-15T09:50:00Z,71.02,27.82,13.0,5.0,70,10,,6.21,29.557087,,,,,,,,,,,CAVOK,,,,,,,,VFR,,,,,,,,,,,,METAR,13.0
ENLK 150950Z 26003KT 200V320 9999 VCSH FEW015 BKN025 06/03 Q1000,ENLK,2015-06-15T09:50:00Z,68.15,13.62,6.0,3.0,260,3,,6.21,29.52756,,,,,,,,,,VCSH,FEW,1500,BKN,2500,,,,,MVFR,,,,,,,,,,,,METAR,26.0
ENBS 150950Z 04009KT 9999 FEW038 SCT063 10/M04 Q1001,ENBS,2015-06-15T09:50:00Z,70.62,29.72,10.0,-4.0,40,9,,6.21,29.557087,,,,,,,,,,,FEW,3800,SCT,6300,,,,,VFR,,,,,,,,,,,,METAR,10.0
EDTY 150950Z 36009KT CAVOK 20/13 Q1015,EDTY,2015-06-15T09:50:00Z,49.12,9.78,20.0,13.0,360,9,,6.21,29.970472,,,,,,,,,,,CAVOK,,,,,,,,VFR,,,,,,,,,,,,METAR,400.0
EDHK 150950Z 30012KT 9999 FEW038 BKN045 12/04 Q1019,EDHK,2015-06-15T09:50:00Z,54.38,10.15,12.0,4.0,300,12,,6.21,30.088583,,,,,,,,,,,FEW,3800,BKN,4500,,,,,VFR,,,,,,,,,,,,METAR,31.0
LIMW 150950Z AUTO 09011KT CAVOK 21/15 Q1013,LIMW,2015-06-15T09:50:00Z,45.73,7.37,21.0,15.0,90,11,,6.21,29.911417,,,TRUE,,,,,,,,CAVOK,,,,,,,,VFR,,,,,,,,,,,,METAR,546.0
LIPZ 150950Z 21006KT 150V240 9999 SCT070 23/17 Q1013,LIPZ,2015-06-15T09:50:00Z,45.5,12.35,23.0,17.0,210,6,,6.21,29.911417,,,,,,,,,,,SCT,7000,,,,,,,VFR,,,,,,,,,,,,METAR,6.0
LIPQ 150950Z 20007KT 9999 SCT020 SCT070 25/19 Q1013,LIPQ,2015-06-15T09:50:00Z,45.82,13.47,25.0,19.0,200,7,,6.21,29.911417,,,,,,,,,,,SCT,2000,SCT,7000,,,,,VFR,,,,,,,,,,,,METAR,12.0
LIPK 150950Z VRB03KT 9999 SCT050 24/16 Q1013,LIPK,2015-06-15T09:50:00Z,44.2,12.07,24.0,16.0,0,3,,6.21,29.911417,,,,,,,,,,,SCT,5000,,,,,,,VFR,,,,,,,,,,,,METAR,32.0
LIPE 150950Z 17013KT 070V230 9999 FEW050 26/15 Q1013,LIPE,2015-06-15T09:50:00Z,44.52,11.3,26.0,15.0,170,13,,6.21,29.911417,,,,,,,,,,,FEW,5000,,,,,,,VFR,,,,,,,,,,,,METAR,42.0
LIPB 150950Z VRB01KT 9999 FEW020 SCT040 BKN090 21/16 Q1013,LIPB,2015-06-15T09:50:00Z,46.47,11.32,21.0,16.0,0,1,,6.21,29.911417,,,,,,,,,,,FEW,2000,SCT,4000,BKN,9000,,,VFR,,,,,,,,,,,,METAR,241.0
LICJ 150950Z 34005KT CAVOK 25/21 Q1017,LICJ,2015-06-15T09:50:00Z,38.17,13.08,25.0,21.0,340,5,,6.21,30.029528,,,,,,,,,,,CAVOK,,,,,,,,VFR,,,,,,,,,,,,METAR,34.0
LICC 150950Z 09008KT 050V120 CAVOK 29/10 Q1015,LICC,2015-06-15T09:50:00Z,37.47,15.05,29.0,10.0,90,8,,6.21,29.970472,,,,,,,,,,,CAVOK,,,,,,,,VFR,,,,,,,,,,,,METAR,17.0
EEPU 150950Z 26015KT 220V310 9999 BKN031CB 15/08 Q1006,EEPU,2015-06-15T09:50:00Z,58.42,24.47,15.0,8.0,260,15,,6.21,29.704725,,,,,,,,,,,BKN,3100,,,,,,,VFR,,,,,,,,,,,,METAR,14.0
ENNE 150950Z 29020KT 9999 VCSH FEW010 BKN020 06/02 Q1006 W///S5,ENNE,2015-06-15T09:50:00Z,66.03,8.08,6.0,2.0,290,20,,6.21,29.704725,,,,,,,,,,VCSH,FEW,1000,BKN,2000,,,,,MVFR,,,,,,,,,,,,METAR,10.0
ENQR 150950Z AUTO 31017KT 9999NDV OVC026/// 07/02 Q1016 W///S4,ENQR,2015-06-15T09:50:00Z,61.35,2.22,7.0,2.0,310,17,,,30.0,,,TRUE,,,,,,,,,,,,,,,,,,,,,,,,,,,,METAR,10.0
ENSE 150950Z AUTO 30014KT 9999NDV FEW032/// OVC038/// 07/03 Q1017 W///S4,ENSE,2015-06-15T09:50:00Z,61.45,2.15,7.0,3.0,300,14,,,30.029528,,,TRUE,,,,,,,,,,,,,,,,,,,,,,,,,,,,METAR,10.0
ENQC 150950Z AUTO 30008KT 9999NDV SCT039/// BKN050/// 09/03 Q1017 W///S4,ENQC,2015-06-15T09:50:00Z,60.88,3.62,9.0,3.0,300,8,,,30.029528,,,TRUE,,,,,,,,,,,,,,,,,,,,,,,,,,,,METAR,20.0
ENVH 150950Z AUTO 32020KT 9999NDV FEW120/// 10/02 Q1021 W///S4,ENVH,2015-06-15T09:50:00Z,56.27,3.38,10.0,2.0,320,20,,,30.147638,,,TRUE,,,,,,,,,,,,,,,,,,,,,,,,,,,,METAR,4.0
ENQA 150950Z AUTO 30010KT 9999NDV OVC025/// 09/04 Q1018 W07/S4,ENQA,2015-06-15T09:50:00Z,60.65,3.72,9.0,4.0,300,10,,,30.059055,,,TRUE,,,,,,,,,,,,,,,,,,,,,,,,,,,,METAR,20.0
ENLA 150950Z AUTO 31017KT 9999NDV SCT045/// 13/05 Q1020 W///S4,ENLA,2015-06-15T09:50:00Z,59.1,2.83,13.0,5.0,310,17,,,30.11811,,,TRUE,,,,,,,,,,,,,,,,,,,,,,,,,,,,METAR,4.0
EDLN 150950Z 01009KT 330V070 CAVOK 17/08 Q1019 RMK ATIS I,EDLN,2015-06-15T09:50:00Z,51.23,6.5,17.0,8.0,10,9,,6.21,30.088583,,,,,,,,,,,CAVOK,,,,,,,,VFR,,,,,,,,,,,,METAR,38.0
LTCI 150950Z 26008KT 9999 FEW040 22/13 Q1012 NOSIG,LTCI,2015-06-15T09:50:00Z,38.45,43.32,22.0,13.0,260,8,,6.21,29.88189,,,,,,TRUE,,,,,FEW,4000,,,,,,,VFR,,,,,,,,,,,,METAR,1661.0
EGKK 150950Z 04011KT 010V090 9999 BKN021 14/09 Q1022,EGKK,2015-06-15T09:50:00Z,51.13,-0.17,14.0,9.0,40,11,,6.21,30.177166,,,,,,,,,,,BKN,2100,,,,,,,MVFR,,,,,,,,,,,,METAR,62.0
EETU 150950Z 24018KT 9999 SCT039 18/06 Q1004,EETU,2015-06-15T09:50:00Z,58.32,26.68,18.0,6.0,240,18,,6.21,29.64567,,,,,,,,,,,SCT,3900,,,,,,,VFR,,,,,,,,,,,,METAR,67.0
EEKE 150950Z 30009KT 230V350 9999 BKN027TCU 14/07 Q1007,EEKE,2015-06-15T09:50:00Z,58.23,22.52,14.0,7.0,300,9,,6.21,29.734253,,,,,,,,,,,BKN,2700,,,,,,,MVFR,,,,,,,,,,,,METAR,4.0
EEKA 150950Z 29008KT 230V340 9999 -SHRA SCT021CB BKN031 12/07 Q1007,EEKA,2015-06-15T09:50:00Z,58.98,22.83,12.0,7.0,290,8,,6.21,29.734253,,,,,,,,,,-SHRA,SCT,2100,BKN,3100,,,,,VFR,,,,,,,,,,,,METAR,4.0
EDLV 150950Z 03008KT 330V060 CAVOK 16/07 Q1020,EDLV,2015-06-15T09:50:00Z,51.6,6.15,16.0,7.0,30,8,,6.21,30.11811,,,,,,,,,,,CAVOK,,,,,,,,VFR,,,,,,,,,,,,METAR,32.0
LOXZ 150950Z VRB03KT 25KM FEW035SC SCT060SC BKN080SC 18/13 Q1013 NOSIG RMK SH MON/ OVC,LOXZ,2015-06-15T09:50:00Z,47.2,14.75,18.0,13.0,0,3,,15.53,29.911417,,,,,,TRUE,,,,,,,,,,,,,,,,,,,,,,,,,METAR,682.0
EKOD 150950Z 29012KT 250V330 9999 FEW032 SCT045 13/05 Q1017,EKOD,2015-06-15T09:50:00Z,55.47,10.32,13.0,5.0,290,12,,6.21,30.029528,,,,,,,,,,,FEW,3200,SCT,4500,,,,,VFR,,,,,,,,,,,,METAR,17.0
EDFE 150950Z 01009KT 9999 SCT035 SCT300 21/10 Q1016,EDFE,2015-06-15T09:50:00Z,49.97,8.63,21.0,10.0,10,9,,6.21,30.0,,,,,,,,,,,SCT,3500,SCT,30000,,,,,VFR,,,,,,,,,,,,METAR,118.0
EDFM 150950Z 34006KT 290V100 9999 FEW049 24/10 Q1015,EDFM,2015-06-15T09:50:00Z,49.47,8.52,24.0,10.0,340,6,,6.21,29.970472,,,,,,,,,,,FEW,4900,,,,,,,VFR,,,,,,,,,,,,METAR,100.0
EGVN 150950Z 06009KT 9999 FEW030 BKN280 15/06 Q1022 NOSIG,EGVN,2015-06-15T09:50:00Z,51.77,-1.58,15.0,6.0,60,9,,6.21,30.177166,,,,,,TRUE,,,,,FEW,3000,BKN,28000,,,,,VFR,,,,,,,,,,,,METAR,88.0
LCRA 150950Z 24013KT 9999 FEW025 26/21 Q1009 NOSIG,LCRA,2015-06-15T09:50:00Z,34.57,32.97,26.0,21.0,240,13,,6.21,29.793306,,,,,,TRUE,,,,,FEW,2500,,,,,,,VFR,,,,,,,,,,,,METAR,23.0
KEFD 150950Z 11010KT 10SM SCT020 BKN250 27/24 A2992,KEFD,2015-06-15T09:50:00Z,29.6,-95.17,27.0,24.0,110,10,,10.0,29.920275,,,,,,,,,,,SCT,2000,BKN,25000,,,,,VFR,,,,,,,,,,,,METAR,10.0
EGYP 150950Z 25023KT 9999 FEW020 SCT070 M01/M01 Q0980 BLU TEMPO 3000 SHSN SCT008 YLO1,EGYP,2015-06-15T09:50:00Z,-51.82,-58.45,-1.0,-1.0,250,23,,6.21,28.937008,,,,,,,,,,,FEW,2000,SCT,7000,,,,,VFR,,,,,,,,,,,,METAR,74.0
KWYS 150950Z AUTO 00000KT 10SM CLR 03/01 A3019 RMK AO2,KWYS,2015-06-15T09:50:00Z,44.67,-111.12,3.0,1.0,0,0,,10.0,30.188976,,,TRUE,TRUE,,,,,,,CLR,,,,,,,,VFR,,,,,,,,,,,,METAR,2025.0
K1V6 150950Z AUTO 31008KT 10SM CLR 15/10 A3016 RMK AO2,K1V6,2015-06-15T09:50:00Z,38.43,-105.1,15.0,10.0,310,8,,10.0,30.159449,,,TRUE,TRUE,,,,,,,CLR,,,,,,,,VFR,,,,,,,,,,,,METAR,1658.0
KCVH 150950Z AUTO 00000KT 5SM CLR 10/10 A2989 RMK AO1,KCVH,2015-06-15T09:50:00Z,36.9,-121.42,10.0,10.0,0,0,,5.0,29.890747,,,TRUE,TRUE,,,,,,,CLR,,,,,,,,MVFR,,,,,,,,,,,,METAR,70.0
KSTK 150950Z AUTO 36005KT 10SM CLR 13/12 A3011 RMK AO2,KSTK,2015-06-15T09:50:00Z,40.62,-103.27,13.0,12.0,360,5,,10.0,30.109253,,,TRUE,TRUE,,,,,,,CLR,,,,,,,,VFR,,,,,,,,,,,,METAR,1231.0
KRCV 150950Z AUTO 27011KT 10SM CLR 07/04 A3031 RMK AO2 T00710038,KRCV,2015-06-15T09:50:00Z,37.72,-106.35,7.1,3.8,270,11,,10.0,30.31004,,,TRUE,TRUE,,,,,,,CLR,,,,,,,,VFR,,,,,,,,,,,,METAR,2424.0
KMDS 150950Z AUTO 03010KT 10SM BKN050 16/16 A2999 RMK AO2 LTG DSNT E-SW,KMDS,2015-06-15T09:50:00Z,44.02,-97.08,16.0,16.0,30,10,,10.0,29.991142,,,TRUE,TRUE,,,,,,,BKN,5000,,,,,,,VFR,,,,,,,,,,,,METAR,524.0
EGJA 150950Z 03008KT 350V080 9999 SCT022 14/12 Q1021,EGJA,2015-06-15T09:50:00Z,49.72,-2.2,14.0,12.0,30,8,,6.21,30.147638,,,,,,,,,,,SCT,2200,,,,,,,VFR,,,,,,,,,,,,METAR,71.0
EGNH 150950Z 15009KT 110V170 9999 FEW045 15/07 Q1023,EGNH,2015-06-15T09:50:00Z,53.77,-3.02,15.0,7.0,150,9,,6.21,30.206694,,,,,,,,,,,FEW,4500,,,,,,,VFR,,,,,,,,,,,,METAR,10.0
KSYM 150950Z AUTO 21006KT 10SM CLR 23/20 A3012 RMK AO2,KSYM,2015-06-15T09:50:00Z,38.22,-83.58,23.0,20.0,210,6,,10.0,30.121063,,,TRUE,TRUE,,,,,,,CLR,,,,,,,,VFR,,,,,,,,,,,,METAR,313.0
OAMS 150950Z 26006KT 9999 FEW080 32/M05 Q1010 BLU+ BLU+,OAMS,2015-06-15T09:50:00Z,36.7,67.2,32.0,-5.0,260,6,,6.21,29.822834,,,,,,,,,,,FEW,8000,,,,,,,VFR,,,,,,,,,,,,METAR,378.0
EFKT 150950Z 04007KT 330V100 9999 -SHRA OVC028 09/04 Q0996,EFKT,2015-06-15T09:50:00Z,67.7,24.85,9.0,4.0,40,7,,6.21,29.409449,,,,,,,,,,-SHRA,OVC,2800,,,,,,,MVFR,,,,,,,,,,,,METAR,643.0
EFKS 150950Z AUTO 09012G22KT 060V130 4200 -RA OVC006 08/07 Q0989,EFKS,2015-06-15T09:50:00Z,66.0,29.23,8.0,7.0,90,12,22,2.61,29.202755,,,TRUE,,,,,,,-RA,OVC,600,,,,,,,IFR,,,,,,,,,,,,METAR,263.0
EFKI 150950Z 25018KT 220V280 9999 BKN012 09/06 Q0992,EFKI,2015-06-15T09:50:00Z,64.27,27.67,9.0,6.0,250,18,,6.21,29.291338,,,,,,,,,,,BKN,1200,,,,,,,MVFR,,,,,,,,,,,,METAR,136.0
EFKE 150950Z AUTO 34011KT 310V010 9999 -RA OVC010 07/06 Q0993,EFKE,2015-06-15T09:50:00Z,65.77,24.57,7.0,6.0,340,11,,6.21,29.320866,,,TRUE,,,,,,,-RA,OVC,1000,,,,,,,MVFR,,,,,,,,,,,,METAR,15.0
EFIV 150950Z 07007KT 020V110 9999 -SHRA OVC035 09/03 Q0998,EFIV,2015-06-15T09:50:00Z,68.62,27.42,9.0,3.0,70,7,,6.21,29.468504,,,,,,,,,,-SHRA,OVC,3500,,,,,,,VFR,,,,,,,,,,,,METAR,148.0
EFET 150950Z AUTO 12011KT 090V150 CAVOK 10/01 Q0996,EFET,2015-06-15T09:50:00Z,68.37,23.43,10.0,1.0,120,11,,6.21,29.409449,,,TRUE,,,,,,,,CAVOK,,,,,,,,VFR,,,,,,,,,,,,METAR,306.0
EGTE 150950Z 06004KT 360V110 9999 SCT022 16/10 Q1022,EGTE,2015-06-15T09:50:00Z,50.72,-3.42,16.0,10.0,60,4,,6.21,30.177166,,,,,,,,,,,SCT,2200,,,,,,,VFR,,,,,,,,,,,,METAR,30.0
EGJJ 150950Z 01008KT 9999 SCT010 BKN045 15/13 Q1021 TEMPO BKN010,EGJJ,2015-06-15T09:50:00Z,49.22,-2.2,15.0,13.0,10,8,,6.21,30.147638,,,,,,,,,,,SCT,1000,BKN,4500,,,,,VFR,,,,,,,,,,,,METAR,84.0
EGJB 150950Z 05010KT 9999 FEW008 BKN012 15/12 Q1021,EGJB,2015-06-15T09:50:00Z,49.42,-2.6,15.0,12.0,50,10,,6.21,30.147638,,,,,,,,,,,FEW,800,BKN,1200,,,,,MVFR,,,,,,,,,,,,METAR,102.0
EGHQ 150950Z 19007KT 9999 SCT023 15/11 Q1022,EGHQ,2015-06-15T09:50:00Z,50.43,-5.0,15.0,11.0,190,7,,6.21,30.177166,,,,,,,,,,,SCT,2300,,,,,,,VFR,,,,,,,,,,,,METAR,119.0
EGHE 150950Z 02008KT 9999 FEW012 BKN020 15/// Q1022,EGHE,2015-06-15T09:50:00Z,49.92,-6.28,,,20,8,,6.21,30.177166,,,,,,,,,,,FEW,1200,BKN,2000,,,,,MVFR,,,,,,,,,,,,METAR,31.0
KFFX 150950Z AUTO 00000KT 1/4SM FG OVC003 18/18 A2994 RMK AO2 T01750175,KFFX,2015-06-15T09:50:00Z,43.43,-86.0,17.5,17.5,0,0,,0.25,29.940945,,,TRUE,TRUE,,,,,,FG,OVC,300,,,,,,,LIFR,,,,,,,,,,,,METAR,236.0
EGSS 150950Z 07007KT 010V120 9999 SCT027 15/07 Q1023,EGSS,2015-06-15T09:50:00Z,51.88,0.22,15.0,7.0,70,7,,6.21,30.206694,,,,,,,,,,,SCT,2700,,,,,,,VFR,,,,,,,,,,,,METAR,106.0
EGPK 150950Z 26007KT 9999 FEW020 13/09 Q1022,EGPK,2015-06-15T09:50:00Z,55.5,-4.57,13.0,9.0,260,7,,6.21,30.177166,,,,,,,,,,,FEW,2000,,,,,,,VFR,,,,,,,,,,,,METAR,20.0
EGPH 150950Z VRB03KT 9999 SCT023 BKN028 13/09 Q1022,EGPH,2015-06-15T09:50:00Z,55.95,-3.35,13.0,9.0,0,3,,6.21,30.177166,,,,,,,,,,,SCT,2300,BKN,2800,,,,,MVFR,,,,,,,,,,,,METAR,41.0
EGPF 150950Z 23004KT 190V270 9999 SCT020 14/09 Q1022,EGPF,2015-06-15T09:50:00Z,55.87,-4.42,14.0,9.0,230,4,,6.21,30.177166,,,,,,,,,,,SCT,2000,,,,,,,VFR,,,,,,,,,,,,METAR,8.0
EGCC 150950Z 22004KT 190V260 9999 FEW025 SCT035 13/07 Q1023,EGCC,2015-06-15T09:50:00Z,53.35,-2.27,13.0,7.0,220,4,,6.21,30.206694,,,,,,,,,,,FEW,2500,SCT,3500,,,,,VFR,,,,,,,,,,,,METAR,78.0
EGBB 150950Z 11005KT 040V200 9999 FEW025 14/06 Q1023,EGBB,2015-06-15T09:50:00Z,52.47,-1.75,14.0,6.0,110,5,,6.21,30.206694,,,,,,,,,,,FEW,2500,,,,,,,VFR,,,,,,,,,,,,METAR,99.0
EGPB 150950Z 29010KT 9999 FEW028 BKN040 10/03 Q1020 NOSIG,EGPB,2015-06-15T09:50:00Z,59.87,-1.3,10.0,3.0,290,10,,6.21,30.11811,,,,,,TRUE,,,,,FEW,2800,BKN,4000,,,,,VFR,,,,,,,,,,,,METAR,5.0
EGNV 150950Z 20007KT 160V230 9999 FEW040 13/05 Q1023,EGNV,2015-06-15T09:50:00Z,54.52,-1.42,13.0,5.0,200,7,,6.21,30.206694,,,,,,,,,,,FEW,4000,,,,,,,VFR,,,,,,,,,,,,METAR,37.0
EGHI 150950Z 05006KT 360V100 8000 SCT022 BKN035 13/09 Q1022,EGHI,2015-06-15T09:50:00Z,50.95,-1.35,13.0,9.0,50,6,,4.97,30.177166,,,,,,,,,,,SCT,2200,BKN,3500,,,,,MVFR,,,,,,,,,,,,METAR,14.0
EGGP 150950Z 15007KT 120V190 CAVOK 14/08 Q1023,EGGP,2015-06-15T09:50:00Z,53.32,-2.85,14.0,8.0,150,7,,6.21,30.206694,,,,,,,,,,,CAVOK,,,,,,,,VFR,,,,,,,,,,,,METAR,26.0
EGGD 150950Z 06007KT 030V090 9999 BKN018 13/09 Q1022,EGGD,2015-06-15T09:50:00Z,51.37,-2.72,13.0,9.0,60,7,,6.21,30.177166,,,,,,,,,,,BKN,1800,,,,,,,MVFR,,,,,,,,,,,,METAR,189.0
LGTS 150950Z 33009KT CAVOK 29/19 Q1011 NOSIG,LGTS,2015-06-15T09:50:00Z,40.52,22.97,29.0,19.0,330,9,,6.21,29.852362,,,,,,TRUE,,,,,CAVOK,,,,,,,,VFR,,,,,,,,,,,,METAR,7.0
LGSM 150950Z 01010KT CAVOK 30/19 Q1012,LGSM,2015-06-15T09:50:00Z,37.68,26.92,30.0,19.0,10,10,,6.21,29.88189,,,,,,,,,,,CAVOK,,,,,,,,VFR,,,,,,,,,,,,METAR,6.0
LGSA 150950Z 11004KT CAVOK 33/14 Q1013,LGSA,2015-06-15T09:50:00Z,35.53,24.13,33.0,14.0,110,4,,6.21,29.911417,,,,,,,,,,,CAVOK,,,,,,,,VFR,,,,,,,,,,,,METAR,135.0
LGLM 150950Z 18005KT CAVOK 29/13 Q1012,LGLM,2015-06-15T09:50:00Z,39.92,25.23,29.0,13.0,180,5,,6.21,29.88189,,,,,,,,,,,CAVOK,,,,,,,,VFR,,,,,,,,,,,,METAR,5.0
LGKO 150950Z 34013G23KT CAVOK 30/10 Q1012,LGKO,2015-06-15T09:50:00Z,36.8,27.08,30.0,10.0,340,13,23,6.21,29.88189,,,,,,,,,,,CAVOK,,,,,,,,VFR,,,,,,,,,,,,METAR,125.0
LGKL 150950Z 17006KT CAVOK 30/16 Q1013,LGKL,2015-06-15T09:50:00Z,37.07,22.02,30.0,16.0,170,6,,6.21,29.911417,,,,,,,,,,,CAVOK,,,,,,,,VFR,,,,,,,,,,,,METAR,8.0
LGAD 150950Z 32006KT CAVOK 30/10 Q1014,LGAD,2015-06-15T09:50:00Z,37.92,21.27,30.0,10.0,320,6,,6.21,29.940945,,,,,,,,,,,CAVOK,,,,,,,,VFR,,,,,,,,,,,,METAR,12.0
LGZA 150950Z 03004KT CAVOK 31/13 Q1014,LGZA,2015-06-15T09:50:00Z,37.75,20.87,31.0,13.0,30,4,,6.21,29.940945,,,,,,,,,,,CAVOK,,,,,,,,VFR,,,,,,,,,,,,METAR,3.0
LGSR 150950Z 01007KT CAVOK 32/09 Q1013,LGSR,2015-06-15T09:50:00Z,36.4,25.48,32.0,9.0,10,7,,6.21,29.911417,,,,,,,,,,,CAVOK,,,,,,,,VFR,,,,,,,,,,,,METAR,40.0
LGRX 150950Z 27004KT CAVOK 31/11 Q1014 RMK FEW180 BLU,LGRX,2015-06-15T09:50:00Z,38.17,21.42,31.0,11.0,270,4,,6.21,29.940945,,,,,,,,,,,CAVOK,,,,,,,,VFR,,,,,,,,,,,,METAR,15.0
LGPZ 150950Z 27010KT CAVOK 30/15 Q1016 RMK FEW180 BLU,LGPZ,2015-06-15T09:50:00Z,38.92,20.77,30.0,15.0,270,10,,6.21,30.0,,,,,,,,,,,CAVOK,,,,,,,,VFR,,,,,,,,,,,,METAR,4.0
LGMT 150950Z 00000KT CAVOK 29/18 Q1013,LGMT,2015-06-15T09:50:00Z,39.05,26.6,29.0,18.0,0,0,,6.21,29.911417,,,,,,,,,,,CAVOK,,,,,,,,VFR,,,,,,,,,,,,METAR,17.0
LGKV 150950Z 21007KT 9999 FEW035 28/17 Q1012,LGKV,2015-06-15T09:50:00Z,40.92,24.62,28.0,17.0,210,7,,6.21,29.88189,,,,,,,,,,,FEW,3500,,,,,,,VFR,,,,,,,,,,,,METAR,5.0
LGIO 150950Z 33009KT 310V010 CAVOK 28/07 Q1017,LGIO,2015-06-15T09:50:00Z,39.7,20.82,28.0,7.0,330,9,,6.21,30.029528,,,,,,,,,,,CAVOK,,,,,,,,VFR,,,,,,,,,,,,METAR,476.0
LGEL 150950Z 21007KT CAVOK 36/05 Q1012,LGEL,2015-06-15T09:50:00Z,38.07,23.55,36.0,5.0,210,7,,6.21,29.88189,,,,,,,,,,,CAVOK,,,,,,,,VFR,,,,,,,,,,,,METAR,31.0
LGAL 150950Z 20009KT 9999 FEW025 27/12 Q1012,LGAL,2015-06-15T09:50:00Z,40.85,25.95,27.0,12.0,200,9,,6.21,29.88189,,,,,,,,,,,FEW,2500,,,,,,,VFR,,,,,,,,,,,,METAR,3.0
LGSO 150950Z AUTO 17009KT 140V200 //// // ////// 33/13 Q1013 RE//,LGSO,2015-06-15T09:50:00Z,37.42,24.95,33.0,13.0,170,9,,,29.911417,,,TRUE,,,,,,,,,,,,,,,,,,,,,,,,,,,,METAR,72.0
LGPA 150950Z 15005KT CAVOK 30/13 Q1013,LGPA,2015-06-15T09:50:00Z,37.0,25.13,30.0,13.0,150,5,,6.21,29.911417,,,,,,,,,,,CAVOK,,,,,,,,VFR,,,,,,,,,,,,METAR,36.0
LGNX 150950Z 34010KT CAVOK 29/11 Q1013,LGNX,2015-06-15T09:50:00Z,37.08,25.37,29.0,11.0,340,10,,6.21,29.911417,,,,,,,,,,,CAVOK,,,,,,,,VFR,,,,,,,,,,,,METAR,4.0
LGMK 150950Z 17005KT CAVOK 29/14 Q1013,LGMK,2015-06-15T09:50:00Z,37.43,25.35,29.0,14.0,170,5,,6.21,29.911417,,,,,,,,,,,CAVOK,,,,,,,,VFR,,,,,,,,,,,,METAR,123.0
LGKZ 150950Z 09004KT 9999 FEW070 30/07 Q1015,LGKZ,2015-06-15T09:50:00Z,40.28,21.83,30.0,7.0,90,4,,6.21,29.970472,,,,,,,,,,,FEW,7000,,,,,,,VFR,,,,,,,,,,,,METAR,628.0
LGKP 150950Z 30027KT CAVOK 28/18 Q1010,LGKP,2015-06-15T09:50:00Z,35.42,27.15,28.0,18.0,300,27,,6.21,29.822834,,,,,,,,,,,CAVOK,,,,,,,,VFR,,,,,,,,,,,,METAR,20.0
LGKF 150950Z 26004KT CAVOK 27/16 Q1015,LGKF,2015-06-15T09:50:00Z,38.12,20.5,27.0,16.0,260,4,,6.21,29.970472,,,,,,,,,,,CAVOK,,,,,,,,VFR,,,,,,,,,,,,METAR,18.0
LGKC 150950Z /////KT CAVOK 32/19 Q1015,LGKC,2015-06-15T09:50:00Z,36.28,23.02,32.0,19.0,,,,6.21,29.970472,,,,,,,,,,,CAVOK,,,,,,,,VFR,,,,,,,,,,,,METAR,319.0
LGHI 150950Z 05004KT CAVOK 28/19 Q1012,LGHI,2015-06-15T09:50:00Z,38.32,26.12,28.0,19.0,50,4,,6.21,29.88189,,,,,,,,,,,CAVOK,,,,,,,,VFR,,,,,,,,,,,,METAR,4.0
LGBL 150950Z 07008KT CAVOK 29/15 Q1011,LGBL,2015-06-15T09:50:00Z,39.22,22.8,29.0,15.0,70,8,,6.21,29.852362,,,,,,,,,,,CAVOK,,,,,,,,VFR,,,,,,,,,,,,METAR,26.0
EGDX 150950Z 08009KT 9999 SCT016 14/08 Q1022 WHT,EGDX,2015-06-15T09:50:00Z,51.4,-3.43,14.0,8.0,80,9,,6.21,30.177166,,,,,,,,,,,SCT,1600,,,,,,,VFR,,,,,,,,,,,,METAR,50.0
EGDR 150950Z 10009KT 9999 HZ SCT010 BKN030 14/11 Q1022 GRN NOSIG,EGDR,2015-06-15T09:50:00Z,50.08,-5.25,14.0,11.0,100,9,,6.21,30.177166,,,,,,TRUE,,,,HZ,SCT,1000,BKN,3000,,,,,MVFR,,,,,,,,,,,,METAR,82.0
EGDM 150950Z 07007KT 9999 BKN016 SCT030 14/09 Q1022 WHT BECMG BKN030 BLU,EGDM,2015-06-15T09:50:00Z,51.17,-1.75,14.0,9.0,70,7,,6.21,30.177166,,,,,,,,,,,BKN,1600,SCT,3000,,,,,MVFR,,,,,,,,,,,,METAR,124.0
EGXD 150950Z 15005KT 9999 SCT026 BKN300 13/06 Q1023 BLU NOSIG,EGXD,2015-06-15T09:50:00Z,54.13,-1.42,13.0,6.0,150,5,,6.21,30.206694,,,,,,TRUE,,,,,SCT,2600,BKN,30000,,,,,VFR,,,,,,,,,,,,METAR,35.0
EGXC 150950Z 11006KT 9999 SCT032 BKN300 13/06 Q1023 BLU NOSIG,EGXC,2015-06-15T09:50:00Z,53.1,-0.17,13.0,6.0,110,6,,6.21,30.206694,,,,,,TRUE,,,,,SCT,3200,BKN,30000,,,,,VFR,,,,,,,,,,,,METAR,7.0
EGWU 150950Z 07007KT 9999 FEW036 SCT060 16/06 Q1022 BLU NOSIG,EGWU,2015-06-15T09:50:00Z,51.55,-0.42,16.0,6.0,70,7,,6.21,30.177166,,,,,,TRUE,,,,,FEW,3600,SCT,6000,,,,,VFR,,,,,,,,,,,,METAR,40.0
EGWC 150950Z 11004KT 9999 FEW020 14/06 Q1023 BLU,EGWC,2015-06-15T09:50:00Z,52.62,-2.28,14.0,6.0,110,4,,6.21,30.206694,,,,,,,,,,,FEW,2000,,,,,,,VFR,,,,,,,,,,,,METAR,83.0
EGVP 150950Z 07006KT 9999 FEW018 BKN020 14/08 Q1022 WHT BECMG BKN025 BLU,EGVP,2015-06-15T09:50:00Z,51.13,-1.57,14.0,8.0,70,6,,6.21,30.177166,,,,,,,,,,,FEW,1800,BKN,2000,,,,,MVFR,,,,,,,,,,,,METAR,91.0
EGUW 150950Z 07008KT 9999 FEW030 BKN250 14/06 Q1022 BLU NOSIG,EGUW,2015-06-15T09:50:00Z,52.12,0.97,14.0,6.0,70,8,,6.21,30.177166,,,,,,TRUE,,,,,FEW,3000,BKN,25000,,,,,VFR,,,,,,,,,,,,METAR,87.0
EGUB 150950Z 10007KT 9999 FEW030 SCT250 16/05 Q1022 BLU NOSIG,EGUB,2015-06-15T09:50:00Z,51.62,-1.07,16.0,5.0,100,7,,6.21,30.177166,,,,,,TRUE,,,,,FEW,3000,SCT,25000,,,,,VFR,,,,,,,,,,,,METAR,63.0
EGQS 150950Z 03005KT 9999 FEW042 OVC100 10/05 Q1022 BLU NOSIG,EGQS,2015-06-15T09:50:00Z,57.72,-3.32,10.0,5.0,30,5,,6.21,30.177166,,,,,,TRUE,,,,,FEW,4200,OVC,10000,,,,,VFR,,,,,,,,,,,,METAR,13.0
EGQM 150950Z AUTO 14009KT 9999 NCD 13/07 Q1022,EGQM,2015-06-15T09:50:00Z,55.42,-1.6,13.0,7.0,140,9,,6.21,30.177166,,,TRUE,,,,,,,,,,,,,,,,,,,,,,,,,,,,METAR,23.0
EGQL 150950Z 10006KT 9999 FEW028 SCT050 13/08 Q1021 BLU,EGQL,2015-06-15T09:50:00Z,56.38,-2.87,13.0,8.0,100,6,,6.21,30.147638,,,,,,,,,,,FEW,2800,SCT,5000,,,,,VFR,,,,,,,,,,,,METAR,12.0
EGQK 150950Z 02005KT 9999 FEW045 BKN180 11/05 Q1021 BLU,EGQK,2015-06-15T09:50:00Z,57.65,-3.57,11.0,5.0,20,5,,6.21,30.147638,,,,,,,,,,,FEW,4500,BKN,18000,,,,,VFR,,,,,,,,,,,,METAR,7.0
EGOW 150950Z 15012KT 9999 FEW030 15/05 Q1022 BLU,EGOW,2015-06-15T09:50:00Z,53.58,-3.05,15.0,5.0,150,12,,6.21,30.177166,,,,,,,,,,,FEW,3000,,,,,,,VFR,,,,,,,,,,,,METAR,12.0
EGOV 150950Z 23008KT 9999 FEW030 BKN150 15/10 Q1022 BLU NOSIG,EGOV,2015-06-15T09:50:00Z,53.25,-4.53,15.0,10.0,230,8,,6.21,30.177166,,,,,,TRUE,,,,,FEW,3000,BKN,15000,,,,,VFR,,,,,,,,,,,,METAR,11.0
EGOS 150950Z 16006KT 9999 FEW026 SCT140 BKN250 14/07 Q1023 BLU NOSIG,EGOS,2015-06-15T09:50:00Z,52.8,-2.67,14.0,7.0,160,6,,6.21,30.206694,,,,,,TRUE,,,,,FEW,2600,SCT,14000,BKN,25000,,,VFR,,,,,,,,,,,,METAR,76.0
EGDY 150950Z 02005KT 9999 BKN020 14/12 Q1022 WHT BECMG BKN025 BLU,EGDY,2015-06-15T09:50:00Z,51.0,-2.62,14.0,12.0,20,5,,6.21,30.177166,,,,,,,,,,,BKN,2000,,,,,,,MVFR,,,,,,,,,,,,METAR,23.0
KRGK 150950Z AUTO 00000KT 7SM CLR 19/18 A2987 RMK AO2,KRGK,2015-06-15T09:50:00Z,44.58,-92.48,19.0,18.0,0,0,,7.0,29.870079,,,TRUE,TRUE,,,,,,,CLR,,,,,,,,VFR,,,,,,,,,,,,METAR,239.0
EGYD 150950Z 13006KT 9999 SCT032 SCT300 13/05 Q1023 BLU NOSIG,EGYD,2015-06-15T09:50:00Z,53.03,-0.5,13.0,5.0,130,6,,6.21,30.206694,,,,,,TRUE,,,,,SCT,3200,SCT,30000,,,,,VFR,,,,,,,,,,,,METAR,67.0
EGXW 150950Z 13005KT 9999 SCT028 BKN250 14/06 Q1023 BLU NOSIG,EGXW,2015-06-15T09:50:00Z,53.18,-0.52,14.0,6.0,130,5,,6.21,30.206694,,,,,,TRUE,,,,,SCT,2800,BKN,25000,,,,,VFR,,,,,,,,,,,,METAR,70.0
EGXV 150950Z AUTO 14004KT 9999 NCD 14/04 Q1023,EGXV,2015-06-15T09:50:00Z,53.87,-0.45,14.0,4.0,140,4,,6.21,30.206694,,,TRUE,,,,,,,,,,,,,,,,,,,,,,,,,,,,METAR,6.0
EGXU 150950Z 17004KT 9999 SCT030 BKN300 14/05 Q1023 BLU NOSIG,EGXU,2015-06-15T09:50:00Z,54.05,-1.25,14.0,5.0,170,4,,6.21,30.206694,,,,,,TRUE,,,,,SCT,3000,BKN,30000,,,,,VFR,,,,,,,,,,,,METAR,16.0
EGXT 150950Z 09005KT 9999 FEW032 SCT210 14/06 Q1023 BLU,EGXT,2015-06-15T09:50:00Z,52.62,-0.47,14.0,6.0,90,5,,6.21,30.206694,,,,,,,,,,,FEW,3200,SCT,21000,,,,,VFR,,,,,,,,,,,,METAR,84.0
EGXP 150950Z 18003KT 9999 BKN030 13/05 Q1023 BLU,EGXP,2015-06-15T09:50:00Z,53.3,-0.55,13.0,5.0,180,3,,6.21,30.206694,,,,,,,,,,,BKN,3000,,,,,,,MVFR,,,,,,,,,,,,METAR,61.0
EGXE 150950Z 15007KT 9999 FEW026 BKN240 14/07 Q1023 BLU NOSIG,EGXE,2015-06-15T09:50:00Z,54.28,-1.52,14.0,7.0,150,7,,6.21,30.206694,,,,,,TRUE,,,,,FEW,2600,BKN,24000,,,,,VFR,,,,,,,,,,,,METAR,40.0
EDTL 150950Z 24002KT 9999 -DZRA FEW009 SCT014 19/15 Q1015,EDTL,2015-06-15T09:50:00Z,48.37,7.83,19.0,15.0,240,2,,6.21,29.970472,,,,,,,,,,-DZ -RA,FEW,900,SCT,1400,,,,,VFR,,,,,,,,,,,,METAR,156.0
KAPG 150950Z 00000KT 4SM BR BKN030 OVC100 23/22 A2999,KAPG,2015-06-15T09:50:00Z,39.47,-76.17,23.0,22.0,0,0,,4.0,29.991142,,,,,,,,,,BR,BKN,3000,OVC,10000,,,,,MVFR,,,,,,,,,,,,METAR,18.0
EGYM 150950Z 08007KT 9999 FEW030 BKN220 14/06 Q1023 BLU NOSIG,EGYM,2015-06-15T09:50:00Z,52.63,0.57,14.0,6.0,80,7,,6.21,30.206694,,,,,,TRUE,,,,,FEW,3000,BKN,22000,,,,,VFR,,,,,,,,,,,,METAR,23.0
EGFF 150950Z 12009KT 080V140 9999 SCT016 14/10 Q1023,EGFF,2015-06-15T09:50:00Z,51.38,-3.35,14.0,10.0,120,9,,6.21,30.206694,,,,,,,,,,,SCT,1600,,,,,,,VFR,,,,,,,,,,,,METAR,67.0
EGAC 150950Z 17005KT 130V190 9999 FEW020 13/07 Q1022,EGAC,2015-06-15T09:50:00Z,54.62,-5.87,13.0,7.0,170,5,,6.21,30.177166,,,,,,,,,,,FEW,2000,,,,,,,VFR,,,,,,,,,,,,METAR,5.0
EGNM 150950Z 16005KT 100V210 9999 FEW018 SCT021 11/07 Q1023,EGNM,2015-06-15T09:50:00Z,53.87,-1.63,11.0,7.0,160,5,,6.21,30.206694,,,,,,,,,,,FEW,1800,SCT,2100,,,,,VFR,,,,,,,,,,,,METAR,208.0
EGLC 150950Z 09010KT 9999 FEW032 15/07 Q1022,EGLC,2015-06-15T09:50:00Z,51.5,0.05,15.0,7.0,90,10,,6.21,30.177166,,,,,,,,,,,FEW,3200,,,,,,,VFR,,,,,,,,,,,,METAR,5.0
EGGW 150950Z 07006KT 030V120 9999 FEW025 14/08 Q1022,EGGW,2015-06-15T09:50:00Z,51.87,-0.37,14.0,8.0,70,6,,6.21,30.177166,,,,,,,,,,,FEW,2500,,,,,,,VFR,,,,,,,,,,,,METAR,160.0
EGAA 150950Z 20006KT 150V230 CAVOK 14/07 Q1022,EGAA,2015-06-15T09:50:00Z,54.63,-6.22,14.0,7.0,200,6,,6.21,30.177166,,,,,,,,,,,CAVOK,,,,,,,,VFR,,,,,,,,,,,,METAR,81.0
EGLL 150950Z 10009KT 9999 FEW040 16/06 Q1022 NOSIG,EGLL,2015-06-15T09:50:00Z,51.48,-0.45,16.0,6.0,100,9,,6.21,30.177166,,,,,,TRUE,,,,,FEW,4000,,,,,,,VFR,,,,,,,,,,,,METAR,24.0
EGNX 150950Z 11006KT 060V150 9999 SCT023 14/07 Q1023,EGNX,2015-06-15T09:50:00Z,52.82,-1.32,14.0,7.0,110,6,,6.21,30.206694,,,,,,,,,,,SCT,2300,,,,,,,VFR,,,,,,,,,,,,METAR,94.0
EGPD 150950Z 10006KT 060V130 9999 FEW032 11/05 Q1022 NOSIG,EGPD,2015-06-15T09:50:00Z,57.2,-2.22,11.0,5.0,100,6,,6.21,30.177166,,,,,,TRUE,,,,,FEW,3200,,,,,,,VFR,,,,,,,,,,,,METAR,65.0
EGHH 150950Z 08011KT 9999 BKN016 14/09 Q1022,EGHH,2015-06-15T09:50:00Z,50.78,-1.83,14.0,9.0,80,11,,6.21,30.177166,,,,,,,,,,,BKN,1600,,,,,,,MVFR,,,,,,,,,,,,METAR,11.0
EGKA 150950Z 06010KT 9999 BKN014 14/10 Q1022,EGKA,2015-06-15T09:50:00Z,50.83,-0.3,14.0,10.0,60,10,,6.21,30.177166,,,,,,,,,,,BKN,1400,,,,,,,MVFR,,,,,,,,,,,,METAR,2.0
EGKB 150950Z 05012KT 020V080 9999 SCT022 15/08 Q1022,EGKB,2015-06-15T09:50:00Z,51.32,0.02,15.0,8.0,50,12,,6.21,30.177166,,,,,,,,,,,SCT,2200,,,,,,,VFR,,,,,,,,,,,,METAR,183.0
EGLF 150950Z 05010KT 9999 FEW030 15/07 Q1022,EGLF,2015-06-15T09:50:00Z,51.28,-0.77,15.0,7.0,50,10,,6.21,30.177166,,,,,,,,,,,FEW,3000,,,,,,,VFR,,,,,,,,,,,,METAR,65.0
EGMC 150950Z 06012KT 020V090 9999 FEW027 14/07 Q1022,EGMC,2015-06-15T09:50:00Z,51.57,0.7,14.0,7.0,60,12,,6.21,30.177166,,,,,,,,,,,FEW,2700,,,,,,,VFR,,,,,,,,,,,,METAR,15.0
EGMD 150950Z 05015KT 9999 BKN024 14/11 Q1022,EGMD,2015-06-15T09:50:00Z,50.95,0.92,14.0,11.0,50,15,,6.21,30.177166,,,,,,,,,,,BKN,2400,,,,,,,MVFR,,,,,,,,,,,,METAR,3.0
EGTK 150950Z 06005KT 010V150 CAVOK 15/08 Q1022,EGTK,2015-06-15T09:50:00Z,51.83,-1.32,15.0,8.0,60,5,,6.21,30.177166,,,,,,,,,,,CAVOK,,,,,,,,VFR,,,,,,,,,,,,METAR,82.0
EGTC 150950Z 06009KT 9999 FEW032 15/07 Q1023,EGTC,2015-06-15T09:50:00Z,52.07,-0.62,15.0,7.0,60,9,,6.21,30.206694,,,,,,,,,,,FEW,3200,,,,,,,VFR,,,,,,,,,,,,METAR,111.0
LSMA 150950Z VRB01KT 6000 -RA FEW004 SCT034 OVC041 17/15 Q1016 RMK WHT,LSMA,2015-06-15T09:50:00Z,46.95,8.28,17.0,15.0,0,1,,3.73,30.0,,,,,,,,,,-RA,FEW,400,SCT,3400,OVC,4100,,,MVFR,,,,,,,,,,,,METAR,444.0
LSMD 150950Z 03003KT 330V070 9999 -RA FEW010 OVC027 16/15 Q1016 RERA RMK WHT,LSMD,2015-06-15T09:50:00Z,47.4,8.65,16.0,15.0,30,3,,6.21,30.0,,,,,,,,,,-RA,FEW,1000,OVC,2700,,,,,MVFR,,,,,,,,,,,,METAR,448.0
LSME 150950Z 00000KT 9999 -RA FEW006 SCT014 17/15 Q1016 RERA RMK BLU,LSME,2015-06-15T09:50:00Z,47.1,8.3,17.0,15.0,0,0,,6.21,30.0,,,,,,,,,,-RA,FEW,600,SCT,1400,,,,,VFR,,,,,,,,,,,,METAR,427.0
LSMP 150950Z 21003KT 160V250 9999 -SHRA FEW013 SCT028 BKN046 18/16 Q1015 RMK WHT,LSMP,2015-06-15T09:50:00Z,46.82,6.92,18.0,16.0,210,3,,6.21,29.970472,,,,,,,,,,-SHRA,FEW,1300,SCT,2800,BKN,4600,,,VFR,,,,,,,,,,,,METAR,491.0
EGAE 150950Z 04004KT 280V080 9999 FEW040 13/09 Q1021,EGAE,2015-06-15T09:50:00Z,55.03,-7.15,13.0,9.0,40,4,,6.21,30.147638,,,,,,,,,,,FEW,4000,,,,,,,VFR,,,,,,,,,,,,METAR,9.0
EGNC 150950Z 31001KT 9999 FEW020 SCT034 13/08 Q1022,EGNC,2015-06-15T09:50:00Z,54.93,-2.82,13.0,8.0,310,1,,6.21,30.177166,,,,,,,,,,,FEW,2000,SCT,3400,,,,,VFR,,,,,,,,,,,,METAR,26.0
EGNJ 150950Z 13006KT 090V200 9999 SCT030 13/05 Q1024,EGNJ,2015-06-15T09:50:00Z,53.57,-0.35,13.0,5.0,130,6,,6.21,30.236221,,,,,,,,,,,SCT,3000,,,,,,,VFR,,,,,,,,,,,,METAR,31.0
EGNR 150950Z 17008KT 120V200 9999 FEW035 15/08 Q1023,EGNR,2015-06-15T09:50:00Z,53.17,-2.97,15.0,8.0,170,8,,6.21,30.206694,,,,,,,,,,,FEW,3500,,,,,,,VFR,,,,,,,,,,,,METAR,10.0
EGPE 150950Z 34006KT 300V010 9999 FEW040 12/06 Q1022,EGPE,2015-06-15T09:50:00Z,57.52,-4.03,12.0,6.0,340,6,,6.21,30.177166,,,,,,,,,,,FEW,4000,,,,,,,VFR,,,,,,,,,,,,METAR,9.0
EGPI 150950Z 15008KT 120V190 CAVOK 12/07 Q1021,EGPI,2015-06-15T09:50:00Z,55.68,-6.25,12.0,7.0,150,8,,6.21,30.147638,,,,,,,,,,,CAVOK,,,,,,,,VFR,,,,,,,,,,,,METAR,18.0
EGPN 150950Z 18001KT 9999 FEW020 13/08 Q1021,EGPN,2015-06-15T09:50:00Z,56.45,-3.02,13.0,8.0,180,1,,6.21,30.147638,,,,,,,,,,,FEW,2000,,,,,,,VFR,,,,,,,,,,,,METAR,4.0
LSMS 150950Z 24008KT 210V280 9999 FEW030 SCT070 BKN100 20/14 Q1014,LSMS,2015-06-15T09:50:00Z,46.22,7.32,20.0,14.0,240,8,,6.21,29.940945,,,,,,,,,,,FEW,3000,SCT,7000,BKN,10000,,,VFR,,,,,,,,,,,,METAR,481.0
ESNG 150950Z 32011KT 290V350 9999 -DZ SCT018 BKN027 08/03 Q0996,ESNG,2015-06-15T09:50:00Z,67.13,20.82,8.0,3.0,320,11,,6.21,29.409449,,,,,,,,,,-DZ,SCT,1800,BKN,2700,,,,,MVFR,,,,,,,,,,,,METAR,310.0
ESNK 150950Z AUTO 32012KT 280V360 9999 ////// 12/04 Q1002,ESNK,2015-06-15T09:50:00Z,63.03,17.77,12.0,4.0,320,12,,6.21,29.586615,,,TRUE,,,,,,,,,,,,,,,,,,,,,,,,,,,,METAR,19.0
ESNN 150950Z 27013KT 9999 SHRA SCT046 BKN062 11/03 Q1004,ESNN,2015-06-15T09:50:00Z,62.52,17.43,11.0,3.0,270,13,,6.21,29.64567,,,,,,,,,,SHRA,SCT,4600,BKN,6200,,,,,VFR,,,,,,,,,,,,METAR,10.0
ESNO 150950Z AUTO 27014KT 9999 FEW047/// SCT064/// 12/01 Q1000,ESNO,2015-06-15T09:50:00Z,63.38,18.97,12.0,1.0,270,14,,6.21,29.52756,,,TRUE,,,,,,,,,,,,,,,,,,,,,,,,,,,,METAR,103.0
ESNQ 150950Z 36004KT 310V030 9999 SCT032 08/M00 Q0997,ESNQ,2015-06-15T09:50:00Z,67.82,20.32,8.0,0.0,360,4,,6.21,29.438976,,,,,,,,,,,SCT,3200,,,,,,,VFR,,,,,,,,,,,,METAR,452.0
ESNS 150950Z 28010KT 9999 -DZ SCT045 OVC060 10/03 Q0997,ESNS,2015-06-15T09:50:00Z,64.62,21.07,10.0,3.0,280,10,,6.21,29.438976,,,,,,,,,,-DZ,SCT,4500,OVC,6000,,,,,VFR,,,,,,,,,,,,METAR,49.0
ESNU 150950Z 30013KT 280V340 CAVOK 13/M00 Q0999,ESNU,2015-06-15T09:50:00Z,63.78,20.27,13.0,0.0,300,13,,6.21,29.498032,,,,,,,,,,,CAVOK,,,,,,,,VFR,,,,,,,,,,,,METAR,14.0
ESNZ 150950Z 30015KT 9999 VCSH FEW034 SCT051 08/01 Q1005,ESNZ,2015-06-15T09:50:00Z,63.17,14.5,8.0,1.0,300,15,,6.21,29.675198,,,,,,,,,,VCSH,FEW,3400,SCT,5100,,,,,VFR,,,,,,,,,,,,METAR,370.0
ESUT 150950Z AUTO 30011KT 270V340 9999 FEW027/// OVC044/// 04/01 Q1002,ESUT,2015-06-15T09:50:00Z,65.8,15.08,4.0,1.0,300,11,,6.21,29.586615,,,TRUE,,,,,,,,,,,,,,,,,,,,,,,,,,,,METAR,463.0
EGBJ 150950Z 11003KT 9999 FEW030 16/08 Q1023,EGBJ,2015-06-15T09:50:00Z,51.9,-2.17,16.0,8.0,110,3,,6.21,30.206694,,,,,,,,,,,FEW,3000,,,,,,,VFR,,,,,,,,,,,,METAR,29.0
EGBE 150950Z 06006KT 360V110 9999 FEW027 15/08 Q1023,EGBE,2015-06-15T09:50:00Z,52.37,-1.47,15.0,8.0,60,6,,6.21,30.206694,,,,,,,,,,,FEW,2700,,,,,,,VFR,,,,,,,,,,,,METAR,82.0
EGCN 150950Z VRB02KT 9999 SCT031 15/06 Q1024,EGCN,2015-06-15T09:50:00Z,53.48,-1.0,15.0,6.0,0,2,,6.21,30.236221,,,,,,,,,,,SCT,3100,,,,,,,VFR,,,,,,,,,,,,METAR,17.0
EGSC 150950Z 08005KT 360V170 9999 FEW020 14/07 Q1023,EGSC,2015-06-15T09:50:00Z,52.2,0.17,14.0,7.0,80,5,,6.21,30.206694,,,,,,,,,,,FEW,2000,,,,,,,VFR,,,,,,,,,,,,METAR,15.0
EGSH 150950Z 04007KT 360V090 9999 FEW029 13/05 Q1023,EGSH,2015-06-15T09:50:00Z,52.68,1.28,13.0,5.0,40,7,,6.21,30.206694,,,,,,,,,,,FEW,2900,,,,,,,VFR,,,,,,,,,,,,METAR,36.0
EGEC 150950Z 14006KT 090V180 9999 FEW049 13/07 Q1021,EGEC,2015-06-15T09:50:00Z,55.43,-5.68,13.0,7.0,140,6,,6.21,30.147638,,,,,,,,,,,FEW,4900,,,,,,,VFR,,,,,,,,,,,,METAR,13.0
EGPA 150950Z 30010KT 9999 FEW030 BKN035 11/04 Q1021,EGPA,2015-06-15T09:50:00Z,58.95,-2.88,11.0,4.0,300,10,,6.21,30.147638,,,,,,,,,,,FEW,3000,BKN,3500,,,,,VFR,,,,,,,,,,,,METAR,21.0
EGPC 150950Z 29005KT 240V030 9999 FEW032 10/02 Q1022,EGPC,2015-06-15T09:50:00Z,58.45,-3.07,10.0,2.0,290,5,,6.21,30.177166,,,,,,,,,,,FEW,3200,,,,,,,VFR,,,,,,,,,,,,METAR,39.0
EGPL 150950Z VRB02KT 9999 FEW024 12/06 Q1021,EGPL,2015-06-15T09:50:00Z,57.47,-7.37,12.0,6.0,0,2,,6.21,30.147638,,,,,,,,,,,FEW,2400,,,,,,,VFR,,,,,,,,,,,,METAR,6.0
EGPO 150950Z 16005KT 9999 FEW030 11/03 Q1022,EGPO,2015-06-15T09:50:00Z,58.22,-6.32,11.0,3.0,160,5,,6.21,30.177166,,,,,,,,,,,FEW,3000,,,,,,,VFR,,,,,,,,,,,,METAR,13.0
ESCF 150950Z 30010KT 260V350 CAVOK 14/02 Q1011,ESCF,2015-06-15T09:50:00Z,58.38,15.52,14.0,2.0,300,10,,6.21,29.852362,,,,,,,,,,,CAVOK,,,,,,,,VFR,,,,,,,,,,,,METAR,117.0
ESDF 150950Z 29009KT 260V320 9999 SCT048 16/05 Q1012,ESDF,2015-06-15T09:50:00Z,56.27,15.27,16.0,5.0,290,9,,6.21,29.88189,,,,,,,,,,,SCT,4800,,,,,,,VFR,,,,,,,,,,,,METAR,74.0
ESPA 150950Z 33008KT 9999 -RA SCT020 BKN040 08/07 Q0996 RERA,ESPA,2015-06-15T09:50:00Z,65.53,22.12,8.0,7.0,330,8,,6.21,29.409449,,,,,,,,,,-RA,SCT,2000,BKN,4000,,,,,VFR,,,,,,,,,,,,METAR,34.0
ESIB 150950Z 36004KT 320V050 9999 FEW048TCU 14/05 Q1012,ESIB,2015-06-15T09:50:00Z,58.42,12.68,14.0,5.0,360,4,,6.21,29.88189,,,,,,,,,,,FEW,4800,,,,,,,VFR,,,,,,,,,,,,METAR,74.0
ESPE 150950Z 33011KT 300V010 9999 FEW045 BKN078 11/01 Q0997,ESPE,2015-06-15T09:50:00Z,65.88,20.15,11.0,1.0,330,11,,6.21,29.438976,,,,,,,,,,,FEW,4500,BKN,7800,,,,,VFR,,,,,,,,,,,,METAR,182.0
ESKN 150950Z 33011KT CAVOK 14/01 Q1010,ESKN,2015-06-15T09:50:00Z,58.78,16.9,14.0,1.0,330,11,,6.21,29.822834,,,,,,,,,,,CAVOK,,,,,,,,VFR,,,,,,,,,,,,METAR,43.0
ESSL 150950Z 29009KT CAVOK 15/01 Q1011,ESSL,2015-06-15T09:50:00Z,58.38,15.67,15.0,1.0,290,9,,6.21,29.852362,,,,,,,,,,,CAVOK,,,,,,,,VFR,,,,,,,,,,,,METAR,52.0
ESOE 150950Z 28011KT 240V320 CAVOK 15/02 Q1010,ESOE,2015-06-15T09:50:00Z,59.22,15.05,15.0,2.0,280,11,,6.21,29.822834,,,,,,,,,,,CAVOK,,,,,,,,VFR,,,,,,,,,,,,METAR,57.0
ESOK 150950Z 28008KT 230V340 CAVOK 14/M01 Q1011,ESOK,2015-06-15T09:50:00Z,59.45,13.33,14.0,-1.0,280,8,,6.21,29.852362,,,,,,,,,,,CAVOK,,,,,,,,VFR,,,,,,,,,,,,METAR,107.0
ESOW 150950Z 28012KT 240V320 CAVOK 14/00 Q1009,ESOW,2015-06-15T09:50:00Z,59.57,16.62,14.0,0.0,280,12,,6.21,29.793306,,,,,,,,,,,CAVOK,,,,,,,,VFR,,,,,,,,,,,,METAR,31.0
ESSA 150950Z 28016KT CAVOK 14/02 Q1008 NOSIG,ESSA,2015-06-15T09:50:00Z,59.63,17.93,14.0,2.0,280,16,,6.21,29.763779,,,,,,TRUE,,,,,CAVOK,,,,,,,,VFR,,,,,,,,,,,,METAR,61.0
ESSD 150950Z 32015KT CAVOK 12/01 Q1009,ESSD,2015-06-15T09:50:00Z,60.42,15.5,12.0,1.0,320,15,,6.21,29.793306,,,,,,,,,,,CAVOK,,,,,,,,VFR,,,,,,,,,,,,METAR,161.0
ESSB 150950Z 29013KT CAVOK 14/02 Q1009,ESSB,2015-06-15T09:50:00Z,59.35,17.93,14.0,2.0,290,13,,6.21,29.793306,,,,,,,,,,,CAVOK,,,,,,,,VFR,,,,,,,,,,,,METAR,11.0
ESSP 150950Z 31010KT 280V350 CAVOK 15/01 Q1011,ESSP,2015-06-15T09:50:00Z,58.57,16.25,15.0,1.0,310,10,,6.21,29.852362,,,,,,,,,,,CAVOK,,,,,,,,VFR,,,,,,,,,,,,METAR,8.0
ESSV 150950Z 32011KT 9999 FEW016 12/09 Q1011,ESSV,2015-06-15T09:50:00Z,57.67,18.35,12.0,9.0,320,11,,6.21,29.852362,,,,,,,,,,,FEW,1600,,,,,,,VFR,,,,,,,,,,,,METAR,47.0
LSGC 150950Z 25005KT 220V300 7000 RA FEW002 BKN009 BKN018 13/12 Q1017,LSGC,2015-06-15T09:50:00Z,47.08,6.8,13.0,12.0,250,5,,4.35,30.029528,,,,,,,,,,RA,FEW,200,BKN,900,BKN,1800,,,IFR,,,,,,,,,,,,METAR,1027.0
LSGS 150950Z 24008KT 210V280 9999 FEW030 SCT070 BKN100 20/14 Q1014,LSGS,2015-06-15T09:50:00Z,46.22,7.32,20.0,14.0,240,8,,6.21,29.940945,,,,,,,,,,,FEW,3000,SCT,7000,BKN,10000,,,VFR,,,,,,,,,,,,METAR,481.0
LSZR 150950Z 33005KT 9000 -RA SCT017 BKN045 16/15 Q1015 NOSIG RMK F,LSZR,2015-06-15T09:50:00Z,47.48,9.57,16.0,15.0,330,5,,5.59,29.970472,,,,,,TRUE,,,,-RA,SCT,1700,BKN,4500,,,,,VFR,,,,,,,,,,,,METAR,398.0
LSZS 150950Z VRB01KT 6000 RA SCT003 OVC040 10/10 Q1018 R03/29////,LSZS,2015-06-15T09:50:00Z,46.53,9.88,10.0,10.0,0,1,,3.73,30.059055,,,,,,,,,,RA,SCT,300,OVC,4000,,,,,MVFR,,,,,,,,,,,,METAR,1706.0
LSZC 150950Z 08003KT 8000 -RA SCT008 BKN048 OVC063 17/15 Q1016,LSZC,2015-06-15T09:50:00Z,46.97,8.38,17.0,15.0,80,3,,4.97,30.0,,,,,,,,,,-RA,SCT,800,BKN,4800,OVC,6300,,,MVFR,,,,,,,,,,,,METAR,450.0
LSZL 150950Z 26007KT 9999 FEW030 BKN110 21/17 Q1013 RMK WHT,LSZL,2015-06-15T09:50:00Z,46.17,8.88,21.0,17.0,260,7,,6.21,29.911417,,,,,,,,,,,FEW,3000,BKN,11000,,,,,VFR,,,,,,,,,,,,METAR,600.0
LSZG 150950Z 24008KT 9999 -RA FEW005 SCT012 BKN042 18/16 Q1015 NOSIG,LSZG,2015-06-15T09:50:00Z,47.17,7.42,18.0,16.0,240,8,,6.21,29.970472,,,,,,TRUE,,,,-RA,FEW,500,SCT,1200,BKN,4200,,,VFR,,,,,,,,,,,,METAR,430.0
ESGR 150950Z AUTO 01005KT 310V060 9999 FEW057/// 15/01 Q1011,ESGR,2015-06-15T09:50:00Z,58.45,13.97,15.0,1.0,10,5,,6.21,29.852362,,,TRUE,,,,,,,,,,,,,,,,,,,,,,,,,,,,METAR,105.0
ESNL 150950Z AUTO 31011KT 270V350 9999 FEW036/// SCT061/// BKN074/// 12/M02 Q0999,ESNL,2015-06-15T09:50:00Z,64.55,18.72,12.0,-2.0,310,11,,6.21,29.498032,,,TRUE,,,,,,,,,,,,,,,,,,,,,,,,,,,,METAR,214.0
ESNV 150950Z AUTO 28014KT 9999 SCT045/// 09/M02 Q1000,ESNV,2015-06-15T09:50:00Z,,,9.0,-2.0,280,14,,6.21,29.52756,,,TRUE,,,,,,,,,,,,,,,,,,,,,,,,,,,,METAR,
ESST 150950Z AUTO 28007KT 210V340 9999 SCT074/// 14/M01 Q1011,ESST,2015-06-15T09:50:00Z,,,14.0,-1.0,280,7,,6.21,29.852362,,,TRUE,,,,,,,,,,,,,,,,,,,,,,,,,,,,METAR,
ESNX 150950Z AUTO 30014KT 9999NDV BKN068/// 10/M03 Q0997,ESNX,2015-06-15T09:50:00Z,65.58,19.28,10.0,-3.0,300,14,,,29.438976,,,TRUE,,,,,,,,,,,,,,,,,,,,,,,,,,,,METAR,379.0
ESUD 150950Z AUTO 30015KT 260V330 9999 FEW051/// 11/M01 Q0999,ESUD,2015-06-15T09:50:00Z,64.97,17.7,11.0,-1.0,300,15,,6.21,29.498032,,,TRUE,,,,,,,,,,,,,,,,,,,,,,,,,,,,METAR,279.0
EFHF 150950Z 27010KT 220V310 9999 BKN029 12/06 Q1003,EFHF,2015-06-15T09:50:00Z,60.25,25.05,12.0,6.0,270,10,,6.21,29.616142,,,,,,,,,,,BKN,2900,,,,,,,MVFR,,,,,,,,,,,,METAR,28.0
EFHA 150950Z 25010KT 9999 -SHRA BKN027CB 10/06 Q0999,EFHA,2015-06-15T09:50:00Z,61.85,24.8,10.0,6.0,250,10,,6.21,29.498032,,,,,,,,,,-SHRA,BKN,2700,,,,,,,MVFR,,,,,,,,,,,,METAR,145.0
EFKK 150950Z 29010KT 9999 -SHRA FEW014 SCT020 BKN033 08/05 Q0998,EFKK,2015-06-15T09:50:00Z,63.72,23.13,8.0,5.0,290,10,,6.21,29.468504,,,,,,,,,,-SHRA,FEW,1400,SCT,2000,BKN,3300,,,VFR,,,,,,,,,,,,METAR,25.0
EFMA 150950Z 30010KT 260V350 9999 FEW029 12/04 Q1007,EFMA,2015-06-15T09:50:00Z,60.12,19.88,12.0,4.0,300,10,,6.21,29.734253,,,,,,,,,,,FEW,2900,,,,,,,VFR,,,,,,,,,,,,METAR,6.0
EFPO 150950Z AUTO 29017KT 9999 FEW022/// 10/04 Q1003,EFPO,2015-06-15T09:50:00Z,61.47,21.8,10.0,4.0,290,17,,6.21,29.616142,,,TRUE,,,,,,,,,,,,,,,,,,,,,,,,,,,,METAR,17.0
EFSI 150950Z AUTO 28010KT 240V310 9999 FEW032 SCT050 11/04 Q0999,EFSI,2015-06-15T09:50:00Z,62.7,22.83,11.0,4.0,280,10,,6.21,29.498032,,,TRUE,,,,,,,,FEW,3200,SCT,5000,,,,,VFR,,,,,,,,,,,,METAR,91.0
FHAW 150950Z 14013KT 9999 FEW024 26/19 Q1017 BLU TEMPO SCT020 WHT,FHAW,2015-06-15T09:50:00Z,-7.97,-14.4,26.0,19.0,140,13,,6.21,30.029528,,,,,,,,,,,FEW,2400,,,,,,,VFR,,,,,,,,,,,,METAR,79.0
LTCP 150950Z VRB05KT 9999 SCT040 32/10 Q1005,LTCP,2015-06-15T09:50:00Z,37.73,38.47,32.0,10.0,0,5,,6.21,29.675198,,,,,,,,,,,SCT,4000,,,,,,,VFR,,,,,,,,,,,,METAR,676.0
LTCN 150950Z 27014KT 240V300 9999 FEW035 31/13 Q1006,LTCN,2015-06-15T09:50:00Z,37.53,36.95,31.0,13.0,270,14,,6.21,29.704725,,,,,,,,,,,FEW,3500,,,,,,,VFR,,,,,,,,,,,,METAR,526.0
OOSA 150950Z 20014KT 9000 FEW025 33/26 Q1000 NOSIG RMK01 RH68,OOSA,2015-06-15T09:50:00Z,17.02,54.07,33.0,26.0,200,14,,5.59,29.52756,,,,,,TRUE,,,,,FEW,2500,,,,,,,VFR,,,,,,,,,,,,METAR,20.0
OOMS 150950Z 05011KT CAVOK 36/23 Q0998 NOSIG,OOMS,2015-06-15T09:50:00Z,23.57,58.27,36.0,23.0,50,11,,6.21,29.468504,,,,,,TRUE,,,,,CAVOK,,,,,,,,VFR,,,,,,,,,,,,METAR,8.0
LTFH 150950Z 32009KT 290V360 9999 FEW033 SCT100 24/17 Q1011 NOSIG,LTFH,2015-06-15T09:50:00Z,41.27,36.55,24.0,17.0,320,9,,6.21,29.852362,,,,,,TRUE,,,,,FEW,3300,SCT,10000,,,,,VFR,,,,,,,,,,,,METAR,5.0
LTDA 150950Z 30019KT 270V330 9999 SCT035 30/15 Q1006,LTDA,2015-06-15T09:50:00Z,36.37,36.28,30.0,15.0,300,19,,6.21,29.704725,,,,,,,,,,,SCT,3500,,,,,,,VFR,,,,,,,,,,,,METAR,82.0
LTCD 150950Z 22008KT 9999 TS FEW033CB SCT040 BKN090 23/08 Q1012 TEMPO FM1100 -TSRA,LTCD,2015-06-15T09:50:00Z,39.72,39.5,23.0,8.0,220,8,,6.21,29.88189,,,,,,,,,,TS,FEW,3300,SCT,4000,BKN,9000,,,VFR,,,,,,,,,,,,METAR,1215.0
LTCA 150950Z 27007KT 190V330 9999 SCT035 29/07 Q1008 TEMPO 31020G30KT -TSRA,LTCA,2015-06-15T09:50:00Z,38.6,39.27,29.0,7.0,270,7,,6.21,29.763779,,,,,,,,,,,SCT,3500,,,,,,,VFR,,,,,,,,,,,,METAR,882.0
LTBY 150950Z 03007KT 320V070 9999 SCT040 25/12 Q1016,LTBY,2015-06-15T09:50:00Z,39.82,30.52,25.0,12.0,30,7,,6.21,30.0,,,,,,,,,,,SCT,4000,,,,,,,VFR,,,,,,,,,,,,METAR,789.0
LTAY 150950Z 25008KT 220V010 9999 FEW035 25/09 Q1016,LTAY,2015-06-15T09:50:00Z,37.77,29.68,25.0,9.0,250,8,,6.21,30.0,,,,,,,,,,,FEW,3500,,,,,,,VFR,,,,,,,,,,,,METAR,849.0
LTAR 150950Z 35011KT 320V020 9999 FEW030CB BKN035 17/09 Q1016,LTAR,2015-06-15T09:50:00Z,39.8,36.9,17.0,9.0,350,11,,6.21,30.0,,,,,,,,,,,FEW,3000,BKN,3500,,,,,VFR,,,,,,,,,,,,METAR,1271.0
ENHM 150950Z 36015KT 9999 SCT040 BKN045 07/03 Q1019 W10/S/,ENHM,2015-06-15T09:50:00Z,59.57,2.23,7.0,3.0,360,15,,6.21,30.088583,,,,,,,,,,,SCT,4000,BKN,4500,,,,,VFR,,,,,,,,,,,,METAR,10.0
LTFK 150950Z 02009KT CAVOK 28/18 Q1012,LTFK,2015-06-15T09:50:00Z,40.2,25.88,28.0,18.0,20,9,,6.21,29.88189,,,,,,,,,,,CAVOK,,,,,,,,VFR,,,,,,,,,,,,METAR,21.0
LTFG 150950Z 23007KT 190V260 CAVOK 29/23 Q1008,LTFG,2015-06-15T09:50:00Z,36.3,32.3,29.0,23.0,230,7,,6.21,29.763779,,,,,,,,,,,CAVOK,,,,,,,,VFR,,,,,,,,,,,,METAR,95.0
LTFD 150950Z 28008KT 9999 FEW035 30/13 Q1012,LTFD,2015-06-15T09:50:00Z,39.55,27.02,30.0,13.0,280,8,,6.21,29.88189,,,,,,,,,,,FEW,3500,,,,,,,VFR,,,,,,,,,,,,METAR,16.0
LTCV 150950Z 19008KT 130V250 CAVOK 34/06 Q1005,LTCV,2015-06-15T09:50:00Z,37.37,42.07,34.0,6.0,190,8,,6.21,29.675198,,,,,,,,,,,CAVOK,,,,,,,,VFR,,,,,,,,,,,,METAR,621.0
LTCU 150950Z 18010KT 120V220 9999 SCT035 30/04 Q1008,LTCU,2015-06-15T09:50:00Z,38.87,40.58,30.0,4.0,180,10,,6.21,29.763779,,,,,,,,,,,SCT,3500,,,,,,,VFR,,,,,,,,,,,,METAR,1061.0
LTCT 150950Z VRB04KT CAVOK 27/08 Q1009,LTCT,2015-06-15T09:50:00Z,39.98,43.87,27.0,8.0,0,4,,6.21,29.793306,,,,,,,,,,,CAVOK,,,,,,,,VFR,,,,,,,,,,,,METAR,946.0
LTCR 150950Z 21007KT 150V280 9999 SCT040 35/10 Q1004,LTCR,2015-06-15T09:50:00Z,37.22,40.63,35.0,10.0,210,7,,6.21,29.64567,,,,,,,,,,,SCT,4000,,,,,,,VFR,,,,,,,,,,,,METAR,527.0
LTCO 150950Z 11011KT 050V160 9999 FEW030TCU SCT035 25/05 Q1012,LTCO,2015-06-15T09:50:00Z,39.65,43.03,25.0,5.0,110,11,,6.21,29.88189,,,,,,,,,,,FEW,3000,SCT,3500,,,,,VFR,,,,,,,,,,,,METAR,1665.0
LTCM 150950Z 29017G27KT 9999 FEW030 25/13 Q1011,LTCM,2015-06-15T09:50:00Z,42.02,35.07,25.0,13.0,290,17,27,6.21,29.852362,,,,,,,,,,,FEW,3000,,,,,,,VFR,,,,,,,,,,,,METAR,8.0
LTCL 150950Z 18006KT CAVOK 34/05 Q1004,LTCL,2015-06-15T09:50:00Z,37.98,41.83,34.0,5.0,180,6,,6.21,29.64567,,,,,,,,,,,CAVOK,,,,,,,,VFR,,,,,,,,,,,,METAR,610.0
LTCK 150950Z VRB05KT 9999 FEW040 28/01 Q1009,LTCK,2015-06-15T09:50:00Z,38.75,41.67,28.0,1.0,0,5,,6.21,29.793306,,,,,,,,,,,FEW,4000,,,,,,,VFR,,,,,,,,,,,,METAR,1266.0
LTCB 150950Z 26005KT 9999 SCT033 BKN100 24/17 Q1011,LTCB,2015-06-15T09:50:00Z,39.72,43.03,24.0,17.0,260,5,,6.21,29.852362,,,,,,,,,,,SCT,3300,BKN,10000,,,,,VFR,,,,,,,,,,,,METAR,1632.0
LTBO 150950Z VRB05KT 9999 FEW040 25/08 Q1016,LTBO,2015-06-15T09:50:00Z,38.67,29.47,25.0,8.0,0,5,,6.21,30.0,,,,,,,,,,,FEW,4000,,,,,,,VFR,,,,,,,,,,,,METAR,919.0
LTBH 150950Z 23009KT CAVOK 29/14 Q1012,LTBH,2015-06-15T09:50:00Z,40.13,26.42,29.0,14.0,230,9,,6.21,29.88189,,,,,,,,,,,CAVOK,,,,,,,,VFR,,,,,,,,,,,,METAR,3.0
LTBD 150950Z VRB03KT CAVOK 31/11 Q1012,LTBD,2015-06-15T09:50:00Z,37.82,27.88,31.0,11.0,0,3,,6.21,29.88189,,,,,,,,,,,CAVOK,,,,,,,,VFR,,,,,,,,,,,,METAR,57.0
LTAW 150950Z 31004KT 9999 SCT035 BKN100 23/13 Q1012,LTAW,2015-06-15T09:50:00Z,40.28,36.37,23.0,13.0,310,4,,6.21,29.88189,,,,,,,,,,,SCT,3500,BKN,10000,,,,,VFR,,,,,,,,,,,,METAR,608.0
LTAS 150950Z 35008KT 9999 FEW040 27/18 Q1012,LTAS,2015-06-15T09:50:00Z,41.52,32.08,27.0,18.0,350,8,,6.21,29.88189,,,,,,,,,,,FEW,4000,,,,,,,VFR,,,,,,,,,,,,METAR,136.0
LTAL 150950Z VRB02KT 9999 FEW018CB BKN022 22/11 Q1016,LTAL,2015-06-15T09:50:00Z,41.32,33.8,22.0,11.0,0,2,,6.21,30.0,,,,,,,,,,,FEW,1800,BKN,2200,,,,,MVFR,,,,,,,,,,,,METAR,1066.0
LCEN 150950Z 35010G20KT 9999 FEW030 35/10 Q1008 NOSIG,LCEN,2015-06-15T09:50:00Z,35.13,33.5,35.0,10.0,350,10,20,6.21,29.763779,,,,,,TRUE,,,,,FEW,3000,,,,,,,VFR,,,,,,,,,,,,METAR,91.0
ENSR 150950Z 35007KT CAVOK 11/04 Q0999 WIND 1119FT 02004KT,ENSR,2015-06-15T09:50:00Z,69.77,20.97,11.0,4.0,350,7,,6.21,29.498032,,,,,,,,,,,CAVOK,,,,,,,,VFR,,,,,,,,,,,,METAR,6.0
ENOV 150950Z VRB03KT 9999 VCSH FEW012 SCT025 BKN030 07/04 Q1015 RMK WIND 2175FT 28004KT,ENOV,2015-06-15T09:50:00Z,62.17,6.07,7.0,4.0,0,3,,6.21,29.970472,,,,,,,,,,VCSH,FEW,1200,SCT,2500,BKN,3000,,,MVFR,,,,,,,,,,,,METAR,74.0
LTFJ 150950Z 22008KT 190V260 CAVOK 28/13 Q1013 NOSIG,LTFJ,2015-06-15T09:50:00Z,40.9,29.3,28.0,13.0,220,8,,6.21,29.911417,,,,,,TRUE,,,,,CAVOK,,,,,,,,VFR,,,,,,,,,,,,METAR,98.0
LTFE 150950Z 05013KT CAVOK 33/02 Q1011 BECMG TL1100 32012KT,LTFE,2015-06-15T09:50:00Z,37.25,27.67,33.0,2.0,50,13,,6.21,29.852362,,,,,,,,,,,CAVOK,,,,,,,,VFR,,,,,,,,,,,,METAR,6.0
LTFC 150950Z 31012KT 270V350 9999 FEW035 26/07 Q1015,LTFC,2015-06-15T09:50:00Z,37.87,30.38,26.0,7.0,310,12,,6.21,29.970472,,,,,,,,,,,FEW,3500,,,,,,,VFR,,,,,,,,,,,,METAR,864.0
LTCS 150950Z VRB04KT 9999 FEW040 31/08 Q1008,LTCS,2015-06-15T09:50:00Z,37.45,38.9,31.0,8.0,0,4,,6.21,29.763779,,,,,,,,,,,FEW,4000,,,,,,,VFR,,,,,,,,,,,,METAR,825.0
LTCG 150950Z VRB01KT 9999 BKN035 BKN100 22/19 Q1011 NOSIG,LTCG,2015-06-15T09:50:00Z,41.0,39.8,22.0,19.0,0,1,,6.21,29.852362,,,,,,TRUE,,,,,BKN,3500,BKN,10000,,,,,VFR,,,,,,,,,,,,METAR,30.0
LTBS 150950Z 20012KT 9999 FEW030 30/15 Q1009 NOSIG,LTBS,2015-06-15T09:50:00Z,36.7,28.77,30.0,15.0,200,12,,6.21,29.793306,,,,,,TRUE,,,,,FEW,3000,,,,,,,VFR,,,,,,,,,,,,METAR,2.0
LTBR 150950Z VRB02KT CAVOK 29/13 Q1013 NOSIG,LTBR,2015-06-15T09:50:00Z,40.25,29.57,29.0,13.0,0,2,,6.21,29.911417,,,,,,TRUE,,,,,CAVOK,,,,,,,,VFR,,,,,,,,,,,,METAR,232.0
LTBJ 150950Z 36011KT 320V020 9999 FEW030 31/14 Q1012 NOSIG,LTBJ,2015-06-15T09:50:00Z,38.28,27.15,31.0,14.0,360,11,,6.21,29.88189,,,,,,TRUE,,,,,FEW,3000,,,,,,,VFR,,,,,,,,,,,,METAR,120.0
LTBA 150950Z 19006KT 160V220 CAVOK 25/16 Q1013 NOSIG,LTBA,2015-06-15T09:50:00Z,40.97,28.82,25.0,16.0,190,6,,6.21,29.911417,,,,,,TRUE,,,,,CAVOK,,,,,,,,VFR,,,,,,,,,,,,METAR,37.0
LTAZ 150950Z 35009KT 310V020 9999 BKN040 24/09 Q1015,LTAZ,2015-06-15T09:50:00Z,38.77,34.55,24.0,9.0,350,9,,6.21,29.970472,,,,,,,,,,,BKN,4000,,,,,,,VFR,,,,,,,,,,,,METAR,945.0
LTAJ 150950Z VRB10G22KT CAVOK 31/06 Q1007 NOSIG,LTAJ,2015-06-15T09:50:00Z,36.95,37.48,31.0,6.0,0,10,22,6.21,29.734253,,,,,,TRUE,,,,,CAVOK,,,,,,,,VFR,,,,,,,,,,,,METAR,855.0
LTAI 150950Z 33012KT 300V360 9999 FEW030 35/05 Q1008 NOSIG,LTAI,2015-06-15T09:50:00Z,36.9,30.8,35.0,5.0,330,12,,6.21,29.763779,,,,,,TRUE,,,,,FEW,3000,,,,,,,VFR,,,,,,,,,,,,METAR,54.0
LTAF 150950Z 21011KT 180V250 9999 SCT035 29/20 Q1007 NOSIG,LTAF,2015-06-15T09:50:00Z,36.97,35.28,29.0,20.0,210,11,,6.21,29.734253,,,,,,TRUE,,,,,SCT,3500,,,,,,,VFR,,,,,,,,,,,,METAR,20.0
LTAC 150950Z 36006KT 290V050 9999 SCT040 24/11 Q1015 NOSIG,LTAC,2015-06-15T09:50:00Z,40.12,32.97,24.0,11.0,360,6,,6.21,29.970472,,,,,,TRUE,,,,,SCT,4000,,,,,,,VFR,,,,,,,,,,,,METAR,949.0
LTCJ 150950Z VRB06KT 9999 FEW040 35/06 Q1003,LTCJ,2015-06-15T09:50:00Z,37.93,41.12,35.0,6.0,0,6,,6.21,29.616142,,,,,,,,,,,FEW,4000,,,,,,,VFR,,,,,,,,,,,,METAR,540.0
LTCE 150950Z 05006KT 360V120 9999 FEW025TCU SCT030 20/08 Q1013 NOSIG,LTCE,2015-06-15T09:50:00Z,39.95,41.17,20.0,8.0,50,6,,6.21,29.911417,,,,,,TRUE,,,,,FEW,2500,SCT,3000,,,,,VFR,,,,,,,,,,,,METAR,1758.0
LTCC 150950Z 03006KT 300V110 9999 SCT040 34/08 Q1003 NOSIG,LTCC,2015-06-15T09:50:00Z,37.87,40.2,34.0,8.0,30,6,,6.21,29.616142,,,,,,TRUE,,,,,SCT,4000,,,,,,,VFR,,,,,,,,,,,,METAR,677.0
LTBU 150950Z 23006KT 180V270 CAVOK 30/16 Q1013,LTBU,2015-06-15T09:50:00Z,41.12,27.92,30.0,16.0,230,6,,6.21,29.911417,,,,,,,,,,,CAVOK,,,,,,,,VFR,,,,,,,,,,,,METAR,173.0
LTBQ 150950Z VRB03KT CAVOK 30/11 Q1013 NOSIG,LTBQ,2015-06-15T09:50:00Z,40.72,30.07,30.0,11.0,0,3,,6.21,29.911417,,,,,,TRUE,,,,,CAVOK,,,,,,,,VFR,,,,,,,,,,,,METAR,50.0
LTBF 150950Z VRB04KT CAVOK 31/12 Q1013 NOSIG,LTBF,2015-06-15T09:50:00Z,39.62,27.92,31.0,12.0,0,4,,6.21,29.911417,,,,,,TRUE,,,,,CAVOK,,,,,,,,VFR,,,,,,,,,,,,METAR,102.0
LTAU 150950Z VRB01KT 9999 BKN033 21/12 Q1015 NOSIG,LTAU,2015-06-15T09:50:00Z,38.77,35.47,21.0,12.0,0,1,,6.21,29.970472,,,,,,TRUE,,,,,BKN,3300,,,,,,,VFR,,,,,,,,,,,,METAR,1054.0
LTAT 150950Z 27008KT 220V310 9999 SCT040 BKN100 28/12 Q1008 NOSIG,LTAT,2015-06-15T09:50:00Z,38.42,38.07,28.0,12.0,270,8,,6.21,29.763779,,,,,,TRUE,,,,,SCT,4000,BKN,10000,,,,,VFR,,,,,,,,,,,,METAR,849.0
LTAP 150950Z 14005KT 070V240 9999 SCT040 24/12 Q1012 BECMG TL1100 02012KT TEMPO FM1100 -TSRA,LTAP,2015-06-15T09:50:00Z,40.83,35.52,24.0,12.0,140,5,,6.21,29.88189,,,,,,,,,,,SCT,4000,,,,,,,VFR,,,,,,,,,,,,METAR,535.0
LTAN 150950Z 35013KT 310V030 9999 SCT050 24/08 Q1015 NOSIG,LTAN,2015-06-15T09:50:00Z,37.97,32.53,24.0,8.0,350,13,,6.21,29.970472,,,,,,TRUE,,,,,SCT,5000,,,,,,,VFR,,,,,,,,,,,,METAR,1006.0
LTAG 150950Z 19011KT 9999 SCT025 30/20 Q1007 NOSIG,LTAG,2015-06-15T09:50:00Z,37.0,35.42,30.0,20.0,190,11,,6.21,29.734253,,,,,,TRUE,,,,,SCT,2500,,,,,,,VFR,,,,,,,,,,,,METAR,66.0
MUHG 150950Z 15002KT 8000 VCFG FEW020 24/22 Q1016,MUHG,2015-06-15T09:50:00Z,20.77,-76.32,24.0,22.0,150,2,,4.97,30.0,,,,,,,,,,VCFG,FEW,2000,,,,,,,MVFR,,,,,,,,,,,,METAR,106.0
MUCM 150950Z 09004KT 9000 FEW016 BKN300 24/22 Q1017,MUCM,2015-06-15T09:50:00Z,21.42,-77.85,24.0,22.0,90,4,,5.59,30.029528,,,,,,,,,,,FEW,1600,BKN,30000,,,,,VFR,,,,,,,,,,,,METAR,122.0
K6I2 150950Z AUTO 18006KT 10SM CLR 23/20 A3010 RMK AO2,K6I2,2015-06-15T09:50:00Z,37.63,-85.25,23.0,20.0,180,6,,10.0,30.100393,,,TRUE,TRUE,,,,,,,CLR,,,,,,,,VFR,,,,,,,,,,,,METAR,264.0
LXGB 150950Z 26006KT 9999 FEW025 SCT030 BKN080 19/13 Q1019 NOSIG,LXGB,2015-06-15T09:50:00Z,36.13,-5.33,19.0,13.0,260,6,,6.21,30.088583,,,,,,TRUE,,,,,FEW,2500,SCT,3000,BKN,8000,,,VFR,,,,,,,,,,,,METAR,5.0
EFTU 150950Z AUTO 32014KT 290V350 9999 BKN029/// 12/04 Q1004,EFTU,2015-06-15T09:50:00Z,60.52,22.27,12.0,4.0,320,14,,6.21,29.64567,,,TRUE,,,,,,,,,,,,,,,,,,,,,,,,,,,,METAR,59.0
EFTP 150950Z 27014KT 9999 FEW028 SCT045 11/05 Q1002,EFTP,2015-06-15T09:50:00Z,61.42,23.62,11.0,5.0,270,14,,6.21,29.586615,,,,,,,,,,,FEW,2800,SCT,4500,,,,,VFR,,,,,,,,,,,,METAR,112.0
EFRO 150950Z 02013KT 9999 RA FEW007 BKN015 BKN028 05/05 Q0992,EFRO,2015-06-15T09:50:00Z,66.57,25.82,5.0,5.0,20,13,,6.21,29.291338,,,,,,,,,,RA,FEW,700,BKN,1500,BKN,2800,,,MVFR,,,,,,,,,,,,METAR,201.0
EFOU 150950Z AUTO 30014KT 9999 -RA BKN010/// OVC013/// 08/06 Q0992,EFOU,2015-06-15T09:50:00Z,64.92,25.37,8.0,6.0,300,14,,6.21,29.291338,,,TRUE,,,,,,,-RA,,,,,,,,,,,,,,,,,,,,,METAR,15.0
EFKU 150950Z AUTO 26013KT 9999 OVC017 10/06 Q0996,EFKU,2015-06-15T09:50:00Z,63.02,27.8,10.0,6.0,260,13,,6.21,29.409449,,,TRUE,,,,,,,,OVC,1700,,,,,,,MVFR,,,,,,,,,,,,METAR,102.0
EFJY 150950Z 26011KT 9999 BKN036 11/04 Q0998,EFJY,2015-06-15T09:50:00Z,62.4,25.68,11.0,4.0,260,11,,6.21,29.468504,,,,,,,,,,,BKN,3600,,,,,,,VFR,,,,,,,,,,,,METAR,145.0
EFHK 150950Z 27014KT 9999 SCT024 BKN036 12/07 Q1003 BECMG SCT030CB,EFHK,2015-06-15T09:50:00Z,60.32,24.97,12.0,7.0,270,14,,6.21,29.616142,,,,,,,,,,,SCT,2400,BKN,3600,,,,,VFR,,,,,,,,,,,,METAR,56.0
BGKK 150950Z 01002KT 9999 BKN170 02/M02 Q1009,BGKK,2015-06-15T09:50:00Z,65.57,-37.13,2.0,-2.0,10,2,,6.21,29.793306,,,,,,,,,,,BKN,17000,,,,,,,VFR,,,,,,,,,,,,METAR,34.0
BGJN 150950Z 34006KT 9999 FEW005 BKN007 01/M02 Q1007,BGJN,2015-06-15T09:50:00Z,69.25,-51.07,1.0,-2.0,340,6,,6.21,29.734253,,,,,,,,,,,FEW,500,BKN,700,,,,,IFR,,,,,,,,,,,,METAR,25.0
BGGH 150950Z 03010KT 0200 FZFG VV001 M00/// Q1003,BGGH,2015-06-15T09:50:00Z,64.2,-51.68,,,30,10,,0.12,29.616142,,,,,,,,,,FZFG,OVX,0,,,,,,,LIFR,,,,,,,,,,,100,METAR,70.0
BGBW 150950Z 06024KT 9999 FEW066 BKN073 BKN080 11/M05 Q0998,BGBW,2015-06-15T09:50:00Z,61.17,-45.42,11.0,-5.0,60,24,,6.21,29.468504,,,,,,,,,,,FEW,6600,BKN,7300,BKN,8000,,,VFR,,,,,,,,,,,,METAR,26.0
BGSF 150950Z AUTO 10004KT 040V160 9999NDV NCD 07/M02 Q1005,BGSF,2015-06-15T09:50:00Z,67.0,-50.72,7.0,-2.0,100,4,,,29.675198,,,TRUE,,,,,,,,,,,,,,,,,,,,,,,,,,,,METAR,53.0
EDDV 150950Z 34009KT 280V050 CAVOK 15/03 Q1019 NOSIG,EDDV,2015-06-15T09:50:00Z,52.47,9.68,15.0,3.0,340,9,,6.21,30.088583,,,,,,TRUE,,,,,CAVOK,,,,,,,,VFR,,,,,,,,,,,,METAR,54.0
EDDT 150950Z 31005KT 250V010 9999 FEW038 15/04 Q1017 NOSIG,EDDT,2015-06-15T09:50:00Z,52.57,13.32,15.0,4.0,310,5,,6.21,30.029528,,,,,,TRUE,,,,,FEW,3800,,,,,,,VFR,,,,,,,,,,,,METAR,37.0
EDDS 150950Z 01005KT 320V070 9999 BKN024 19/14 Q1015 NOSIG,EDDS,2015-06-15T09:50:00Z,48.67,9.22,19.0,14.0,10,5,,6.21,29.970472,,,,,,TRUE,,,,,BKN,2400,,,,,,,MVFR,,,,,,,,,,,,METAR,419.0
EDDN 150950Z VRB07KT 9999 FEW022 SCT030 19/12 Q1015 NOSIG,EDDN,2015-06-15T09:50:00Z,49.5,11.08,19.0,12.0,0,7,,6.21,29.970472,,,,,,TRUE,,,,,FEW,2200,SCT,3000,,,,,VFR,,,,,,,,,,,,METAR,312.0
EDDM 150950Z 26005KT 230V290 3500 -RA BR BKN006 OVC014 16/15 Q1015 TEMPO BKN004,EDDM,2015-06-15T09:50:00Z,48.35,11.82,16.0,15.0,260,5,,2.17,29.970472,,,,,,,,,,-RA BR,BKN,600,OVC,1400,,,,,IFR,,,,,,,,,,,,METAR,447.0
EDDL 150950Z 01011KT 9999 FEW036 17/08 Q1019 NOSIG,EDDL,2015-06-15T09:50:00Z,51.3,6.77,17.0,8.0,10,11,,6.21,30.088583,,,,,,TRUE,,,,,FEW,3600,,,,,,,VFR,,,,,,,,,,,,METAR,44.0
EDDK 150950Z 04005KT 9999 SCT024 BKN027 15/09 Q1019 NOSIG,EDDK,2015-06-15T09:50:00Z,50.87,7.15,15.0,9.0,40,5,,6.21,30.088583,,,,,,TRUE,,,,,SCT,2400,BKN,2700,,,,,MVFR,,,,,,,,,,,,METAR,99.0
EDDH 150950Z 31012KT 9999 SCT038 BKN046 13/05 Q1019 NOSIG,EDDH,2015-06-15T09:50:00Z,53.63,10.0,13.0,5.0,310,12,,6.21,30.088583,,,,,,TRUE,,,,,SCT,3800,BKN,4600,,,,,VFR,,,,,,,,,,,,METAR,16.0
EDDF 150950Z 04015KT 9999 FEW034 SCT060 21/11 Q1016 NOSIG,EDDF,2015-06-15T09:50:00Z,50.05,8.6,21.0,11.0,40,15,,6.21,30.0,,,,,,TRUE,,,,,FEW,3400,SCT,6000,,,,,VFR,,,,,,,,,,,,METAR,113.0
EDDW 150950Z 31010KT 280V350 9999 FEW047 14/03 Q1020 NOSIG,EDDW,2015-06-15T09:50:00Z,53.03,8.8,14.0,3.0,310,10,,6.21,30.11811,,,,,,TRUE,,,,,FEW,4700,,,,,,,VFR,,,,,,,,,,,,METAR,5.0
EDDR 150950Z 04006KT 350V130 9999 FEW040 SCT100 22/11 Q1015 NOSIG,EDDR,2015-06-15T09:50:00Z,49.22,7.1,22.0,11.0,40,6,,6.21,29.970472,,,,,,TRUE,,,,,FEW,4000,SCT,10000,,,,,VFR,,,,,,,,,,,,METAR,320.0
EDDP 150950Z 34006G16KT 310V010 9999 FEW036 SCT048 BKN074 15/06 Q1018 NOSIG,EDDP,2015-06-15T09:50:00Z,51.43,12.23,15.0,6.0,340,6,16,6.21,30.059055,,,,,,TRUE,,,,,FEW,3600,SCT,4800,BKN,7400,,,VFR,,,,,,,,,,,,METAR,149.0
EDDG 150950Z 36006KT 9999 SCT038 15/06 Q1020 NOSIG,EDDG,2015-06-15T09:50:00Z,52.13,7.7,15.0,6.0,360,6,,6.21,30.11811,,,,,,TRUE,,,,,SCT,3800,,,,,,,VFR,,,,,,,,,,,,METAR,52.0
EDDE 150950Z 04007KT 9999 BKN020 13/08 Q1018 NOSIG,EDDE,2015-06-15T09:50:00Z,50.98,10.97,13.0,8.0,40,7,,6.21,30.059055,,,,,,TRUE,,,,,BKN,2000,,,,,,,MVFR,,,,,,,,,,,,METAR,323.0
EDDC 150950Z 35007KT 310V010 9999 SCT017 BKN023 14/11 Q1017 NOSIG,EDDC,2015-06-15T09:50:00Z,51.13,13.75,14.0,11.0,350,7,,6.21,30.029528,,,,,,TRUE,,,,,SCT,1700,BKN,2300,,,,,MVFR,,,,,,,,,,,,METAR,226.0
EDDB 150950Z 31008KT 250V030 9999 FEW034 16/07 Q1017 NOSIG,EDDB,2015-06-15T09:50:00Z,52.38,13.53,16.0,7.0,310,8,,6.21,30.029528,,,,,,TRUE,,,,,FEW,3400,,,,,,,VFR,,,,,,,,,,,,METAR,48.0
EKVD 150950Z 29010KT 260V320 9999 BKN037 12/05 Q1018,EKVD,2015-06-15T09:50:00Z,55.42,9.32,12.0,5.0,290,10,,6.21,30.059055,,,,,,,,,,,BKN,3700,,,,,,,VFR,,,,,,,,,,,,METAR,45.0
EKSN 150950Z 29009KT 9999 SCT038 13/05 Q1015,EKSN,2015-06-15T09:50:00Z,57.5,10.22,13.0,5.0,290,9,,6.21,29.970472,,,,,,,,,,,SCT,3800,,,,,,,VFR,,,,,,,,,,,,METAR,28.0
EKSB 150950Z 29009KT 250V330 9999 FEW025 BKN050 12/06 Q1018,EKSB,2015-06-15T09:50:00Z,54.97,9.8,12.0,6.0,290,9,,6.21,30.059055,,,,,,,,,,,FEW,2500,BKN,5000,,,,,VFR,,,,,,,,,,,,METAR,23.0
EKVJ 150950Z 32016KT 9999 BKN030 13/09 Q1019,EKVJ,2015-06-15T09:50:00Z,55.97,8.33,13.0,9.0,320,16,,6.21,30.088583,,,,,,,,,,,BKN,3000,,,,,,,MVFR,,,,,,,,,,,,METAR,5.0
EKRN 150950Z AUTO 28014KT 9999NDV FEW021/// 14/07 Q1016,EKRN,2015-06-15T09:50:00Z,55.07,14.75,14.0,7.0,280,14,,,30.0,,,TRUE,,,,,,,,,,,,,,,,,,,,,,,,,,,,METAR,16.0
EKEB 150950Z AUTO 31014KT 9999NDV FEW025/// BKN044/// 12/06 Q1019,EKEB,2015-06-15T09:50:00Z,55.52,8.55,12.0,6.0,310,14,,,30.088583,,,TRUE,,,,,,,,,,,,,,,,,,,,,,,,,,,,METAR,29.0
EKAH 150950Z AUTO 30014KT 270V330 9999NDV BKN040/// 14/03 Q1016,EKAH,2015-06-15T09:50:00Z,56.28,10.62,14.0,3.0,300,14,,,30.0,,,TRUE,,,,,,,,,,,,,,,,,,,,,,,,,,,,METAR,25.0
EKRK 150950Z AUTO 29014KT 9999NDV FEW037/// BKN045/// 12/05 Q1016,EKRK,2015-06-15T09:50:00Z,55.57,12.12,12.0,5.0,290,14,,,30.0,,,TRUE,,,,,,,,,,,,,,,,,,,,,,,,,,,,METAR,44.0
EKYT 150950Z 28014KT 9999 BKN032 13/05 Q1015,EKYT,2015-06-15T09:50:00Z,57.1,9.87,13.0,5.0,280,14,,6.21,29.970472,,,,,,,,,,,BKN,3200,,,,,,,VFR,,,,,,,,,,,,METAR,3.0
EKBI 150950Z AUTO 29010KT 270V330 9999NDV BKN040/// 12/05 Q1018,EKBI,2015-06-15T09:50:00Z,55.72,9.15,12.0,5.0,290,10,,,30.059055,,,TRUE,,,,,,,,,,,,,,,,,,,,,,,,,,,,METAR,66.0
EKCH 150950Z 30012KT 270V340 9999 FEW032 BKN052 13/04 Q1016 NOSIG,EKCH,2015-06-15T09:50:00Z,55.62,12.67,13.0,4.0,300,12,,6.21,30.0,,,,,,TRUE,,,,,FEW,3200,BKN,5200,,,,,VFR,,,,,,,,,,,,METAR,5.0
ESTL 150950Z 30011G21KT 260V320 9999 FEW031 BKN047 12/06 Q1015,ESTL,2015-06-15T09:50:00Z,56.07,13.2,12.0,6.0,300,11,21,6.21,29.970472,,,,,,,,,,,FEW,3100,BKN,4700,,,,,VFR,,,,,,,,,,,,METAR,43.0
ESTA 150950Z 27015KT 9999 BKN025 13/07 Q1015,ESTA,2015-06-15T09:50:00Z,56.28,12.83,13.0,7.0,270,15,,6.21,29.970472,,,,,,,,,,,BKN,2500,,,,,,,MVFR,,,,,,,,,,,,METAR,47.0
ESMX 150950Z 26008KT 230V320 9999 SCT041 BKN064 14/05 Q1012,ESMX,2015-06-15T09:50:00Z,56.92,14.72,14.0,5.0,260,8,,6.21,29.88189,,,,,,,,,,,SCT,4100,BKN,6400,,,,,VFR,,,,,,,,,,,,METAR,186.0
ESMT 150950Z 28012KT 9999 SCT028 BKN072 13/05 Q1014,ESMT,2015-06-15T09:50:00Z,56.67,12.82,13.0,5.0,280,12,,6.21,29.940945,,,,,,,,,,,SCT,2800,BKN,7200,,,,,VFR,,,,,,,,,,,,METAR,30.0
ESMS 150950Z 29013KT 9999 FEW034 BKN051 12/05 Q1015,ESMS,2015-06-15T09:50:00Z,55.53,13.37,12.0,5.0,290,13,,6.21,29.970472,,,,,,,,,,,FEW,3400,BKN,5100,,,,,VFR,,,,,,,,,,,,METAR,106.0
ESMQ 150950Z VRB03KT 9999 FEW049 BKN076 17/04 Q1011,ESMQ,2015-06-15T09:50:00Z,56.68,16.3,17.0,4.0,0,3,,6.21,29.852362,,,,,,,,,,,FEW,4900,BKN,7600,,,,,VFR,,,,,,,,,,,,METAR,16.0
ESMK 150950Z 26011KT 9999 FEW039 SCT056 15/04 Q1014,ESMK,2015-06-15T09:50:00Z,55.92,14.07,15.0,4.0,260,11,,6.21,29.940945,,,,,,,,,,,FEW,3900,SCT,5600,,,,,VFR,,,,,,,,,,,,METAR,23.0
ESGT 150950Z 24004KT 9999 SCT040 SCT065 15/05 Q1012,ESGT,2015-06-15T09:50:00Z,58.32,12.33,15.0,5.0,240,4,,6.21,29.88189,,,,,,,,,,,SCT,4000,SCT,6500,,,,,VFR,,,,,,,,,,,,METAR,41.0
ESGP 150950Z 27011KT CAVOK 13/05 Q1013,ESGP,2015-06-15T09:50:00Z,57.77,11.87,13.0,5.0,270,11,,6.21,29.911417,,,,,,,,,,,CAVOK,,,,,,,,VFR,,,,,,,,,,,,METAR,53.0
ESGJ 150950Z VRB03KT 9999 BKN029 BKN053 12/06 Q1012,ESGJ,2015-06-15T09:50:00Z,57.77,14.07,12.0,6.0,0,3,,6.21,29.88189,,,,,,,,,,,BKN,2900,BKN,5300,,,,,MVFR,,,,,,,,,,,,METAR,232.0
ESGG 150950Z 25010KT 230V290 9999 SCT042 13/02 Q1013,ESGG,2015-06-15T09:50:00Z,57.67,12.3,13.0,2.0,250,10,,6.21,29.911417,,,,,,,,,,,SCT,4200,,,,,,,VFR,,,,,,,,,,,,METAR,169.0
EGEO 150950Z 29004KT CAVOK 11/04 Q1021,EGEO,2015-06-15T09:50:00Z,56.47,-5.4,11.0,4.0,290,4,,6.21,30.147638,,,,,,,,,,,CAVOK,,,,,,,,VFR,,,,,,,,,,,,METAR,6.0
LLSD 150950Z 25010KT CAVOK 26/19 Q1009,LLSD,2015-06-15T09:50:00Z,32.12,34.78,26.0,19.0,250,10,,6.21,29.793306,,,,,,,,,,,CAVOK,,,,,,,,VFR,,,,,,,,,,,,METAR,14.0
LLIB 150950Z 16011KT 100V190 9999 FEW030 30/17 Q1010,LLIB,2015-06-15T09:50:00Z,32.98,35.57,30.0,17.0,160,11,,6.21,29.822834,,,,,,,,,,,FEW,3000,,,,,,,VFR,,,,,,,,,,,,METAR,282.0
LLHA 150950Z 24009KT 210V280 9999 FEW030 28/19 Q1010,LLHA,2015-06-15T09:50:00Z,32.78,35.02,28.0,19.0,240,9,,6.21,29.822834,,,,,,,,,,,FEW,3000,,,,,,,VFR,,,,,,,,,,,,METAR,8.0
LLET 150950Z 04016KT CAVOK 34/11 Q1008,LLET,2015-06-15T09:50:00Z,29.55,34.95,34.0,11.0,40,16,,6.21,29.763779,,,,,,,,,,,CAVOK,,,,,,,,VFR,,,,,,,,,,,,METAR,13.0
EVVA 150950Z AUTO 28009KT 9999 BKN019 BKN026 BKN037 13/10 Q1010,EVVA,2015-06-15T09:50:00Z,57.35,21.55,13.0,10.0,280,9,,6.21,29.822834,,,TRUE,,,,,,,,BKN,1900,BKN,2600,BKN,3700,,,MVFR,,,,,,,,,,,,METAR,6.0
KDAG 150950Z AUTO 26012KT 10SM CLR 28/01 A2977 RMK AO2 WSHFT 0904 SLP046 T02830011,KDAG,2015-06-15T09:50:00Z,34.85,-116.78,28.3,1.1,260,12,,10.0,29.769686,1004.6,,TRUE,TRUE,,,,,,,CLR,,,,,,,,VFR,,,,,,,,,,,,METAR,587.0
LLBG 150950Z 25009KT 220V280 9999 FEW030 28/18 Q1010 NOSIG,LLBG,2015-06-15T09:50:00Z,32.0,34.88,28.0,18.0,250,9,,6.21,29.822834,,,,,,TRUE,,,,,FEW,3000,,,,,,,VFR,,,,,,,,,,,,METAR,49.0
EKSP 150950Z 29008KT 260V330 9999 FEW028 SCT042 BKN050 12/05 Q1018 NOSIG,EKSP,2015-06-15T09:50:00Z,55.22,9.27,12.0,5.0,290,8,,6.21,30.059055,,,,,,TRUE,,,,,FEW,2800,SCT,4200,BKN,5000,,,VFR,,,,,,,,,,,,METAR,40.0
EKKA 150950Z AUTO 29012G23KT 260V320 9999NDV BKN031/// 12/06 Q1017 TEMPO 30012G22KT,EKKA,2015-06-15T09:50:00Z,56.3,9.12,12.0,6.0,290,12,23,,30.029528,,,TRUE,,,,,,,,,,,,,,,,,,,,,,,,,,,,METAR,52.0
KQFU 150950Z AUTO 06007G13KT 9999 CLR 26/17 A2972 RMK A02 TSNO,KQFU,2015-06-15T09:50:00Z,100.65,-1000.65,26.0,17.0,60,7,13,6.21,29.719488,,,TRUE,TRUE,,,TRUE,,,,CLR,,,,,,,,VFR,,,,,,,,,,,,METAR,999.0
KQEQ 150950Z AUTO 23003KT 9999 CLR 25/17 A2958 RMK A02 TSNO,KQEQ,2015-06-15T09:50:00Z,100.65,-1000.65,25.0,17.0,230,3,,6.21,29.58071,,,TRUE,TRUE,,,TRUE,,,,CLR,,,,,,,,VFR,,,,,,,,,,,,METAR,999.0
KQEI 150950Z AUTO 31007KT 9999 FEW075 BKN080 26/16 A2973 RMK A02 TSNO,KQEI,2015-06-15T09:50:00Z,100.65,-1000.65,26.0,16.0,310,7,,6.21,29.731298,,,TRUE,TRUE,,,TRUE,,,,FEW,7500,BKN,8000,,,,,VFR,,,,,,,,,,,,METAR,999.0
EYVI 150950Z 29011KT 9999 SCT031 BKN044 20/10 Q1010 NOSIG,EYVI,2015-06-15T09:50:00Z,54.63,25.28,20.0,10.0,290,11,,6.21,29.822834,,,,,,TRUE,,,,,SCT,3100,BKN,4400,,,,,VFR,,,,,,,,,,,,METAR,197.0
EGNO 150950Z 15006KT 100V180 9999 FEW039 15/08 Q1022,EGNO,2015-06-15T09:50:00Z,53.75,-2.88,15.0,8.0,150,6,,6.21,30.177166,,,,,,,,,,,FEW,3900,,,,,,,VFR,,,,,,,,,,,,METAR,17.0
LSZA 150950Z 16003KT 110V230 9999 SCT020 SCT090 22/15 Q1014 NOSIG,LSZA,2015-06-15T09:50:00Z,46.0,8.92,22.0,15.0,160,3,,6.21,29.940945,,,,,,TRUE,,,,,SCT,2000,SCT,9000,,,,,VFR,,,,,,,,,,,,METAR,276.0
LSZB 150950Z 03002KT 6000 -RA FEW010 SCT025 BKN034 17/15 Q1015 REDZ NOSIG,LSZB,2015-06-15T09:50:00Z,46.92,7.5,17.0,15.0,30,2,,3.73,29.970472,,,,,,TRUE,,,,-RA,FEW,1000,SCT,2500,BKN,3400,,,MVFR,,,,,,,,,,,,METAR,505.0
LSGG 150950Z 23004KT 170V280 9999 VCSH FEW020 SCT035 BKN090 21/14 Q1015 NOSIG,LSGG,2015-06-15T09:50:00Z,46.25,6.12,21.0,14.0,230,4,,6.21,29.970472,,,,,,TRUE,,,,VCSH,FEW,2000,SCT,3500,BKN,9000,,,VFR,,,,,,,,,,,,METAR,416.0
LSZH 150950Z 32003KT 280V350 8000 -RA SCT010 BKN060 16/15 Q1016 NOSIG,LSZH,2015-06-15T09:50:00Z,47.48,8.53,16.0,15.0,320,3,,4.97,30.0,,,,,,TRUE,,,,-RA,SCT,1000,BKN,6000,,,,,MVFR,,,,,,,,,,,,METAR,432.0
PTKR 150950Z 00000KT 14SM BKN016CB BKN110 OVC290 27/25 A2977 RMK CB ALQDS SLP080 T02720246,PTKR,2015-06-15T09:50:00Z,7.33,134.48,27.2,24.6,0,0,,14.0,29.769686,1008.0,,,,,,,,,,BKN,1600,BKN,11000,OVC,29000,,,MVFR,,,,,,,,,,,,METAR,30.0
PAPM 150950Z 31012KT 10SM CLR 13/10 A3043 RMK VIA PHONE,PAPM,2015-06-15T09:50:00Z,59.02,-161.82,13.0,10.0,310,12,,10.0,30.431103,,,,,,,,,,,CLR,,,,,,,,VFR,,,,,,,,,,,,METAR,5.0
PGRO 150950Z 09011KT 7SM FEW015 SCT100 27/24 A2986 RMK LAST,PGRO,2015-06-15T09:50:00Z,14.18,145.25,27.0,24.0,90,11,,7.0,29.861221,,,,,,,,,,,FEW,1500,SCT,10000,,,,,VFR,,,,,,,,,,,,METAR,185.0
OAKB 150950Z 33010KT 9999 FEW080 29/M03 Q1012 NOSIG RMK BLU BLU,OAKB,2015-06-15T09:50:00Z,34.55,69.22,29.0,-3.0,330,10,,6.21,29.88189,,,,,,TRUE,,,,,FEW,8000,,,,,,,VFR,,,,,,,,,,,,METAR,1791.0
EYSA 150950Z 26013KT 220V300 9999 FEW042 17/03 Q1010,EYSA,2015-06-15T09:50:00Z,55.9,23.4,17.0,3.0,260,13,,6.21,29.822834,,,,,,,,,,,FEW,4200,,,,,,,VFR,,,,,,,,,,,,METAR,135.0
EDXW 150950Z 31014KT 9999 FEW025 13/06 Q1020 RMK ATIS BRA,EDXW,2015-06-15T09:50:00Z,54.92,8.33,13.0,6.0,310,14,,6.21,30.11811,,,,,,,,,,,FEW,2500,,,,,,,VFR,,,,,,,,,,,,METAR,20.0
EDVK 150950Z 34005KT 300V040 9999 BKN022 OVC035 13/07 Q1019 RMK ATIS M,EDVK,2015-06-15T09:50:00Z,51.38,9.37,13.0,7.0,340,5,,6.21,30.088583,,,,,,,,,,,BKN,2200,OVC,3500,,,,,MVFR,,,,,,,,,,,,METAR,285.0
EDVE 150950Z VRB04KT CAVOK 15/03 Q1019,EDVE,2015-06-15T09:50:00Z,52.32,10.55,15.0,3.0,0,4,,6.21,30.088583,,,,,,,,,,,CAVOK,,,,,,,,VFR,,,,,,,,,,,,METAR,88.0
EDSB 150950Z VRB03KT 9999 FEW028 20/12 Q1015,EDSB,2015-06-15T09:50:00Z,48.78,8.08,20.0,12.0,0,3,,6.21,29.970472,,,,,,,,,,,FEW,2800,,,,,,,VFR,,,,,,,,,,,,METAR,124.0
EDOP 150950Z 31008KT 260V350 9999 SCT044 15/04 Q1018 RMK ATIS L,EDOP,2015-06-15T09:50:00Z,53.43,11.78,15.0,4.0,310,8,,6.21,30.059055,,,,,,,,,,,SCT,4400,,,,,,,VFR,,,,,,,,,,,,METAR,51.0
EDNY 150950Z VRB01KT 8000 -RA FEW005 SCT045 OVC053 16/14 Q1015 RMK ATIS M,EDNY,2015-06-15T09:50:00Z,47.67,9.52,16.0,14.0,0,1,,4.97,29.970472,,,,,,,,,,-RA,FEW,500,SCT,4500,OVC,5300,,,MVFR,,,,,,,,,,,,METAR,424.0
EDMO 150950Z 28005KT 6000 RA SCT006 BKN037 OVC052 15/14 Q1015 RMK ATIS S,EDMO,2015-06-15T09:50:00Z,48.07,11.27,15.0,14.0,280,5,,3.73,29.970472,,,,,,,,,,RA,SCT,600,BKN,3700,OVC,5200,,,MVFR,,,,,,,,,,,,METAR,600.0
EDMA 150950Z 36005KT 9999 FEW013 BKN021 17/14 Q1015 RMK ATIS CHA,EDMA,2015-06-15T09:50:00Z,48.42,10.92,17.0,14.0,360,5,,6.21,29.970472,,,,,,,,,,,FEW,1300,BKN,2100,,,,,MVFR,,,,,,,,,,,,METAR,463.0
EDLW 150950Z 04006KT 360V080 9999 SCT026 15/06 Q1019 RMK ATIS N,EDLW,2015-06-15T09:50:00Z,51.52,7.62,15.0,6.0,40,6,,6.21,30.088583,,,,,,,,,,,SCT,2600,,,,,,,VFR,,,,,,,,,,,,METAR,127.0
EDLP 150950Z VRB03KT 9999 SCT032 15/05 Q1019 RMK ATIS ECH,EDLP,2015-06-15T09:50:00Z,51.62,8.62,15.0,5.0,0,3,,6.21,30.088583,,,,,,,,,,,SCT,3200,,,,,,,VFR,,,,,,,,,,,,METAR,213.0
EDHL 150950Z VRB06KT 9999 FEW038 BKN042 14/03 Q1019 RMK ATIS LIM,EDHL,2015-06-15T09:50:00Z,53.8,10.72,14.0,3.0,0,6,,6.21,30.088583,,,,,,,,,,,FEW,3800,BKN,4200,,,,,VFR,,,,,,,,,,,,METAR,16.0
EDHI 150950Z 29012KT 260V320 9999 FEW035 BKN040 14/05 Q1019,EDHI,2015-06-15T09:50:00Z,53.53,9.83,14.0,5.0,290,12,,6.21,30.088583,,,,,,,,,,,FEW,3500,BKN,4000,,,,,VFR,,,,,,,,,,,,METAR,13.0
EDFH 150950Z 02010KT 340V050 9999 SCT022 17/12 Q1017,EDFH,2015-06-15T09:50:00Z,49.95,7.27,17.0,12.0,20,10,,6.21,30.029528,,,,,,,,,,,SCT,2200,,,,,,,VFR,,,,,,,,,,,,METAR,498.0
EDAH 150950Z 31008KT 250V360 9999 SCT035 15/03 Q1017,EDAH,2015-06-15T09:50:00Z,53.87,14.15,15.0,3.0,310,8,,6.21,30.029528,,,,,,,,,,,SCT,3500,,,,,,,VFR,,,,,,,,,,,,METAR,28.0
PTRO 150950Z 00000KT 14SM BKN016CB BKN120 BKN300 26/24 A2977 RMK CB VC ALQDS,PTRO,2015-06-15T09:50:00Z,7.37,134.55,26.0,24.0,0,0,,14.0,29.769686,,,,,,,,,,,BKN,1600,BKN,12000,BKN,30000,,,MVFR,,,,,,,,,,,,METAR,54.0
EYPA 150950Z 28007KT 240V340 9999 BKN021 14/08 Q1012,EYPA,2015-06-15T09:50:00Z,55.97,21.08,14.0,8.0,280,7,,6.21,29.88189,,,,,,,,,,,BKN,2100,,,,,,,MVFR,,,,,,,,,,,,METAR,10.0
CYLH 150950Z AUTO 31006KT 270V340 9SM OVC085 14/11 A2972 RMK SLP068 DENSITY ALT 1100FT,CYLH,2015-06-15T09:50:00Z,52.2,-87.93,14.0,11.0,310,6,,9.0,29.719488,1006.8,,TRUE,,,,,,,,OVC,8500,,,,,,,VFR,,,,,,,,,,,,SPECI,254.0
EETN 150950Z 28015KT 9999 BKN017 FEW025CB BKN029 12/08 Q1004 NOSIG,EETN,2015-06-15T09:50:00Z,59.4,24.82,12.0,8.0,280,15,,6.21,29.64567,,,,,,TRUE,,,,,BKN,1700,FEW,2500,BKN,2900,,,MVFR,,,,,,,,,,,,METAR,40.0
EYKA 150950Z 26010KT 220V310 9999 SCT038 19/07 Q1010,EYKA,2015-06-15T09:50:00Z,54.97,24.08,19.0,7.0,260,10,,6.21,29.822834,,,,,,,,,,,SCT,3800,,,,,,,VFR,,,,,,,,,,,,METAR,77.0
EEEI 150950Z 27017KT 9999 SCT015 BKN026 12/07 Q1005 NOSIG,EEEI,2015-06-15T09:50:00Z,59.27,24.2,12.0,7.0,270,17,,6.21,29.675198,,,,,,TRUE,,,,,SCT,1500,BKN,2600,,,,,MVFR,,,,,,,,,,,,METAR,20.0
KLAL 150950Z 09005KT 10SM SKC 24/23 A3009 RMK FIRST,KLAL,2015-06-15T09:50:00Z,27.97,-82.02,24.0,23.0,90,5,,10.0,30.088583,,,,,,,,,,,SKC,,,,,,,,VFR,,,,,,,,,,,,METAR,43.0
EVRA 150950Z VRB07KT 9999 SCT046 18/06 Q1008 NOSIG,EVRA,2015-06-15T09:50:00Z,56.92,23.97,18.0,6.0,0,7,,6.21,29.763779,,,,,,TRUE,,,,,SCT,4600,,,,,,,VFR,,,,,,,,,,,,METAR,10.0
EKVG 150950Z AUTO 33007KT 290V360 9999NDV NCD 09/04 Q1020 RMK NCD WIND 850FT 29009KT,EKVG,2015-06-15T09:50:00Z,62.07,-7.3,9.0,4.0,330,7,,,30.11811,,,TRUE,,,,,,,,,,,,,,,,,,,,,,,,,,,,METAR,85.0
ETNG 150950Z 05008KT 9999 BKN020 BKN036 15/09 Q1020 NOSIG,ETNG,2015-06-15T09:50:00Z,50.97,6.03,15.0,9.0,50,8,,6.21,30.11811,,,,,,TRUE,,,,,BKN,2000,BKN,3600,,,,,MVFR,,,,,,,,,,,,METAR,98.0
LATI 150950Z 03002KT CAVOK 31/13 Q1015 NOSIG,LATI,2015-06-15T09:50:00Z,41.42,19.72,31.0,13.0,30,2,,6.21,29.970472,,,,,,TRUE,,,,,CAVOK,,,,,,,,VFR,,,,,,,,,,,,METAR,90.0
MSLP 150950Z 09003KT 9999 FEW057 24/23 Q1009 A2979,MSLP,2015-06-15T09:50:00Z,13.43,-89.05,24.0,23.0,90,3,,6.21,29.793306,,,,,,,,,,,FEW,5700,,,,,,,VFR,,,,,,,,,,,,METAR,25.0
EBBR 150950Z 04007KT 360V080 9999 FEW029 BKN033 15/08 Q1020 NOSIG,EBBR,2015-06-15T09:50:00Z,50.9,4.5,15.0,8.0,40,7,,6.21,30.11811,,,,,,TRUE,,,,,FEW,2900,BKN,3300,,,,,VFR,,,,,,,,,,,,METAR,58.0
EBAW 150950Z 03008KT 350V080 9999 FEW029 16/07 Q1020 NOSIG,EBAW,2015-06-15T09:50:00Z,51.2,4.47,16.0,7.0,30,8,,6.21,30.11811,,,,,,TRUE,,,,,FEW,2900,,,,,,,VFR,,,,,,,,,,,,METAR,14.0
PGWT 150950Z 08007KT 7SM FEW016 27/24 A2985 RMK LAST,PGWT,2015-06-15T09:50:00Z,14.98,145.62,27.0,24.0,80,7,,7.0,29.84941,,,,,,,,,,,FEW,1600,,,,,,,VFR,,,,,,,,,,,,METAR,82.0
ELLX 150950Z 04010KT 360V070 9999 FEW035 SCT050 20/12 Q1016 NOSIG,ELLX,2015-06-15T09:50:00Z,49.63,6.2,20.0,12.0,40,10,,6.21,30.0,,,,,,TRUE,,,,,FEW,3500,SCT,5000,,,,,VFR,,,,,,,,,,,,METAR,379.0
EBOS 150950Z 03014KT 9999 BKN020 15/09 Q1021 NOSIG,EBOS,2015-06-15T09:50:00Z,51.2,2.87,15.0,9.0,30,14,,6.21,30.147638,,,,,,TRUE,,,,,BKN,2000,,,,,,,MVFR,,,,,,,,,,,,METAR,5.0
EBLG 150950Z 04010KT 8000 BKN009 13/10 Q1019 BECMG BKN014,EBLG,2015-06-15T09:50:00Z,50.63,5.45,13.0,10.0,40,10,,4.97,30.088583,,,,,,,,,,,BKN,900,,,,,,,IFR,,,,,,,,,,,,METAR,178.0
EBCI 150950Z 03011KT 8000 BKN007 13/10 Q1019 NOSIG,EBCI,2015-06-15T09:50:00Z,50.47,4.45,13.0,10.0,30,11,,4.97,30.088583,,,,,,TRUE,,,,,BKN,700,,,,,,,IFR,,,,,,,,,,,,METAR,192.0
LIEE 150950Z 33013KT 9999 FEW040 24/18 Q1017,LIEE,2015-06-15T09:50:00Z,39.25,9.07,24.0,18.0,330,13,,6.21,30.029528,,,,,,,,,,,FEW,4000,,,,,,,VFR,,,,,,,,,,,,METAR,4.0
LIEO 150950Z 22013KT 9999 FEW045 24/15 Q1016,LIEO,2015-06-15T09:50:00Z,40.88,9.52,24.0,15.0,220,13,,6.21,30.0,,,,,,,,,,,FEW,4500,,,,,,,VFR,,,,,,,,,,,,METAR,13.0
LIMC 150950Z VRB03KT 9999 BKN035 22/15 Q1013 NOSIG,LIMC,2015-06-15T09:50:00Z,45.62,8.72,22.0,15.0,0,3,,6.21,29.911417,,,,,,TRUE,,,,,BKN,3500,,,,,,,VFR,,,,,,,,,,,,METAR,211.0
LIME 150950Z 20004KT 140V260 9999 SCT015 SCT080 22/17 Q1013,LIME,2015-06-15T09:50:00Z,45.67,9.68,22.0,17.0,200,4,,6.21,29.911417,,,,,,,,,,,SCT,1500,SCT,8000,,,,,VFR,,,,,,,,,,,,METAR,237.0
LIML 150950Z 20004KT 150V250 9999 SCT015 23/18 Q1013 NOSIG,LIML,2015-06-15T09:50:00Z,45.47,9.27,23.0,18.0,200,4,,6.21,29.911417,,,,,,TRUE,,,,,SCT,1500,,,,,,,VFR,,,,,,,,,,,,METAR,103.0
LIMJ 150950Z 15012KT 9999 FEW015TCU BKN018 23/18 Q1013,LIMJ,2015-06-15T09:50:00Z,44.42,8.83,23.0,18.0,150,12,,6.21,29.911417,,,,,,,,,,,FEW,1500,BKN,1800,,,,,MVFR,,,,,,,,,,,,METAR,3.0
LIMF 150950Z VRB04KT 9999 SCT020 22/16 Q1014,LIMF,2015-06-15T09:50:00Z,45.22,7.65,22.0,16.0,0,4,,6.21,29.940945,,,,,,,,,,,SCT,2000,,,,,,,VFR,,,,,,,,,,,,METAR,287.0
LIRN 150950Z 20007KT 170V240 9999 BKN030 25/18 Q1017,LIRN,2015-06-15T09:50:00Z,40.88,14.3,25.0,18.0,200,7,,6.21,30.029528,,,,,,,,,,,BKN,3000,,,,,,,MVFR,,,,,,,,,,,,METAR,72.0
LIRQ 150950Z 29004KT 230V360 9999 FEW024TCU SCT030 25/18 Q1014,LIRQ,2015-06-15T09:50:00Z,43.78,11.18,25.0,18.0,290,4,,6.21,29.940945,,,,,,,,,,,FEW,2400,SCT,3000,,,,,VFR,,,,,,,,,,,,METAR,38.0
LOWW 150950Z 31012KT 9999 SCT024 FEW025CB BKN032 21/16 Q1010 NOSIG,LOWW,2015-06-15T09:50:00Z,48.12,16.57,21.0,16.0,310,12,,6.21,29.822834,,,,,,TRUE,,,,,SCT,2400,FEW,2500,BKN,3200,,,VFR,,,,,,,,,,,,METAR,190.0
LOWL 150950Z 28005KT 260V320 9999 -SHRA FEW008 SCT017 BKN025 18/16 Q1013 NOSIG,LOWL,2015-06-15T09:50:00Z,48.22,14.18,18.0,16.0,280,5,,6.21,29.911417,,,,,,TRUE,,,,-SHRA,FEW,800,SCT,1700,BKN,2500,,,MVFR,,,,,,,,,,,,METAR,313.0
LOWS 150950Z 33007KT 9999 FEW023 SCT030 BKN044 19/14 Q1014 TEMPO FM1015 RA,LOWS,2015-06-15T09:50:00Z,47.78,13.02,19.0,14.0,330,7,,6.21,29.940945,,,,,,,,,,,FEW,2300,SCT,3000,BKN,4400,,,VFR,,,,,,,,,,,,METAR,450.0
LOWI 150950Z VRB02KT 9999 -RA FEW007 SCT030 BKN055 17/15 Q1015 NOSIG,LOWI,2015-06-15T09:50:00Z,47.27,11.33,17.0,15.0,0,2,,6.21,29.970472,,,,,,TRUE,,,,-RA,FEW,700,SCT,3000,BKN,5500,,,VFR,,,,,,,,,,,,METAR,581.0
LOWG 150950Z 02005KT 350V060 9999 FEW060 SCT095 BKN150 22/16 Q1012 NOSIG,LOWG,2015-06-15T09:50:00Z,47.0,15.42,22.0,16.0,20,5,,6.21,29.88189,,,,,,TRUE,,,,,FEW,6000,SCT,9500,BKN,15000,,,VFR,,,,,,,,,,,,METAR,347.0
LOWK 150950Z 34004KT 270V010 9999 FEW020 SCT080 BKN095 21/14 Q1013 NOSIG,LOWK,2015-06-15T09:50:00Z,46.65,14.32,21.0,14.0,340,4,,6.21,29.911417,,,,,,TRUE,,,,,FEW,2000,SCT,8000,BKN,9500,,,VFR,,,,,,,,,,,,METAR,441.0
LIEA 150950Z 24011KT 9999 FEW016 SCT025 22/17 Q1017,LIEA,2015-06-15T09:50:00Z,40.62,8.27,22.0,17.0,240,11,,6.21,30.029528,,,,,,,,,,,FEW,1600,SCT,2500,,,,,VFR,,,,,,,,,,,,METAR,23.0
EFVA 150950Z AUTO 28015KT 260V320 9999 SCT032/// SCT038/// 11/02 Q1000,EFVA,2015-06-15T09:50:00Z,63.03,21.77,11.0,2.0,280,15,,6.21,29.52756,,,TRUE,,,,,,,,,,,,,,,,,,,,,,,,,,,,METAR,4.0
EDAC 150950Z 03004KT 330V080 9999 SCT022 BKN035 15/10 Q1017,EDAC,2015-06-15T09:50:00Z,50.98,12.5,15.0,10.0,30,4,,6.21,30.029528,,,,,,,,,,,SCT,2200,BKN,3500,,,,,VFR,,,,,,,,,,,,METAR,195.0
MMSP 150949Z 05004KT 8SM SCT210 16/13 A3013 RMK 8/001 SC AC,MMSP,2015-06-15T09:49:00Z,22.25,-100.93,16.0,13.0,50,4,,8.0,30.129921,,,,,,,,,,,SCT,21000,,,,,,,VFR,,,,,,,,,,,,METAR,1903.0
KLVN 150949Z AUTO 28005KT 10SM SCT060 BKN075 19/18 A2990 RMK AO2,KLVN,2015-06-15T09:49:00Z,44.63,-93.23,19.0,18.0,280,5,,10.0,29.899607,,,TRUE,TRUE,,,,,,,SCT,6000,BKN,7500,,,,,VFR,,,,,,,,,,,,METAR,293.0
CYQF 150949Z 23003KT 1/4SM FG SKC 04/03 A3029 RMK FG5 SLP280,CYQF,2015-06-15T09:49:00Z,52.17,-113.9,4.0,3.0,230,3,,0.25,30.28937,1028.0,,,,,,,,,FG,SKC,,,,,,,,LIFR,,,,,,,,,,,,SPECI,905.0
CYQX 150949Z 34006KT 6SM -DZ BR BKN005 OVC014 04/04 A3001 RMK SF5SC3 SLP166,CYQX,2015-06-15T09:49:00Z,48.95,-54.58,4.0,4.0,340,6,,6.0,30.008858,1016.6,,,,,,,,,-DZ BR,BKN,500,OVC,1400,,,,,IFR,,,,,,,,,,,,SPECI,151.0
CYSC 150949Z AUTO 07003KT 6SM BR CLR 12/10 A3000 RMK SLP160,CYSC,2015-06-15T09:49:00Z,45.43,-71.68,12.0,10.0,70,3,,6.0,30.0,1016.0,,TRUE,,,,,,,BR,CLR,,,,,,,,VFR,,,,,,,,,,,,SPECI,241.0
MMTO 150948Z 18006KT 4SM SCT015 BKN070 12/09 A3026 RMK 8/470 HZ,MMTO,2015-06-15T09:48:00Z,19.35,-99.57,12.0,9.0,180,6,,4.0,30.259842,,,,,,,,,,,SCT,1500,BKN,7000,,,,,MVFR,,,,,,,,,,,,METAR,2576.0
MMZC 150948Z 06011KT 8SM SCT150 BKN250 16/09 A3020 RMK 8/061,MMZC,2015-06-15T09:48:00Z,22.9,-102.68,16.0,9.0,60,11,,8.0,30.200787,,,,,,,,,,,SCT,15000,BKN,25000,,,,,VFR,,,,,,,,,,,,METAR,2177.0
CYAM 150948Z 31004KT 260V340 3/8SM R12/2800FT/N FG OVC006 13/13 A2991 RMK FG4SF4 SLP131,CYAM,2015-06-15T09:48:00Z,46.47,-84.52,13.0,13.0,310,4,,0.38,29.911417,1013.1,,,,,,,,,FG,OVC,600,,,,,,,LIFR,,,,,,,,,,,,SPECI,192.0
KJDN 150948Z AUTO 02008KT 08/06 A3022 RMK AO1 SLP237 T00830056,KJDN,2015-06-15T09:48:00Z,47.33,-106.95,8.3,5.6,20,8,,,30.221457,1023.7,,TRUE,TRUE,,,,,,,,,,,,,,,,,,,,,,,,,,,SPECI,801.0
MMUN 150947Z 12013KT 5SM SCT015 BKN040 26/25 A2991 RMK 8/700 -RA E46,MMUN,2015-06-15T09:47:00Z,21.02,-86.85,26.0,25.0,120,13,,5.0,29.911417,,,,,,,,,,,SCT,1500,BKN,4000,,,,,MVFR,,,,,,,,,,,,METAR,10.0
LFMT 150947Z VRB03KT CAVOK 26/11 Q1014 NOSIG,LFMT,2015-06-15T09:47:00Z,43.57,3.97,26.0,11.0,0,3,,6.21,29.940945,,,,,,TRUE,,,,,CAVOK,,,,,,,,VFR,,,,,,,,,,,,METAR,6.0
KCQT 150947Z AUTO 00000KT 5SM BR OVC007 17/16 A2981 RMK AO2 SLP092 T01720156,KCQT,2015-06-15T09:47:00Z,34.02,-118.28,17.2,15.6,0,0,,5.0,29.811024,1009.2,,TRUE,TRUE,,,,,,BR,OVC,700,,,,,,,IFR,,,,,,,,,,,,SPECI,56.0
KFIN 150947Z 00000KT 2 1/2SM BR SCT003 21/20 A3010,KFIN,2015-06-15T09:47:00Z,29.47,-81.2,21.0,20.0,0,0,,2.5,30.100393,,,,,,,,,,BR,SCT,300,,,,,,,IFR,,,,,,,,,,,,METAR,10.0
LEAL 150947Z 07011KT 050V110 9999 FEW065 27/08 Q1015 NOSIG,LEAL,2015-06-15T09:47:00Z,38.27,-0.55,27.0,8.0,70,11,,6.21,29.970472,,,,,,TRUE,,,,,FEW,6500,,,,,,,VFR,,,,,,,,,,,,SPECI,31.0
CZPC 150947Z AUTO 06004KT 9SM -RA OVC029 07/06 A3031 RMK SLP276,CZPC,2015-06-15T09:47:00Z,49.52,-114.0,7.0,6.0,60,4,,9.0,30.31004,1027.6,,TRUE,,,,,,,-RA,OVC,2900,,,,,,,MVFR,,,,,,,,,,,,SPECI,1190.0
CYCY 150947Z AUTO VRB02KT 1SM BR OVC002 M02/M02 A2990 RMK VIS VRB 3/4-2 ICG PAST HR SLP127,CYCY,2015-06-15T09:47:00Z,70.47,-68.52,-2.0,-2.0,0,2,,1.0,29.899607,1012.7,,TRUE,,,,,,,BR,OVC,200,,,,,,,LIFR,,,,,,,,,,,,SPECI,26.0
RKPK 150947Z 17010KT 1600 BR FEW000 SCT005 BKN015 BKN030 20/19 Q1007 NOSIG,RKPK,2015-06-15T09:47:00Z,35.17,128.92,20.0,19.0,170,10,,0.99,29.734253,,,,,,TRUE,,,,BR,FEW,0,SCT,500,BKN,1500,BKN,3000,LIFR,,,,,,,,,,,,METAR,15.0
MMMX 150946Z 14010KT 15SM SCT020 BKN080 16/09 A3020 NOSIG RMK 8/530,MMMX,2015-06-15T09:46:00Z,19.42,-99.08,16.0,9.0,140,10,,15.0,30.200787,,,,,,TRUE,,,,,SCT,2000,BKN,8000,,,,,VFR,,,,,,,,,,,,METAR,2238.0
MMCZ 150946Z 13005KT 7SM SCT015 SCT080 BKN250 25/24 A2990 RMK 8/463 MSGTX MMMD,MMCZ,2015-06-15T09:46:00Z,20.52,-86.92,25.0,24.0,130,5,,7.0,29.899607,,,,,,,,,,,SCT,1500,SCT,8000,BKN,25000,,,VFR,,,,,,,,,,,,METAR,5.0
PAKF 150946Z AUTO 36007G14KT 10SM OVC003 07/06 A3045 RMK AO2 $,PAKF,2015-06-15T09:46:00Z,54.85,-163.42,7.0,6.0,360,7,14,10.0,30.448818,,,TRUE,TRUE,TRUE,,,,,,OVC,300,,,,,,,LIFR,,,,,,,,,,,,SPECI,6.0
LIYW 150946Z AUTO 20003KT 9999 BKN026 BKN043 23/20 A2992 RMK AO2 CIG 026V043 BKN026 V SCT,LIYW,2015-06-15T09:46:00Z,46.02,12.62,23.0,20.0,200,3,,6.21,29.920275,,,TRUE,TRUE,,,,,,,BKN,2600,BKN,4300,,,,,MVFR,,,,,,,,,,,,SPECI,126.0
LIPX 150945Z 29004KT 9999 SCT020 SCT070 23/18 Q1014,LIPX,2015-06-15T09:45:00Z,45.38,10.87,23.0,18.0,290,4,,6.21,29.940945,,,,,,,,,,,SCT,2000,SCT,7000,,,,,VFR,,,,,,,,,,,,METAR,68.0
LIPR 150945Z 19007KT 9999 SCT030 27/16 Q1013,LIPR,2015-06-15T09:45:00Z,44.02,12.62,27.0,16.0,190,7,,6.21,29.911417,,,,,,,,,,,SCT,3000,,,,,,,VFR,,,,,,,,,,,,METAR,13.0
LIPH 150945Z /////KT 9999 FEW015TCU SCT080 24/19 Q1013,LIPH,2015-06-15T09:45:00Z,45.63,12.17,24.0,19.0,,,,6.21,29.911417,,,,,,,,,,,FEW,1500,SCT,8000,,,,,VFR,,,,,,,,,,,,METAR,23.0
LIBR 150945Z 04007KT CAVOK 28/15 Q1015 NOSIG,LIBR,2015-06-15T09:45:00Z,40.65,17.95,28.0,15.0,40,7,,6.21,29.970472,,,,,,TRUE,,,,,CAVOK,,,,,,,,VFR,,,,,,,,,,,,METAR,10.0
MMAA 150945Z 34004KT 8SM SCT080 BKN100 OVC300 25/22 A2982 RMK 8/077 CB S,MMAA,2015-06-15T09:45:00Z,16.75,-99.75,25.0,22.0,340,4,,8.0,29.819881,,,,,,,,,,,SCT,8000,BKN,10000,OVC,30000,,,VFR,,,,,,,,,,,,METAR,5.0
MMMD 150945Z 13015KT 5SM BKN006 27/24 A2984 RMK 8/600 HZY,MMMD,2015-06-15T09:45:00Z,20.95,-89.65,27.0,24.0,130,15,,5.0,29.840551,,,,,,,,,,,BKN,600,,,,,,,IFR,,,,,,,,,,,,METAR,10.0
RJAH 150945Z 14004KT 7000 FEW030 FEW035CB BKN130 BKN230 25/18 Q1006 RMK 1CU030 1CB035 5AC130 A2972 CB 40KM N MOV SE,RJAH,2015-06-15T09:45:00Z,36.17,140.42,25.0,18.0,140,4,,4.35,29.704725,,,,,,,,,,,FEW,3000,FEW,3500,BKN,13000,BKN,23000,MVFR,,,,,,,,,,,,METAR,35.0
LHSN 150945Z 23008KT 200V280 CAVOK 27/15 Q1010 NOSIG RMK BLU,LHSN,2015-06-15T09:45:00Z,47.12,20.23,27.0,15.0,230,8,,6.21,29.822834,,,,,,TRUE,,,,,CAVOK,,,,,,,,VFR,,,,,,,,,,,,METAR,98.0
LHKE 150945Z 24008KT 190V280 9999 SCT048 27/16 Q1011 NOSIG RMK BLU,LHKE,2015-06-15T09:45:00Z,46.92,19.75,27.0,16.0,240,8,,6.21,29.852362,,,,,,TRUE,,,,,SCT,4800,,,,,,,VFR,,,,,,,,,,,,METAR,115.0
KEDJ 150945Z AUTO 20005KT 10SM CLR 21/21 A3004 RMK AO1,KEDJ,2015-06-15T09:45:00Z,40.37,-83.82,21.0,21.0,200,5,,10.0,30.041338,,,TRUE,TRUE,,,,,,,CLR,,,,,,,,VFR,,,,,,,,,,,,METAR,342.0
K14Y 150945Z AUTO 34003KT 10SM CLR 13/12 A3000 RMK AO2,K14Y,2015-06-15T09:45:00Z,45.9,-94.87,13.0,12.0,340,3,,10.0,30.0,,,TRUE,TRUE,,,,,,,CLR,,,,,,,,VFR,,,,,,,,,,,,METAR,406.0
KJMR 150945Z AUTO 34004KT 10SM BKN041 OVC047 16/14 A2996 RMK AO2,KJMR,2015-06-15T09:45:00Z,45.88,-93.27,16.0,14.0,340,4,,10.0,29.958662,,,TRUE,TRUE,,,,,,,BKN,4100,OVC,4700,,,,,VFR,,,,,,,,,,,,METAR,309.0
KSWF 150945Z 20005KT 10SM OVC015 19/19 A2996,KSWF,2015-06-15T09:45:00Z,41.5,-74.08,19.0,19.0,200,5,,10.0,29.958662,,,,,,,,,,,OVC,1500,,,,,,,MVFR,,,,,,,,,,,,METAR,150.0
SBTU 150945Z /////KT CAVOK ///// Q1015,SBTU,2015-06-15T09:45:00Z,-3.78,-49.72,,,,,,6.21,29.970472,,,,,,,,,,,CAVOK,,,,,,,,VFR,,,,,,,,,,,,SPECI,40.0
LMML 150945Z 09013KT 9999 FEW015 27/20 Q1015 NOSIG,LMML,2015-06-15T09:45:00Z,35.85,14.47,27.0,20.0,90,13,,6.21,29.970472,,,,,,TRUE,,,,,FEW,1500,,,,,,,VFR,,,,,,,,,,,,METAR,91.0
CMGB 150945Z AUTO 00000KT 15/13 RMK AO1 SLP142 T01520126 55007,CMGB,2015-06-15T09:45:00Z,45.37,-72.77,15.2,12.6,0,0,,,,1014.2,,TRUE,TRUE,,,,,,,,,,,,,,,,-0.7,,,,,,,,,,,METAR,86.0
YSSY 150945Z 08004KT 060V140 9999 VCSH SCT007 BKN013 BKN040 15/15 Q1025 FM1015 08005KT 9999 FEW008 SCT015 BKN025 TEMPO 1015/1245 5000 SHRA BKN008,YSSY,2015-06-15T09:45:00Z,-33.95,151.17,15.0,15.0,80,4,,6.21,30.265747,,,,,,,,,,VCSH,SCT,700,BKN,1300,BKN,4000,,,MVFR,,,,,,,,,,,,METAR,3.0
CWPF 150945Z AUTO 36002KT 14/10 RMK AO1 T01360104,CWPF,2015-06-15T09:45:00Z,48.43,-123.43,13.6,10.4,360,2,,,,,,TRUE,TRUE,,,,,,,,,,,,,,,,,,,,,,,,,,,METAR,12.0
KMTN 150945Z 19003KT 10SM BR BKN150 24/24 A2999 RMK FIRST,KMTN,2015-06-15T09:45:00Z,39.32,-76.42,24.0,24.0,190,3,,10.0,29.991142,,,,,,,,,,BR,BKN,15000,,,,,,,VFR,,,,,,,,,,,,SPECI,7.0
MMQT 150945Z 00000KT 10SM SCT120 BKN250 15/13 A3017 RMK 8/038,MMQT,2015-06-15T09:45:00Z,20.62,-100.18,15.0,13.0,0,0,,10.0,30.171259,,,,,,,,,,,SCT,12000,BKN,25000,,,,,VFR,,,,,,,,,,,,METAR,1813.0
KGYY 150945Z 20006KT 10SM SCT008 BKN050 A2995 RMK FIRST,KGYY,2015-06-15T09:45:00Z,41.62,-87.42,,,200,6,,10.0,29.949802,,,,,,,,,,,SCT,800,BKN,5000,,,,,VFR,,,,,,,,,,,,METAR,180.0
LIRA 150945Z 19008KT 9000 FEW013 SCT020 23/18 Q1016,LIRA,2015-06-15T09:45:00Z,41.8,12.58,23.0,18.0,190,8,,5.59,30.0,,,,,,,,,,,FEW,1300,SCT,2000,,,,,VFR,,,,,,,,,,,,METAR,101.0
LIRP 150945Z 25009KT 9999 FEW020 SCT030 25/19 Q1014 NOSIG,LIRP,2015-06-15T09:45:00Z,43.67,10.37,25.0,19.0,250,9,,6.21,29.940945,,,,,,TRUE,,,,,FEW,2000,SCT,3000,,,,,VFR,,,,,,,,,,,,METAR,2.0
KCDD 150944Z AUTO 00000KT 5SM BR CLR 06/06 A2997 RMK AO2,KCDD,2015-06-15T09:44:00Z,48.27,-92.48,6.0,6.0,0,0,,5.0,29.970472,,,TRUE,TRUE,,,,,,BR,CLR,,,,,,,,MVFR,,,,,,,,,,,,METAR,341.0
RJTE 150944Z VRB04KT 8000 BKN006 BKN250 20/18 Q1007 RMK 5ST006 A2976,RJTE,2015-06-15T09:44:00Z,34.97,139.82,20.0,18.0,0,4,,4.97,29.734253,,,,,,,,,,,BKN,600,BKN,25000,,,,,IFR,,,,,,,,,,,,METAR,6.0
MMMZ 150943Z 17006KT 10SM SCT080 OVC200 27/23 A2973 RMK 8/077 HZY,MMMZ,2015-06-15T09:43:00Z,23.17,-106.27,27.0,23.0,170,6,,10.0,29.731298,,,,,,,,,,,SCT,8000,OVC,20000,,,,,VFR,,,,,,,,,,,,METAR,10.0
CYXR 150943Z AUTO 17004KT 9SM SCT007 OVC045 16/16 A2987 RMK SLP118 DENSITY ALT 1100FT,CYXR,2015-06-15T09:43:00Z,47.7,-79.83,16.0,16.0,170,4,,9.0,29.870079,1011.8,,TRUE,,,,,,,,SCT,700,OVC,4500,,,,,VFR,,,,,,,,,,,,SPECI,243.0
RJFK 150942Z VRB01KT 3000 SHRA BR FEW001 SCT002 BKN004 21/21 Q1009 RMK 1ST001 3ST002 5ST004 A2979,RJFK,2015-06-15T09:42:00Z,31.8,130.72,21.0,21.0,0,1,,1.86,29.793306,,,,,,,,,,SHRA BR,FEW,100,SCT,200,BKN,400,,,LIFR,,,,,,,,,,,,METAR,275.0
MMOX 150942Z 02004KT 7SM BKN090 16/12 A3013 RMK 8/030 ISOL CI,MMOX,2015-06-15T09:42:00Z,17.0,-96.72,16.0,12.0,20,4,,7.0,30.129921,,,,,,,,,,,BKN,9000,,,,,,,VFR,,,,,,,,,,,,METAR,1528.0
KW29 150942Z AUTO 17003KT 10SM 24/23 A2999 RMK AO1,KW29,2015-06-15T09:42:00Z,38.98,-76.33,24.0,23.0,170,3,,10.0,29.991142,,,TRUE,TRUE,,,,,,,,,,,,,,,,,,,,,,,,,,,METAR,15.0
KFME 150942Z AUTO 00000KT 2SM CLR 21/20 A3001 RMK AO1,KFME,2015-06-15T09:42:00Z,39.08,-76.77,21.0,20.0,0,0,,2.0,30.008858,,,TRUE,TRUE,,,,,,,CLR,,,,,,,,IFR,,,,,,,,,,,,METAR,46.0
KCBE 150942Z AUTO 00000KT 7SM SCT008 BKN013 BKN018 22/22 A3007 RMK AO1,KCBE,2015-06-15T09:42:00Z,39.62,-78.77,22.0,22.0,0,0,,7.0,30.070866,,,TRUE,TRUE,,,,,,,SCT,800,BKN,1300,BKN,1800,,,MVFR,,,,,,,,,,,,METAR,236.0
RJCK 150941Z 20005KT 4900 R17/P1800N PRFG BR FEW001 SCT003 BKN120 13/12 Q1006 RMK 1ST001 3ST003 6AC120 A2973 1000S FG SE-W,RJCK,2015-06-15T09:41:00Z,43.02,144.18,13.0,12.0,200,5,,3.04,29.704725,,,,,,,,,,PRFG BR,FEW,100,SCT,300,BKN,12000,,,MVFR,,,,,,,,,,,,METAR,98.0
KORB 150941Z AUTO 15000KT 7SM CLR 08/07 A2995 RMK AO2,KORB,2015-06-15T09:41:00Z,48.02,-92.87,8.0,7.0,150,0,,7.0,29.949802,,,TRUE,TRUE,,,,,,,CLR,,,,,,,,VFR,,,,,,,,,,,,METAR,397.0
RJOS 150941Z 14011KT 9999 FEW012 SCT040 BKN230 22/21 Q1007 RMK 1CU012 4SC040 A2976,RJOS,2015-06-15T09:41:00Z,34.12,134.62,22.0,21.0,140,11,,6.21,29.734253,,,,,,,,,,,FEW,1200,SCT,4000,BKN,23000,,,VFR,,,,,,,,,,,,SPECI,11.0
K2W6 150941Z AUTO 22003KT 10SM CLR 22/21 A3001 RMK AO1,K2W6,2015-06-15T09:41:00Z,38.32,-76.55,22.0,21.0,220,3,,10.0,30.008858,,,TRUE,TRUE,,,,,,,CLR,,,,,,,,VFR,,,,,,,,,,,,METAR,44.0
K8S0 150940Z 04003KT ,K8S0,2015-06-15T09:40:00Z,48.6,-113.12,,,40,3,,,,,,,,,,,,,,,,,,,,,,,,,,,,,,,,,,METAR,1419.0
MMTJ 150940Z 33003KT 6SM OVC013 18/14 A2984 RMK 8/5// HZY,MMTJ,2015-06-15T09:40:00Z,32.53,-116.97,18.0,14.0,330,3,,6.0,29.840551,,,,,,,,,,,OVC,1300,,,,,,,MVFR,,,,,,,,,,,,METAR,152.0
MMPR 150940Z 00000KT 6SM -TSRA BKN015CB OVC070 25/25 A2977 RMK 60165 8/97/ TS FQT -RA OCNL,MMPR,2015-06-15T09:40:00Z,20.67,-105.25,25.0,25.0,0,0,,6.0,29.769686,,,,,,,,,,-TSRA,BKN,1500,OVC,7000,,,,,MVFR,,,,,,,1.65,,,,,METAR,6.0
VANP 150940Z 20009KT 1500 -TSRA SCT015 FEW030CB BKN080 25/23 Q1002 TEMPO 0800 TSRA,VANP,2015-06-15T09:40:00Z,21.08,79.05,25.0,23.0,200,9,,0.93,29.586615,,,,,,,,,,-TSRA,SCT,1500,FEW,3000,BKN,8000,,,LIFR,,,,,,,,,,,,METAR,310.0
MMMY 150940Z 08004KT 10SM BKN008 OVC015 24/21 A2984 RMK 8/5//,MMMY,2015-06-15T09:40:00Z,25.77,-100.08,24.0,21.0,80,4,,10.0,29.840551,,,,,,,,,,,BKN,800,OVC,1500,,,,,IFR,,,,,,,,,,,,METAR,387.0
CYKF 150940Z AUTO 00000KT 1/8SM FG VV002 18/17 A2993 RMK SLP132 DENSITY ALT 1500FT,CYKF,2015-06-15T09:40:00Z,43.47,-80.38,18.0,17.0,0,0,,0.13,29.929134,1013.2,,TRUE,,,,,,,FG,OVX,0,,,,,,,LIFR,,,,,,,,,,,200,SPECI,317.0
VOTV 150940Z 24009KT 4000 HZ SCT015 FEW025CB BKN090 30/25 Q1005 NOSIG,VOTV,2015-06-15T09:40:00Z,8.47,76.95,30.0,25.0,240,9,,2.49,29.675198,,,,,,TRUE,,,,HZ,SCT,1500,FEW,2500,BKN,9000,,,IFR,,,,,,,,,,,,METAR,8.0
VOTR 150940Z 31006KT 8000 FEW016 35/22 Q1003 NOSIG,VOTR,2015-06-15T09:40:00Z,10.77,78.72,35.0,22.0,310,6,,4.97,29.616142,,,,,,TRUE,,,,,FEW,1600,,,,,,,MVFR,,,,,,,,,,,,METAR,88.0
VOMM 150940Z 29008KT 8000 SCT020 SCT100 36/22 Q1001 NOSIG,VOMM,2015-06-15T09:40:00Z,13.0,80.17,36.0,22.0,290,8,,4.97,29.557087,,,,,,TRUE,,,,,SCT,2000,SCT,10000,,,,,MVFR,,,,,,,,,,,,METAR,16.0
VOHS 150940Z 30010KT 5000 HZ SCT015 SCT025 29/22 Q1005 NOSIG,VOHS,2015-06-15T09:40:00Z,17.23,78.43,29.0,22.0,300,10,,3.11,29.675198,,,,,,TRUE,,,,HZ,SCT,1500,SCT,2500,,,,,MVFR,,,,,,,,,,,,METAR,1.0
VABB 150940Z 20008KT 3000 HZ FEW012 SCT018 FEW025TCU BKN090 29/26 Q1005 NOSIG,VABB,2015-06-15T09:40:00Z,19.1,72.87,29.0,26.0,200,8,,1.86,29.675198,,,,,,TRUE,,,,HZ,FEW,1200,SCT,1800,FEW,2500,BKN,9000,IFR,,,,,,,,,,,,METAR,8.0
VAAH 150940Z 23005KT 5000 FU SCT020 SCT025 40/24 Q1000 NOSIG,VAAH,2015-06-15T09:40:00Z,23.07,72.62,40.0,24.0,230,5,,3.11,29.52756,,,,,,TRUE,,,,FU,SCT,2000,SCT,2500,,,,,MVFR,,,,,,,,,,,,METAR,55.0
KFDK 150940Z AUTO 33007G14KT 5SM TS BR SCT007 SCT036 BKN048 22/22 A3006 RMK AO2 LTG DSNT W THRU NE,KFDK,2015-06-15T09:40:00Z,39.42,-77.37,22.0,22.0,330,7,14,5.0,30.059055,,,TRUE,TRUE,,,,,,TS BR,SCT,700,SCT,3600,BKN,4800,,,MVFR,,,,,,,,,,,,METAR,92.0
KDMW 150940Z AUTO 32006KT 10SM VCTS SCT075 SCT100 22/21 A3003 RMK AO2 LTG DSNT W,KDMW,2015-06-15T09:40:00Z,39.6,-77.0,22.0,21.0,320,6,,10.0,30.029528,,,TRUE,TRUE,,,,,,VCTS,SCT,7500,SCT,10000,,,,,VFR,,,,,,,,,,,,METAR,241.0
KCGS 150940Z AUTO 00000KT 4SM SCT120 23/23 A2999 RMK AO1,KCGS,2015-06-15T09:40:00Z,38.98,-76.92,23.0,23.0,0,0,,4.0,29.991142,,,TRUE,TRUE,,,,,,,SCT,12000,,,,,,,MVFR,,,,,,,,,,,,METAR,15.0
K2G4 150940Z AUTO 25007KT 3SM BR BKN002 BKN007 OVC012 18/ A3013 RMK AO1,K2G4,2015-06-15T09:40:00Z,39.58,-79.33,18.0,,250,7,,3.0,30.129921,,,TRUE,TRUE,,,,,,BR,BKN,200,BKN,700,OVC,1200,,,LIFR,,,,,,,,,,,,METAR,894.0
CWZQ 150940Z AUTO 03005KT 09/05 RMK AO1 T00850051,CWZQ,2015-06-15T09:40:00Z,46.53,-61.05,8.5,5.1,30,5,,,,,,TRUE,TRUE,,,,,,,,,,,,,,,,,,,,,,,,,,,METAR,17.0
K04V 150939Z AUTO 30006KT 10SM CLR 07/05 A3029 RMK AO2,K04V,2015-06-15T09:39:00Z,38.1,-106.17,7.0,5.0,300,6,,10.0,30.28937,,,TRUE,TRUE,,,,,,,CLR,,,,,,,,VFR,,,,,,,,,,,,METAR,2385.0
CYPH 150939Z AUTO 18010G18KT 6SM -RA BR FEW006 OVC012 07/06 A2954 RMK SLP004,CYPH,2015-06-15T09:39:00Z,58.45,-78.08,7.0,6.0,180,10,18,6.0,29.53937,1000.4,,TRUE,,,,,,,-RA BR,FEW,600,OVC,1200,,,,,MVFR,,,,,,,,,,,,SPECI,3.0
KCGE 150939Z AUTO 00000KT 10SM CLR 25/22 A2999 RMK AO1,KCGE,2015-06-15T09:39:00Z,38.53,-76.03,25.0,22.0,0,0,,10.0,29.991142,,,TRUE,TRUE,,,,,,,CLR,,,,,,,,VFR,,,,,,,,,,,,METAR,6.0
EBLB 150938Z 06007KT 4400 BR BKN007 11/09 Q1019 GRN GRN TEMPO YLO,EBLB,2015-06-15T09:38:00Z,50.47,6.17,11.0,9.0,60,7,,2.73,30.088583,,,,,,,,,,BR,BKN,700,,,,,,,IFR,,,,,,,,,,,,METAR,570.0
ETHA 150938Z 31005KT 9999 -RA FEW010 BKN030 OVC070 15/14 Q1015 BLU BLU TEMPO WHT,ETHA,2015-06-15T09:38:00Z,47.82,10.87,15.0,14.0,310,5,,6.21,29.970472,,,,,,,,,,-RA,FEW,1000,BKN,3000,OVC,7000,,,MVFR,,,,,,,,,,,,SPECI,760.0
KBKT 150937Z AUTO 22003KT 10SM CLR 21/21 A3005 RMK AO2,KBKT,2015-06-15T09:37:00Z,37.07,-77.95,21.0,21.0,220,3,,10.0,30.050198,,,TRUE,TRUE,,,,,,,CLR,,,,,,,,VFR,,,,,,,,,,,,METAR,134.0
KD60 150935Z AUTO 28006KT 10SM CLR 06/06 A3021 RMK AO2,KD60,2015-06-15T09:35:00Z,48.38,-102.9,6.0,6.0,280,6,,10.0,30.209646,,,TRUE,TRUE,,,,,,,CLR,,,,,,,,VFR,,,,,,,,,,,,METAR,693.0
KHXD 150935Z AUTO 21003KT 10SM CLR 25/20 A3010 RMK AO2 P0000,KHXD,2015-06-15T09:35:00Z,32.22,-80.7,25.0,20.0,210,3,,10.0,30.100393,,,TRUE,TRUE,,,,,,,CLR,,,,,,,,VFR,,,,,,0.0050,,,,,,METAR,6.0
KTKV 150935Z AUTO 00000KT 1/2SM FG BKN001 10/10 A2993 RMK AO2 T01020098,KTKV,2015-06-15T09:35:00Z,45.47,-89.82,10.2,9.8,0,0,,0.5,29.929134,,,TRUE,TRUE,,,,,,FG,BKN,100,,,,,,,LIFR,,,,,,,,,,,,SPECI,453.0
KADU 150935Z AUTO 13003KT 10SM BKN095 19/18 A2991 RMK AO2,KADU,2015-06-15T09:35:00Z,41.7,-94.92,19.0,18.0,130,3,,10.0,29.911417,,,TRUE,TRUE,,,,,,,BKN,9500,,,,,,,VFR,,,,,,,,,,,,SPECI,392.0
K28J 150935Z AUTO 00000KT 3/4SM BR VV005 18/18 A3011 RMK AO2 TSNO,K28J,2015-06-15T09:35:00Z,29.65,-81.58,18.0,18.0,0,0,,0.75,30.109253,,,TRUE,TRUE,,,TRUE,,,BR,OVX,0,,,,,,,LIFR,,,,,,,,,,,500,METAR,15.0
KVQQ 150935Z AUTO 00000KT M1/4SM FG VV000 17/17 A3010 RMK AO2,KVQQ,2015-06-15T09:35:00Z,30.22,-81.88,17.0,17.0,0,0,,0.25,30.100393,,,TRUE,TRUE,,,,,,FG,OVX,0,,,,,,,LIFR,,,,,,,,,,,0,METAR,25.0
KFYG 150935Z AUTO 00000KT 10SM CLR 23/22 A2997 RMK AO2,KFYG,2015-06-15T09:35:00Z,38.58,-91.0,23.0,22.0,0,0,,10.0,29.970472,,,TRUE,TRUE,,,,,,,CLR,,,,,,,,VFR,,,,,,,,,,,,METAR,149.0
KO22 150935Z AUTO 00000KT 10SM CLR 14/05 A2982 RMK AO1,KO22,2015-06-15T09:35:00Z,38.03,-120.42,14.0,5.0,0,0,,10.0,29.819881,,,TRUE,TRUE,,,,,,,CLR,,,,,,,,VFR,,,,,,,,,,,,METAR,646.0
K4A6 150935Z AUTO 00000KT 10SM CLR 20/20 A3013 RMK AO2,K4A6,2015-06-15T09:35:00Z,34.68,-86.0,20.0,20.0,0,0,,10.0,30.129921,,,TRUE,TRUE,,,,,,,CLR,,,,,,,,VFR,,,,,,,,,,,,METAR,198.0
KSNC 150935Z AUTO 14008KT 1 3/4SM +RA OVC001 17/17 A3005 RMK AO2 P0021,KSNC,2015-06-15T09:35:00Z,41.38,-72.5,17.0,17.0,140,8,,1.75,30.050198,,,TRUE,TRUE,,,,,,+RA,OVC,100,,,,,,,LIFR,,,,,,0.21,,,,,,SPECI,127.0
K2J9 150935Z AUTO 00000KT 10SM 20/20 A3011 RMK AO1,K2J9,2015-06-15T09:35:00Z,30.6,-84.55,20.0,20.0,0,0,,10.0,30.109253,,,TRUE,TRUE,,,,,,,,,,,,,,,,,,,,,,,,,,,SPECI,69.0
KVNC 150935Z AUTO 08006KT 10SM CLR 24/23 A3006 RMK AO2,KVNC,2015-06-15T09:35:00Z,27.07,-82.43,24.0,23.0,80,6,,10.0,30.059055,,,TRUE,TRUE,,,,,,,CLR,,,,,,,,VFR,,,,,,,,,,,,SPECI,6.0
KUOX 150935Z AUTO 15003KT 10SM CLR 21/20 A3009 RMK AO2 PWINO PNO,KUOX,2015-06-15T09:35:00Z,34.38,-89.53,21.0,20.0,150,3,,10.0,30.088583,,,TRUE,TRUE,,,,,TRUE,,CLR,,,,,,,,VFR,,,,,,,,,,,,SPECI,137.0
KY19 150935Z AUTO 32006KT 10SM FEW040 12/07 A3013 RMK AO2,KY19,2015-06-15T09:35:00Z,46.77,-100.9,12.0,7.0,320,6,,10.0,30.129921,,,TRUE,TRUE,,,,,,,FEW,4000,,,,,,,VFR,,,,,,,,,,,,METAR,593.0
KSPF 150935Z AUTO 10004KT 10SM -RA FEW035 OVC055 13/13 A3019 RMK AO2,KSPF,2015-06-15T09:35:00Z,44.47,-103.77,13.0,13.0,100,4,,10.0,30.188976,,,TRUE,TRUE,,,,,,-RA,FEW,3500,OVC,5500,,,,,VFR,,,,,,,,,,,,METAR,1188.0
KBWD 150935Z AUTO 15004KT 10SM BKN016 OVC055 22/22 A2995 RMK AO2,KBWD,2015-06-15T09:35:00Z,31.8,-98.95,22.0,22.0,150,4,,10.0,29.949802,,,TRUE,TRUE,,,,,,,BKN,1600,OVC,5500,,,,,MVFR,,,,,,,,,,,,METAR,423.0
K9D7 150935Z AUTO 30008KT 10SM CLR 09/07 A3007 RMK AO2,K9D7,2015-06-15T09:35:00Z,48.48,-99.23,9.0,7.0,300,8,,10.0,30.070866,,,TRUE,TRUE,,,,,,,CLR,,,,,,,,VFR,,,,,,,,,,,,METAR,452.0
K20U 150935Z AUTO 33004KT 10SM BKN090 06/06 A3021 RMK AO2,K20U,2015-06-15T09:35:00Z,46.93,-103.98,6.0,6.0,330,4,,10.0,30.209646,,,TRUE,TRUE,,,,,,,BKN,9000,,,,,,,VFR,,,,,,,,,,,,METAR,840.0
KSRR 150935Z AUTO 00000KT 10SM CLR 14/08 A3021 RMK AO2,KSRR,2015-06-15T09:35:00Z,33.47,-105.52,14.0,8.0,0,0,,10.0,30.209646,,,TRUE,TRUE,,,,,,,CLR,,,,,,,,VFR,,,,,,,,,,,,METAR,2076.0
KBXK 150935Z AUTO 25005KT 10SM 27/06 A2971 RMK AO1,KBXK,2015-06-15T09:35:00Z,33.42,-112.68,27.0,6.0,250,5,,10.0,29.71063,,,TRUE,TRUE,,,,,,,,,,,,,,,,,,,,,,,,,,,METAR,315.0
SBDN 150935Z 23015KT 9000 -RA BKN007 OVC025 17/16 Q1014 RERA,SBDN,2015-06-15T09:35:00Z,-22.18,-51.43,17.0,16.0,230,15,,5.59,29.940945,,,,,,,,,,-RA,BKN,700,OVC,2500,,,,,IFR,,,,,,,,,,,,METAR,435.0
KVVG 150935Z AUTO 00000KT 10SM A2999 RMK A01,KVVG,2015-06-15T09:35:00Z,28.95,-81.97,,,0,0,,10.0,29.991142,,,TRUE,TRUE,,,,,,,,,,,,,,,,,,,,,,,,,,,METAR,27.0
KUNI 150935Z AUTO 00000KT 10SM CLR 22/19 A3006 RMK AO2 T02200190,KUNI,2015-06-15T09:35:00Z,39.22,-82.23,22.0,19.0,0,0,,10.0,30.059055,,,TRUE,TRUE,,,,,,,CLR,,,,,,,,VFR,,,,,,,,,,,,METAR,193.0
KRCE 150935Z AUTO 22004KT 10SM 19/19 A2996 RMK AO2,KRCE,2015-06-15T09:35:00Z,35.48,-97.82,19.0,19.0,220,4,,10.0,29.958662,,,TRUE,TRUE,,,,,,,,,,,,,,,,,,,,,,,,,,,METAR,413.0
KPYX 150935Z AUTO 16003KT 10SM SCT032 SCT048 17/16 A3001 RMK AO2 T01700160,KPYX,2015-06-15T09:35:00Z,36.42,-100.75,17.0,16.0,160,3,,10.0,30.008858,,,TRUE,TRUE,,,,,,,SCT,3200,SCT,4800,,,,,VFR,,,,,,,,,,,,METAR,889.0
KPNA 150935Z AUTO 27004KT 10SM CLR 05/02 A3022 RMK AO2,KPNA,2015-06-15T09:35:00Z,42.8,-109.8,5.0,2.0,270,4,,10.0,30.221457,,,TRUE,TRUE,,,,,,,CLR,,,,,,,,VFR,,,,,,,,,,,,METAR,2160.0
KMER 150935Z AUTO 28009KT 10SM CLR 17/09 A2976 RMK AO1,KMER,2015-06-15T09:35:00Z,37.38,-120.57,17.0,9.0,280,9,,10.0,29.760826,,,TRUE,TRUE,,,,,,,CLR,,,,,,,,VFR,,,,,,,,,,,,METAR,57.0
KMDZ 150935Z AUTO 00000KT 5SM BR CLR 14/14 A2992 RMK AO2 T01440143,KMDZ,2015-06-15T09:35:00Z,45.1,-90.3,14.4,14.3,0,0,,5.0,29.920275,,,TRUE,TRUE,,,,,,BR,CLR,,,,,,,,MVFR,,,,,,,,,,,,METAR,448.0
KHRX 150935Z AUTO 10SM CLR 16/16 A3004 RMK AO2 T01600155,KHRX,2015-06-15T09:35:00Z,34.87,-102.33,16.0,15.5,,,,10.0,30.041338,,,TRUE,TRUE,,,,,,,CLR,,,,,,,,VFR,,,,,,,,,,,,METAR,1154.0
KHII 150935Z AUTO 00000KT 10SM CLR 33/08 A2967 RMK AO2,KHII,2015-06-15T09:35:00Z,34.57,-114.37,33.0,8.0,0,0,,10.0,29.66929,,,TRUE,TRUE,,,,,,,CLR,,,,,,,,VFR,,,,,,,,,,,,METAR,238.0
KHBV 150935Z AUTO 34003KT 4SM BR 23/22 A2988 RMK AO2 T02330224,KHBV,2015-06-15T09:35:00Z,27.35,-98.73,23.3,22.4,340,3,,4.0,29.878937,,,TRUE,TRUE,,,,,,BR,,,,,,,,,,,,,,,,,,,,,METAR,202.0
KGOP 150935Z AUTO 14003KT 5SM BR CLR 23/23 A2997 RMK AO2,KGOP,2015-06-15T09:35:00Z,31.42,-97.8,23.0,23.0,140,3,,5.0,29.970472,,,TRUE,TRUE,,,,,,BR,CLR,,,,,,,,MVFR,,,,,,,,,,,,METAR,276.0
KD50 150935Z AUTO 31010KT 10SM CLR 07/07 A3019 RMK AO2,KD50,2015-06-15T09:35:00Z,48.93,-103.3,7.0,7.0,310,10,,10.0,30.188976,,,TRUE,TRUE,,,,,,,CLR,,,,,,,,VFR,,,,,,,,,,,,METAR,595.0
KASJ 150935Z AUTO 00000KT 3SM BR CLR 21/21 A3004 RMK AO2 T02080205,KASJ,2015-06-15T09:35:00Z,36.28,-77.17,20.8,20.5,0,0,,3.0,30.041338,,,TRUE,TRUE,,,,,,BR,CLR,,,,,,,,MVFR,,,,,,,,,,,,METAR,21.0
KARV 150935Z AUTO 00000KT 10SM CLR 13/12 A2993 RMK AO2 T01250115,KARV,2015-06-15T09:35:00Z,45.92,-89.72,12.5,11.5,0,0,,10.0,29.929134,,,TRUE,TRUE,,,,,,,CLR,,,,,,,,VFR,,,,,,,,,,,,METAR,496.0
K7L2 150935Z AUTO 36005KT 10SM CLR 12/11 A3010 RMK AO2,K7L2,2015-06-15T09:35:00Z,46.22,-100.25,12.0,11.0,360,5,,10.0,30.100393,,,TRUE,TRUE,,,,,,,CLR,,,,,,,,VFR,,,,,,,,,,,,METAR,543.0
CYCB 150934Z 32011KT 15SM FEW005 OVC025 01/M00 A3002 RMK CF2SC6 SLP167,CYCB,2015-06-15T09:34:00Z,69.08,-105.12,1.0,0.0,320,11,,15.0,30.02067,1016.7,,,,,,,,,,FEW,500,OVC,2500,,,,,MVFR,,,,,,,,,,,,SPECI,27.0
CYVM 150934Z AUTO VRB02KT 9SM OVC010 01/M01 A2991 RMK SLP128,CYVM,2015-06-15T09:34:00Z,67.53,-64.02,1.0,-1.0,0,2,,9.0,29.911417,1012.8,,TRUE,,,,,,,,OVC,1000,,,,,,,MVFR,,,,,,,,,,,,SPECI,6.0
RJFT 150934Z 06005KT 4500 -SHRA BR FEW007 BKN010 BKN015 20/20 Q1008 RMK 2ST007 5CU010 7CU015 A2977,RJFT,2015-06-15T09:34:00Z,32.82,130.83,20.0,20.0,60,5,,2.8,29.763779,,,,,,,,,,-SHRA BR,FEW,700,BKN,1000,BKN,1500,,,IFR,,,,,,,,,,,,SPECI,196.0
RJFY 150933Z 23012G22KT 4000 -SHRA BR FEW001 SCT005 BKN008 23/22 Q1008 RMK 1ST001 3ST005 5ST008 A2978,RJFY,2015-06-15T09:33:00Z,31.37,130.82,23.0,22.0,230,12,22,2.49,29.763779,,,,,,,,,,-SHRA BR,FEW,100,SCT,500,BKN,800,,,IFR,,,,,,,,,,,,METAR,68.0
EGVO 150933Z 06006KT 9999 FEW026 BKN060 14/07 Q1022 BLU NOSIG,EGVO,2015-06-15T09:33:00Z,51.23,-0.95,14.0,7.0,60,6,,6.21,30.177166,,,,,,TRUE,,,,,FEW,2600,BKN,6000,,,,,VFR,,,,,,,,,,,,SPECI,123.0
FALA 150932Z VRB04KT CAVOK 20/M01 Q1026 NOSIG,FALA,2015-06-15T09:32:00Z,-25.92,27.92,20.0,-1.0,0,4,,6.21,30.295275,,,,,,TRUE,,,,,CAVOK,,,,,,,,VFR,,,,,,,,,,,,SPECI,1377.0
LEBL 150932Z 12010KT 090V160 9999 TS FEW025 FEW030CB 23/17 Q1015 BECMG TSRA SCT030CB,LEBL,2015-06-15T09:32:00Z,41.27,2.07,23.0,17.0,120,10,,6.21,29.970472,,,,,,,,,,TS,FEW,2500,FEW,3000,,,,,VFR,,,,,,,,,,,,SPECI,6.0
BIKF 150931Z 11020KT 9999 BKN028 11/03 Q1011,BIKF,2015-06-15T09:31:00Z,63.98,-22.6,11.0,3.0,110,20,,6.21,29.852362,,,,,,,,,,,BKN,2800,,,,,,,MVFR,,,,,,,,,,,,METAR,54.0
LFBH 150930Z AUTO 36009KT 7000 OVC006 15/14 Q1018,LFBH,2015-06-15T09:30:00Z,46.18,-1.2,15.0,14.0,360,9,,4.35,30.059055,,,TRUE,,,,,,,,OVC,600,,,,,,,IFR,,,,,,,,,,,,METAR,10.0
LFBD 150930Z AUTO 31008KT 280V340 9999 FEW025 BKN034 BKN048 19/13 Q1018,LFBD,2015-06-15T09:30:00Z,44.82,-0.7,19.0,13.0,310,8,,6.21,30.059055,,,TRUE,,,,,,,,FEW,2500,BKN,3400,BKN,4800,,,VFR,,,,,,,,,,,,METAR,61.0
LFBI 150930Z AUTO 02008KT 9000 -RA OVC007/// ///TCU 15/14 Q1017,LFBI,2015-06-15T09:30:00Z,46.57,0.32,15.0,14.0,20,8,,5.59,30.029528,,,TRUE,,,,,,,-RA,,,,,,,,,,,,,,,,,,,,,METAR,120.0
LFBL 150930Z AUTO 23006KT 210V280 9999 BKN011 BKN018 OVC026 15/15 Q1017,LFBL,2015-06-15T09:30:00Z,45.87,1.17,15.0,15.0,230,6,,6.21,30.029528,,,TRUE,,,,,,,,BKN,1100,BKN,1800,OVC,2600,,,MVFR,,,,,,,,,,,,METAR,402.0
LFBO 150930Z AUTO 24005KT 170V300 9999 BKN024 BKN030 BKN046 20/14 Q1018,LFBO,2015-06-15T09:30:00Z,43.62,1.37,20.0,14.0,240,5,,6.21,30.059055,,,TRUE,,,,,,,,BKN,2400,BKN,3000,BKN,4600,,,MVFR,,,,,,,,,,,,METAR,153.0
LFBP 150930Z AUTO VRB02KT 9999 SCT024 SCT030 OVC052 19/13 Q1018,LFBP,2015-06-15T09:30:00Z,43.37,-0.42,19.0,13.0,0,2,,6.21,30.059055,,,TRUE,,,,,,,,SCT,2400,SCT,3000,OVC,5200,,,VFR,,,,,,,,,,,,METAR,185.0
LFBZ 150930Z AUTO 32007KT 9999 FEW020/// BKN056/// OVC088/// ///CB 17/14 Q1019,LFBZ,2015-06-15T09:30:00Z,43.47,-1.52,17.0,14.0,320,7,,6.21,30.088583,,,TRUE,,,,,,,,,,,,,,,,,,,,,,,,,,,,METAR,71.0
LFBT 150930Z AUTO VRB02KT 9999 FEW015 OVC049 17/13 Q1019,LFBT,2015-06-15T09:30:00Z,43.17,0.0,17.0,13.0,0,2,,6.21,30.088583,,,TRUE,,,,,,,,FEW,1500,OVC,4900,,,,,VFR,,,,,,,,,,,,METAR,363.0
LFCK 150930Z AUTO 30004KT 270V340 9999 FEW020 BKN029 OVC035 17/13 Q1019,LFCK,2015-06-15T09:30:00Z,43.55,2.28,17.0,13.0,300,4,,6.21,30.088583,,,TRUE,,,,,,,,FEW,2000,BKN,2900,OVC,3500,,,MVFR,,,,,,,,,,,,METAR,240.0
LFLB 150930Z VRB02KT 9999 FEW023 SCT053 BKN100 21/16 Q1015 TEMPO SHRA,LFLB,2015-06-15T09:30:00Z,45.63,5.87,21.0,16.0,0,2,,6.21,29.970472,,,,,,,,,,,FEW,2300,SCT,5300,BKN,10000,,,VFR,,,,,,,,,,,,METAR,239.0
LFLX 150930Z 01006KT 9999 -RA BKN007 OVC046 17/15 Q1017 NOSIG,LFLX,2015-06-15T09:30:00Z,46.85,1.72,17.0,15.0,10,6,,6.21,30.029528,,,,,,TRUE,,,,-RA,BKN,700,OVC,4600,,,,,IFR,,,,,,,,,,,,METAR,157.0
LFML 150930Z 27007KT 9999 FEW016 24/15 Q1014 NOSIG,LFML,2015-06-15T09:30:00Z,43.45,5.22,24.0,15.0,270,7,,6.21,29.940945,,,,,,TRUE,,,,,FEW,1600,,,,,,,VFR,,,,,,,,,,,,METAR,36.0
LFBA 150930Z AUTO VRB02KT 9999 BKN019 OVC040 20/15 Q1018,LFBA,2015-06-15T09:30:00Z,44.17,0.6,20.0,15.0,0,2,,6.21,30.059055,,,TRUE,,,,,,,,BKN,1900,OVC,4000,,,,,MVFR,,,,,,,,,,,,METAR,60.0
LFBE 150930Z AUTO 20003KT 160V250 9999 OVC022 18/14 Q1017,LFBE,2015-06-15T09:30:00Z,44.82,0.52,18.0,14.0,200,3,,6.21,30.029528,,,TRUE,,,,,,,,OVC,2200,,,,,,,MVFR,,,,,,,,,,,,METAR,52.0
EIWF 150930Z 16004KT 130V240 CAVOK 15/08 Q1022,EIWF,2015-06-15T09:30:00Z,52.18,-7.08,15.0,8.0,160,4,,6.21,30.177166,,,,,,,,,,,CAVOK,,,,,,,,VFR,,,,,,,,,,,,METAR,36.0
EIME 150930Z 25005KT 9999 FEW035 BKN090 15/06 Q1021,EIME,2015-06-15T09:30:00Z,53.3,-6.45,15.0,6.0,250,5,,6.21,30.147638,,,,,,,,,,,FEW,3500,BKN,9000,,,,,VFR,,,,,,,,,,,,METAR,93.0
EIKY 150930Z 31003KT 220V020 CAVOK 15/11 Q1021,EIKY,2015-06-15T09:30:00Z,52.18,-9.52,15.0,11.0,310,3,,6.21,30.147638,,,,,,,,,,,CAVOK,,,,,,,,VFR,,,,,,,,,,,,METAR,34.0
UKKM 150930Z 23004MPS 210V270 CAVOK 29/14 Q1010 33CLRD70 NOSIG,UKKM,2015-06-15T09:30:00Z,50.6,30.2,29.0,14.0,230,8,,6.21,29.822834,,,,,,TRUE,,,,,CAVOK,,,,,,,,VFR,,,,,,,,,,,,METAR,157.0
UKKK 150930Z 27005MPS CAVOK 28/16 Q1010 26CLRD70 NOSIG,UKKK,2015-06-15T09:30:00Z,50.4,30.45,28.0,16.0,270,10,,6.21,29.822834,,,,,,TRUE,,,,,CAVOK,,,,,,,,VFR,,,,,,,,,,,,METAR,179.0
UKLU 150930Z 12003MPS 9999 FEW033CB SCT033 BKN100 23/17 Q1012 10090070 TEMPO VRB09G14MPS 2000 -TSRA SCT007 BKN015CB,UKLU,2015-06-15T09:30:00Z,48.63,22.27,23.0,17.0,120,6,,6.21,29.88189,,,,,,,,,,,FEW,3300,SCT,3300,BKN,10000,,,VFR,,9.0,,,,,,,,,,METAR,117.0
UKLI 150930Z 26003MPS 180V310 9999 FEW030CB BKN100 27/17 Q1011 NOSIG,UKLI,2015-06-15T09:30:00Z,48.88,24.68,27.0,17.0,260,6,,6.21,29.852362,,,,,,TRUE,,,,,FEW,3000,BKN,10000,,,,,VFR,,,,,,,,,,,,METAR,280.0
UKLR 150930Z VRB01MPS 9999 SCT030CB BKN100 27/18 Q1009 NOSIG,UKLR,2015-06-15T09:30:00Z,50.6,26.13,27.0,18.0,0,2,,6.21,29.793306,,,,,,TRUE,,,,,SCT,3000,BKN,10000,,,,,VFR,,,,,,,,,,,,METAR,230.0
LFQG 150930Z AUTO 33008KT 9999 -RA BKN010 BKN014 OVC066 17/15 Q1016,LFQG,2015-06-15T09:30:00Z,47.0,3.1,17.0,15.0,330,8,,6.21,30.0,,,TRUE,,,,,,,-RA,BKN,1000,BKN,1400,OVC,6600,,,MVFR,,,,,,,,,,,,METAR,181.0
VVPQ 150930Z 27009KT 240V310 9999 FEW017 30/24 Q1006 NOSIG,VVPQ,2015-06-15T09:30:00Z,10.23,103.97,30.0,24.0,270,9,,6.21,29.704725,,,,,,TRUE,,,,,FEW,1700,,,,,,,VFR,,,,,,,,,,,,METAR,4.0
VVCT 150930Z 16005KT 8000 -RA SCT015 FEW017CB BKN040 26/25 Q1006 NOSIG,VVCT,2015-06-15T09:30:00Z,10.08,105.72,26.0,25.0,160,5,,4.97,29.704725,,,,,,TRUE,,,,-RA,SCT,1500,FEW,1700,BKN,4000,,,MVFR,,,,,,,,,,,,METAR,3.0
VVCR 150930Z 13009KT 9999 FEW015 32/25 Q1006 NOSIG,VVCR,2015-06-15T09:30:00Z,12.0,109.22,32.0,25.0,130,9,,6.21,29.704725,,,,,,TRUE,,,,,FEW,1500,,,,,,,VFR,,,,,,,,,,,,METAR,12.0
VVPB 150930Z 10007KT 9999 FEW017CB SCT070 34/23 Q1005 NOSIG,VVPB,2015-06-15T09:30:00Z,16.38,107.7,34.0,23.0,100,7,,6.21,29.675198,,,,,,TRUE,,,,,FEW,1700,SCT,7000,,,,,VFR,,,,,,,,,,,,METAR,17.0
VVDN 150930Z 13009KT 080V150 9999 FEW017TCU 31/26 Q1005 NOSIG,VVDN,2015-06-15T09:30:00Z,16.02,108.2,31.0,26.0,130,9,,6.21,29.675198,,,,,,TRUE,,,,,FEW,1700,,,,,,,VFR,,,,,,,,,,,,METAR,7.0
VVNB 150930Z 10009KT 9999 FEW023 BKN160 32/26 Q1003 NOSIG,VVNB,2015-06-15T09:30:00Z,21.22,105.8,32.0,26.0,100,9,,6.21,29.616142,,,,,,TRUE,,,,,FEW,2300,BKN,16000,,,,,VFR,,,,,,,,,,,,METAR,12.0
VVTS 150930Z 20007KT 160V230 8000 -RA SCT015 BKN040 26/23 Q1005 NOSIG,VVTS,2015-06-15T09:30:00Z,10.82,106.67,26.0,23.0,200,7,,4.97,29.675198,,,,,,TRUE,,,,-RA,SCT,1500,BKN,4000,,,,,MVFR,,,,,,,,,,,,METAR,19.0
VMMC 150930Z 19008KT 9999 FEW025 31/25 Q1007 NOSIG,VMMC,2015-06-15T09:30:00Z,22.15,113.58,31.0,25.0,190,8,,6.21,29.734253,,,,,,TRUE,,,,,FEW,2500,,,,,,,VFR,,,,,,,,,,,,METAR,6.0
RCNN 150930Z 23006KT 9999 FEW014 BKN200 31/24 Q1008 NOSIG RMK A2978,RCNN,2015-06-15T09:30:00Z,22.93,120.2,31.0,24.0,230,6,,6.21,29.763779,,,,,,TRUE,,,,,FEW,1400,BKN,20000,,,,,VFR,,,,,,,,,,,,METAR,19.0
RCMQ 150930Z 25008KT 9999 FEW012 SCT020 BKN200 29/24 Q1009 NOSIG RMK A2981,RCMQ,2015-06-15T09:30:00Z,24.27,120.62,29.0,24.0,250,8,,6.21,29.793306,,,,,,TRUE,,,,,FEW,1200,SCT,2000,BKN,20000,,,VFR,,,,,,,,,,,,METAR,5.0
RCSS 150930Z 10007KT 9999 FEW020 BKN030 BKN050 29/24 Q1008 NOSIG RMK A2978,RCSS,2015-06-15T09:30:00Z,25.07,121.53,29.0,24.0,100,7,,6.21,29.763779,,,,,,TRUE,,,,,FEW,2000,BKN,3000,BKN,5000,,,MVFR,,,,,,,,,,,,METAR,6.0
RCKH 150930Z 21009KT 180V240 9999 FEW018 BKN250 32/24 Q1008 NOSIG RMK A2979,RCKH,2015-06-15T09:30:00Z,22.57,120.33,32.0,24.0,210,9,,6.21,29.763779,,,,,,TRUE,,,,,FEW,1800,BKN,25000,,,,,VFR,,,,,,,,,,,,METAR,9.0
RCTP 150930Z 26013KT 9999 FEW020 SCT045 BKN200 31/24 Q1008 NOSIG RMK A2978,RCTP,2015-06-15T09:30:00Z,25.07,121.22,31.0,24.0,260,13,,6.21,29.763779,,,,,,TRUE,,,,,FEW,2000,SCT,4500,BKN,20000,,,VFR,,,,,,,,,,,,METAR,33.0
DAUH 150930Z 27010KT 8000 NSC 38/07 Q1011,DAUH,2015-06-15T09:30:00Z,31.67,6.15,38.0,7.0,270,10,,4.97,29.852362,,,,,,,,,,,,,,,,,,,,,,,,,,,,,,,METAR,142.0
DAOO 150930Z 22016KT 9999 SCT020 23/14 Q1018,DAOO,2015-06-15T09:30:00Z,35.62,-0.6,23.0,14.0,220,16,,6.21,30.059055,,,,,,,,,,,SCT,2000,,,,,,,VFR,,,,,,,,,,,,METAR,90.0
DAON 150930Z 22006KT 9999 FEW026 SCT100 24/10 Q1018,DAON,2015-06-15T09:30:00Z,35.02,-1.47,24.0,10.0,220,6,,6.21,30.059055,,,,,,,,,,,FEW,2600,SCT,10000,,,,,VFR,,,,,,,,,,,,METAR,247.0
DABS 150930Z 12008KT CAVOK 23/13 Q1020,DABS,2015-06-15T09:30:00Z,35.43,8.12,23.0,13.0,120,8,,6.21,30.11811,,,,,,,,,,,CAVOK,,,,,,,,VFR,,,,,,,,,,,,METAR,813.0
DABC 150930Z 10006KT 9999 FEW026 25/12 Q1019,DABC,2015-06-15T09:30:00Z,36.27,6.62,25.0,12.0,100,6,,6.21,30.088583,,,,,,,,,,,FEW,2600,,,,,,,VFR,,,,,,,,,,,,METAR,694.0
DABB 150930Z 13007KT 9999 FEW040 27/19 Q1016,DABB,2015-06-15T09:30:00Z,36.82,7.82,27.0,19.0,130,7,,6.21,30.0,,,,,,,,,,,FEW,4000,,,,,,,VFR,,,,,,,,,,,,METAR,4.0
DAAT 150930Z 12013KT 090V150 CAVOK 36/// Q1025,DAAT,2015-06-15T09:30:00Z,22.82,5.47,,,120,13,,6.21,30.265747,,,,,,,,,,,CAVOK,,,,,,,,VFR,,,,,,,,,,,,METAR,1377.0
DAAG 150930Z 24008KT 210V270 9999 FEW026 26/11 Q1017,DAAG,2015-06-15T09:30:00Z,36.72,3.22,26.0,11.0,240,8,,6.21,30.029528,,,,,,,,,,,FEW,2600,,,,,,,VFR,,,,,,,,,,,,METAR,25.0
UMBB 150930Z 24003MPS 7000 -SHRA OVC036CB 20/15 Q1011 R29/290050 NOSIG,UMBB,2015-06-15T09:30:00Z,52.12,23.9,20.0,15.0,240,6,,4.35,29.852362,,,,,,TRUE,,,,-SHRA,OVC,3600,,,,,,,MVFR,,,,,,,,,,,,METAR,143.0
DTTA 150930Z 02006KT 340V050 9999 FEW026 28/18 Q1017 NOSIG,DTTA,2015-06-15T09:30:00Z,36.85,10.22,28.0,18.0,20,6,,6.21,30.029528,,,,,,TRUE,,,,,FEW,2600,,,,,,,VFR,,,,,,,,,,,,METAR,4.0
DTNH 150930Z AUTO 05010KT 030V090 9999NDV BKN041 27/14 Q1017,DTNH,2015-06-15T09:30:00Z,36.07,10.43,27.0,14.0,50,10,,,30.029528,,,TRUE,,,,,,,,BKN,4100,,,,,,,,,,,,,,,,,,,METAR,2.0
DTMB 150930Z 36010KT 8000 NSC 25/17 Q1017 NOSIG,DTMB,2015-06-15T09:30:00Z,35.77,10.75,25.0,17.0,360,10,,4.97,30.029528,,,,,,TRUE,,,,,,,,,,,,,,,,,,,,,,,,,METAR,2.0
VDSR 150930Z VRB02KT 9999 SCT017 FEW018CB 33/23 Q1003 CB/W,VDSR,2015-06-15T09:30:00Z,13.42,103.83,33.0,23.0,0,2,,6.21,29.616142,,,,,,,,,,,SCT,1700,FEW,1800,,,,,VFR,,,,,,,,,,,,METAR,15.0
VDPP 150930Z 17010KT 9999 SCT015 FEW018CB 34/24 Q1002 CB:N/SE,VDPP,2015-06-15T09:30:00Z,11.55,104.83,34.0,24.0,170,10,,6.21,29.586615,,,,,,,,,,,SCT,1500,FEW,1800,,,,,VFR,,,,,,,,,,,,SPECI,10.0
VYYY 150930Z 22008KT 4000 TSRA BKN012 FEW015CB OVC080 26/26 Q1005 BECMG 2000 +TSRA,VYYY,2015-06-15T09:30:00Z,16.9,96.13,26.0,26.0,220,8,,2.49,29.675198,,,,,,,,,,TSRA,BKN,1200,FEW,1500,OVC,8000,,,IFR,,,,,,,,,,,,METAR,33.0
VTSP 150930Z 28009KT 7000 SCT016 BKN110 OVC300 26/28 Q1007 A2976 RERA,VTSP,2015-06-15T09:30:00Z,8.12,98.32,26.0,28.0,280,9,,4.35,29.734253,,,,,,,,,,,SCT,1600,BKN,11000,OVC,30000,,,MVFR,,,,,,,,,,,,METAR,10.0
"VTBU 150930Z 20008KT 9999 FEW020CB SCT120 BKN300 30/22 Q1005 A2969 CB N-NE,S",VTBU,2015-06-15T09:30:00Z,12.68,101.0,30.0,22.0,200,8,,6.21,29.675198,,,,,,,,,,,FEW,2000,SCT,12000,BKN,30000,,,VFR,,,,,,,,,,,,METAR,5.0
VTCC 150930Z 22004KT 9999 SCT035 37/17 Q1004 A2966 NOSIG,VTCC,2015-06-15T09:30:00Z,18.77,98.97,37.0,17.0,220,4,,6.21,29.64567,,,,,,TRUE,,,,,SCT,3500,,,,,,,VFR,,,,,,,,,,,,METAR,314.0
VTBD 150930Z 00000KT 9999 FEW020CB SCT035 BKN300 31/25 Q1004 NOSIG,VTBD,2015-06-15T09:30:00Z,13.92,100.6,31.0,25.0,0,0,,6.21,29.64567,,,,,,TRUE,,,,,FEW,2000,SCT,3500,BKN,30000,,,VFR,,,,,,,,,,,,METAR,3.0
VTBS 150930Z 19009KT 9999 FEW020 SCT120 BKN300 32/21 Q1004 NOSIG,VTBS,2015-06-15T09:30:00Z,13.68,100.75,32.0,21.0,190,9,,6.21,29.64567,,,,,,TRUE,,,,,FEW,2000,SCT,12000,BKN,30000,,,VFR,,,,,,,,,,,,METAR,2.0
GEML 150930Z 31006KT 230V360 9999 FEW030 23/13 Q1018,GEML,2015-06-15T09:30:00Z,35.27,-2.95,23.0,13.0,310,6,,6.21,30.059055,,,,,,,,,,,FEW,3000,,,,,,,VFR,,,,,,,,,,,,METAR,55.0
LESU 150930Z 07003KT 340V120 9999 SCT030TCU SCT035CB 18/12 Q1017,LESU,2015-06-15T09:30:00Z,42.33,1.4,18.0,12.0,70,3,,6.21,30.029528,,,,,,,,,,,SCT,3000,SCT,3500,,,,,VFR,,,,,,,,,,,,METAR,800.0
LPPT 150930Z 01009KT 9999 SCT028 19/12 Q1019,LPPT,2015-06-15T09:30:00Z,38.77,-9.12,19.0,12.0,10,9,,6.21,30.088583,,,,,,,,,,,SCT,2800,,,,,,,VFR,,,,,,,,,,,,METAR,123.0
LPPS 150930Z 03009KT 360V060 9999 FEW015 SCT030 20/14 Q1024,LPPS,2015-06-15T09:30:00Z,33.07,-16.35,20.0,14.0,30,9,,6.21,30.236221,,,,,,,,,,,FEW,1500,SCT,3000,,,,,VFR,,,,,,,,,,,,METAR,82.0
LPPR 150930Z VRB03KT 9999 SCT014 18/14 Q1019,LPPR,2015-06-15T09:30:00Z,41.22,-8.67,18.0,14.0,0,3,,6.21,30.088583,,,,,,,,,,,SCT,1400,,,,,,,VFR,,,,,,,,,,,,METAR,73.0
LPMA 150930Z 01007KT 310V060 9999 SCT015 SCT030 20/13 Q1024,LPMA,2015-06-15T09:30:00Z,32.7,-16.77,20.0,13.0,10,7,,6.21,30.236221,,,,,,,,,,,SCT,1500,SCT,3000,,,,,VFR,,,,,,,,,,,,METAR,55.0
LPFR 150930Z 30008KT 270V340 9999 FEW040 19/13 Q1019,LPFR,2015-06-15T09:30:00Z,37.02,-7.97,19.0,13.0,300,8,,6.21,30.088583,,,,,,,,,,,FEW,4000,,,,,,,VFR,,,,,,,,,,,,METAR,4.0
OICI 150930Z 31010KT CAVOK 34/M09 Q1012 A2989,OICI,2015-06-15T09:30:00Z,33.58,46.4,34.0,-9.0,310,10,,6.21,29.88189,,,,,,,,,,,CAVOK,,,,,,,,VFR,,,,,,,,,,,,METAR,1343.0
LPPD 150930Z 10003KT 060V130 2000 -RADZ BR BKN005 SCT010 18/17 Q1025,LPPD,2015-06-15T09:30:00Z,37.72,-25.68,18.0,17.0,100,3,,1.24,30.265747,,,,,,,,,,-RA -DZ BR,BKN,500,SCT,1000,,,,,IFR,,,,,,,,,,,,METAR,72.0
LPHR 150930Z 25004KT 9000 FEW002 BKN004 21/20 Q1024,LPHR,2015-06-15T09:30:00Z,38.52,-28.72,21.0,20.0,250,4,,5.59,30.236221,,,,,,,,,,,FEW,200,BKN,400,,,,,LIFR,,,,,,,,,,,,METAR,41.0
LPFL 150930Z VRB03KT 9999 FEW010 SCT016 23/18 Q1022,LPFL,2015-06-15T09:30:00Z,39.45,-31.12,23.0,18.0,0,3,,6.21,30.177166,,,,,,,,,,,FEW,1000,SCT,1600,,,,,VFR,,,,,,,,,,,,METAR,29.0
LPAZ 150930Z 20005KT 170V240 9999 FEW017 20/16 Q1026,LPAZ,2015-06-15T09:30:00Z,36.97,-25.17,20.0,16.0,200,5,,6.21,30.295275,,,,,,,,,,,FEW,1700,,,,,,,VFR,,,,,,,,,,,,METAR,100.0
OITR 150930Z 05008KT 9999 FEW035 27/06 Q1011,OITR,2015-06-15T09:30:00Z,37.67,45.07,27.0,6.0,50,8,,6.21,29.852362,,,,,,,,,,,FEW,3500,,,,,,,VFR,,,,,,,,,,,,METAR,1312.0
OIIE 150930Z 12010KT 7000 NSC 35/01 Q1007,OIIE,2015-06-15T09:30:00Z,35.42,51.15,35.0,1.0,120,10,,4.35,29.734253,,,,,,,,,,,,,,,,,,,,,,,,,,,,,,,METAR,1008.0
OIGG 150930Z 36008KT 9999 FEW020 28/20 Q1009,OIGG,2015-06-15T09:30:00Z,37.33,49.6,28.0,20.0,360,8,,6.21,29.793306,,,,,,,,,,,FEW,2000,,,,,,,VFR,,,,,,,,,,,,METAR,-13.0
OICC 150930Z 30010KT CAVOK 33/M07 Q1010 A2982 NOSIG,OICC,2015-06-15T09:30:00Z,34.33,47.17,33.0,-7.0,300,10,,6.21,29.822834,,,,,,TRUE,,,,,CAVOK,,,,,,,,VFR,,,,,,,,,,,,METAR,1322.0
OIBP 150930Z 28006KT 7000 NSC 38/25 Q0998 A2949,OIBP,2015-06-15T09:30:00Z,27.38,52.73,38.0,25.0,280,6,,4.35,29.468504,,,,,,,,,,,,,,,,,,,,,,,,,,,,,,,METAR,9.0
OIZH 150930Z 36016KT 2000 SA NSC 32/02 Q1012 A2989,OIZH,2015-06-15T09:30:00Z,29.47,60.92,32.0,2.0,360,16,,1.24,29.88189,,,,,,,,,,SA,,,,,,,,,,,,,,,,,,,,,METAR,1370.0
OITT 150930Z 13004KT 9999 FEW035 27/05 Q1012 A2990,OITT,2015-06-15T09:30:00Z,38.13,46.23,27.0,5.0,130,4,,6.21,29.88189,,,,,,,,,,,FEW,3500,,,,,,,VFR,,,,,,,,,,,,METAR,1361.0
OISS 150930Z 24004KT 9999 FEW040 38/04 Q1010 A2984,OISS,2015-06-15T09:30:00Z,29.52,52.57,38.0,4.0,240,4,,6.21,29.822834,,,,,,,,,,,FEW,4000,,,,,,,VFR,,,,,,,,,,,,METAR,1491.0
OIKB 150930Z 19012KT 4000 HZ FEW030 35/28 Q0999 A2950,OIKB,2015-06-15T09:30:00Z,27.22,56.37,35.0,28.0,190,12,,2.49,29.498032,,,,,,,,,,HZ,FEW,3000,,,,,,,IFR,,,,,,,,,,,,METAR,10.0
OIII 150930Z 18006KT 6000 NSC 34/03 Q1009 A2982 NOSIG,OIII,2015-06-15T09:30:00Z,35.68,51.3,34.0,3.0,180,6,,3.73,29.793306,,,,,,TRUE,,,,,,,,,,,,,,,,,,,,,,,,,METAR,1191.0
OIFM 150930Z 30006KT CAVOK 37/M09 Q1009 A2981,OIFM,2015-06-15T09:30:00Z,32.75,51.87,37.0,-9.0,300,6,,6.21,29.793306,,,,,,,,,,,CAVOK,,,,,,,,VFR,,,,,,,,,,,,METAR,1542.0
ROAH 150930Z 19009KT 9999 FEW015 SCT/// 29/24 Q1010,ROAH,2015-06-15T09:30:00Z,26.17,127.65,29.0,24.0,190,9,,6.21,29.822834,,,,,,,,,,,FEW,1500,,,,,,,VFR,,,,,,,,,,,,METAR,8.0
RJTT 150930Z 18012KT 9999 FEW020CB BKN/// 24/19 Q1006 NOSIG RMK 1CB020 A2973 CB NW AND NE,RJTT,2015-06-15T09:30:00Z,35.53,139.77,24.0,19.0,180,12,,6.21,29.704725,,,,,,TRUE,,,,,FEW,2000,,,,,,,VFR,,,,,,,,,,,,METAR,8.0
RJFF 150930Z 12004KT 060V190 9999 FEW030 SCT180 BKN/// 25/17 Q1007,RJFF,2015-06-15T09:30:00Z,33.57,130.43,25.0,17.0,120,4,,6.21,29.734253,,,,,,,,,,,FEW,3000,SCT,18000,,,,,VFR,,,,,,,,,,,,METAR,12.0
RJCC 150930Z 14006KT 9999 FEW035 19/14 Q1006 RMK 1CU035 A2972,RJCC,2015-06-15T09:30:00Z,42.77,141.67,19.0,14.0,140,6,,6.21,29.704725,,,,,,,,,,,FEW,3500,,,,,,,VFR,,,,,,,,,,,,METAR,30.0
RJBB 150930Z 24011KT 9999 FEW030 BKN/// 23/19 Q1008 NOSIG,RJBB,2015-06-15T09:30:00Z,34.42,135.25,23.0,19.0,240,11,,6.21,29.763779,,,,,,TRUE,,,,,FEW,3000,,,,,,,VFR,,,,,,,,,,,,SPECI,8.0
RJAA 150930Z 12006KT 9999 FEW030 FEW040CB BKN/// 24/18 Q1006 NOSIG,RJAA,2015-06-15T09:30:00Z,35.77,140.37,24.0,18.0,120,6,,6.21,29.704725,,,,,,TRUE,,,,,FEW,3000,FEW,4000,,,,,VFR,,,,,,,,,,,,METAR,44.0
UMMS 150930Z 23004G07MPS 170V290 9999 SCT036TCU BKN200 23/14 Q1009 R31/D NOSIG,UMMS,2015-06-15T09:30:00Z,53.88,28.03,23.0,14.0,230,8,14,6.21,29.793306,,,,,,TRUE,,,,,SCT,3600,BKN,20000,,,,,VFR,,,,,,,,,,,,METAR,205.0
UMMM 150930Z 25005MPS 9999 BKN031 BKN200 22/15 Q1009 R30/60D NOSIG RMK QFE737,UMMM,2015-06-15T09:30:00Z,53.87,27.52,22.0,15.0,250,10,,6.21,29.793306,,,,,,TRUE,,,,,BKN,3100,BKN,20000,,,,,VFR,,,,,,,,,,,,METAR,234.0
UMMG 150930Z 30002MPS 9999 BKN022 BKN066 19/15 Q1009 R17/CLRD// NOSIG,UMMG,2015-06-15T09:30:00Z,53.6,24.05,19.0,15.0,300,4,,6.21,29.793306,,,,,,TRUE,,,,,BKN,2200,BKN,6600,,,,,MVFR,,,,,,,,,,,,METAR,135.0
UMII 150930Z 24006G10MPS P6000 BKN026 21/13 Q1007 R23/D TEMPO 3000 -SHRA SCT010CB,UMII,2015-06-15T09:30:00Z,55.13,30.35,21.0,13.0,240,12,19,3.73,29.734253,,,,,,,,,,,BKN,2600,,,,,,,MVFR,,,,,,,,,,,,METAR,208.0
UMGG 150930Z 29003MPS 6000 BKN025CB BKN100 24/18 Q1010 R28/D NOSIG,UMGG,2015-06-15T09:30:00Z,52.53,31.02,24.0,18.0,290,6,,3.73,29.822834,,,,,,TRUE,,,,,BKN,2500,BKN,10000,,,,,MVFR,,,,,,,,,,,,METAR,144.0
UCFO 150930Z 27002MPS 9999 FEW050TCU SCT100 27/05 Q1014 R12/CLRD70 NOSIG,UCFO,2015-06-15T09:30:00Z,40.6,72.8,27.0,5.0,270,4,,6.21,29.940945,,,,,,TRUE,,,,,FEW,5000,SCT,10000,,,,,VFR,,,,,,,,,,,,METAR,884.0
UCFM 150930Z 36005MPS 300V360 9999 SCT066CB BKN100 25/03 Q1016 R26/CLRD70 NOSIG,UCFM,2015-06-15T09:30:00Z,43.07,74.48,25.0,3.0,360,10,,6.21,30.0,,,,,,TRUE,,,,,SCT,6600,BKN,10000,,,,,VFR,,,,,,,,,,,,METAR,633.0
UTDL 150930Z 27006MPS 230V310 9999 FEW050 32/M01 Q1012 NOSIG RMK QFE721/0962 88CLRD70,UTDL,2015-06-15T09:30:00Z,40.22,69.7,32.0,-1.0,270,12,,6.21,29.88189,,,,,,TRUE,,,,,FEW,5000,,,,,,,VFR,,,,,,,,,,,,METAR,442.0
UTDT 150930Z 21002MPS 9999 FEW066 32/07 Q1010 35CLRD70 RMK QFE718/0958,UTDT,2015-06-15T09:30:00Z,37.87,68.87,32.0,7.0,210,4,,6.21,29.822834,,,,,,,,,,,FEW,6600,,,,,,,VFR,,,,,,,,,,,,METAR,449.0
UTDK 150930Z 22003MPS 9999 FEW030 31/01 Q1012 01CLRD70 RMK QFE701/0935,UTDK,2015-06-15T09:30:00Z,37.98,69.8,31.0,1.0,220,6,,6.21,29.88189,,,,,,,,,,,FEW,3000,,,,,,,VFR,,,,,,,,,,,,METAR,699.0
UTDD 150930Z 12003MPS 070V190 9999 FEW066 29/10 Q1012 R09/D NOSIG RMK QFE691/0922,UTDD,2015-06-15T09:30:00Z,38.53,68.82,29.0,10.0,120,6,,6.21,29.88189,,,,,,TRUE,,,,,FEW,6600,,,,,,,VFR,,,,,,,,,,,,METAR,803.0
UAUU 150930Z 27006MPS 9999 BKN043CB BKN079 26/11 Q1010 R33/CLRD70 NOSIG RMK QFE742/0989,UAUU,2015-06-15T09:30:00Z,53.2,63.55,26.0,11.0,270,12,,6.21,29.822834,,,,,,TRUE,,,,,BKN,4300,BKN,7900,,,,,VFR,,,,,,,,,,,,METAR,182.0
UATT 150930Z 27009G14MPS CAVOK 31/01 Q1016 R31/70D NOSIG RMK QFE742/0989,UATT,2015-06-15T09:30:00Z,50.25,57.2,31.0,1.0,270,17,27,6.21,30.0,,,,,,TRUE,,,,,CAVOK,,,,,,,,VFR,,,,,,,,,,,,METAR,227.0
UATG 150930Z 16008MPS CAVOK 31/M01 Q1017 R14/CLRD70 NOSIG RMK QFE765/1020,UATG,2015-06-15T09:30:00Z,47.12,51.83,31.0,-1.0,160,16,,6.21,30.029528,,,,,,TRUE,,,,,CAVOK,,,,,,,,VFR,,,,,,,,,,,,METAR,-22.0
UATE 150930Z 19007MPS 170V240 CAVOK 33/M01 Q1014 R12/0///70 NOSIG RMK QFE758/1011,UATE,2015-06-15T09:30:00Z,43.87,51.1,33.0,-1.0,190,14,,6.21,29.940945,,,,,,TRUE,,,,,CAVOK,,,,,,,,VFR,,,,,,,,,,,,METAR,22.0
UARR 150930Z 27006MPS 230V310 CAVOK 33/03 Q1015 R22/CLRD70 NOSIG RMK QFE758/1010,UARR,2015-06-15T09:30:00Z,51.15,51.53,33.0,3.0,270,12,,6.21,29.970472,,,,,,TRUE,,,,,CAVOK,,,,,,,,VFR,,,,,,,,,,,,METAR,38.0
UASS 150930Z 27009MPS CAVOK 20/06 Q1010 R26/0///60 NOSIG RMK QFE739/0985,UASS,2015-06-15T09:30:00Z,50.35,80.23,20.0,6.0,270,17,,6.21,29.822834,,,,,,TRUE,,,,,CAVOK,,,,,,,,VFR,,,,,,,,,,,,METAR,232.0
UASP 150930Z 27006MPS 9999 OVC033 15/09 Q1005 R21/0///70 NOSIG RMK QFE743/0991,UASP,2015-06-15T09:30:00Z,52.2,77.07,15.0,9.0,270,12,,6.21,29.675198,,,,,,TRUE,,,,,OVC,3300,,,,,,,VFR,,,,,,,,,,,,METAR,125.0
UASK 150930Z 29005MPS 9999 BKN040CB BKN078 19/12 Q1010 R30/290255 TEMPO TSRA RMK QFE732/0977,UASK,2015-06-15T09:30:00Z,50.03,82.5,19.0,12.0,290,10,,6.21,29.822834,,,,,,,,,,,BKN,4000,BKN,7800,,,,,VFR,,,,,,,,,,,,METAR,286.0
UAOO 150930Z 35005MPS CAVOK 27/M02 Q1018 R06/CLRD70 NOSIG RMK QFE751/1002,UAOO,2015-06-15T09:30:00Z,44.7,65.6,27.0,-2.0,350,10,,6.21,30.059055,,,,,,TRUE,,,,,CAVOK,,,,,,,,VFR,,,,,,,,,,,,METAR,129.0
UAKK 150930Z 29009MPS 9999 BKN054CB 17/04 Q1013 R23/0///70 NOSIG RMK QFE713/0951,UAKK,2015-06-15T09:30:00Z,49.67,73.33,17.0,4.0,290,17,,6.21,29.911417,,,,,,TRUE,,,,,BKN,5400,,,,,,,VFR,,,,,,,,,,,,METAR,538.0
UAII 150930Z 02005MPS CAVOK 28/03 Q1015 R28/0///70 NOSIG RMK QFE724/0965,UAII,2015-06-15T09:30:00Z,42.37,69.48,28.0,3.0,20,10,,6.21,29.970472,,,,,,TRUE,,,,,CAVOK,,,,,,,,VFR,,,,,,,,,,,,METAR,422.0
UACP 150930Z 27008MPS CAVOK 20/09 Q1005 R23/0/0060 NOSIG RMK QFE741/0989,UACP,2015-06-15T09:30:00Z,54.78,69.18,20.0,9.0,270,16,,6.21,29.675198,,,,,,TRUE,,,,,CAVOK,,,,,,,,VFR,,,,,,,,,,,,METAR,142.0
UACK 150930Z 30009MPS CAVOK 21/07 Q1007 R20/010070 NOSIG RMK QFE732/0976,UACK,2015-06-15T09:30:00Z,53.32,69.58,21.0,7.0,300,17,,6.21,29.734253,,,,,,TRUE,,,,,CAVOK,,,,,,,,VFR,,,,,,,,,,,,METAR,2547.0
UACC 150930Z 28008MPS CAVOK 20/04 Q1011 R22/0/0070 NOSIG RMK QFE727/0970,UACC,2015-06-15T09:30:00Z,51.02,71.47,20.0,4.0,280,16,,6.21,29.852362,,,,,,TRUE,,,,,CAVOK,,,,,,,,VFR,,,,,,,,,,,,METAR,355.0
UADD 150930Z 30005MPS 250V350 9999 NSC 25/M01 Q1016 R31/0///65 NOSIG RMK QFE704/0939,UADD,2015-06-15T09:30:00Z,42.85,71.3,25.0,-1.0,300,10,,6.21,30.0,,,,,,TRUE,,,,,,,,,,,,,,,,,,,,,,,,,METAR,665.0
UAAH 150930Z 35006MPS 310V010 9999 BKN033CB 17/06 Q1015 R23/0///60 NOSIG RMK QFE722/0963,UAAH,2015-06-15T09:30:00Z,46.9,75.0,17.0,6.0,350,12,,6.21,29.970472,,,,,,TRUE,,,,,BKN,3300,,,,,,,VFR,,,,,,,,,,,,METAR,441.0
UAAA 150930Z 22004MPS 200V260 9999 SCT050CB BKN100 23/05 Q1016 R88/65D TEMPO VRB15MPS TSRA SQ,UAAA,2015-06-15T09:30:00Z,43.35,77.03,23.0,5.0,220,8,,6.21,30.0,,,,,,,,,,,SCT,5000,BKN,10000,,,,,VFR,,,,,,,,,,,,METAR,847.0
UDSG 150930Z 07008MPS 9999 FEW050 22/10 Q1013 R02/CLRD70 NOSIG,UDSG,2015-06-15T09:30:00Z,40.75,43.87,22.0,10.0,70,16,,6.21,29.911417,,,,,,TRUE,,,,,FEW,5000,,,,,,,VFR,,,,,,,,,,,,METAR,1524.0
UDYZ 150930Z 21003G08MPS 150V240 9999 FEW050 30/04 Q1008 R09/010070 NOSIG,UDYZ,2015-06-15T09:30:00Z,40.15,44.4,30.0,4.0,210,6,16,6.21,29.763779,,,,,,TRUE,,,,,FEW,5000,,,,,,,VFR,,,,,,,,,,,,METAR,865.0
ZYTX 150930Z 24002MPS CAVOK 29/14 Q1004 NOSIG,ZYTX,2015-06-15T09:30:00Z,41.63,123.48,29.0,14.0,240,4,,6.21,29.64567,,,,,,TRUE,,,,,CAVOK,,,,,,,,VFR,,,,,,,,,,,,METAR,35.0
ZYTL 150930Z 36003MPS 320V020 CAVOK 25/16 Q1006 NOSIG,ZYTL,2015-06-15T09:30:00Z,38.97,121.53,25.0,16.0,360,6,,6.21,29.704725,,,,,,TRUE,,,,,CAVOK,,,,,,,,VFR,,,,,,,,,,,,METAR,97.0
ZWWW 150930Z 31005MPS 260V340 9999 FEW040 28/11 Q1009 NOSIG,ZWWW,2015-06-15T09:30:00Z,43.88,87.47,28.0,11.0,310,10,,6.21,29.793306,,,,,,TRUE,,,,,FEW,4000,,,,,,,VFR,,,,,,,,,,,,METAR,654.0
ZSSS 150930Z 05003MPS 020V090 1000 R36R/1000V1500D R36L/1100V1600D +SHRA BR BKN005 SCT030CB 23/23 Q1006 NOSIG,ZSSS,2015-06-15T09:30:00Z,31.2,121.33,23.0,23.0,50,6,,0.62,29.704725,,,,,,TRUE,,,,+SHRA BR,BKN,500,SCT,3000,,,,,LIFR,,,,,,,,,,,,METAR,7.0
ZSPD 150930Z 07004MPS 2000 R17L/1700U R16R/1500N R17R/1500VP2000U R16L/1000V1700D +SHRA BR BKN006 SCT030CB OVC040 22/22 Q1007 NOSIG,ZSPD,2015-06-15T09:30:00Z,31.15,121.8,22.0,22.0,70,8,,1.24,29.734253,,,,,,TRUE,,,,+SHRA BR,BKN,600,SCT,3000,OVC,4000,,,IFR,,,,,,,,,,,,METAR,4.0
ZSHC 150930Z 08002MPS 6000 -RA SCT023 BKN040 26/21 Q1006 NOSIG,ZSHC,2015-06-15T09:30:00Z,30.22,120.43,26.0,21.0,80,4,,3.73,29.704725,,,,,,TRUE,,,,-RA,SCT,2300,BKN,4000,,,,,MVFR,,,,,,,,,,,,METAR,43.0
ZGGG 150930Z 11002MPS 060V150 9999 FEW033CB BKN033 28/25 Q1007 NOSIG,ZGGG,2015-06-15T09:30:00Z,23.4,113.3,28.0,25.0,110,4,,6.21,29.734253,,,,,,TRUE,,,,,FEW,3300,BKN,3300,,,,,VFR,,,,,,,,,,,,METAR,15.0
ZBYN 150930Z 23002MPS CAVOK 27/09 Q1007 NOSIG,ZBYN,2015-06-15T09:30:00Z,37.77,112.63,27.0,9.0,230,4,,6.21,29.734253,,,,,,TRUE,,,,,CAVOK,,,,,,,,VFR,,,,,,,,,,,,METAR,779.0
ZBTJ 150930Z 17003MPS 130V220 CAVOK 30/14 Q1004 NOSIG,ZBTJ,2015-06-15T09:30:00Z,39.12,117.35,30.0,14.0,170,6,,6.21,29.64567,,,,,,TRUE,,,,,CAVOK,,,,,,,,VFR,,,,,,,,,,,,METAR,3.0
ZBAA 150930Z 21005G12MPS 160V240 CAVOK 32/15 Q1004 NOSIG,ZBAA,2015-06-15T09:30:00Z,40.07,116.58,32.0,15.0,210,10,23,6.21,29.64567,,,,,,TRUE,,,,,CAVOK,,,,,,,,VFR,,,,,,,,,,,,METAR,30.0
RKSI 150930Z 30009KT CAVOK 20/16 Q1006 NOSIG,RKSI,2015-06-15T09:30:00Z,37.47,126.45,20.0,16.0,300,9,,6.21,29.704725,,,,,,TRUE,,,,,CAVOK,,,,,,,,VFR,,,,,,,,,,,,METAR,7.0
LEXJ 150930Z 35008KT 300V030 9999 FEW018 BKN045 17/13 Q1020,LEXJ,2015-06-15T09:30:00Z,43.42,-3.82,17.0,13.0,350,8,,6.21,30.11811,,,,,,,,,,,FEW,1800,BKN,4500,,,,,VFR,,,,,,,,,,,,METAR,6.0
LEPP 150930Z 32009KT 290V350 9999 SCT032 19/10 Q1018,LEPP,2015-06-15T09:30:00Z,42.77,-1.65,19.0,10.0,320,9,,6.21,30.059055,,,,,,,,,,,SCT,3200,,,,,,,VFR,,,,,,,,,,,,METAR,459.0
LELL 150930Z 14008KT 080V190 9999 SCT030 SCT035TCU FEW040CB 22/16 Q1015 RETS,LELL,2015-06-15T09:30:00Z,41.52,2.1,22.0,16.0,140,8,,6.21,29.970472,,,,,,,,,,,SCT,3000,SCT,3500,FEW,4000,,,VFR,,,,,,,,,,,,METAR,250.0
LEJR 150930Z 28005KT 230V350 9999 BKN020 20/15 Q1018,LEJR,2015-06-15T09:30:00Z,36.75,-6.07,20.0,15.0,280,5,,6.21,30.059055,,,,,,,,,,,BKN,2000,,,,,,,MVFR,,,,,,,,,,,,METAR,30.0
LETL 150930Z AUTO 32003KT CAVOK 18/06 Q1018,LETL,2015-06-15T09:30:00Z,40.42,-1.22,18.0,6.0,320,3,,6.21,30.059055,,,TRUE,,,,,,,,CAVOK,,,,,,,,VFR,,,,,,,,,,,,METAR,1013.0
LEAG 150930Z AUTO VRB05KT 9999 SCT032 BKN049 20/14 Q1018,LEAG,2015-06-15T09:30:00Z,,,20.0,14.0,0,5,,6.21,30.059055,,,TRUE,,,,,,,,SCT,3200,BKN,4900,,,,,VFR,,,,,,,,,,,,METAR,
LESA 150930Z 04007KT 010V070 6000 RA BKN008 BKN020 OVC035 12/11 Q1018,LESA,2015-06-15T09:30:00Z,40.95,-5.5,12.0,11.0,40,7,,3.73,30.059055,,,,,,,,,,RA,BKN,800,BKN,2000,OVC,3500,,,IFR,,,,,,,,,,,,METAR,795.0
LEVS 150930Z 18003KT 100V250 9999 FEW015 SCT025 BKN040 15/10 Q1018,LEVS,2015-06-15T09:30:00Z,40.37,-3.77,15.0,10.0,180,3,,6.21,30.059055,,,,,,,,,,,FEW,1500,SCT,2500,BKN,4000,,,VFR,,,,,,,,,,,,METAR,687.0
LEVD 150930Z 07009KT 050V110 9999 BKN015 BKN045 13/10 Q1018,LEVD,2015-06-15T09:30:00Z,41.72,-4.83,13.0,10.0,70,9,,6.21,30.059055,,,,,,,,,,,BKN,1500,BKN,4500,,,,,MVFR,,,,,,,,,,,,METAR,854.0
GCLA 150930Z 02009KT 350V060 9999 FEW025 23/15 Q1023,GCLA,2015-06-15T09:30:00Z,28.62,-17.75,23.0,15.0,20,9,,6.21,30.206694,,,,,,,,,,,FEW,2500,,,,,,,VFR,,,,,,,,,,,,METAR,31.0
GCFV 150930Z 04013KT 9999 FEW030 22/14 Q1021,GCFV,2015-06-15T09:30:00Z,28.43,-13.87,22.0,14.0,40,13,,6.21,30.147638,,,,,,,,,,,FEW,3000,,,,,,,VFR,,,,,,,,,,,,METAR,23.0
GCRR 150930Z 01015KT 9999 SCT030 23/13 Q1021,GCRR,2015-06-15T09:30:00Z,28.93,-13.58,23.0,13.0,10,15,,6.21,30.147638,,,,,,,,,,,SCT,3000,,,,,,,VFR,,,,,,,,,,,,METAR,40.0
GCTS 150930Z 08016KT 9999 FEW025 23/13 Q1022 NOSIG,GCTS,2015-06-15T09:30:00Z,28.05,-16.57,23.0,13.0,80,16,,6.21,30.177166,,,,,,TRUE,,,,,FEW,2500,,,,,,,VFR,,,,,,,,,,,,METAR,72.0
GCXO 150930Z 32013KT 9999 FEW015 BKN020 17/12 Q1024 NOSIG,GCXO,2015-06-15T09:30:00Z,28.48,-16.35,17.0,12.0,320,13,,6.21,30.236221,,,,,,TRUE,,,,,FEW,1500,BKN,2000,,,,,MVFR,,,,,,,,,,,,METAR,632.0
GCLP 150930Z 02021KT 9999 FEW025 22/14 Q1022 NOSIG,GCLP,2015-06-15T09:30:00Z,27.92,-15.37,22.0,14.0,20,21,,6.21,30.177166,,,,,,TRUE,,,,,FEW,2500,,,,,,,VFR,,,,,,,,,,,,METAR,25.0
LEGR 150930Z VRB03KT 9999 SCT034 SCT090 19/10 Q1018,LEGR,2015-06-15T09:30:00Z,37.17,-3.77,19.0,10.0,0,3,,6.21,30.059055,,,,,,,,,,,SCT,3400,SCT,9000,,,,,VFR,,,,,,,,,,,,METAR,559.0
LEAM 150930Z 21011KT 9999 FEW012 19/16 Q1016,LEAM,2015-06-15T09:30:00Z,36.85,-2.37,19.0,16.0,210,11,,6.21,30.0,,,,,,,,,,,FEW,1200,,,,,,,VFR,,,,,,,,,,,,METAR,21.0
LEMH 150930Z 24010KT 190V290 9999 BKN022 FEW025TCU 23/16 Q1016,LEMH,2015-06-15T09:30:00Z,39.87,4.22,23.0,16.0,240,10,,6.21,30.0,,,,,,,,,,,BKN,2200,FEW,2500,,,,,MVFR,,,,,,,,,,,,METAR,82.0
LERS 150930Z VRB02KT 9999 FEW020 FEW030TCU 23/16 Q1016,LERS,2015-06-15T09:30:00Z,41.13,1.17,23.0,16.0,0,2,,6.21,30.0,,,,,,,,,,,FEW,2000,FEW,3000,,,,,VFR,,,,,,,,,,,,METAR,76.0
LEVT 150930Z 32008KT 9999 FEW020 BKN045 15/12 Q1020,LEVT,2015-06-15T09:30:00Z,42.87,-2.72,15.0,12.0,320,8,,6.21,30.11811,,,,,,,,,,,FEW,2000,BKN,4500,,,,,VFR,,,,,,,,,,,,METAR,509.0
LESO 150930Z VRB06KT 9999 SCT016TCU SCT050 19/17 Q1019,LESO,2015-06-15T09:30:00Z,43.35,-1.8,19.0,17.0,0,6,,6.21,30.088583,,,,,,,,,,,SCT,1600,SCT,5000,,,,,VFR,,,,,,,,,,,,METAR,8.0
LEZG 150930Z 32011KT 290V350 9999 FEW040 20/12 Q1017,LEZG,2015-06-15T09:30:00Z,41.67,-1.02,20.0,12.0,320,11,,6.21,30.029528,,,,,,,,,,,FEW,4000,,,,,,,VFR,,,,,,,,,,,,METAR,258.0
LEST 150930Z 02008KT 340V100 9999 SCT018 BKN025 16/12 Q1021 NOSIG,LEST,2015-06-15T09:30:00Z,42.88,-8.42,16.0,12.0,20,8,,6.21,30.147638,,,,,,TRUE,,,,,SCT,1800,BKN,2500,,,,,MVFR,,,,,,,,,,,,METAR,367.0
LEGE 150930Z 14001KT 9999 FEW015 SCT020TCU 23/13 Q1015,LEGE,2015-06-15T09:30:00Z,41.88,2.77,23.0,13.0,140,1,,6.21,29.970472,,,,,,,,,,,FEW,1500,SCT,2000,,,,,VFR,,,,,,,,,,,,METAR,129.0
LECO 150930Z 36008KT 330V030 9999 SCT025 18/12 Q1021 NOSIG,LECO,2015-06-15T09:30:00Z,43.28,-8.37,18.0,12.0,360,8,,6.21,30.147638,,,,,,TRUE,,,,,SCT,2500,,,,,,,VFR,,,,,,,,,,,,METAR,103.0
LEBB 150930Z 30008KT 9999 -RA FEW005 SCT020 BKN036 16/15 Q1020 NOSIG,LEBB,2015-06-15T09:30:00Z,43.28,-2.92,16.0,15.0,300,8,,6.21,30.11811,,,,,,TRUE,,,,-RA,FEW,500,SCT,2000,BKN,3600,,,VFR,,,,,,,,,,,,METAR,34.0
LEAS 150930Z VRB01KT 9999 FEW020 BKN067 16/13 Q1021 NOSIG,LEAS,2015-06-15T09:30:00Z,43.53,-6.02,16.0,13.0,0,1,,6.21,30.147638,,,,,,TRUE,,,,,FEW,2000,BKN,6700,,,,,VFR,,,,,,,,,,,,METAR,134.0
LEVX 150930Z 04003KT 350V110 9999 FEW025 18/13 Q1020 NOSIG,LEVX,2015-06-15T09:30:00Z,42.22,-8.62,18.0,13.0,40,3,,6.21,30.11811,,,,,,TRUE,,,,,FEW,2500,,,,,,,VFR,,,,,,,,,,,,METAR,256.0
LEIB 150930Z 22012KT 9999 FEW020 25/15 Q1015 NOSIG,LEIB,2015-06-15T09:30:00Z,38.87,1.37,25.0,15.0,220,12,,6.21,29.970472,,,,,,TRUE,,,,,FEW,2000,,,,,,,VFR,,,,,,,,,,,,METAR,12.0
LEVC 150930Z VRB02KT 9999 FEW030 25/12 Q1015 NOSIG,LEVC,2015-06-15T09:30:00Z,39.5,-0.47,25.0,12.0,0,2,,6.21,29.970472,,,,,,TRUE,,,,,FEW,3000,,,,,,,VFR,,,,,,,,,,,,METAR,62.0
LEMG 150930Z 17005KT 100V230 9999 FEW040 SCT080 22/13 Q1017 NOSIG,LEMG,2015-06-15T09:30:00Z,36.67,-4.5,22.0,13.0,170,5,,6.21,30.029528,,,,,,TRUE,,,,,FEW,4000,SCT,8000,,,,,VFR,,,,,,,,,,,,METAR,7.0
LEZL 150930Z 28004KT 210V010 9999 SCT033 20/10 Q1018 NOSIG,LEZL,2015-06-15T09:30:00Z,37.42,-5.9,20.0,10.0,280,4,,6.21,30.059055,,,,,,TRUE,,,,,SCT,3300,,,,,,,VFR,,,,,,,,,,,,METAR,31.0
LEPA 150930Z 23007KT 180V270 9999 FEW025 25/17 Q1015 NOSIG,LEPA,2015-06-15T09:30:00Z,39.53,2.72,25.0,17.0,230,7,,6.21,29.970472,,,,,,TRUE,,,,,FEW,2500,,,,,,,VFR,,,,,,,,,,,,METAR,8.0
LEMD 150930Z 11004KT 040V190 9999 FEW015 FEW020TCU SCT050 16/10 Q1018 R88/19//95 NOSIG,LEMD,2015-06-15T09:30:00Z,40.48,-3.57,16.0,10.0,110,4,,6.21,30.059055,,,,,,TRUE,,,,,FEW,1500,FEW,2000,SCT,5000,,,VFR,,,,,,,,,,,,METAR,582.0
LFTW 150930Z AUTO 32006KT 260V360 CAVOK 25/13 Q1014,LFTW,2015-06-15T09:30:00Z,43.75,4.42,25.0,13.0,320,6,,6.21,29.940945,,,TRUE,,,,,,,,CAVOK,,,,,,,,VFR,,,,,,,,,,,,METAR,96.0
LFSD 150930Z AUTO 01007KT 9999 -RA BKN007/// OVC013/// ///TCU 17/15 Q1015,LFSD,2015-06-15T09:30:00Z,47.27,5.07,17.0,15.0,10,7,,6.21,29.970472,,,TRUE,,,,,,,-RA,,,,,,,,,,,,,,,,,,,,,METAR,227.0
LFRT 150930Z AUTO 03005KT 350V080 9999 BKN040 16/12 Q1020,LFRT,2015-06-15T09:30:00Z,48.52,-2.85,16.0,12.0,30,5,,6.21,30.11811,,,TRUE,,,,,,,,BKN,4000,,,,,,,VFR,,,,,,,,,,,,METAR,136.0
LFRQ 150930Z AUTO 02006KT 330V070 9999 OVC043 18/11 Q1020,LFRQ,2015-06-15T09:30:00Z,47.97,-4.17,18.0,11.0,20,6,,6.21,30.11811,,,TRUE,,,,,,,,OVC,4300,,,,,,,VFR,,,,,,,,,,,,METAR,94.0
LFRH 150930Z AUTO 04008KT 9999 SCT033 BKN041 19/11 Q1020,LFRH,2015-06-15T09:30:00Z,47.77,-3.45,19.0,11.0,40,8,,6.21,30.11811,,,TRUE,,,,,,,,SCT,3300,BKN,4100,,,,,VFR,,,,,,,,,,,,METAR,44.0
LFPT 150930Z AUTO 01009KT 9999 OVC023 17/12 Q1018,LFPT,2015-06-15T09:30:00Z,49.1,2.03,17.0,12.0,10,9,,6.21,30.059055,,,TRUE,,,,,,,,OVC,2300,,,,,,,MVFR,,,,,,,,,,,,METAR,99.0
LFPM 150930Z AUTO 34008KT 9999 OVC018 18/13 Q1017,LFPM,2015-06-15T09:30:00Z,48.62,2.67,18.0,13.0,340,8,,6.21,30.029528,,,TRUE,,,,,,,,OVC,1800,,,,,,,MVFR,,,,,,,,,,,,METAR,92.0
LFLN 150930Z AUTO 26009KT 9999 SCT011 BKN020 OVC045 17/15 Q1015,LFLN,2015-06-15T09:30:00Z,46.42,4.02,17.0,15.0,260,9,,6.21,29.970472,,,TRUE,,,,,,,,SCT,1100,BKN,2000,OVC,4500,,,MVFR,,,,,,,,,,,,METAR,244.0
LFGA 150930Z AUTO 00000KT 9999 FEW033 SCT041 BKN052 19/16 Q1015,LFGA,2015-06-15T09:30:00Z,48.1,7.35,19.0,16.0,0,0,,6.21,29.970472,,,TRUE,,,,,,,,FEW,3300,SCT,4100,BKN,5200,,,VFR,,,,,,,,,,,,METAR,191.0
LFBU 150930Z AUTO 27003KT 220V300 9999 OVC011 16/14 Q1017,LFBU,2015-06-15T09:30:00Z,45.72,0.22,16.0,14.0,270,3,,6.21,30.029528,,,TRUE,,,,,,,,OVC,1100,,,,,,,MVFR,,,,,,,,,,,,METAR,133.0
LFAT 150930Z AUTO 04007KT 010V080 9999 OVC020 16/12 Q1020,LFAT,2015-06-15T09:30:00Z,50.52,1.62,16.0,12.0,40,7,,6.21,30.11811,,,TRUE,,,,,,,,OVC,2000,,,,,,,MVFR,,,,,,,,,,,,METAR,14.0
LFAQ 150930Z AUTO 02010KT 360V080 8000 BKN013 OVC020 16/13 Q1019,LFAQ,2015-06-15T09:30:00Z,49.97,2.7,16.0,13.0,20,10,,4.97,30.088583,,,TRUE,,,,,,,,BKN,1300,OVC,2000,,,,,MVFR,,,,,,,,,,,,METAR,111.0
LFRS 150930Z 02003KT 330V060 9999 BKN014 16/14 Q1019 NOSIG,LFRS,2015-06-15T09:30:00Z,47.17,-1.6,16.0,14.0,20,3,,6.21,30.088583,,,,,,TRUE,,,,,BKN,1400,,,,,,,MVFR,,,,,,,,,,,,METAR,27.0
LFQQ 150930Z AUTO 03012KT 9999 FEW017 SCT024 BKN030 15/09 Q1019,LFQQ,2015-06-15T09:30:00Z,50.57,3.1,15.0,9.0,30,12,,6.21,30.088583,,,TRUE,,,,,,,,FEW,1700,SCT,2400,BKN,3000,,,MVFR,,,,,,,,,,,,METAR,52.0
LFPO 150930Z 02007KT 340V050 9999 BKN027 19/12 Q1017 NOSIG,LFPO,2015-06-15T09:30:00Z,48.72,2.38,19.0,12.0,20,7,,6.21,30.029528,,,,,,TRUE,,,,,BKN,2700,,,,,,,MVFR,,,,,,,,,,,,METAR,96.0
LFPG 150930Z 01009KT 330V060 9999 BKN023 18/12 Q1017 NOSIG,LFPG,2015-06-15T09:30:00Z,49.02,2.52,18.0,12.0,10,9,,6.21,30.029528,,,,,,TRUE,,,,,BKN,2300,,,,,,,MVFR,,,,,,,,,,,,METAR,109.0
LFMN 150930Z 20008KT 9999 FEW033 24/18 Q1013 NOSIG,LFMN,2015-06-15T09:30:00Z,43.63,7.2,24.0,18.0,200,8,,6.21,29.911417,,,,,,TRUE,,,,,FEW,3300,,,,,,,VFR,,,,,,,,,,,,METAR,10.0
LFLL 150930Z 31006KT 260V340 9999 FEW026TCU BKN030 BKN100 21/13 Q1015 NOSIG,LFLL,2015-06-15T09:30:00Z,45.72,5.07,21.0,13.0,310,6,,6.21,29.970472,,,,,,TRUE,,,,,FEW,2600,BKN,3000,BKN,10000,,,MVFR,,,,,,,,,,,,METAR,240.0
LFPV 150930Z AUTO 35009KT 320V030 9999 BKN022 BKN210 18/12 Q1017,LFPV,2015-06-15T09:30:00Z,48.77,2.2,18.0,12.0,350,9,,6.21,30.029528,,,TRUE,,,,,,,,BKN,2200,BKN,21000,,,,,MVFR,,,,,,,,,,,,METAR,179.0
LFPC 150930Z AUTO 35009KT 320V020 9999 BKN020 OVC026 18/13 Q1018,LFPC,2015-06-15T09:30:00Z,49.25,2.52,18.0,13.0,350,9,,6.21,30.059055,,,TRUE,,,,,,,,BKN,2000,OVC,2600,,,,,MVFR,,,,,,,,,,,,METAR,88.0
LFOA 150930Z AUTO 35006KT 320V020 9999 BKN010 BKN031 BKN038 17/15 Q1016,LFOA,2015-06-15T09:30:00Z,47.03,2.63,17.0,15.0,350,6,,6.21,30.0,,,TRUE,,,,,,,,BKN,1000,BKN,3100,BKN,3800,,,MVFR,,,,,,,,,,,,METAR,179.0
LFSL 150930Z AUTO VRB03KT 9999 FEW018 BKN031 OVC038 18/12 Q1017,LFSL,2015-06-15T09:30:00Z,45.03,1.48,18.0,12.0,0,3,,6.21,30.029528,,,TRUE,,,,,,,,FEW,1800,BKN,3100,OVC,3800,,,VFR,,,,,,,,,,,,METAR,310.0
LFMV 150930Z AUTO 33004KT 270V040 9999 FEW025 24/17 Q1014,LFMV,2015-06-15T09:30:00Z,43.9,4.9,24.0,17.0,330,4,,6.21,29.940945,,,TRUE,,,,,,,,FEW,2500,,,,,,,VFR,,,,,,,,,,,,METAR,38.0
LFMP 150930Z AUTO 32011KT 290V350 CAVOK 23/13 Q1016,LFMP,2015-06-15T09:30:00Z,42.72,2.87,23.0,13.0,320,11,,6.21,30.0,,,TRUE,,,,,,,,CAVOK,,,,,,,,VFR,,,,,,,,,,,,METAR,48.0
LFLC 150930Z AUTO 07004KT 010V120 9999 // FEW049 21/11 Q1015,LFLC,2015-06-15T09:30:00Z,45.77,3.17,21.0,11.0,70,4,,6.21,29.970472,,,TRUE,,,,,,,,FEW,4900,,,,,,,VFR,,,,,,,,,,,,METAR,330.0
LFKJ 150930Z 21016KT 9999 FEW015 SCT023 FEW026TCU 24/19 Q1015 NOSIG,LFKJ,2015-06-15T09:30:00Z,41.92,8.8,24.0,19.0,210,16,,6.21,29.970472,,,,,,TRUE,,,,,FEW,1500,SCT,2300,FEW,2600,,,VFR,,,,,,,,,,,,METAR,9.0
LFKF 150930Z AUTO 24013KT 9999 BKN018/// BKN024/// BKN030/// 22/18 Q1016,LFKF,2015-06-15T09:30:00Z,41.5,9.08,22.0,18.0,240,13,,6.21,30.0,,,TRUE,,,,,,,,,,,,,,,,,,,,,,,,,,,,METAR,23.0
LFKC 150930Z 14003KT 080V180 9000 -RA FEW008 SCT033 BKN060 19/17 Q1015 TEMPO 4000,LFKC,2015-06-15T09:30:00Z,42.52,8.8,19.0,17.0,140,3,,5.59,29.970472,,,,,,,,,,-RA,FEW,800,SCT,3300,BKN,6000,,,VFR,,,,,,,,,,,,METAR,58.0
LFKB 150930Z 12005KT 9999 TS FEW020CB SCT060 BKN110 25/19 Q1014 NOSIG,LFKB,2015-06-15T09:30:00Z,42.53,9.47,25.0,19.0,120,5,,6.21,29.940945,,,,,,TRUE,,,,TS,FEW,2000,SCT,6000,BKN,11000,,,VFR,,,,,,,,,,,,METAR,12.0
LROP 150930Z 01007KT 300V050 5000 TSRA SCT068CB 22/19 Q1012 RMK R88/29//95 TEMPO VRB20G30KT 3000 TSRA,LROP,2015-06-15T09:30:00Z,44.57,26.1,22.0,19.0,10,7,,3.11,29.88189,,,,,,,,,,TSRA,SCT,6800,,,,,,,MVFR,,,,,,,,,,,,METAR,95.0
LRTR 150930Z 28005KT 230V350 CAVOK 28/16 Q1012,LRTR,2015-06-15T09:30:00Z,45.82,21.33,28.0,16.0,280,5,,6.21,29.88189,,,,,,,,,,,CAVOK,,,,,,,,VFR,,,,,,,,,,,,METAR,88.0
LRSB 150930Z 16006KT 130V190 9999 FEW036 26/13 Q1013 NOSIG,LRSB,2015-06-15T09:30:00Z,45.78,24.08,26.0,13.0,160,6,,6.21,29.911417,,,,,,TRUE,,,,,FEW,3600,,,,,,,VFR,,,,,,,,,,,,METAR,444.0
LRCK 150930Z 10006KT 070V140 CAVOK 29/16 Q1010 NOSIG,LRCK,2015-06-15T09:30:00Z,44.37,28.48,29.0,16.0,100,6,,6.21,29.822834,,,,,,TRUE,,,,,CAVOK,,,,,,,,VFR,,,,,,,,,,,,METAR,108.0
LRBS 150930Z 35010KT 320V050 7000 TSRA FEW005 BKN040CB 22/19 Q1012 RMK R07/29//95 BECMG NSW,LRBS,2015-06-15T09:30:00Z,44.5,26.08,22.0,19.0,350,10,,4.35,29.88189,,,,,,,,,,TSRA,FEW,500,BKN,4000,,,,,MVFR,,,,,,,,,,,,METAR,91.0
LJCE 150930Z 27007KT 220V320 9999 FEW037 26/17 Q1011 RMK BLU,LJCE,2015-06-15T09:30:00Z,45.9,15.52,26.0,17.0,270,7,,6.21,29.852362,,,,,,,,,,,FEW,3700,,,,,,,VFR,,,,,,,,,,,,METAR,155.0
LRTM 150930Z VRB03KT 9999 FEW033 26/16 Q1013,LRTM,2015-06-15T09:30:00Z,46.47,24.42,26.0,16.0,0,3,,6.21,29.911417,,,,,,,,,,,FEW,3300,,,,,,,VFR,,,,,,,,,,,,METAR,309.0
LRSM 150930Z 15004KT 130V190 CAVOK 24/17 Q1012,LRSM,2015-06-15T09:30:00Z,47.7,22.88,24.0,17.0,150,4,,6.21,29.88189,,,,,,,,,,,CAVOK,,,,,,,,VFR,,,,,,,,,,,,METAR,124.0
LROD 150930Z 20006KT 160V240 CAVOK 26/15 Q1012,LROD,2015-06-15T09:30:00Z,47.03,21.92,26.0,15.0,200,6,,6.21,29.88189,,,,,,,,,,,CAVOK,,,,,,,,VFR,,,,,,,,,,,,METAR,140.0
LRCL 150930Z VRB03KT 9999 FEW025 24/18 Q1013,LRCL,2015-06-15T09:30:00Z,46.78,23.68,24.0,18.0,0,3,,6.21,29.911417,,,,,,,,,,,FEW,2500,,,,,,,VFR,,,,,,,,,,,,METAR,413.0
LRBM 150930Z 30004KT 230V360 9999 FEW038 26/16 Q1012 R10/19//95,LRBM,2015-06-15T09:30:00Z,47.67,23.47,26.0,16.0,300,4,,6.21,29.88189,,,,,,,,,,,FEW,3800,,,,,,,VFR,,,,,,,,,,,,METAR,185.0
LRAR 150930Z VRB06KT CAVOK 27/16 Q1012,LRAR,2015-06-15T09:30:00Z,46.18,21.27,27.0,16.0,0,6,,6.21,29.88189,,,,,,,,,,,CAVOK,,,,,,,,VFR,,,,,,,,,,,,METAR,118.0
LFRL 150930Z AUTO 34005KT 310V020 CAVOK 16/11 Q1020,LFRL,2015-06-15T09:30:00Z,48.27,-4.42,16.0,11.0,340,5,,6.21,30.11811,,,TRUE,,,,,,,,CAVOK,,,,,,,,VFR,,,,,,,,,,,,METAR,82.0
LFRJ 150930Z AUTO VRB03KT 9999 SCT013 SCT018 BKN044 16/13 Q1020,LFRJ,2015-06-15T09:30:00Z,48.52,-4.15,16.0,13.0,0,3,,6.21,30.11811,,,TRUE,,,,,,,,SCT,1300,SCT,1800,BKN,4400,,,VFR,,,,,,,,,,,,METAR,115.0
LFOJ 150930Z AUTO 36007KT 8000 ////// 17/13 Q1017,LFOJ,2015-06-15T09:30:00Z,47.97,1.75,17.0,13.0,360,7,,4.97,30.029528,,,TRUE,,,,,,,,,,,,,,,,,,,,,,,,,,,,METAR,125.0
LFOE 150930Z AUTO 02005KT 340V050 9999 OVC021 16/12 Q1019,LFOE,2015-06-15T09:30:00Z,49.02,1.22,16.0,12.0,20,5,,6.21,30.088583,,,TRUE,,,,,,,,OVC,2100,,,,,,,MVFR,,,,,,,,,,,,METAR,146.0
LFOC 150930Z AUTO 36006KT 330V030 9000 OVC013 17/13 Q1018,LFOC,2015-06-15T09:30:00Z,48.03,1.37,17.0,13.0,360,6,,5.59,30.059055,,,TRUE,,,,,,,,OVC,1300,,,,,,,MVFR,,,,,,,,,,,,METAR,127.0
LFSN 150930Z AUTO VRB02KT 9999 BKN024 21/14 Q1015,LFSN,2015-06-15T09:30:00Z,48.67,6.22,21.0,14.0,0,2,,6.21,29.970472,,,TRUE,,,,,,,,BKN,2400,,,,,,,MVFR,,,,,,,,,,,,METAR,217.0
LFQB 150930Z AUTO 35005KT 300V030 CAVOK 19/15 Q1016,LFQB,2015-06-15T09:30:00Z,48.32,4.02,19.0,15.0,350,5,,6.21,30.0,,,TRUE,,,,,,,,CAVOK,,,,,,,,VFR,,,,,,,,,,,,METAR,118.0
LFQA 150930Z AUTO 02007KT 320V060 9999 BKN025 OVC031 20/14 Q1016,LFQA,2015-06-15T09:30:00Z,49.2,4.15,20.0,14.0,20,7,,6.21,30.0,,,TRUE,,,,,,,,BKN,2500,OVC,3100,,,,,MVFR,,,,,,,,,,,,METAR,95.0
LFPB 150930Z AUTO 35008KT 320V040 9999 OVC026 18/11 Q1017,LFPB,2015-06-15T09:30:00Z,48.97,2.45,18.0,11.0,350,8,,6.21,30.029528,,,TRUE,,,,,,,,OVC,2600,,,,,,,MVFR,,,,,,,,,,,,METAR,65.0
LFOP 150930Z AUTO 04007KT 9999 OVC019 16/12 Q1019,LFOP,2015-06-15T09:30:00Z,49.37,1.17,16.0,12.0,40,7,,6.21,30.088583,,,TRUE,,,,,,,,OVC,1900,,,,,,,MVFR,,,,,,,,,,,,METAR,157.0
LFOK 150930Z AUTO 01009KT 9999 4000 BKN021 20/14 Q1016,LFOK,2015-06-15T09:30:00Z,48.78,4.18,20.0,14.0,10,9,,6.21,30.0,,,TRUE,,,,,,,,BKN,2100,,,,,,,MVFR,,,,,,,,,,,,METAR,162.0
LFOH 150930Z AUTO 02010KT 9999 OVC010 14/12 Q1020,LFOH,2015-06-15T09:30:00Z,49.52,0.07,14.0,12.0,20,10,,6.21,30.11811,,,TRUE,,,,,,,,OVC,1000,,,,,,,MVFR,,,,,,,,,,,,METAR,103.0
LFOB 150930Z AUTO 02008KT 350V050 9999 BKN020 OVC030 17/12 Q1018,LFOB,2015-06-15T09:30:00Z,49.47,2.12,17.0,12.0,20,8,,6.21,30.059055,,,TRUE,,,,,,,,BKN,2000,OVC,3000,,,,,MVFR,,,,,,,,,,,,METAR,111.0
LFMU 150930Z AUTO 28006KT 180V350 9999 SCT041 25/14 Q1015,LFMU,2015-06-15T09:30:00Z,43.32,3.35,25.0,14.0,280,6,,6.21,29.970472,,,TRUE,,,,,,,,SCT,4100,,,,,,,VFR,,,,,,,,,,,,METAR,17.0
LFLY 150930Z AUTO 27005KT 230V310 9999 SCT037 BKN066 22/13 Q1015,LFLY,2015-06-15T09:30:00Z,45.72,4.95,22.0,13.0,270,5,,6.21,29.970472,,,TRUE,,,,,,,,SCT,3700,BKN,6600,,,,,VFR,,,,,,,,,,,,METAR,201.0
LFLU 150930Z AUTO 05006KT 010V100 9999 FEW024 23/16 Q1014,LFLU,2015-06-15T09:30:00Z,44.92,4.98,23.0,16.0,50,6,,6.21,29.940945,,,TRUE,,,,,,,,FEW,2400,,,,,,,VFR,,,,,,,,,,,,METAR,160.0
LFLS 150930Z AUTO 28004KT 240V320 9999 FEW021/// SCT027/// BKN072/// ///TCU 20/15 Q1016,LFLS,2015-06-15T09:30:00Z,45.37,5.32,20.0,15.0,280,4,,6.21,30.0,,,TRUE,,,,,,,,,,,,,,,,,,,,,,,,,,,,METAR,386.0
LFLP 150930Z AUTO 23006KT 210V280 9999 SCT054 BKN066 OVC078 19/13 Q1016,LFLP,2015-06-15T09:30:00Z,45.92,6.08,19.0,13.0,230,6,,6.21,30.0,,,TRUE,,,,,,,,SCT,5400,BKN,6600,OVC,7800,,,VFR,,,,,,,,,,,,METAR,463.0
LFJL 150930Z AUTO 09005KT 020V170 CAVOK 22/12 Q1015,LFJL,2015-06-15T09:30:00Z,48.97,6.25,22.0,12.0,90,5,,6.21,29.970472,,,TRUE,,,,,,,,CAVOK,,,,,,,,VFR,,,,,,,,,,,,METAR,264.0
LFCR 150930Z AUTO 28007KT 240V320 9999 BKN024 BKN030 BKN210 17/12 Q1018,LFCR,2015-06-15T09:30:00Z,44.38,2.47,17.0,12.0,280,7,,6.21,30.059055,,,TRUE,,,,,,,,BKN,2400,BKN,3000,BKN,21000,,,MVFR,,,,,,,,,,,,METAR,580.0
LFTH 150930Z AUTO 23012KT CAVOK 24/17 Q1013,LFTH,2015-06-15T09:30:00Z,43.1,6.15,24.0,17.0,230,12,,6.21,29.911417,,,TRUE,,,,,,,,CAVOK,,,,,,,,VFR,,,,,,,,,,,,METAR,4.0
LFST 150930Z AUTO 03004KT 350V070 CAVOK 21/13 Q1015,LFST,2015-06-15T09:30:00Z,48.53,7.62,21.0,13.0,30,4,,6.21,29.970472,,,TRUE,,,,,,,,CAVOK,,,,,,,,VFR,,,,,,,,,,,,METAR,154.0
LFSG 150930Z AUTO VRB02KT 9999 BKN016 BKN021 OVC098 18/15 Q1016,LFSG,2015-06-15T09:30:00Z,48.33,6.07,18.0,15.0,0,2,,6.21,30.0,,,TRUE,,,,,,,,BKN,1600,BKN,2100,OVC,9800,,,MVFR,,,,,,,,,,,,METAR,330.0
LFSB 150930Z 35006KT 8000 -RA BKN006 BKN020 OVC046 18/16 Q1015 NOSIG,LFSB,2015-06-15T09:30:00Z,47.6,7.52,18.0,16.0,350,6,,4.97,29.970472,,,,,,TRUE,,,,-RA,BKN,600,BKN,2000,OVC,4600,,,IFR,,,,,,,,,,,,METAR,271.0
LFRZ 150930Z AUTO 03006KT 340V060 9999 BKN017 BKN025 OVC086 18/13 Q1019,LFRZ,2015-06-15T09:30:00Z,47.32,-2.17,18.0,13.0,30,6,,6.21,30.088583,,,TRUE,,,,,,,,BKN,1700,BKN,2500,OVC,8600,,,MVFR,,,,,,,,,,,,METAR,4.0
LFRV 150930Z AUTO 03009KT 350V070 9999 BKN024 OVC034 18/12 Q1019,LFRV,2015-06-15T09:30:00Z,47.72,-2.72,18.0,12.0,30,9,,6.21,30.088583,,,TRUE,,,,,,,,BKN,2400,OVC,3400,,,,,MVFR,,,,,,,,,,,,METAR,133.0
LFRO 150930Z AUTO 02006KT 350V050 9999 FEW013 BKN047 17/12 Q1020,LFRO,2015-06-15T09:30:00Z,48.75,-3.47,17.0,12.0,20,6,,6.21,30.11811,,,TRUE,,,,,,,,FEW,1300,BKN,4700,,,,,VFR,,,,,,,,,,,,METAR,89.0
LFRN 150930Z AUTO 04006KT 340V080 9999 SCT025 BKN033 BKN220 18/12 Q1019,LFRN,2015-06-15T09:30:00Z,48.07,-1.72,18.0,12.0,40,6,,6.21,30.088583,,,TRUE,,,,,,,,SCT,2500,BKN,3300,BKN,22000,,,VFR,,,,,,,,,,,,METAR,37.0
LFRM 150930Z AUTO 01005KT 340V050 9999 BKN013 BKN021 OVC054 17/13 Q1018,LFRM,2015-06-15T09:30:00Z,47.95,0.2,17.0,13.0,10,5,,6.21,30.059055,,,TRUE,,,,,,,,BKN,1300,BKN,2100,OVC,5400,,,MVFR,,,,,,,,,,,,METAR,52.0
LFRI 150930Z AUTO 02006KT 7000 -RA BKN008 OVC013 15/14 Q1018,LFRI,2015-06-15T09:30:00Z,46.7,-1.37,15.0,14.0,20,6,,4.35,30.059055,,,TRUE,,,,,,,-RA,BKN,800,OVC,1300,,,,,IFR,,,,,,,,,,,,METAR,91.0
LFRD 150930Z AUTO 03007KT 9000 BKN013 OVC020 15/13 Q1020,LFRD,2015-06-15T09:30:00Z,48.58,-2.07,15.0,13.0,30,7,,5.59,30.11811,,,TRUE,,,,,,,,BKN,1300,OVC,2000,,,,,MVFR,,,,,,,,,,,,METAR,59.0
LFOV 150930Z AUTO 36007KT 9999 OVC020 16/12 Q1019,LFOV,2015-06-15T09:30:00Z,48.03,-0.75,16.0,12.0,360,7,,6.21,30.088583,,,TRUE,,,,,,,,OVC,2000,,,,,,,MVFR,,,,,,,,,,,,METAR,101.0
LFMK 150930Z AUTO 28012KT 260V320 9999 BKN025 20/14 Q1017,LFMK,2015-06-15T09:30:00Z,43.22,2.32,20.0,14.0,280,12,,6.21,30.029528,,,TRUE,,,,,,,,BKN,2500,,,,,,,MVFR,,,,,,,,,,,,METAR,130.0
LFMI 150930Z AUTO 32005KT 270V360 9999 SCT026 24/16 Q1014,LFMI,2015-06-15T09:30:00Z,43.52,4.92,24.0,16.0,320,5,,6.21,29.940945,,,TRUE,,,,,,,,SCT,2600,,,,,,,VFR,,,,,,,,,,,,METAR,24.0
LJPZ 150930Z 23009KT 200V260 9999 FEW030 BKN080 25/18 Q1013,LJPZ,2015-06-15T09:30:00Z,45.47,13.62,25.0,18.0,230,9,,6.21,29.911417,,,,,,,,,,,FEW,3000,BKN,8000,,,,,VFR,,,,,,,,,,,,METAR,2.0
LJMB 150930Z 18004KT 140V290 CAVOK 24/14 Q1011,LJMB,2015-06-15T09:30:00Z,46.47,15.67,24.0,14.0,180,4,,6.21,29.852362,,,,,,,,,,,CAVOK,,,,,,,,VFR,,,,,,,,,,,,METAR,265.0
LJLJ 150930Z 28004KT 240V320 9999 SCT033 23/15 Q1013 NOSIG,LJLJ,2015-06-15T09:30:00Z,46.22,14.47,23.0,15.0,280,4,,6.21,29.911417,,,,,,TRUE,,,,,SCT,3300,,,,,,,VFR,,,,,,,,,,,,METAR,385.0
LFRU 150930Z AUTO VRB02KT 9999 FEW015 OVC045 17/12 Q1020,LFRU,2015-06-15T09:30:00Z,48.6,-3.82,17.0,12.0,0,2,,6.21,30.11811,,,TRUE,,,,,,,,FEW,1500,OVC,4500,,,,,VFR,,,,,,,,,,,,METAR,86.0
LFRK 150930Z AUTO 03007KT 350V060 9999 BKN011 BKN020 OVC041 15/13 Q1020,LFRK,2015-06-15T09:30:00Z,49.17,-0.45,15.0,13.0,30,7,,6.21,30.11811,,,TRUE,,,,,,,,BKN,1100,BKN,2000,OVC,4100,,,MVFR,,,,,,,,,,,,METAR,67.0
LFRG 150930Z AUTO 03007KT 360V070 9999 BKN011 BKN027 OVC034 15/13 Q1019,LFRG,2015-06-15T09:30:00Z,49.37,0.15,15.0,13.0,30,7,,6.21,30.088583,,,TRUE,,,,,,,,BKN,1100,BKN,2700,OVC,3400,,,MVFR,,,,,,,,,,,,METAR,146.0
LFRC 150930Z AUTO 03007KT 9999 OVC004 13/12 Q1021,LFRC,2015-06-15T09:30:00Z,49.63,-1.47,13.0,12.0,30,7,,6.21,30.147638,,,TRUE,,,,,,,,OVC,400,,,,,,,LIFR,,,,,,,,,,,,METAR,138.0
LFPN 150930Z AUTO 34008KT 300V010 9999 BKN020 18/12 Q1017,LFPN,2015-06-15T09:30:00Z,48.75,2.12,18.0,12.0,340,8,,6.21,30.029528,,,TRUE,,,,,,,,BKN,2000,,,,,,,MVFR,,,,,,,,,,,,METAR,164.0
LFOT 150930Z AUTO 02004KT 320V070 9000 OVC011 16/14 Q1018,LFOT,2015-06-15T09:30:00Z,47.43,0.72,16.0,14.0,20,4,,5.59,30.059055,,,TRUE,,,,,,,,OVC,1100,,,,,,,MVFR,,,,,,,,,,,,METAR,108.0
LFMD 150930Z AUTO 25008KT 200V300 CAVOK 27/14 Q1012,LFMD,2015-06-15T09:30:00Z,43.53,6.95,27.0,14.0,250,8,,6.21,29.88189,,,TRUE,,,,,,,,CAVOK,,,,,,,,VFR,,,,,,,,,,,,METAR,9.0
LFJR 150930Z AUTO 35005KT 320V020 6000 BKN008 OVC013 15/14 Q1018,LFJR,2015-06-15T09:30:00Z,47.57,-0.3,15.0,14.0,350,5,,3.73,30.059055,,,TRUE,,,,,,,,BKN,800,OVC,1300,,,,,IFR,,,,,,,,,,,,METAR,60.0
LFGJ 150930Z AUTO 00000KT 9999 -RA FEW010/// SCT035/// BKN041/// ///TCU 18/16 Q1015,LFGJ,2015-06-15T09:30:00Z,47.05,5.43,18.0,16.0,0,0,,6.21,29.970472,,,TRUE,,,,,,,-RA,,,,,,,,,,,,,,,,,,,,,METAR,196.0
EIKN 150930Z 19004KT 150V240 9999 FEW029 BKN100 12/07 Q1021 NOSIG,EIKN,2015-06-15T09:30:00Z,53.92,-8.82,12.0,7.0,190,4,,6.21,30.147638,,,,,,TRUE,,,,,FEW,2900,BKN,10000,,,,,VFR,,,,,,,,,,,,METAR,64.0
EICK 150930Z 16003KT 9999 FEW012 BKN160 14/11 Q1022 NOSIG,EICK,2015-06-15T09:30:00Z,51.85,-8.47,14.0,11.0,160,3,,6.21,30.177166,,,,,,TRUE,,,,,FEW,1200,BKN,16000,,,,,VFR,,,,,,,,,,,,METAR,162.0
EINN 150930Z 10002KT CAVOK 14/09 Q1021 NOSIG,EINN,2015-06-15T09:30:00Z,52.7,-8.92,14.0,9.0,100,2,,6.21,30.147638,,,,,,TRUE,,,,,CAVOK,,,,,,,,VFR,,,,,,,,,,,,METAR,20.0
EIDW 150930Z 15004KT 100V260 9999 FEW024 BKN090 15/10 Q1021 NOSIG,EIDW,2015-06-15T09:30:00Z,53.42,-6.25,15.0,10.0,150,4,,6.21,30.147638,,,,,,TRUE,,,,,FEW,2400,BKN,9000,,,,,VFR,,,,,,,,,,,,METAR,85.0
LQTZ 150930Z VRB03KT 9999 BKN050 28/18 Q1013,LQTZ,2015-06-15T09:30:00Z,44.47,18.73,28.0,18.0,0,3,,6.21,29.911417,,,,,,,,,,,BKN,5000,,,,,,,VFR,,,,,,,,,,,,METAR,306.0
LQSA 150930Z 15003KT 9999 FEW050 SCT060 26/14 Q1015 NOSIG,LQSA,2015-06-15T09:30:00Z,43.82,18.32,26.0,14.0,150,3,,6.21,29.970472,,,,,,TRUE,,,,,FEW,5000,SCT,6000,,,,,VFR,,,,,,,,,,,,METAR,511.0
LQBK 150930Z 25012KT 9999 FEW040 29/14 Q1012 NOSIG,LQBK,2015-06-15T09:30:00Z,44.93,17.3,29.0,14.0,250,12,,6.21,29.88189,,,,,,TRUE,,,,,FEW,4000,,,,,,,VFR,,,,,,,,,,,,METAR,122.0
LYVR 150930Z 30004KT 210V360 CAVOK 29/16 Q1012 NOSIG,LYVR,2015-06-15T09:30:00Z,45.13,21.32,29.0,16.0,300,4,,6.21,29.88189,,,,,,TRUE,,,,,CAVOK,,,,,,,,VFR,,,,,,,,,,,,METAR,85.0
LYUZ 150930Z VRB06KT 9999 FEW020 24/12 Q1016,LYUZ,2015-06-15T09:30:00Z,43.9,19.7,24.0,12.0,0,6,,6.21,30.0,,,,,,,,,,,FEW,2000,,,,,,,VFR,,,,,,,,,,,,METAR,904.0
LYTV 150930Z 16005KT 110V250 9999 FEW040 28/18 Q1014 NOSIG,LYTV,2015-06-15T09:30:00Z,42.38,18.72,28.0,18.0,160,5,,6.21,29.940945,,,,,,TRUE,,,,,FEW,4000,,,,,,,VFR,,,,,,,,,,,,METAR,5.0
LYPG 150930Z 14009KT 110V180 9999 FEW040 29/12 Q1014 NOSIG,LYPG,2015-06-15T09:30:00Z,42.37,19.25,29.0,12.0,140,9,,6.21,29.940945,,,,,,TRUE,,,,,FEW,4000,,,,,,,VFR,,,,,,,,,,,,METAR,43.0
LYNI 150930Z VRB03KT CAVOK 30/11 Q1013 NOSIG,LYNI,2015-06-15T09:30:00Z,43.32,21.88,30.0,11.0,0,3,,6.21,29.911417,,,,,,TRUE,,,,,CAVOK,,,,,,,,VFR,,,,,,,,,,,,METAR,202.0
LYKV 150930Z VRB02KT 9999 FEW040 28/13 Q1013 NOSIG,LYKV,2015-06-15T09:30:00Z,43.82,20.58,28.0,13.0,0,2,,6.21,29.911417,,,,,,TRUE,,,,,FEW,4000,,,,,,,VFR,,,,,,,,,,,,METAR,209.0
LYBT 150930Z VRB03KT CAVOK 29/14 Q1012 NOSIG,LYBT,2015-06-15T09:30:00Z,44.93,20.25,29.0,14.0,0,3,,6.21,29.88189,,,,,,TRUE,,,,,CAVOK,,,,,,,,VFR,,,,,,,,,,,,METAR,80.0
LYBE 150930Z 30005KT 260V360 CAVOK 28/15 Q1012 NOSIG,LYBE,2015-06-15T09:30:00Z,44.82,20.28,28.0,15.0,300,5,,6.21,29.88189,,,,,,TRUE,,,,,CAVOK,,,,,,,,VFR,,,,,,,,,,,,METAR,99.0
VTSS 150930Z 24007KT 9999 SCT018 SCT120 BKN300 28/23 Q1006 A2972 NOSIG,VTSS,2015-06-15T09:30:00Z,6.92,100.38,28.0,23.0,240,7,,6.21,29.704725,,,,,,TRUE,,,,,SCT,1800,SCT,12000,BKN,30000,,,VFR,,,,,,,,,,,,METAR,35.0
NZAA 150930Z AUTO 21021KT 9999 BKN047/// OVC055/// 12/07 Q1016 NOSIG,NZAA,2015-06-15T09:30:00Z,-37.02,174.8,12.0,7.0,210,21,,6.21,30.0,,,TRUE,,,TRUE,,,,,,,,,,,,,,,,,,,,,,,,,METAR,6.0
NZWN 150930Z AUTO 19016KT 9999 NCD 10/01 Q1015 NOSIG,NZWN,2015-06-15T09:30:00Z,-41.32,174.8,10.0,1.0,190,16,,6.21,29.970472,,,TRUE,,,TRUE,,,,,,,,,,,,,,,,,,,,,,,,,METAR,7.0
NZCH 150930Z AUTO 24010KT 9999 BKN060/// BKN075/// BKN085/// 06/M02 Q1017 NOSIG,NZCH,2015-06-15T09:30:00Z,-43.47,172.55,6.0,-2.0,240,10,,6.21,30.029528,,,TRUE,,,TRUE,,,,,,,,,,,,,,,,,,,,,,,,,METAR,34.0
RJGG 150930Z 15005KT CAVOK 25/18 Q1007 NOSIG,RJGG,2015-06-15T09:30:00Z,34.87,136.8,25.0,18.0,150,5,,6.21,29.734253,,,,,,TRUE,,,,,CAVOK,,,,,,,,VFR,,,,,,,,,,,,METAR,5.0
VOCL 150930Z 26004KT 8000 FEW012 SCT018 30/26 Q1007 NOSIG,VOCL,2015-06-15T09:30:00Z,11.13,75.95,30.0,26.0,260,4,,4.97,29.734253,,,,,,TRUE,,,,,FEW,1200,SCT,1800,,,,,MVFR,,,,,,,,,,,,METAR,104.0
UBBB 150930Z 14010KT CAVOK 30/08 Q1010 88CLRD70 NOSIG,UBBB,2015-06-15T09:30:00Z,40.45,50.07,30.0,8.0,140,10,,6.21,29.822834,,,,,,TRUE,,,,,CAVOK,,,,,,,,VFR,,,,,,,,,,,,METAR,-6.0
FMEP 150930Z AUTO 31005KT 280V340 9999 SCT027 SCT033 BKN066 24/19 Q1013,FMEP,2015-06-15T09:30:00Z,-21.32,55.42,24.0,19.0,310,5,,6.21,29.911417,,,TRUE,,,,,,,,SCT,2700,SCT,3300,BKN,6600,,,VFR,,,,,,,,,,,,METAR,53.0
FMEE 150930Z 03004KT 360V060 9999 FEW026 27/19 Q1011 NOSIG,FMEE,2015-06-15T09:30:00Z,-20.87,55.52,27.0,19.0,30,4,,6.21,29.852362,,,,,,TRUE,,,,,FEW,2600,,,,,,,VFR,,,,,,,,,,,,METAR,25.0
WMKP 150930Z 25005KT 9999 FEW017CB BKN140 BKN270 30/25 Q1006 NOSIG,WMKP,2015-06-15T09:30:00Z,5.28,100.27,30.0,25.0,250,5,,6.21,29.704725,,,,,,TRUE,,,,,FEW,1700,BKN,14000,BKN,27000,,,VFR,,,,,,,,,,,,METAR,4.0
WMKK 150930Z 19003KT 9999 FEW017CB SCT140 BKN280 30/23 Q1006 NOSIG,WMKK,2015-06-15T09:30:00Z,2.75,101.72,30.0,23.0,190,3,,6.21,29.704725,,,,,,TRUE,,,,,FEW,1700,SCT,14000,BKN,28000,,,VFR,,,,,,,,,,,,METAR,22.0
WBSB 150930Z 26009KT 9999 SCT015 FEW016CB SCT140 BKN280 28/25 Q1007 NOSIG,WBSB,2015-06-15T09:30:00Z,4.92,114.92,28.0,25.0,260,9,,6.21,29.734253,,,,,,TRUE,,,,,SCT,1500,FEW,1600,SCT,14000,BKN,28000,VFR,,,,,,,,,,,,METAR,15.0
WBKK 150930Z 02002KT 9999 -RA FEW013 SCT040 BKN130 29/26 Q1007 NOSIG,WBKK,2015-06-15T09:30:00Z,5.92,116.03,29.0,26.0,20,2,,6.21,29.734253,,,,,,TRUE,,,,-RA,FEW,1300,SCT,4000,BKN,13000,,,VFR,,,,,,,,,,,,METAR,3.0
WBGG 150930Z 14006KT 9999 FEW015CB SCT020 BKN150 29/24 Q1006 NOSIG,WBGG,2015-06-15T09:30:00Z,1.47,110.35,29.0,24.0,140,6,,6.21,29.704725,,,,,,TRUE,,,,,FEW,1500,SCT,2000,BKN,15000,,,VFR,,,,,,,,,,,,METAR,27.0
UWUU 150930Z 26002MPS CAVOK 28/11 Q1011 WS R32R R32R/0///60 NOSIG RMK QFE747/0996,UWUU,2015-06-15T09:30:00Z,54.57,55.87,28.0,11.0,260,4,,6.21,29.852362,,,,,,TRUE,,,,,CAVOK,,,,,,,,VFR,,,,,,,,,,,,METAR,137.0
USHH 150930Z 28003MPS 250V350 CAVOK 19/07 Q1000 R24/010060 NOSIG RMK QFE746,USHH,2015-06-15T09:30:00Z,61.03,69.08,19.0,7.0,280,6,,6.21,29.52756,,,,,,TRUE,,,,,CAVOK,,,,,,,,VFR,,,,,,,,,,,,METAR,23.0
USTR 150930Z 30006MPS 9999 BKN033CB 21/13 Q1005 R30/CLRD65 NOSIG RMK QFE744/0992,USTR,2015-06-15T09:30:00Z,57.17,65.32,21.0,13.0,300,12,,6.21,29.675198,,,,,,TRUE,,,,,BKN,3300,,,,,,,VFR,,,,,,,,,,,,METAR,115.0
UNTT 150930Z 23007MPS 9999 FEW030CB SCT040 23/10 Q1003 R21/090060 NOSIG RMK QFE737,UNTT,2015-06-15T09:30:00Z,56.38,85.22,23.0,10.0,230,14,,6.21,29.616142,,,,,,TRUE,,,,,FEW,3000,SCT,4000,,,,,VFR,,,,,,,,,,,,METAR,182.0
UNOO 150930Z 29003MPS 8000 -SHRA BKN015 BKN033CB 13/12 Q1002 R25/290050 NOSIG RMK QFE743,UNOO,2015-06-15T09:30:00Z,54.97,73.32,13.0,12.0,290,6,,4.97,29.586615,,,,,,TRUE,,,,-SHRA,BKN,1500,BKN,3300,,,,,MVFR,,,,,,,,,,,,METAR,95.0
UNNT 150930Z 19007MPS CAVOK 22/09 Q1003 R25/090070 R16/090070 NOSIG RMK QFE743/0990,UNNT,2015-06-15T09:30:00Z,55.02,82.63,22.0,9.0,190,14,,6.21,29.616142,,,,,,TRUE,,,,,CAVOK,,,,,,,,VFR,,,,,,,,,,,,METAR,111.0
UNKL 150930Z 08003MPS 9999 SCT040CB 28/12 Q1004 R11/CLRD65 NOSIG RMK QFE728,UNKL,2015-06-15T09:30:00Z,56.17,92.48,28.0,12.0,80,6,,6.21,29.64567,,,,,,TRUE,,,,,SCT,4000,,,,,,,VFR,,,,,,,,,,,,METAR,276.0
UNEE 150930Z 22005MPS 9999 SCT040 24/14 Q1005 R23/CLRD60 NOSIG RMK QFE731,UNEE,2015-06-15T09:30:00Z,55.27,86.08,24.0,14.0,220,10,,6.21,29.675198,,,,,,TRUE,,,,,SCT,4000,,,,,,,VFR,,,,,,,,,,,,METAR,260.0
UNBB 150930Z 19007MPS 9999 SCT040CB 21/08 Q1007 R24/CLRD66 NOSIG RMK QFE733,UNBB,2015-06-15T09:30:00Z,53.37,83.53,21.0,8.0,190,14,,6.21,29.734253,,,,,,TRUE,,,,,SCT,4000,,,,,,,VFR,,,,,,,,,,,,METAR,255.0
UNAA 150930Z 05004MPS 010V100 CAVOK 30/10 Q1003 R20/090065 NOSIG RMK QFE730,UNAA,2015-06-15T09:30:00Z,53.75,91.4,30.0,10.0,50,8,,6.21,29.616142,,,,,,TRUE,,,,,CAVOK,,,,,,,,VFR,,,,,,,,,,,,METAR,245.0
USDD 150930Z 35006MPS 9999 FEW040CB BKN100 14/05 Q1001 R04/CLRD60 NOSIG RMK QFE745/0993,USDD,2015-06-15T09:30:00Z,66.58,66.62,14.0,5.0,350,12,,6.21,29.557087,,,,,,TRUE,,,,,FEW,4000,BKN,10000,,,,,VFR,,,,,,,,,,,,METAR,67.0
UOOO 150930Z 11008MPS CAVOK 21/01 Q1006 R19/0///60 NOSIG RMK QFE739,UOOO,2015-06-15T09:30:00Z,69.32,87.33,21.0,1.0,110,16,,6.21,29.704725,,,,,,TRUE,,,,,CAVOK,,,,,,,,VFR,,,,,,,,,,,,METAR,175.0
UERR 150930Z 32006MPS 9999 -SHRA BKN030CB 14/07 Q1008 R25/010060 NOSIG RMK QFE725,UERR,2015-06-15T09:30:00Z,62.53,114.05,14.0,7.0,320,12,,6.21,29.763779,,,,,,TRUE,,,,-SHRA,BKN,3000,,,,,,,MVFR,,,,,,,,,,,,METAR,347.0
UERP 150930Z 33004MPS 9999 -RA FEW043 OVC100 09/02 Q1008 R35/090060 NOSIG RMK QFE712,UERP,2015-06-15T09:30:00Z,66.4,112.03,9.0,2.0,330,8,,6.21,29.763779,,,,,,TRUE,,,,-RA,FEW,4300,OVC,10000,,,,,VFR,,,,,,,,,,,,METAR,509.0
UEEE 150930Z 32006MPS CAVOK 15/M04 Q1003 R23L/09//60 NOSIG RMK QFE743,UEEE,2015-06-15T09:30:00Z,62.08,129.77,15.0,-4.0,320,12,,6.21,29.616142,,,,,,TRUE,,,,,CAVOK,,,,,,,,VFR,,,,,,,,,,,,METAR,103.0
UWGG 150930Z 23004MPS CAVOK 29/16 Q1007 R18R/090070 NOSIG RMK QFE748,UWGG,2015-06-15T09:30:00Z,56.23,43.78,29.0,16.0,230,8,,6.21,29.734253,,,,,,TRUE,,,,,CAVOK,,,,,,,,VFR,,,,,,,,,,,,METAR,73.0
UUOB 150930Z 23006MPS CAVOK 31/10 Q1012 R29/090060 NOSIG,UUOB,2015-06-15T09:30:00Z,50.65,36.58,31.0,10.0,230,12,,6.21,29.88189,,,,,,TRUE,,,,,CAVOK,,,,,,,,VFR,,,,,,,,,,,,METAR,224.0
UUBP 150930Z 22006MPS 9999 BKN033 27/15 Q1008 R16/CLRD70 RMK QFE738/0984,UUBP,2015-06-15T09:30:00Z,53.22,34.18,27.0,15.0,220,12,,6.21,29.763779,,,,,,,,,,,BKN,3300,,,,,,,VFR,,,,,,,,,,,,METAR,202.0
ULWC 150930Z 27003MPS 9999 -SHRA BKN019CB OVC/// 21/18 Q1001 R21/010060 TEMPO 2000 TSRA SCT005 RMK QFE741/0988,ULWC,2015-06-15T09:30:00Z,59.28,38.02,21.0,18.0,270,6,,6.21,29.557087,,,,,,,,,,-SHRA,BKN,1900,,,,,,,MVFR,,,,,,,,,,,,METAR,115.0
UWWW 150930Z 24009MPS 220V280 CAVOK 31/05 Q1013 R23/CLRD60 NOSIG RMK QFE748/0998,UWWW,2015-06-15T09:30:00Z,53.5,50.17,31.0,5.0,240,17,,6.21,29.911417,,,,,,TRUE,,,,,CAVOK,,,,,,,,VFR,,,,,,,,,,,,METAR,146.0
UWSS 150930Z 16006MPS CAVOK 31/05 Q1014 R12/010095 NOSIG RMK QFE749,UWSS,2015-06-15T09:30:00Z,51.57,46.07,31.0,5.0,160,12,,6.21,29.940945,,,,,,TRUE,,,,,CAVOK,,,,,,,,VFR,,,,,,,,,,,,METAR,166.0
UWOO 150930Z 30007MPS 260V340 P5000 BKN040 31/06 Q1015 R26/65D NOSIG RMK QFE751/1001,UWOO,2015-06-15T09:30:00Z,51.8,55.47,31.0,6.0,300,14,,3.11,29.970472,,,,,,TRUE,,,,,BKN,4000,,,,,,,MVFR,,,,,,,,,,,,METAR,109.0
UWKS 150930Z 23007MPS 9999 FEW040 27/14 Q1008 R24/000060 NOSIG RMK QFE742,UWKS,2015-06-15T09:30:00Z,56.08,47.35,27.0,14.0,230,14,,6.21,29.763779,,,,,,TRUE,,,,,FEW,4000,,,,,,,VFR,,,,,,,,,,,,METAR,170.0
UWKE 150930Z 24007G12MPS 9999 FEW040 28/19 Q1010 R21/090070 NOSIG RMK QFE740/0987,UWKE,2015-06-15T09:30:00Z,55.57,52.08,28.0,19.0,240,14,23,6.21,29.822834,,,,,,TRUE,,,,,FEW,4000,,,,,,,VFR,,,,,,,,,,,,METAR,196.0
UWKD 150930Z 25006MPS 190V280 CAVOK 31/14 Q1009 R29/70D NOSIG RMK QFE745/0994,UWKD,2015-06-15T09:30:00Z,55.62,49.28,31.0,14.0,250,12,,6.21,29.793306,,,,,,TRUE,,,,,CAVOK,,,,,,,,VFR,,,,,,,,,,,,METAR,126.0
USPP 150930Z 27005MPS 9999 BKN046 BKN200 24/14 Q1006 R21/090060 NOSIG RMK QFE744,USPP,2015-06-15T09:30:00Z,57.92,56.02,24.0,14.0,270,10,,6.21,29.704725,,,,,,TRUE,,,,,BKN,4600,BKN,20000,,,,,VFR,,,,,,,,,,,,METAR,123.0
UUMO 150930Z 20006MPS 160V240 CAVOK 27/17 Q1006 R26/090060 NOSIG RMK QFE739/0986,UUMO,2015-06-15T09:30:00Z,55.52,37.5,27.0,17.0,200,12,,6.21,29.704725,,,,,,TRUE,,,,,CAVOK,,,,,,,,VFR,,,,,,,,,,,,METAR,174.0
UUWW 150930Z 22004MPS 180V260 CAVOK 27/15 Q1006 R19/000070 NOSIG,UUWW,2015-06-15T09:30:00Z,55.6,37.27,27.0,15.0,220,8,,6.21,29.704725,,,,,,TRUE,,,,,CAVOK,,,,,,,,VFR,,,,,,,,,,,,METAR,203.0
UUEE 150930Z 21004MPS 9999 SCT053CB 24/16 Q1006 R25R/000062 R25L/000062 NOSIG,UUEE,2015-06-15T09:30:00Z,55.97,37.42,24.0,16.0,210,8,,6.21,29.704725,,,,,,TRUE,,,,,SCT,5300,,,,,,,VFR,,,,,,,,,,,,METAR,190.0
UUDL 150930Z 22005MPS CAVOK 23/17 Q1004 R23/010095 NOSIG RMK QFE745,UUDL,2015-06-15T09:30:00Z,57.57,40.17,23.0,17.0,220,10,,6.21,29.64567,,,,,,TRUE,,,,,CAVOK,,,,,,,,VFR,,,,,,,,,,,,METAR,88.0
UUDD 150930Z 19006MPS 160V230 CAVOK 29/16 Q1006 R88/010095 NOSIG,UUDD,2015-06-15T09:30:00Z,55.4,37.9,29.0,16.0,190,12,,6.21,29.704725,,,,,,TRUE,,,,,CAVOK,,,,,,,,VFR,,,,,,,,,,,,METAR,168.0
UUBW 150930Z 21005MPS CAVOK 29/16 Q1006 R30/////60 NOSIG,UUBW,2015-06-15T09:30:00Z,55.55,38.15,29.0,16.0,210,10,,6.21,29.704725,,,,,,TRUE,,,,,CAVOK,,,,,,,,VFR,,,,,,,,,,,,METAR,115.0
ULLI 150930Z 21006MPS 9999 SCT036CB BKN050 18/10 Q1000 R88/090070 NOSIG,ULLI,2015-06-15T09:30:00Z,59.8,30.27,18.0,10.0,210,12,,6.21,29.52756,,,,,,TRUE,,,,,SCT,3600,BKN,5000,,,,,VFR,,,,,,,,,,,,METAR,4.0
USCM 150930Z 31008G13MPS 9999 OVC040CB 25/08 Q1013 R01/090065 NOSIG RMK QFE722,USCM,2015-06-15T09:30:00Z,53.4,58.75,25.0,8.0,310,16,25,6.21,29.911417,,,,,,TRUE,,,,,OVC,4000,,,,,,,VFR,,,,,,,,,,,,METAR,435.0
UIUU 150930Z 31005MPS 9999 FEW040CB 26/09 Q1004 R26/010095 NOSIG RMK QFE709/0945,UIUU,2015-06-15T09:30:00Z,51.8,107.45,26.0,9.0,310,10,,6.21,29.64567,,,,,,TRUE,,,,,FEW,4000,,,,,,,VFR,,,,,,,,,,,,METAR,515.0
UIII 150930Z 14002MPS CAVOK 27/09 Q1004 R30/60D NOSIG RMK QFE709/0946,UIII,2015-06-15T09:30:00Z,52.27,104.4,27.0,9.0,140,4,,6.21,29.64567,,,,,,TRUE,,,,,CAVOK,,,,,,,,VFR,,,,,,,,,,,,METAR,513.0
UIBB 150930Z 00000MPS 9999 NSC 23/04 Q1007 R30/60D NOSIG RMK QFE713/0951,UIBB,2015-06-15T09:30:00Z,56.37,101.7,23.0,4.0,0,0,,6.21,29.734253,,,,,,TRUE,,,,,,,,,,,,,,,,,,,,,,,,,METAR,490.0
UIAA 150930Z 08004MPS 9999 SCT043 22/12 Q1003 R29/70D NOSIG RMK QFE694,UIAA,2015-06-15T09:30:00Z,52.02,113.32,22.0,12.0,80,8,,6.21,29.616142,,,,,,TRUE,,,,,SCT,4300,,,,,,,VFR,,,,,,,,,,,,METAR,685.0
UHWW 150930Z 19002MPS 100V220 9999 NSC 20/15 Q1005 R25L/0///70 NOSIG RMK QFE753,UHWW,2015-06-15T09:30:00Z,43.4,132.15,20.0,15.0,190,4,,6.21,29.675198,,,,,,TRUE,,,,,,,,,,,,,,,,,,,,,,,,,METAR,184.0
UHSS 150930Z 15004MPS 9999 NSC 17/13 Q1005 R19/70D NOSIG RMK QFE752/1003,UHSS,2015-06-15T09:30:00Z,46.88,142.72,17.0,13.0,150,8,,6.21,29.675198,,,,,,TRUE,,,,,,,,,,,,,,,,,,,,,,,,,METAR,31.0
UHPP 150930Z 16003MPS 9999 SCT026CB BKN100 11/07 Q1017 R34R/290250 NOSIG RMK MT OBSC QFE759/1012,UHPP,2015-06-15T09:30:00Z,53.17,158.45,11.0,7.0,160,6,,6.21,30.029528,,,,,,TRUE,,,,,SCT,2600,BKN,10000,,,,,VFR,,,,,,,,,,,,METAR,40.0
UHHH 150930Z 23003MPS CAVOK 26/19 Q1001 R88/60D NOSIG RMK QFE744/0992,UHHH,2015-06-15T09:30:00Z,48.52,135.18,26.0,19.0,230,6,,6.21,29.557087,,,,,,TRUE,,,,,CAVOK,,,,,,,,VFR,,,,,,,,,,,,METAR,72.0
UHBB 150930Z 23003MPS 180V250 9999 FEW033 BKN200 31/12 Q0997 R36/090060 NOSIG RMK QFE730/0974,UHBB,2015-06-15T09:30:00Z,50.43,127.42,31.0,12.0,230,6,,6.21,29.438976,,,,,,TRUE,,,,,FEW,3300,BKN,20000,,,,,VFR,,,,,,,,,,,,METAR,195.0
USCC 150930Z 29007MPS 9999 SCT040CB 25/09 Q1008 R27/000060 TEMPO 29014MPS RMK QFE736,USCC,2015-06-15T09:30:00Z,55.3,61.5,25.0,9.0,290,14,,6.21,29.763779,,,,,,,,,,,SCT,4000,,,,,,,VFR,,,,,,,,,,,,METAR,234.0
USNN 150930Z 13003MPS 9999 BKN012 BKN017CB 19/17 Q0991 R03/220254 TEMPO 2000 SHRA BR BKN006 RMK QFE739,USNN,2015-06-15T09:30:00Z,60.95,76.48,19.0,17.0,130,6,,6.21,29.26181,,,,,,,,,,,BKN,1200,BKN,1700,,,,,MVFR,,,,,,,,,,,,METAR,54.0
USRR 150930Z 33006MPS 7000 SCT021CB SCT029 15/12 Q0996 R25/250250 NOSIG RMK QFE742,USRR,2015-06-15T09:30:00Z,61.33,73.42,15.0,12.0,330,12,,4.35,29.409449,,,,,,TRUE,,,,,SCT,2100,SCT,2900,,,,,MVFR,,,,,,,,,,,,METAR,44.0
USSS 150930Z 28009MPS CAVOK 25/16 Q1007 R26R/010060 R26L/220050 TEMPO 30012MPS RMK QFE735,USSS,2015-06-15T09:30:00Z,56.75,60.82,25.0,16.0,280,17,,6.21,29.734253,,,,,,,,,,,CAVOK,,,,,,,,VFR,,,,,,,,,,,,METAR,233.0
LKPR 150930Z 34010KT 9999 SCT022 17/11 Q1015 NOSIG,LKPR,2015-06-15T09:30:00Z,50.1,14.27,17.0,11.0,340,10,,6.21,29.970472,,,,,,TRUE,,,,,SCT,2200,,,,,,,VFR,,,,,,,,,,,,METAR,365.0
LKMT 150930Z 36011KT 9999 SCT009 OVC017 17/15 Q1012 NOSIG,LKMT,2015-06-15T09:30:00Z,49.67,18.12,17.0,15.0,360,11,,6.21,29.88189,,,,,,TRUE,,,,,SCT,900,OVC,1700,,,,,MVFR,,,,,,,,,,,,METAR,256.0
LKKV 150930Z 01005KT 350V050 9999 OVC019 14/10 Q1016,LKKV,2015-06-15T09:30:00Z,50.2,12.92,14.0,10.0,10,5,,6.21,30.0,,,,,,,,,,,OVC,1900,,,,,,,MVFR,,,,,,,,,,,,METAR,604.0
WSSS 150930Z 21004KT 190V290 9999 FEW018TCU BKN270 29/25 Q1007 NOSIG,WSSS,2015-06-15T09:30:00Z,1.37,103.97,29.0,25.0,210,4,,6.21,29.734253,,,,,,TRUE,,,,,FEW,1800,BKN,27000,,,,,VFR,,,,,,,,,,,,METAR,16.0
LCPH 150930Z 27011KT 9999 FEW025 27/23 Q1009,LCPH,2015-06-15T09:30:00Z,34.72,32.47,27.0,23.0,270,11,,6.21,29.793306,,,,,,,,,,,FEW,2500,,,,,,,VFR,,,,,,,,,,,,METAR,8.0
LCLK 150930Z 21014KT 180V240 9999 FEW030 30/17 Q1008 NOSIG,LCLK,2015-06-15T09:30:00Z,34.87,33.62,30.0,17.0,210,14,,6.21,29.763779,,,,,,TRUE,,,,,FEW,3000,,,,,,,VFR,,,,,,,,,,,,METAR,2.0
GMTT 150930Z 21008KT 180V250 6000 BKN016 19/16 Q1019 NOSIG,GMTT,2015-06-15T09:30:00Z,35.72,-5.9,19.0,16.0,210,8,,3.73,30.088583,,,,,,TRUE,,,,,BKN,1600,,,,,,,MVFR,,,,,,,,,,,,METAR,21.0
GMMX 150930Z VRB04KT 9999 SCT026 21/10 Q1020 NOSIG,GMMX,2015-06-15T09:30:00Z,31.62,-8.02,21.0,10.0,0,4,,6.21,30.11811,,,,,,TRUE,,,,,SCT,2600,,,,,,,VFR,,,,,,,,,,,,METAR,466.0
GMMN 150930Z VRB02KT 9999 BKN016 21/14 Q1020 NOSIG,GMMN,2015-06-15T09:30:00Z,33.37,-7.57,21.0,14.0,0,2,,6.21,30.11811,,,,,,TRUE,,,,,BKN,1600,,,,,,,MVFR,,,,,,,,,,,,METAR,206.0
GMME 150930Z 26006KT 190V310 9999 SCT015 BKN020 22/13 Q1020 NOSIG,GMME,2015-06-15T09:30:00Z,34.03,-6.77,22.0,13.0,260,6,,6.21,30.11811,,,,,,TRUE,,,,,SCT,1500,BKN,2000,,,,,MVFR,,,,,,,,,,,,METAR,75.0
GMAD 150930Z VRB03KT CAVOK 22/10 Q1018 NOSIG,GMAD,2015-06-15T09:30:00Z,30.32,-9.42,22.0,10.0,0,3,,6.21,30.059055,,,,,,TRUE,,,,,CAVOK,,,,,,,,VFR,,,,,,,,,,,,METAR,74.0
UGKO 150930Z 29008KT 250V340 9999 FEW031 BKN046 27/18 Q1009 R07/09//70 NOSIG,UGKO,2015-06-15T09:30:00Z,42.18,42.48,27.0,18.0,290,8,,6.21,29.793306,,,,,,TRUE,,,,,FEW,3100,BKN,4600,,,,,VFR,,,,,,,,,,,,METAR,68.0
UGSB 150930Z 25010KT 9999 FEW013 SCT026 23/20 Q1013 R13/70D NOSIG,UGSB,2015-06-15T09:30:00Z,41.62,41.6,23.0,20.0,250,10,,6.21,29.911417,,,,,,TRUE,,,,,FEW,1300,SCT,2600,,,,,VFR,,,,,,,,,,,,METAR,32.0
UGTB 150930Z 08009KT 040V140 9999 SCT050CB 28/10 Q1014 R31L/CLRD80 NOSIG,UGTB,2015-06-15T09:30:00Z,41.67,44.95,28.0,10.0,80,9,,6.21,29.940945,,,,,,TRUE,,,,,SCT,5000,,,,,,,VFR,,,,,,,,,,,,METAR,495.0
EPZG 150930Z 32006KT 260V020 9999 SCT036 18/09 Q1016,EPZG,2015-06-15T09:30:00Z,52.13,15.8,18.0,9.0,320,6,,6.21,30.0,,,,,,,,,,,SCT,3600,,,,,,,VFR,,,,,,,,,,,,METAR,59.0
EPWR 150930Z 02006KT 340V050 9999 FEW018 18/13 Q1015,EPWR,2015-06-15T09:30:00Z,51.1,16.87,18.0,13.0,20,6,,6.21,29.970472,,,,,,,,,,,FEW,1800,,,,,,,VFR,,,,,,,,,,,,METAR,121.0
EPSC 150930Z 29009KT 250V350 9999 FEW036 15/05 Q1016,EPSC,2015-06-15T09:30:00Z,53.58,14.9,15.0,5.0,290,9,,6.21,30.0,,,,,,,,,,,FEW,3600,,,,,,,VFR,,,,,,,,,,,,METAR,3.0
EPMO 150930Z 31009KT CAVOK 19/10 Q1012,EPMO,2015-06-15T09:30:00Z,52.45,20.65,19.0,10.0,310,9,,6.21,29.88189,,,,,,,,,,,CAVOK,,,,,,,,VFR,,,,,,,,,,,,METAR,104.0
EPLB 150930Z 26003KT 230V290 9999 -RA FEW012 19/17 Q1011,EPLB,2015-06-15T09:30:00Z,51.23,22.72,19.0,17.0,260,3,,6.21,29.852362,,,,,,,,,,-RA,FEW,1200,,,,,,,VFR,,,,,,,,,,,,METAR,206.0
EPKT 150930Z 35008KT 9999 SCT007 BKN009 17/15 Q1012,EPKT,2015-06-15T09:30:00Z,50.47,19.08,17.0,15.0,350,8,,6.21,29.88189,,,,,,,,,,,SCT,700,BKN,900,,,,,IFR,,,,,,,,,,,,METAR,284.0
EPBY 150930Z 30007KT 9999 SCT037 18/08 Q1014,EPBY,2015-06-15T09:30:00Z,53.1,18.0,18.0,8.0,300,7,,6.21,29.940945,,,,,,,,,,,SCT,3700,,,,,,,VFR,,,,,,,,,,,,METAR,71.0
EPWA 150930Z 32008KT 9999 -SHRA FEW016 SCT020CB 18/12 Q1011 NOSIG,EPWA,2015-06-15T09:30:00Z,52.17,20.97,18.0,12.0,320,8,,6.21,29.852362,,,,,,TRUE,,,,-SHRA,FEW,1600,SCT,2000,,,,,VFR,,,,,,,,,,,,METAR,107.0
EPRZ 150930Z VRB03KT CAVOK 22/16 Q1012,EPRZ,2015-06-15T09:30:00Z,50.1,22.05,22.0,16.0,0,3,,6.21,29.88189,,,,,,,,,,,CAVOK,,,,,,,,VFR,,,,,,,,,,,,METAR,202.0
EPPO 150930Z 33008KT 280V360 9999 BKN036 17/08 Q1015,EPPO,2015-06-15T09:30:00Z,52.42,16.82,17.0,8.0,330,8,,6.21,29.970472,,,,,,,,,,,BKN,3600,,,,,,,VFR,,,,,,,,,,,,METAR,92.0
EPLL 150930Z 33004KT 300V360 9999 BKN024 16/11 Q1013,EPLL,2015-06-15T09:30:00Z,51.72,19.4,16.0,11.0,330,4,,6.21,29.911417,,,,,,,,,,,BKN,2400,,,,,,,MVFR,,,,,,,,,,,,METAR,184.0
EPKK 150930Z 05003KT 350V090 9999 SCT013 BKN020 20/17 Q1011,EPKK,2015-06-15T09:30:00Z,50.07,19.8,20.0,17.0,50,3,,6.21,29.852362,,,,,,,,,,,SCT,1300,BKN,2000,,,,,MVFR,,,,,,,,,,,,METAR,237.0
EPGD 150930Z 28009KT 210V320 9999 FEW043 16/04 Q1014,EPGD,2015-06-15T09:30:00Z,54.37,18.47,16.0,4.0,280,9,,6.21,29.940945,,,,,,,,,,,FEW,4300,,,,,,,VFR,,,,,,,,,,,,METAR,138.0
DIAP 150930Z 07003KT 020V140 9999 SCT012 27/24 Q1015 NOSIG,DIAP,2015-06-15T09:30:00Z,5.25,-3.92,27.0,24.0,70,3,,6.21,29.970472,,,,,,TRUE,,,,,SCT,1200,,,,,,,VFR,,,,,,,,,,,,METAR,8.0
YLIS 150930Z AUTO 00000KT 3000 // SCT048 14/14 Q1025,YLIS,2015-06-15T09:30:00Z,-28.83,153.27,14.0,14.0,0,0,,1.86,30.265747,,,TRUE,,,,,,,,SCT,4800,,,,,,,IFR,,,,,,,,,,,,SPECI,11.0
WADD 150930Z 12011KT 9999 FEW018 27/23 Q1009 NOSIG,WADD,2015-06-15T09:30:00Z,-8.73,115.17,27.0,23.0,120,11,,6.21,29.793306,,,,,,TRUE,,,,,FEW,1800,,,,,,,VFR,,,,,,,,,,,,METAR,216.0
WAAA 150930Z 34006KT 9999 SCT020 30/26 Q1007 NOSIG,WAAA,2015-06-15T09:30:00Z,-5.07,119.53,30.0,26.0,340,6,,6.21,29.734253,,,,,,TRUE,,,,,SCT,2000,,,,,,,VFR,,,,,,,,,,,,METAR,14.0
WIDD 150930Z 20007KT 180V240 9999 FEW014 30/24 Q1008,WIDD,2015-06-15T09:30:00Z,1.12,104.12,30.0,24.0,200,7,,6.21,29.763779,,,,,,,,,,,FEW,1400,,,,,,,VFR,,,,,,,,,,,,METAR,38.0
WARR 150930Z 09010 9999 FEW020 28/17 Q1008,WARR,2015-06-15T09:30:00Z,-7.37,112.78,28.0,17.0,90,10,,6.21,29.763779,,,,,,,,,,,FEW,2000,,,,,,,VFR,,,,,,,,,,,,METAR,2.0
WIMM 150930Z AUTO 06005KT 9999NDV FEW032 SCT041 BKN090 30/26 Q1006,WIMM,2015-06-15T09:30:00Z,3.57,98.67,30.0,26.0,60,5,,,29.704725,,,TRUE,,,,,,,,FEW,3200,SCT,4100,BKN,9000,,,,,,,,,,,,,,,METAR,25.0
UTTT 150930Z 31010KT 250V360 CAVOK 30/M02 Q1013 R88/70D NOSIG,UTTT,2015-06-15T09:30:00Z,41.27,69.27,30.0,-2.0,310,10,,6.21,29.911417,,,,,,TRUE,,,,,CAVOK,,,,,,,,VFR,,,,,,,,,,,,METAR,489.0
UTST 150930Z 28005KT 220V330 CAVOK 33/04 Q1009 R88/CLRD70 NOSIG,UTST,2015-06-15T09:30:00Z,37.28,67.32,33.0,4.0,280,5,,6.21,29.793306,,,,,,TRUE,,,,,CAVOK,,,,,,,,VFR,,,,,,,,,,,,METAR,302.0
UTSS 150930Z 09011KT 040V110 9999 NSC 29/03 Q1013 R88/70D NOSIG,UTSS,2015-06-15T09:30:00Z,39.7,66.98,29.0,3.0,90,11,,6.21,29.911417,,,,,,TRUE,,,,,,,,,,,,,,,,,,,,,,,,,METAR,724.0
UTSK 150930Z 06003KT CAVOK 33/M00 Q1011 R16/CLRD70,UTSK,2015-06-15T09:30:00Z,38.83,65.77,33.0,0.0,60,3,,6.21,29.852362,,,,,,,,,,,CAVOK,,,,,,,,VFR,,,,,,,,,,,,METAR,1365.0
UTSB 150930Z 36012KT CAVOK 32/03 Q1012 R01/CLRD70 NOSIG,UTSB,2015-06-15T09:30:00Z,39.77,64.48,32.0,3.0,360,12,,6.21,29.88189,,,,,,TRUE,,,,,CAVOK,,,,,,,,VFR,,,,,,,,,,,,METAR,226.0
UTSA 150930Z 36009KT 9999 NSC 32/01 Q1012 R07/CLRD70 NOSIG,UTSA,2015-06-15T09:30:00Z,40.12,65.17,32.0,1.0,360,9,,6.21,29.88189,,,,,,TRUE,,,,,,,,,,,,,,,,,,,,,,,,,METAR,346.0
UTNU 150930Z 06011KT CAVOK 30/00 Q1015 R13/CLRD70 NOSIG,UTNU,2015-06-15T09:30:00Z,41.58,60.63,30.0,0.0,60,11,,6.21,29.970472,,,,,,TRUE,,,,,CAVOK,,,,,,,,VFR,,,,,,,,,,,,METAR,98.0
UTNN 150930Z 03013KT CAVOK 30/M02 Q1016 R33/CLRD60 NOSIG,UTNN,2015-06-15T09:30:00Z,42.48,59.63,30.0,-2.0,30,13,,6.21,30.0,,,,,,TRUE,,,,,CAVOK,,,,,,,,VFR,,,,,,,,,,,,METAR,67.0
LFLW 150930Z AUTO 31006KT 270V340 9999 BKN016 BKN022 OVC041 16/12 Q1018,LFLW,2015-06-15T09:30:00Z,44.88,2.42,16.0,12.0,310,6,,6.21,30.059055,,,TRUE,,,,,,,,BKN,1600,BKN,2200,OVC,4100,,,MVFR,,,,,,,,,,,,METAR,639.0
YBMA 150930Z AUTO 17004KT 9999 // SCT115 24/16 Q1015,YBMA,2015-06-15T09:30:00Z,-20.67,139.47,24.0,16.0,170,4,,6.21,29.970472,,,TRUE,,,,,,,,SCT,11500,,,,,,,VFR,,,,,,,,,,,,METAR,344.0
YBHM 150930Z AUTO 14015KT 9999 // SCT010 SCT016 21/20 Q1018,YBHM,2015-06-15T09:30:00Z,-20.35,148.95,21.0,20.0,140,15,,6.21,30.059055,,,TRUE,,,,,,,,SCT,1000,SCT,1600,,,,,VFR,,,,,,,,,,,,METAR,5.0
HSSS 150930Z 03007KT CAVOK Q1010,HSSS,2015-06-15T09:30:00Z,15.58,32.53,,,30,7,,6.21,29.822834,,,,,,,,,,,CAVOK,,,,,,,,VFR,,,,,,,,,,,,METAR,380.0
UMKK 150930Z 29005G10MPS 250V360 9999 BKN032 15/01 Q1013 R24/70D NOSIG RMK QFE759/1012,UMKK,2015-06-15T09:30:00Z,54.88,20.6,15.0,1.0,290,10,19,6.21,29.911417,,,,,,TRUE,,,,,BKN,3200,,,,,,,VFR,,,,,,,,,,,,METAR,21.0
ULOO 150930Z 26006MPS P6000 FEW040CB BKN050 19/12 Q1003 R19/190060 RMK QFE748,ULOO,2015-06-15T09:30:00Z,57.78,28.4,19.0,12.0,260,12,,3.73,29.616142,,,,,,,,,,,FEW,4000,BKN,5000,,,,,MVFR,,,,,,,,,,,,METAR,47.0
YAMB 150930Z 00000KT 9999 FEW035 SCT052 15/13 Q1024,YAMB,2015-06-15T09:30:00Z,-27.63,152.72,15.0,13.0,0,0,,6.21,30.236221,,,,,,,,,,,FEW,3500,SCT,5200,,,,,VFR,,,,,,,,,,,,METAR,28.0
YGEL 150930Z 00000KT CAVOK 18/10 Q1016 RMK 6AC180,YGEL,2015-06-15T09:30:00Z,-28.8,114.7,18.0,10.0,0,0,,6.21,30.0,,,,,,,,,,,CAVOK,,,,,,,,VFR,,,,,,,,,,,,METAR,37.0
YSTW 150930Z AUTO 14008KT 9999 // NCD 13/08 Q1023,YSTW,2015-06-15T09:30:00Z,-31.07,150.85,13.0,8.0,140,8,,6.21,30.206694,,,TRUE,,,,,,,,,,,,,,,,,,,,,,,,,,,,METAR,410.0
YHID 150930Z AUTO 13014KT 9999 // SCT019 SCT026 26/23 Q1010,YHID,2015-06-15T09:30:00Z,-10.58,142.3,26.0,23.0,130,14,,6.21,29.822834,,,TRUE,,,,,,,,SCT,1900,SCT,2600,,,,,VFR,,,,,,,,,,,,METAR,13.0
YPJT 150930Z AUTO 11004KT 9999 // NCD 13/07 Q1020,YPJT,2015-06-15T09:30:00Z,-32.1,115.88,13.0,7.0,110,4,,6.21,30.11811,,,TRUE,,,,,,,,,,,,,,,,,,,,,,,,,,,,METAR,30.0
YPWR 150930Z AUTO 12007KT 9999 // SCT024 15/13 Q1017,YPWR,2015-06-15T09:30:00Z,-31.12,136.82,15.0,13.0,120,7,,6.21,30.029528,,,TRUE,,,,,,,,SCT,2400,,,,,,,VFR,,,,,,,,,,,,METAR,167.0
YSDU 150930Z AUTO 08015KT 9999 // OVC100 15/11 Q1022,YSDU,2015-06-15T09:30:00Z,-32.22,148.57,15.0,11.0,80,15,,6.21,30.177166,,,TRUE,,,,,,,,OVC,10000,,,,,,,VFR,,,,,,,,,,,,METAR,275.0
YPGV 150930Z AUTO 15006KT 9999 // NCD 25/22 Q1011,YPGV,2015-06-15T09:30:00Z,-12.27,136.82,25.0,22.0,150,6,,6.21,29.852362,,,TRUE,,,,,,,,,,,,,,,,,,,,,,,,,,,,METAR,55.0
YPKU 150930Z AUTO 16005KT //// // SCT105 28/17 Q1011,YPKU,2015-06-15T09:30:00Z,-15.77,128.68,28.0,17.0,160,5,,,29.852362,,,TRUE,,,,,,,,SCT,10500,,,,,,,,,,,,,,,,,,,METAR,45.0
YFRT 150930Z AUTO 21007KT //// // ////// 15/10 Q1018,YFRT,2015-06-15T09:30:00Z,-30.83,128.12,15.0,10.0,210,7,,,30.059055,,,TRUE,,,,,,,,,,,,,,,,,,,,,,,,,,,,METAR,156.0
YCIN 150930Z AUTO 16005KT //// // NCD 27/06 Q1010,YCIN,2015-06-15T09:30:00Z,-17.58,123.83,27.0,6.0,160,5,,,29.822834,,,TRUE,,,,,,,,,,,,,,,,,,,,,,,,,,,,METAR,91.0
YLHI 150930Z AUTO 13007KT 9999 // SCT059 18/11 Q1026,YLHI,2015-06-15T09:30:00Z,-31.53,159.07,18.0,11.0,130,7,,6.21,30.295275,,,TRUE,,,,,,,,SCT,5900,,,,,,,VFR,,,,,,,,,,,,METAR,2.0
YCFS 150930Z AUTO 28001KT 9999 // OVC051 16/15 Q1026,YCFS,2015-06-15T09:30:00Z,-30.32,153.12,16.0,15.0,280,1,,6.21,30.295275,,,TRUE,,,,,,,,OVC,5100,,,,,,,VFR,,,,,,,,,,,,METAR,5.0
YWLM 150930Z AUTO 05011KT 9999 // BKN025 BKN046 16/13 Q1025,YWLM,2015-06-15T09:30:00Z,-32.8,151.83,16.0,13.0,50,11,,6.21,30.265747,,,TRUE,,,,,,,,BKN,2500,BKN,4600,,,,,MVFR,,,,,,,,,,,,METAR,9.0
YBRK 150930Z 11008KT 9999 BKN045 21/15 Q1020,YBRK,2015-06-15T09:30:00Z,-23.37,150.47,21.0,15.0,110,8,,6.21,30.11811,,,,,,,,,,,BKN,4500,,,,,,,VFR,,,,,,,,,,,,METAR,14.0
YPPD 150930Z AUTO 31005KT 9999 // NCD 24/12 Q1013,YPPD,2015-06-15T09:30:00Z,-20.37,118.62,24.0,12.0,310,5,,6.21,29.911417,,,TRUE,,,,,,,,,,,,,,,,,,,,,,,,,,,,METAR,6.0
YSNF 150930Z 21001KT 9999 BKN047 16/08 Q1024,YSNF,2015-06-15T09:30:00Z,-29.02,167.92,16.0,8.0,210,1,,6.21,30.236221,,,,,,,,,,,BKN,4700,,,,,,,VFR,,,,,,,,,,,,METAR,109.0
YMLT 150930Z AUTO 18006KT 9999 // OVC087 09/08 Q1028,YMLT,2015-06-15T09:30:00Z,-41.52,147.18,9.0,8.0,180,6,,6.21,30.35433,,,TRUE,,,,,,,,OVC,8700,,,,,,,VFR,,,,,,,,,,,,METAR,178.0
YMHB 150930Z 00000KT 9999 BKN050 10/08 Q1029,YMHB,2015-06-15T09:30:00Z,-42.82,147.52,10.0,8.0,0,0,,6.21,30.383858,,,,,,,,,,,BKN,5000,,,,,,,VFR,,,,,,,,,,,,METAR,27.0
YPCC 150930Z 08011KT 9999 FEW022 SCT400 28/24 Q1009,YPCC,2015-06-15T09:30:00Z,-12.17,96.82,28.0,24.0,80,11,,6.21,29.793306,,,,,,,,,,,FEW,2200,SCT,40000,,,,,VFR,,,,,,,,,,,,METAR,3.0
YBRM 150930Z 24007KT CAVOK 26/15 Q1011,YBRM,2015-06-15T09:30:00Z,-17.93,122.22,26.0,15.0,240,7,,6.21,29.852362,,,,,,,,,,,CAVOK,,,,,,,,VFR,,,,,,,,,,,,METAR,9.0
YBTL 150930Z 11010KT CAVOK 23/19 Q1017 RMK HZ,YBTL,2015-06-15T09:30:00Z,-19.25,146.75,23.0,19.0,110,10,,6.21,30.029528,,,,,,,,,,,CAVOK,,,,,,,,VFR,,,,,,,,,,,,METAR,6.0
YPTN 150930Z AUTO 08006KT 9999 // SCT081 27/16 Q1011,YPTN,2015-06-15T09:30:00Z,-14.52,132.38,27.0,16.0,80,6,,6.21,29.852362,,,TRUE,,,,,,,,SCT,8100,,,,,,,VFR,,,,,,,,,,,,METAR,109.0
YPLM 150930Z AUTO 27007KT 9999 // NCD 22/13 Q1013,YPLM,2015-06-15T09:30:00Z,-22.22,114.07,22.0,13.0,270,7,,6.21,29.911417,,,TRUE,,,,,,,,,,,,,,,,,,,,,,,,,,,,METAR,6.0
YPKG 150930Z AUTO 16005KT 9999 // NCD 13/04 Q1020,YPKG,2015-06-15T09:30:00Z,-30.77,121.45,13.0,4.0,160,5,,6.21,30.11811,,,TRUE,,,,,,,,,,,,,,,,,,,,,,,,,,,,METAR,360.0
YSCB 150930Z 13006KT 9999 VCSH SCT015 BKN025 BKN045 11/10 Q1026,YSCB,2015-06-15T09:30:00Z,-35.28,149.17,11.0,10.0,130,6,,6.21,30.295275,,,,,,,,,,VCSH,SCT,1500,BKN,2500,BKN,4500,,,MVFR,,,,,,,,,,,,METAR,577.0
YMAV 150930Z AUTO 00000KT 9999 -RA ////// 12/10 Q1022,YMAV,2015-06-15T09:30:00Z,-38.03,144.48,12.0,10.0,0,0,,6.21,30.177166,,,TRUE,,,,,,,-RA,,,,,,,,,,,,,,,,,,,,,METAR,8.0
YBAS 150930Z AUTO 00000KT 9999 // BKN096 18/11 Q1017,YBAS,2015-06-15T09:30:00Z,-23.8,133.9,18.0,11.0,0,0,,6.21,30.029528,,,TRUE,,,,,,,,BKN,9600,,,,,,,VFR,,,,,,,,,,,,METAR,541.0
YPPH 150930Z 12007KT CAVOK 14/07 Q1019,YPPH,2015-06-15T09:30:00Z,-31.93,115.98,14.0,7.0,120,7,,6.21,30.088583,,,,,,,,,,,CAVOK,,,,,,,,VFR,,,,,,,,,,,,METAR,13.0
YMML 150930Z 01004KT 9999 -RA NSC 12/10 Q1022 RMK 7SC075 NOSIG,YMML,2015-06-15T09:30:00Z,-37.67,144.82,12.0,10.0,10,4,,6.21,30.177166,,,,,,,,,,-RA,,,,,,,,,,,,,,,,,,,,,METAR,141.0
YPDN 150930Z 01007KT 9999 FEW035 27/21 Q1010 RMK SMOKE ALOFT,YPDN,2015-06-15T09:30:00Z,-12.42,130.9,27.0,21.0,10,7,,6.21,29.822834,,,,,,,,,,,FEW,3500,,,,,,,VFR,,,,,,,,,,,,METAR,30.0
YBBN 150930Z 13007KT 9999 -SHRA FEW015 BKN038 19/16 Q1024,YBBN,2015-06-15T09:30:00Z,-27.38,153.13,19.0,16.0,130,7,,6.21,30.236221,,,,,,,,,,-SHRA,FEW,1500,BKN,3800,,,,,VFR,,,,,,,,,,,,METAR,5.0
YPAD 150930Z 00000KT 9999 FEW020 BKN030 14/13 Q1018,YPAD,2015-06-15T09:30:00Z,-34.95,138.52,14.0,13.0,0,0,,6.21,30.059055,,,,,,,,,,,FEW,2000,BKN,3000,,,,,MVFR,,,,,,,,,,,,METAR,4.0
UUYY 150930Z 20003MPS 9999 SCT033CB 19/12 Q1004 R19/29//51 NOSIG RMK QFE744/0993,UUYY,2015-06-15T09:30:00Z,61.65,50.82,19.0,12.0,200,6,,6.21,29.64567,,,,,,TRUE,,,,,SCT,3300,,,,,,,VFR,,,,,,,,,,,,METAR,119.0
UUOO 150930Z 21004MPS 150V260 CAVOK 32/08 Q1011 R30/090070 NOSIG RMK QFE744,UUOO,2015-06-15T09:30:00Z,51.82,39.23,32.0,8.0,210,8,,6.21,29.852362,,,,,,TRUE,,,,,CAVOK,,,,,,,,VFR,,,,,,,,,,,,METAR,157.0
ULAA 150930Z 11004MPS 070V150 9999 -RA OVC010 14/10 Q0997 R08/290060 NOSIG RMK QFE747/0996,ULAA,2015-06-15T09:30:00Z,64.6,40.72,14.0,10.0,110,8,,6.21,29.438976,,,,,,TRUE,,,,-RA,OVC,1000,,,,,,,MVFR,,,,,,,,,,,,METAR,19.0
ULMM 150930Z 11006MPS 9999 SCT030 14/M03 Q0998 R13/090070 NOSIG RMK QFE742,ULMM,2015-06-15T09:30:00Z,68.78,32.75,14.0,-3.0,110,12,,6.21,29.468504,,,,,,TRUE,,,,,SCT,3000,,,,,,,VFR,,,,,,,,,,,,METAR,51.0
VOCI 150930Z 29005KT 8000 SCT018 FEW025CB BKN090 30/24 Q1006 NOSIG,VOCI,2015-06-15T09:30:00Z,10.15,76.4,30.0,24.0,290,5,,4.97,29.704725,,,,,,TRUE,,,,,SCT,1800,FEW,2500,BKN,9000,,,MVFR,,,,,,,,,,,,METAR,8.0
EIDL 150930Z 24005KT 180V280 CAVOK 14/05 Q1022,EIDL,2015-06-15T09:30:00Z,55.05,-8.33,14.0,5.0,240,5,,6.21,30.177166,,,,,,,,,,,CAVOK,,,,,,,,VFR,,,,,,,,,,,,METAR,9.0
GABS 150930Z 25009KT CAVOK 30/20 Q1016 NOSIG,GABS,2015-06-15T09:30:00Z,12.52,-7.95,30.0,20.0,250,9,,6.21,30.0,,,,,,TRUE,,,,,CAVOK,,,,,,,,VFR,,,,,,,,,,,,METAR,381.0
URFF 150930Z 00000MPS 9999 SCT040CB 28/17 Q1011 19010095 TEMPO VRB10G18MPS -TSRAGR SQ,URFF,2015-06-15T09:30:00Z,45.03,33.98,28.0,17.0,0,0,,6.21,29.852362,,,,,,,,,,,SCT,4000,,,,,,,VFR,,,,,,,,,,,,METAR,188.0
URWW 150930Z 13005G10MPS 040V200 CAVOK 31/M00 Q1015 R11/010070 NOSIG,URWW,2015-06-15T09:30:00Z,48.78,44.33,31.0,0.0,130,10,19,6.21,29.970472,,,,,,TRUE,,,,,CAVOK,,,,,,,,VFR,,,,,,,,,,,,METAR,147.0
URWI 150930Z 14010MPS 090V150 CAVOK 33/01 Q1012 R09/010065 NOSIG,URWI,2015-06-15T09:30:00Z,46.37,44.33,33.0,1.0,140,19,,6.21,29.88189,,,,,,TRUE,,,,,CAVOK,,,,,,,,VFR,,,,,,,,,,,,METAR,150.0
URWA 150930Z 13008MPS CAVOK 33/02 Q1014 R09/010070 NOSIG,URWA,2015-06-15T09:30:00Z,46.28,48.02,33.0,2.0,130,16,,6.21,29.940945,,,,,,TRUE,,,,,CAVOK,,,,,,,,VFR,,,,,,,,,,,,METAR,-20.0
URSS 150930Z 11001MPS 9999 SCT040CB OVC100 24/19 Q1011 R02/090070 R06/090070 NOSIG RMK MT OBSC R06/09002MPS QFE757,URSS,2015-06-15T09:30:00Z,43.45,39.95,24.0,19.0,110,2,,6.21,29.852362,,,,,,TRUE,,,,,SCT,4000,OVC,10000,,,,,VFR,,,,,,,,,,,,METAR,16.0
URRR 150930Z 11005MPS 080V150 CAVOK 29/09 Q1013 R04/CLRD70 NOSIG RMK QFE753/1004,URRR,2015-06-15T09:30:00Z,47.25,39.82,29.0,9.0,110,10,,6.21,29.911417,,,,,,TRUE,,,,,CAVOK,,,,,,,,VFR,,,,,,,,,,,,METAR,77.0
URMT 150930Z 09006MPS 9999 SCT026CB 22/15 Q1013 R07/110060 NOSIG RMK QFE720,URMT,2015-06-15T09:30:00Z,45.12,42.12,22.0,15.0,90,12,,6.21,29.911417,,,,,,TRUE,,,,,SCT,2600,,,,,,,VFR,,,,,,,,,,,,METAR,453.0
URMO 150930Z 25003MPS 210V310 9999 FEW043 SCT100 BKN230 24/13 Q1012 R10/010070 NOSIG RMK QFE715/0954,URMO,2015-06-15T09:30:00Z,43.2,44.6,24.0,13.0,250,6,,6.21,29.88189,,,,,,TRUE,,,,,FEW,4300,SCT,10000,BKN,23000,,,VFR,,,,,,,,,,,,METAR,510.0
URMN 150930Z 07002MPS 9999 FEW033 25/15 Q1011 R24/010070 NOSIG RMK QFE722,URMN,2015-06-15T09:30:00Z,43.52,43.63,25.0,15.0,70,4,,6.21,29.852362,,,,,,TRUE,,,,,FEW,3300,,,,,,,VFR,,,,,,,,,,,,METAR,445.0
URMM 150930Z 35003MPS 9999 SCT033 BKN160 25/13 Q1011 R30/000070 NOSIG RMK QFE730/0974,URMM,2015-06-15T09:30:00Z,44.22,43.1,25.0,13.0,350,6,,6.21,29.852362,,,,,,TRUE,,,,,SCT,3300,BKN,16000,,,,,VFR,,,,,,,,,,,,METAR,314.0
URML 150930Z 13008G11MPS 9999 NSC 26/16 Q1010 R14/01//70 NOSIG RMK QFE757/1010,URML,2015-06-15T09:30:00Z,42.82,47.65,26.0,16.0,130,16,21,6.21,29.822834,,,,,,TRUE,,,,,,,,,,,,,,,,,,,,,,,,,METAR,4.0
URKK 150930Z 07003MPS 9999 FEW036 BKN130 26/16 Q1011 R23C/19//65 NOSIG RMK QFE755,URKK,2015-06-15T09:30:00Z,45.03,39.15,26.0,16.0,70,6,,6.21,29.852362,,,,,,TRUE,,,,,FEW,3600,BKN,13000,,,,,VFR,,,,,,,,,,,,METAR,34.0
URKA 150930Z 23006MPS 9999 TS SCT026CB 26/21 Q1010 R22/010070 TEMPO 0500 +TSRAGR BKN003 BKN015CB RMK QFE753/1004,URKA,2015-06-15T09:30:00Z,45.0,37.35,26.0,21.0,230,12,,6.21,29.822834,,,,,,,,,,TS,SCT,2600,,,,,,,VFR,,,,,,,,,,,,METAR,53.0
VOML 150930Z 18003KT 8000 SCT012 FEW025TCU BKN080 28/25 Q1007 NOSIG,VOML,2015-06-15T09:30:00Z,12.97,74.88,28.0,25.0,180,3,,4.97,29.734253,,,,,,TRUE,,,,,SCT,1200,FEW,2500,BKN,8000,,,MVFR,,,,,,,,,,,,METAR,103.0
LFMY 150930Z AUTO 29004KT 240V340 CAVOK 24/16 Q1014,LFMY,2015-06-15T09:30:00Z,43.6,5.08,24.0,16.0,290,4,,6.21,29.940945,,,TRUE,,,,,,,,CAVOK,,,,,,,,VFR,,,,,,,,,,,,METAR,60.0
LFMO 150930Z AUTO 34006KT 300V040 CAVOK 25/15 Q1014,LFMO,2015-06-15T09:30:00Z,44.12,4.87,25.0,15.0,340,6,,6.21,29.940945,,,TRUE,,,,,,,,CAVOK,,,,,,,,VFR,,,,,,,,,,,,METAR,55.0
LFKS 150930Z AUTO 11006KT 060V140 CAVOK 25/18 Q1014,LFKS,2015-06-15T09:30:00Z,41.92,9.4,25.0,18.0,110,6,,6.21,29.940945,,,TRUE,,,,,,,,CAVOK,,,,,,,,VFR,,,,,,,,,,,,METAR,22.0
LFBM 150930Z AUTO VRB02KT 9999 SCT027 BKN056 BKN190 21/13 Q1018,LFBM,2015-06-15T09:30:00Z,43.92,-0.5,21.0,13.0,0,2,,6.21,30.059055,,,TRUE,,,,,,,,SCT,2700,BKN,5600,BKN,19000,,,VFR,,,,,,,,,,,,METAR,63.0
LFBG 150930Z AUTO 24005KT 9999 OVC010 16/14 Q1018,LFBG,2015-06-15T09:30:00Z,45.67,-0.32,16.0,14.0,240,5,,6.21,30.059055,,,TRUE,,,,,,,,OVC,1000,,,,,,,MVFR,,,,,,,,,,,,METAR,31.0
LFBC 150930Z AUTO VRB03KT 9999 SCT023 BKN031 OVC041 18/15 Q1018,LFBC,2015-06-15T09:30:00Z,44.52,-1.12,18.0,15.0,0,3,,6.21,30.059055,,,TRUE,,,,,,,,SCT,2300,BKN,3100,OVC,4100,,,VFR,,,,,,,,,,,,METAR,33.0
LFYR 150930Z AUTO VRB03KT 7000 -RA BKN009 BKN062 16/16 Q1017,LFYR,2015-06-15T09:30:00Z,47.32,1.67,16.0,16.0,0,3,,4.35,30.029528,,,TRUE,,,,,,,-RA,BKN,900,BKN,6200,,,,,IFR,,,,,,,,,,,,METAR,86.0
LFSX 150930Z AUTO VRB01KT 9999 -RA FEW008 SCT012 BKN048 18/16 Q1015,LFSX,2015-06-15T09:30:00Z,47.77,6.33,18.0,16.0,0,1,,6.21,29.970472,,,TRUE,,,,,,,-RA,FEW,800,SCT,1200,BKN,4800,,,VFR,,,,,,,,,,,,METAR,273.0
LFSO 150930Z AUTO VRB02KT CAVOK 19/13 Q1016,LFSO,2015-06-15T09:30:00Z,48.57,5.97,19.0,13.0,0,2,,6.21,30.0,,,TRUE,,,,,,,,CAVOK,,,,,,,,VFR,,,,,,,,,,,,METAR,350.0
LFSI 150930Z AUTO 36005KT 300V060 CAVOK 21/14 Q1015,LFSI,2015-06-15T09:30:00Z,48.62,4.9,21.0,14.0,360,5,,6.21,29.970472,,,TRUE,,,,,,,,CAVOK,,,,,,,,VFR,,,,,,,,,,,,METAR,140.0
LRTC 150930Z 13007KT 080V160 9999 FEW044 30/19 Q1011,LRTC,2015-06-15T09:30:00Z,45.07,28.72,30.0,19.0,130,7,,6.21,29.852362,,,,,,,,,,,FEW,4400,,,,,,,VFR,,,,,,,,,,,,METAR,6.0
LRSV 150930Z 26004KT 180V320 CAVOK 27/16 Q1011,LRSV,2015-06-15T09:30:00Z,47.68,26.35,27.0,16.0,260,4,,6.21,29.852362,,,,,,,,,,,CAVOK,,,,,,,,VFR,,,,,,,,,,,,METAR,351.0
LRIA 150930Z 08004KT 350V160 CAVOK 29/16 Q1010,LRIA,2015-06-15T09:30:00Z,47.17,27.62,29.0,16.0,80,4,,6.21,29.822834,,,,,,,,,,,CAVOK,,,,,,,,VFR,,,,,,,,,,,,METAR,104.0
LRCV 150930Z VRB04KT CAVOK 30/12 Q1012,LRCV,2015-06-15T09:30:00Z,44.32,23.88,30.0,12.0,0,4,,6.21,29.88189,,,,,,,,,,,CAVOK,,,,,,,,VFR,,,,,,,,,,,,METAR,191.0
LRBC 150930Z 23004KT 9999 FEW040CB 31/17 Q1010,LRBC,2015-06-15T09:30:00Z,46.52,26.92,31.0,17.0,230,4,,6.21,29.822834,,,,,,,,,,,FEW,4000,,,,,,,VFR,,,,,,,,,,,,METAR,185.0
LFMH 150930Z VRB03KT 9999 BKN033 22/13 Q1015 NOSIG,LFMH,2015-06-15T09:30:00Z,45.52,4.28,22.0,13.0,0,3,,6.21,29.970472,,,,,,TRUE,,,,,BKN,3300,,,,,,,VFR,,,,,,,,,,,,METAR,402.0
VIJP 150930Z 30011KT 3000 HZ SCT035 35/19 Q1002 NOSIG,VIJP,2015-06-15T09:30:00Z,26.82,75.78,35.0,19.0,300,11,,1.86,29.586615,,,,,,TRUE,,,,HZ,SCT,3500,,,,,,,IFR,,,,,,,,,,,,METAR,390.0
VIAR 150930Z 27006KT 210V350 5000 DU SCT040 BKN100 35/20 Q1001,VIAR,2015-06-15T09:30:00Z,31.7,74.8,35.0,20.0,270,6,,3.11,29.557087,,,,,,,,,,DU,SCT,4000,BKN,10000,,,,,MVFR,,,,,,,,,,,,METAR,234.0
WAHS 150930Z 34008KT 8000 SCT018 31/22 Q1007 NOSIG,WAHS,2015-06-15T09:30:00Z,-6.98,110.38,31.0,22.0,340,8,,4.97,29.734253,,,,,,TRUE,,,,,SCT,1800,,,,,,,MVFR,,,,,,,,,,,,METAR,5.0
WATT 150930Z 13005KT 9999 SCT017 29/24 Q1010 NOSIG,WATT,2015-06-15T09:30:00Z,-10.17,123.67,29.0,24.0,130,5,,6.21,29.822834,,,,,,TRUE,,,,,SCT,1700,,,,,,,VFR,,,,,,,,,,,,METAR,102.0
WIOO 150930Z 13004KT 9999 SCT012 31/24 Q1006 NOSIG,WIOO,2015-06-15T09:30:00Z,-0.15,109.4,31.0,24.0,130,4,,6.21,29.704725,,,,,,TRUE,,,,,SCT,1200,,,,,,,VFR,,,,,,,,,,,,METAR,3.0
WIBB 150930Z 26010KT 7000 SCT012CB SCT014 29/26 Q1006,WIBB,2015-06-15T09:30:00Z,0.47,101.45,29.0,26.0,260,10,,4.35,29.704725,,,,,,,,,,,SCT,1200,SCT,1400,,,,,MVFR,,,,,,,,,,,,METAR,31.0
WIPP 150930Z 16005KT 9999 SCT013 31/22 Q1006 NOSIG,WIPP,2015-06-15T09:30:00Z,-2.88,104.7,31.0,22.0,160,5,,6.21,29.704725,,,,,,TRUE,,,,,SCT,1300,,,,,,,VFR,,,,,,,,,,,,METAR,10.0
WALL 150930Z 23004KT 9999 FEW018CB SCT018 27/25Q1006 RMK CB TO E AND S,WALL,2015-06-15T09:30:00Z,-1.27,116.9,,,230,4,,6.21,29.704725,,,,,,,,,,,FEW,1800,SCT,1800,,,,,VFR,,,,,,,,,,,,METAR,3.0
WIEE 150930Z 17004KT 130V210 7000 FEW020 BKN080 26/23 Q1009,WIEE,2015-06-15T09:30:00Z,0.78,100.28,26.0,23.0,170,4,,4.35,29.793306,,,,,,,,,,,FEW,2000,BKN,8000,,,,,MVFR,,,,,,,,,,,,METAR,5.0
WAMM 150930Z 10003KT 040V140 9000 SCT020 26/24 Q1008 TEMPO -RA,WAMM,2015-06-15T09:30:00Z,1.55,124.92,26.0,24.0,100,3,,5.59,29.763779,,,,,,,,,,,SCT,2000,,,,,,,VFR,,,,,,,,,,,,METAR,80.0
YBCS 150930Z 16008KT 9999 FEW025 23/20 Q1016,YBCS,2015-06-15T09:30:00Z,-16.87,145.75,23.0,20.0,160,8,,6.21,30.0,,,,,,,,,,,FEW,2500,,,,,,,VFR,,,,,,,,,,,,METAR,7.0
VIBN 150930Z 02004KT 6000 SCT200 38/22 Q0999,VIBN,2015-06-15T09:30:00Z,25.43,82.87,38.0,22.0,20,4,,3.73,29.498032,,,,,,,,,,,SCT,20000,,,,,,,MVFR,,,,,,,,,,,,SPECI,85.0
VILK 150930Z 09005KT 6000 FEW025 37/25 Q0999 NOSIG,VILK,2015-06-15T09:30:00Z,26.75,80.87,37.0,25.0,90,5,,3.73,29.498032,,,,,,TRUE,,,,,FEW,2500,,,,,,,MVFR,,,,,,,,,,,,METAR,128.0
VIDP 150930Z 32006KT 2800 HZ SCT035 BKN100 37/21 Q1001 NOSIG,VIDP,2015-06-15T09:30:00Z,28.57,77.12,37.0,21.0,320,6,,1.74,29.557087,,,,,,TRUE,,,,HZ,SCT,3500,BKN,10000,,,,,IFR,,,,,,,,,,,,METAR,233.0
KRWV 150930Z AUTO 00000KT 23/23 A2996 RMK AO2,KRWV,2015-06-15T09:30:00Z,30.52,-96.7,23.0,23.0,0,0,,,29.958662,,,TRUE,TRUE,,,,,,,,,,,,,,,,,,,,,,,,,,,METAR,119.0
KHSP 150930Z AUTO 28014G22KT 10SM CLR 20/20 A3020 RMK AO2 T01990198,KHSP,2015-06-15T09:30:00Z,37.95,-79.82,19.9,19.8,280,14,22,10.0,30.200787,,,TRUE,TRUE,,,,,,,CLR,,,,,,,,VFR,,,,,,,,,,,,METAR,1156.0
KCWA 150930Z AUTO 00000KT 7SM CLR 16/16 A2992 RMK AO2,KCWA,2015-06-15T09:30:00Z,44.78,-89.67,16.0,16.0,0,0,,7.0,29.920275,,,TRUE,TRUE,,,,,,,CLR,,,,,,,,VFR,,,,,,,,,,,,METAR,389.0
KAQO 150930Z AUTO 00000KT 7SM FEW017 FEW023 BKN033 23/23 A2998 RMK AO2,KAQO,2015-06-15T09:30:00Z,30.78,-98.67,23.0,23.0,0,0,,7.0,29.97933,,,TRUE,TRUE,,,,,,,FEW,1700,FEW,2300,BKN,3300,,,VFR,,,,,,,,,,,,METAR,336.0
KAIG 150930Z AUTO 00000KT 7SM CLR 13/13 A2993 RMK AO2 T01320132,KAIG,2015-06-15T09:30:00Z,45.15,-89.12,13.2,13.2,0,0,,7.0,29.929134,,,TRUE,TRUE,,,,,,,CLR,,,,,,,,VFR,,,,,,,,,,,,METAR,464.0
KACP 150930Z AUTO 00000KT 7SM CLR 23/22 A2998 RMK AO2 P0001 T02260220,KACP,2015-06-15T09:30:00Z,30.75,-92.68,22.6,22.0,0,0,,7.0,29.97933,,,TRUE,TRUE,,,,,,,CLR,,,,,,,,VFR,,,,,,0.01,,,,,,METAR,33.0
K1F0 150930Z AUTO 00000KT 10SM SCT017 BKN049 OVC110 22/22 A2996 RMK AO2,K1F0,2015-06-15T09:30:00Z,34.15,-97.12,22.0,22.0,0,0,,10.0,29.958662,,,TRUE,TRUE,,,,,,,SCT,1700,BKN,4900,OVC,11000,,,VFR,,,,,,,,,,,,METAR,257.0
EISG 150930Z 35004KT CAVOK 13/07 Q1021,EISG,2015-06-15T09:30:00Z,54.28,-8.6,13.0,7.0,350,4,,6.21,30.147638,,,,,,,,,,,CAVOK,,,,,,,,VFR,,,,,,,,,,,,METAR,3.0
VYMD 150930Z 16007G15KT 7000 BKN020 FEW025CB 34/24 Q1001,VYMD,2015-06-15T09:30:00Z,21.7,95.98,34.0,24.0,160,7,15,4.35,29.557087,,,,,,,,,,,BKN,2000,FEW,2500,,,,,MVFR,,,,,,,,,,,,METAR,91.0
CYOW 150928Z 06006KT 15SM -RA OVC034 15/13 A2992 RMK SC8 SLP133 DENSITY ALT 400FT,CYOW,2015-06-15T09:28:00Z,45.32,-75.67,15.0,13.0,60,6,,15.0,29.920275,1013.3,,,,,,,,,-RA,OVC,3400,,,,,,,VFR,,,,,,,,,,,,SPECI,114.0
CZSJ 150928Z AUTO /////KT 9SM SCT024 BKN029 BKN034 OVC043 08/04 A2984 RMK SLP113,CZSJ,2015-06-15T09:28:00Z,53.07,-93.35,8.0,4.0,,,,9.0,29.840551,1011.3,,TRUE,,,,,,,,SCT,2400,BKN,2900,BKN,3400,OVC,4300,MVFR,,,,,,,,,,,,SPECI,290.0
FAUP 150927Z 32005KT CAVOK 22/M01 Q1023 NOSIG,FAUP,2015-06-15T09:27:00Z,-28.38,21.27,22.0,-1.0,320,5,,6.21,30.206694,,,,,,TRUE,,,,,CAVOK,,,,,,,,VFR,,,,,,,,,,,,SPECI,836.0
CYSB 150927Z 25005KT 1/4SM FG VV001 16/16 A2990 RMK FG8 SLP129 DENSITY ALT 1500FT,CYSB,2015-06-15T09:27:00Z,46.63,-80.8,16.0,16.0,250,5,,0.25,29.899607,1012.9,,,,,,,,,FG,OVX,0,,,,,,,LIFR,,,,,,,,,,,100,SPECI,348.0
CYYB 150927Z AUTO 14003KT 3/8SM R08/5500FT/D FG VV003 15/15 A2991 RMK SLP130 DENSITY ALT 1500FT,CYYB,2015-06-15T09:27:00Z,46.35,-79.42,15.0,15.0,140,3,,0.38,29.911417,1013.0,,TRUE,,,,,,,FG,OVX,0,,,,,,,LIFR,,,,,,,,,,,300,SPECI,371.0
CYVV 150927Z 00000KT 1/2SM FG OVC012 14/14 A2991 RMK FG4SF4 SLP129,CYVV,2015-06-15T09:27:00Z,44.75,-81.08,14.0,14.0,0,0,,0.5,29.911417,1012.9,,,,,,,,,FG,OVC,1200,,,,,,,LIFR,,,,,,,,,,,,SPECI,222.0
CYTR 150926Z 34004KT 12SM OVC004 17/16 A2991 RMK SF8 SLP127,CYTR,2015-06-15T09:26:00Z,44.12,-77.52,17.0,16.0,340,4,,12.0,29.911417,1012.7,,,,,,,,,,OVC,400,,,,,,,LIFR,,,,,,,,,,,,SPECI,86.0
RJFM 150926Z VRB01KT 3500 -SHRA BR FEW003 SCT008 BKN010 20/19 Q1008 RMK 1ST003 3ST008 5ST010 A2978,RJFM,2015-06-15T09:26:00Z,31.87,131.43,20.0,19.0,0,1,,2.17,29.763779,,,,,,,,,,-SHRA BR,FEW,300,SCT,800,BKN,1000,,,IFR,,,,,,,,,,,,METAR,9.0
EHSC 150925Z AUTO 04017G20KT 9999 ///////// 12/06 Q1021 W15/H12,EHSC,2015-06-15T09:25:00Z,51.93,3.67,12.0,6.0,40,17,20,6.21,30.147638,,,TRUE,,,,,,,,,,,,,,,,,,,,,,,,,,,,METAR,50.0
EHSA 150925Z AUTO 04017G20KT 9999 ///////// 12/06 Q1022 W14/H14,EHSA,2015-06-15T09:25:00Z,52.0,3.28,12.0,6.0,40,17,20,6.21,30.177166,,,TRUE,,,,,,,,,,,,,,,,,,,,,,,,,,,,METAR,50.0
EHJR 150925Z AUTO 01008G10KT //// ///////// 12/05 Q1023 W///H12,EHJR,2015-06-15T09:25:00Z,53.22,3.22,12.0,5.0,10,8,10,,30.206694,,,TRUE,,,,,,,,,,,,,,,,,,,,,,,,,,,,METAR,50.0
EBFS 150925Z 02011KT 5000 BR FEW009 BKN011 14/11 Q1018 GRN GRN TEMPO YLO,EBFS,2015-06-15T09:25:00Z,50.22,4.65,14.0,11.0,20,11,,3.11,30.059055,,,,,,,,,,BR,FEW,900,BKN,1100,,,,,MVFR,,,,,,,,,,,,SPECI,299.0
EBFN 150925Z 04012KT 9999 FEW020 BKN040 15/09 Q1021 BLU WHT TEMPO BLU,EBFN,2015-06-15T09:25:00Z,51.07,2.63,15.0,9.0,40,12,,6.21,30.147638,,,,,,,,,,,FEW,2000,BKN,4000,,,,,VFR,,,,,,,,,,,,SPECI,9.0
EBDT 150925Z 03009KT 9999 FEW021 BKN033 15/09 Q1020 BLU BLU,EBDT,2015-06-15T09:25:00Z,51.02,5.07,15.0,9.0,30,9,,6.21,30.11811,,,,,,,,,,,FEW,2100,BKN,3300,,,,,VFR,,,,,,,,,,,,METAR,54.0
EBCV 150925Z AUTO 05010KT 9999 OVC011/// 14/11 Q1019 GRN,EBCV,2015-06-15T09:25:00Z,50.57,3.82,14.0,11.0,50,10,,6.21,30.088583,,,TRUE,,,,,,,,,,,,,,,,,,,,,,,,,,,,SPECI,63.0
EBBL 150925Z 05009KT 9999 FEW030 SCT040 BKN070 17/09 Q1020 BLU BLU,EBBL,2015-06-15T09:25:00Z,51.17,5.47,17.0,9.0,50,9,,6.21,30.11811,,,,,,,,,,,FEW,3000,SCT,4000,BKN,7000,,,VFR,,,,,,,,,,,,METAR,64.0
EBBE 150925Z 03008KT 9999 FEW016 BKN024 13/09 Q1019 WHT WHT BECMG BLU,EBBE,2015-06-15T09:25:00Z,50.75,4.77,13.0,9.0,30,8,,6.21,30.088583,,,,,,,,,,,FEW,1600,BKN,2400,,,,,MVFR,,,,,,,,,,,,SPECI,127.0
KDTL 150925Z AUTO 33003KT 10SM CLR 14/12 A3002 RMK AO2,KDTL,2015-06-15T09:25:00Z,46.82,-95.87,14.0,12.0,330,3,,10.0,30.02067,,,TRUE,TRUE,,,,,,,CLR,,,,,,,,VFR,,,,,,,,,,,,METAR,426.0
KDLF 150923Z AUTO M 10SM SCT033 SCT044 BKN060 22/20 A2990 RMK AO2 DZE0858RAB0858E23 $,KDLF,2015-06-15T09:23:00Z,29.37,-100.77,22.0,20.0,,,,10.0,29.899607,,,TRUE,TRUE,TRUE,,,,,,SCT,3300,SCT,4400,BKN,6000,,,VFR,,,,,,,,,,,,METAR,330.0
CWUW 150923Z AUTO 31003KT 1/8SM 00/ A2983,CWUW,2015-06-15T09:23:00Z,68.65,-71.17,0.0,,310,3,,0.13,29.828741,,,TRUE,,,,,,,,,,,,,,,,,,,,,,,,,,,,SPECI,527.0
CYPO 150922Z AUTO 32004KT 9SM SCT012 OVC080 11/09 A2962 RMK SLP032,CYPO,2015-06-15T09:22:00Z,54.98,-85.43,11.0,9.0,320,4,,9.0,29.619095,1003.2,,TRUE,,,,,,,,SCT,1200,OVC,8000,,,,,VFR,,,,,,,,,,,,SPECI,53.0
CYAT 150922Z AUTO VRB02KT 9SM -RA FEW070 OVC096 16/14 A2964 RMK SLP037 DENSITY ALT 500FT,CYAT,2015-06-15T09:22:00Z,52.93,-82.43,16.0,14.0,0,2,,9.0,29.639763,1003.7,,TRUE,,,,,,,-RA,FEW,7000,OVC,9600,,,,,VFR,,,,,,,,,,,,SPECI,9.0
FAEL 150920Z 24012KT CAVOK 21/07 Q1015,FAEL,2015-06-15T09:20:00Z,-33.02,27.82,21.0,7.0,240,12,,6.21,29.970472,,,,,,,,,,,CAVOK,,,,,,,,VFR,,,,,,,,,,,,SPECI,125.0
OIMM 150920Z 11004KT CAVOK 30/M05 Q1015 A2999,OIMM,2015-06-15T09:20:00Z,36.23,59.62,30.0,-5.0,110,4,,6.21,29.970472,,,,,,,,,,,CAVOK,,,,,,,,VFR,,,,,,,,,,,,METAR,980.0
EGPM 150920Z 31010KT 9999 FEW025 BKN032 08/03 Q1019 NOSIG,EGPM,2015-06-15T09:20:00Z,60.42,-1.3,8.0,3.0,310,10,,6.21,30.088583,,,,,,TRUE,,,,,FEW,2500,BKN,3200,,,,,VFR,,,,,,,,,,,,METAR,22.0
EGNT 150920Z 20005KT 170V260 CAVOK 16/02 Q1022,EGNT,2015-06-15T09:20:00Z,55.02,-1.7,16.0,2.0,200,5,,6.21,30.177166,,,,,,,,,,,CAVOK,,,,,,,,VFR,,,,,,,,,,,,METAR,81.0
SLTJ 150920Z 00000KT 5000 -DZ SCT005 BKN013 OVC070 08/08 Q1024,SLTJ,2015-06-15T09:20:00Z,-21.55,-64.72,8.0,8.0,0,0,,3.11,30.236221,,,,,,,,,,-DZ,SCT,500,BKN,1300,OVC,7000,,,MVFR,,,,,,,,,,,,METAR,1858.0
PASA 150920Z AUTO 20016KT 10SM FEW035 BKN050 OVC075 05/03 A3048 RMK VIA PHONE,PASA,2015-06-15T09:20:00Z,63.68,-170.5,5.0,3.0,200,16,,10.0,30.481298,,,TRUE,,,,,,,,FEW,3500,BKN,5000,OVC,7500,,,VFR,,,,,,,,,,,,METAR,16.0
VECC 150920Z 16006KT 3300 HZ SCT018 FEW030CB BKN090 33/26 Q0998 NOSIG,VECC,2015-06-15T09:20:00Z,22.65,88.43,33.0,26.0,160,6,,2.05,29.468504,,,,,,TRUE,,,,HZ,SCT,1800,FEW,3000,BKN,9000,,,IFR,,,,,,,,,,,,METAR,6.0
ETSA 150920Z 29004KT 9999 -RA FEW008 BKN070 OVC090 16/14 Q1015 BLU BLU TEMPO YLO,ETSA,2015-06-15T09:20:00Z,48.07,10.9,16.0,14.0,290,4,,6.21,29.970472,,,,,,,,,,-RA,FEW,800,BKN,7000,OVC,9000,,,VFR,,,,,,,,,,,,METAR,628.0
ETNN 150920Z 01003KT 9999 BKN020 13/09 Q1019 WHT WHT BECMG BLU,ETNN,2015-06-15T09:20:00Z,50.82,6.67,13.0,9.0,10,3,,6.21,30.088583,,,,,,,,,,,BKN,2000,,,,,,,MVFR,,,,,,,,,,,,METAR,135.0
ETHN 150920Z 01006KT 9999 FEW024 BKN250 19/11 Q1016 BLU+BLU+,ETHN,2015-06-15T09:20:00Z,49.38,9.97,19.0,11.0,10,6,,6.21,30.0,,,,,,,,,,,FEW,2400,BKN,25000,,,,,VFR,,,,,,,,,,,,METAR,473.0
ETHL 150920Z 30004KT 9999 SCT019 BKN037 17/14 Q1015 BLU BLU,ETHL,2015-06-15T09:20:00Z,48.22,9.92,17.0,14.0,300,4,,6.21,29.970472,,,,,,,,,,,SCT,1900,BKN,3700,,,,,VFR,,,,,,,,,,,,METAR,549.0
ETWM 150920Z 34006KT 9999 FEW044 14/03 Q1020 BLU+,ETWM,2015-06-15T09:20:00Z,52.72,7.33,14.0,3.0,340,6,,6.21,30.11811,,,,,,,,,,,FEW,4400,,,,,,,VFR,,,,,,,,,,,,METAR,21.0
ETSH 150920Z 32006KT 9999 FEW035 SCT050 BKN080 15/06 Q1017 BLU BLU,ETSH,2015-06-15T09:20:00Z,51.77,13.17,15.0,6.0,320,6,,6.21,30.029528,,,,,,,,,,,FEW,3500,SCT,5000,BKN,8000,,,VFR,,,,,,,,,,,,METAR,79.0
ETNW 150920Z 02009KT 9999 FEW080 15/03 Q1019 BLU+BLU+,ETNW,2015-06-15T09:20:00Z,52.45,9.42,15.0,3.0,20,9,,6.21,30.088583,,,,,,,,,,,FEW,8000,,,,,,,VFR,,,,,,,,,,,,METAR,70.0
ETNT 150920Z 33007KT 9999 FEW041 BKN050 12/04 Q1021 BLU BLU+ TEMPO BLU,ETNT,2015-06-15T09:20:00Z,53.53,7.67,12.0,4.0,330,7,,6.21,30.147638,,,,,,,,,,,FEW,4100,BKN,5000,,,,,VFR,,,,,,,,,,,,METAR,12.0
ETNL 150920Z 31014KT 9999 BKN042 13/05 Q1018 BLU BLU+ TEMPO BLU,ETNL,2015-06-15T09:20:00Z,53.92,12.27,13.0,5.0,310,14,,6.21,30.059055,,,,,,,,,,,BKN,4200,,,,,,,VFR,,,,,,,,,,,,METAR,40.0
ETNH 150920Z 30012KT 9999 FEW040 BKN050 13/04 Q1019 BLU BLU+ TEMPO BLU,ETNH,2015-06-15T09:20:00Z,54.32,9.55,13.0,4.0,300,12,,6.21,30.088583,,,,,,,,,,,FEW,4000,BKN,5000,,,,,VFR,,,,,,,,,,,,METAR,17.0
ETND 150920Z 35007KT 9999 SCT040 14/03 Q1020 BLU+,ETND,2015-06-15T09:20:00Z,52.58,8.35,14.0,3.0,350,7,,6.21,30.11811,,,,,,,,,,,SCT,4000,,,,,,,VFR,,,,,,,,,,,,METAR,43.0
ETMN 150920Z 33013KT 9000 FEW009 SCT020 BKN038 10/08 Q1020 BLU BLU,ETMN,2015-06-15T09:20:00Z,53.77,8.67,10.0,8.0,330,13,,5.59,30.11811,,,,,,,,,,,FEW,900,SCT,2000,BKN,3800,,,VFR,,,,,,,,,,,,METAR,31.0
ETML 150920Z AUTO 27010KT //// // ////// 11/06 Q1018 ///,ETML,2015-06-15T09:20:00Z,,,11.0,6.0,270,10,,,30.059055,,,TRUE,,,,,,,,,,,,,,,,,,,,,,,,,,,,METAR,
ETHS 150920Z 14008KT 9999 SCT040 14/02 Q1019 BLU+BLU+,ETHS,2015-06-15T09:20:00Z,52.92,10.18,14.0,2.0,140,8,,6.21,30.088583,,,,,,,,,,,SCT,4000,,,,,,,VFR,,,,,,,,,,,,METAR,88.0
ETHF 150920Z 02006KT 9999 BKN023 BKN035 13/08 Q1018 WHT BLU TEMPO WHT,ETHF,2015-06-15T09:20:00Z,51.12,9.27,13.0,8.0,20,6,,6.21,30.059055,,,,,,,,,,,BKN,2300,BKN,3500,,,,,MVFR,,,,,,,,,,,,METAR,181.0
ETHE 150920Z 36008KT 9999 FEW033 14/04 Q1020 BLU+,ETHE,2015-06-15T09:20:00Z,52.28,7.37,14.0,4.0,360,8,,6.21,30.11811,,,,,,,,,,,FEW,3300,,,,,,,VFR,,,,,,,,,,,,METAR,49.0
ETHC 150920Z 36008KT 9999 FEW049 15/02 Q1019 BLU+BLU+,ETHC,2015-06-15T09:20:00Z,52.6,10.02,15.0,2.0,360,8,,6.21,30.088583,,,,,,,,,,,FEW,4900,,,,,,,VFR,,,,,,,,,,,,METAR,52.0
ETHB 150920Z 04006KT 9999 FEW035 15/04 Q1019 BLU+BLU+,ETHB,2015-06-15T09:20:00Z,52.27,9.07,15.0,4.0,40,6,,6.21,30.088583,,,,,,,,,,,FEW,3500,,,,,,,VFR,,,,,,,,,,,,METAR,78.0
ETGG 150920Z 31013KT 9999 SCT025 BKN040 11/06 Q1018 BLU,ETGG,2015-06-15T09:20:00Z,54.83,9.5,11.0,6.0,310,13,,6.21,30.059055,,,,,,,,,,,SCT,2500,BKN,4000,,,,,VFR,,,,,,,,,,,,METAR,33.0
ENRO 150920Z 30017KT 9999 FEW025 SCT140 05/M00 Q1008,ENRO,2015-06-15T09:20:00Z,62.57,11.33,5.0,0.0,300,17,,6.21,29.763779,,,,,,,,,,,FEW,2500,SCT,14000,,,,,VFR,,,,,,,,,,,,METAR,626.0
LIBD 150920Z 36011KT CAVOK 30/14 Q1014,LIBD,2015-06-15T09:20:00Z,41.12,16.77,30.0,14.0,360,11,,6.21,29.940945,,,,,,,,,,,CAVOK,,,,,,,,VFR,,,,,,,,,,,,METAR,44.0
EDJA 150920Z 31006KT 8000 SCT010 OVC020 16/14 Q1015,EDJA,2015-06-15T09:20:00Z,47.98,10.23,16.0,14.0,310,6,,4.97,29.970472,,,,,,,,,,,SCT,1000,OVC,2000,,,,,MVFR,,,,,,,,,,,,METAR,633.0
ETSB 150920Z 36007KT 6000 SCT012 BKN020 14/11 Q1018 WHT WHT BECMG BLU,ETSB,2015-06-15T09:20:00Z,50.17,7.07,14.0,11.0,360,7,,3.73,30.059055,,,,,,,,,,,SCT,1200,BKN,2000,,,,,MVFR,,,,,,,,,,,,METAR,486.0
ETSL 150920Z 24004KT 9999 RA FEW006 BKN025 BKN080 16/15 Q1015 BLU BLU TEMPO WHT,ETSL,2015-06-15T09:20:00Z,48.17,10.87,16.0,15.0,240,4,,6.21,29.970472,,,,,,,,,,RA,FEW,600,BKN,2500,BKN,8000,,,MVFR,,,,,,,,,,,,METAR,562.0
ETSI 150920Z 08004KT 9999 FEW010 SCT015 BKN020 17/15 Q1014 WHT BLU TEMPO WHT,ETSI,2015-06-15T09:20:00Z,48.72,11.52,17.0,15.0,80,4,,6.21,29.940945,,,,,,,,,,,FEW,1000,SCT,1500,BKN,2000,,,MVFR,,,,,,,,,,,,METAR,370.0
ETSN 150920Z VRB02KT 9999 FEW014 BKN020 18/14 Q1014 BLACKWHT,ETSN,2015-06-15T09:20:00Z,48.72,11.22,18.0,14.0,0,2,,6.21,29.940945,,,,,,,,,,,FEW,1400,BKN,2000,,,,,MVFR,,,,,,,,,,,,METAR,387.0
K40B 150919Z AUTO 00000KT 03/03 A3009 RMK AO1 SLP196 T00330030 57008 60000,K40B,2015-06-15T09:19:00Z,46.62,-69.52,3.3,3.0,0,0,,,30.088583,1019.6,,TRUE,TRUE,,,,,,,,,,,,,,,,-0.8,,,,,,0.0050,,,,,METAR,314.0
MMTP 150918Z RTD 00000KT 10SM SKC 25/24 A2983 RMK SLP109 57007 967,MMTP,2015-06-15T09:18:00Z,14.77,-92.37,25.0,24.0,0,0,,10.0,29.828741,1010.9,,,,,,,,,,SKC,,,,,,,,VFR,-0.7,,,,,,,,,,,METAR,29.0
RJFG 150917Z 24005KT 0800 R31/P1800N SHRA FG FEW000 SCT001 BKN003 24/24 Q1010 RMK 1ST000 3ST001 5ST003 A2984,RJFG,2015-06-15T09:17:00Z,30.62,130.98,24.0,24.0,240,5,,0.5,29.822834,,,,,,,,,,SHRA FG,FEW,0,SCT,100,BKN,300,,,LIFR,,,,,,,,,,,,METAR,95.0
SBPB 150915Z 11007KT CAVOK 25/24 Q1013,SBPB,2015-06-15T09:15:00Z,-2.92,-41.75,25.0,24.0,110,7,,6.21,29.911417,,,,,,,,,,,CAVOK,,,,,,,,VFR,,,,,,,,,,,,SPECI,5.0
SBLP 150915Z 00000KT 9999 FEW030 20/16 Q1017,SBLP,2015-06-15T09:15:00Z,-13.27,-43.42,20.0,16.0,0,0,,6.21,30.029528,,,,,,,,,,,FEW,3000,,,,,,,VFR,,,,,,,,,,,,METAR,440.0
SBJR 150915Z 24010KT 9999 FEW015 26/21 Q1010,SBJR,2015-06-15T09:15:00Z,-22.97,-43.37,26.0,21.0,240,10,,6.21,29.822834,,,,,,,,,,,FEW,1500,,,,,,,VFR,,,,,,,,,,,,SPECI,3.0
SBHT 150915Z 29002KT 9999 SCT012 BKN080 22/22 Q1012,SBHT,2015-06-15T09:15:00Z,-3.25,-52.27,22.0,22.0,290,2,,6.21,29.88189,,,,,,,,,,,SCT,1200,BKN,8000,,,,,VFR,,,,,,,,,,,,SPECI,74.0
SBPN 150915Z 18005KT CAVOK 23/19 Q1013,SBPN,2015-06-15T09:15:00Z,-10.72,-48.38,23.0,19.0,180,5,,6.21,29.911417,,,,,,,,,,,CAVOK,,,,,,,,VFR,,,,,,,,,,,,SPECI,265.0
SBIH 150915Z 00000KT 9000 SCT010 SCT080 25/24 Q1012,SBIH,2015-06-15T09:15:00Z,-4.25,-56.0,25.0,24.0,0,0,,5.59,29.88189,,,,,,,,,,,SCT,1000,SCT,8000,,,,,VFR,,,,,,,,,,,,METAR,34.0
LHUD 150915Z 28007KT 9999 FEW046 27/18 Q1011,LHUD,2015-06-15T09:15:00Z,46.25,20.1,27.0,18.0,280,7,,6.21,29.852362,,,,,,,,,,,FEW,4600,,,,,,,VFR,,,,,,,,,,,,METAR,84.0
LHSM 150915Z 21006KT 9999 SCT030 24/17 Q1011,LHSM,2015-06-15T09:15:00Z,46.68,17.17,24.0,17.0,210,6,,6.21,29.852362,,,,,,,,,,,SCT,3000,,,,,,,VFR,,,,,,,,,,,,METAR,125.0
LHPR 150915Z 27010KT 9999 SCT033 22/15 Q1010,LHPR,2015-06-15T09:15:00Z,47.63,17.82,22.0,15.0,270,10,,6.21,29.822834,,,,,,,,,,,SCT,3300,,,,,,,VFR,,,,,,,,,,,,METAR,129.0
LHPP 150915Z 25011KT 9999 BKN043 26/15 Q1012 NOSIG,LHPP,2015-06-15T09:15:00Z,45.98,18.23,26.0,15.0,250,11,,6.21,29.88189,,,,,,TRUE,,,,,BKN,4300,,,,,,,VFR,,,,,,,,,,,,METAR,305.0
LHPA 150915Z 29004MPS 260V330 9999 BKN033 BKN083 23/16 Q1010 NOSIG RMK BLU,LHPA,2015-06-15T09:15:00Z,47.35,17.5,23.0,16.0,290,8,,6.21,29.822834,,,,,,TRUE,,,,,BKN,3300,BKN,8300,,,,,VFR,,,,,,,,,,,,METAR,148.0
LHDC 150915Z 15008KT 9999 FEW033 BKN083 25/16 Q1012 NOSIG,LHDC,2015-06-15T09:15:00Z,47.47,21.62,25.0,16.0,150,8,,6.21,29.88189,,,,,,TRUE,,,,,FEW,3300,BKN,8300,,,,,VFR,,,,,,,,,,,,METAR,112.0
CYEV 150914Z 34004KT 15SM -RA FEW010 BKN052 OVC080 09/07 A3039 RMK SF1SC7AC1 SF TR SLP296,CYEV,2015-06-15T09:14:00Z,68.32,-133.5,9.0,7.0,340,4,,15.0,30.389763,1029.6,,,,,,,,,-RA,FEW,1000,BKN,5200,OVC,8000,,,VFR,,,,,,,,,,,,SPECI,68.0
KSSC 150913Z AUTO 29003KT 10SM CLR 25/20 A3005 RMK AO2,KSSC,2015-06-15T09:13:00Z,33.97,-80.47,25.0,20.0,290,3,,10.0,30.050198,,,TRUE,TRUE,,,,,,,CLR,,,,,,,,VFR,,,,,,,,,,,,SPECI,74.0
CYPR 150913Z AUTO VRB03KT 7SM BKN004 BKN140 BKN240 12/11 A3005 RMK SLP175,CYPR,2015-06-15T09:13:00Z,54.28,-130.42,12.0,11.0,0,3,,7.0,30.050198,1017.5,,TRUE,,,,,,,,BKN,400,BKN,14000,BKN,24000,,,LIFR,,,,,,,,,,,,SPECI,34.0
CYXU 150912Z 27007KT 3SM BR OVC005 21/21 A2993 RMK ST8 SLP132 DENSITY ALT 1800FT,CYXU,2015-06-15T09:12:00Z,43.02,-81.15,21.0,21.0,270,7,,3.0,29.929134,1013.2,,,,,,,,,BR,OVC,500,,,,,,,IFR,,,,,,,,,,,,SPECI,278.0
CYSF 150911Z AUTO 31004KT 280V350 7SM -RA BKN016 OVC036 08/06 A3009 RMK SLP198,CYSF,2015-06-15T09:11:00Z,59.25,-105.82,8.0,6.0,310,4,,7.0,30.088583,1019.8,,TRUE,,,,,,,-RA,BKN,1600,OVC,3600,,,,,MVFR,,,,,,,,,,,,SPECI,250.0
FAKN 150911Z 35002KT CAVOK 24/M03 Q1021 NOSIG,FAKN,2015-06-15T09:11:00Z,-25.38,31.1,24.0,-3.0,350,2,,6.21,30.147638,,,,,,TRUE,,,,,CAVOK,,,,,,,,VFR,,,,,,,,,,,,SPECI,862.0
CYBN 150910Z AUTO 00000KT 1/8SM VV001 17/17 A2992,CYBN,2015-06-15T09:10:00Z,44.27,-79.92,17.0,17.0,0,0,,0.13,29.920275,,,TRUE,,,,,,,,OVX,0,,,,,,,LIFR,,,,,,,,,,,100,SPECI,223.0
VCRI 150910Z 30019KT 9999 SCT017 SCT080 33/21 Q1005 NOSIG,VCRI,2015-06-15T09:10:00Z,6.28,81.13,33.0,21.0,300,19,,6.21,29.675198,,,,,,TRUE,,,,,SCT,1700,SCT,8000,,,,,VFR,,,,,,,,,,,,METAR,7.0
VCBI 150910Z 24009KT 9999 FEW010 SCT016 29/25 Q1006 NOSIG,VCBI,2015-06-15T09:10:00Z,7.17,79.87,29.0,25.0,240,9,,6.21,29.704725,,,,,,TRUE,,,,,FEW,1000,SCT,1600,,,,,VFR,,,,,,,,,,,,METAR,8.0
SYCJ 150910Z 00000KT 0900 FG SCT013 23/23 Q1012 NOSIG,SYCJ,2015-06-15T09:10:00Z,6.5,-58.25,23.0,23.0,0,0,,0.56,29.88189,,,,,,TRUE,,,,FG,SCT,1300,,,,,,,LIFR,,,,,,,,,,,,METAR,30.0
RJCW 150909Z 21010KT 9999 FEW003 BKN005 15/13 Q1006 RMK 1ST003 7ST005 A2972,RJCW,2015-06-15T09:09:00Z,45.38,141.8,15.0,13.0,210,10,,6.21,29.704725,,,,,,,,,,,FEW,300,BKN,500,,,,,IFR,,,,,,,,,,,,METAR,11.0
CYVO 150905Z AUTO 16009KT 4SM BR OVC005 13/13 A2989 RMK SLP126,CYVO,2015-06-15T09:05:00Z,48.07,-77.77,13.0,13.0,160,9,,4.0,29.890747,1012.6,,TRUE,,,,,,,BR,OVC,500,,,,,,,IFR,,,,,,,,,,,,SPECI,337.0
MUCL 150905Z AUTO 08007KT 27/24 Q1015,MUCL,2015-06-15T09:05:00Z,21.63,-81.55,27.0,24.0,80,7,,,29.970472,,,TRUE,,,,,,,,,,,,,,,,,,,,,,,,,,,,METAR,5.0
MUCU 150905Z AUTO 01004KT 25/20 Q1015,MUCU,2015-06-15T09:05:00Z,19.97,-75.83,25.0,20.0,10,4,,,29.970472,,,TRUE,,,,,,,,,,,,,,,,,,,,,,,,,,,,METAR,76.0
MGSJ 150900Z 00000KT CAVOK 24/22 Q1010 A2983 SCT080,MGSJ,2015-06-15T09:00:00Z,13.92,-90.83,24.0,22.0,0,0,,6.21,29.822834,,,,,,,,,,,SCT,8000,,,,,,,VFR,,,,,,,,,,,,METAR,9.0
UHMM 150900Z 12006MPS 9999 SCT043 OVC200 13/06 Q1008 NOSIG RMK QFE741 10CLRD70,UHMM,2015-06-15T09:00:00Z,59.92,150.72,13.0,6.0,120,12,,6.21,29.763779,,,,,,TRUE,,,,,SCT,4300,OVC,20000,,,,,VFR,,,,,,,,,,,,METAR,118.0
UHMA 150900Z 17005MPS 9999 FEW040 FEW080 08/04 Q1022 RMK QFE763/1017,UHMA,2015-06-15T09:00:00Z,64.73,177.73,8.0,4.0,170,10,,6.21,30.177166,,,,,,,,,,,FEW,4000,FEW,8000,,,,,VFR,,,,,,,,,,,,METAR,62.0
FMNN 150900Z 04006KT 9999 SCT020 29/22 Q1013,FMNN,2015-06-15T09:00:00Z,-13.32,48.32,29.0,22.0,40,6,,6.21,29.911417,,,,,,,,,,,SCT,2000,,,,,,,VFR,,,,,,,,,,,,METAR,9.0
OEYN 150900Z 24012KT CAVOK 38/10 Q1003 NOSIG,OEYN,2015-06-15T09:00:00Z,24.13,38.07,38.0,10.0,240,12,,6.21,29.616142,,,,,,TRUE,,,,,CAVOK,,,,,,,,VFR,,,,,,,,,,,,METAR,8.0
OEWJ 150900Z 29015KT CAVOK 30/25 Q1006 NOSIG,OEWJ,2015-06-15T09:00:00Z,26.18,36.47,30.0,25.0,290,15,,6.21,29.704725,,,,,,TRUE,,,,,CAVOK,,,,,,,,VFR,,,,,,,,,,,,METAR,16.0
OETR 150900Z 24006KT CAVOK 30/08 Q1010,OETR,2015-06-15T09:00:00Z,31.7,38.73,30.0,8.0,240,6,,6.21,29.822834,,,,,,,,,,,CAVOK,,,,,,,,VFR,,,,,,,,,,,,METAR,855.0
FQQL 150900Z 13003KT 9999 BKN020 26/18 Q1020,FQQL,2015-06-15T09:00:00Z,-17.87,36.87,26.0,18.0,130,3,,6.21,30.11811,,,,,,,,,,,BKN,2000,,,,,,,MVFR,,,,,,,,,,,,METAR,16.0
FNGI 150900Z 04008KT CAVOK 22/04 Q1023,FNGI,2015-06-15T09:00:00Z,-17.05,15.68,22.0,4.0,40,8,,6.21,30.206694,,,,,,,,,,,CAVOK,,,,,,,,VFR,,,,,,,,,,,,METAR,1087.0
SBCH 150900Z 16006KT 8000 NSC 06/04 Q1018,SBCH,2015-06-15T09:00:00Z,-27.13,-52.67,6.0,4.0,160,6,,4.97,30.059055,,,,,,,,,,,,,,,,,,,,,,,,,,,,,,,METAR,650.0
SBCO 150900Z 32008KT CAVOK 09/07 Q1016,SBCO,2015-06-15T09:00:00Z,-29.95,-51.15,9.0,7.0,320,8,,6.21,30.0,,,,,,,,,,,CAVOK,,,,,,,,VFR,,,,,,,,,,,,METAR,47.0
SBJV 150900Z 34002KT 9999 FEW005 SCT030 BKN080 15/15 Q1014,SBJV,2015-06-15T09:00:00Z,-26.22,-48.8,15.0,15.0,340,2,,6.21,29.940945,,,,,,,,,,,FEW,500,SCT,3000,BKN,8000,,,VFR,,,,,,,,,,,,METAR,4.0
SBMG 150900Z 16009KT 4000 -RA BCFG BR FEW002 SCT004 OVC080 14/13 Q1015,SBMG,2015-06-15T09:00:00Z,-23.48,-52.02,14.0,13.0,160,9,,2.49,29.970472,,,,,,,,,,-RA BCFG BR,FEW,200,SCT,400,OVC,8000,,,IFR,,,,,,,,,,,,METAR,542.0
SBSM 150900Z 27004KT CAVOK 07/03 Q1018,SBSM,2015-06-15T09:00:00Z,-29.72,-53.7,7.0,3.0,270,4,,6.21,30.059055,,,,,,,,,,,CAVOK,,,,,,,,VFR,,,,,,,,,,,,METAR,85.0
SBCC 150900Z 11003KT CAVOK 22/20 Q1015,SBCC,2015-06-15T09:00:00Z,-9.32,-54.95,22.0,20.0,110,3,,6.21,29.970472,,,,,,,,,,,CAVOK,,,,,,,,VFR,,,,,,,,,,,,METAR,536.0
SBIZ 150900Z 00000KT 9000 FEW004 21/21 Q1012,SBIZ,2015-06-15T09:00:00Z,-5.52,-47.45,21.0,21.0,0,0,,5.59,29.88189,,,,,,,,,,,FEW,400,,,,,,,VFR,,,,,,,,,,,,METAR,123.0
SBLB 150900Z /////KT CAVOK ///// Q//// W///S6,SBLB,2015-06-15T09:00:00Z,-22.1,-39.92,,,,,,6.21,,,,,,,,,,,,CAVOK,,,,,,,,VFR,,,,,,,,,,,,METAR,10.0
SBAF 150900Z 26007KT CAVOK 20/15 Q1010,SBAF,2015-06-15T09:00:00Z,-22.87,-43.37,20.0,15.0,260,7,,6.21,29.822834,,,,,,,,,,,CAVOK,,,,,,,,VFR,,,,,,,,,,,,METAR,34.0
SBAU 150900Z 33004KT CAVOK 19/16 Q1013,SBAU,2015-06-15T09:00:00Z,-21.13,-50.43,19.0,16.0,330,4,,6.21,29.911417,,,,,,,,,,,CAVOK,,,,,,,,VFR,,,,,,,,,,,,METAR,415.0
SBBH 150900Z 00000KT CAVOK 14/13 Q1018,SBBH,2015-06-15T09:00:00Z,-19.85,-43.95,14.0,13.0,0,0,,6.21,30.059055,,,,,,,,,,,CAVOK,,,,,,,,VFR,,,,,,,,,,,,METAR,785.0
UWLW 150900Z 27008MPS 8000 NSC 32/13 Q1010 R20/CLRD60 NOSIG RMK QFE752,UWLW,2015-06-15T09:00:00Z,54.4,48.8,32.0,13.0,270,16,,4.97,29.822834,,,,,,TRUE,,,,,,,,,,,,,,,,,,,,,,,,,METAR,66.0
UWOR 150900Z 30008MPS CAVOK 28/09 Q1015 R25/CLRD65 NOSIG RMK QFE738/0984,UWOR,2015-06-15T09:00:00Z,51.07,58.6,28.0,9.0,300,16,,6.21,29.970472,,,,,,TRUE,,,,,CAVOK,,,,,,,,VFR,,,,,,,,,,,,METAR,277.0
SBBQ 150900Z 00000KT CAVOK 15/11 Q1020,SBBQ,2015-06-15T09:00:00Z,-21.25,-43.77,15.0,11.0,0,0,,6.21,30.11811,,,,,,,,,,,CAVOK,,,,,,,,VFR,,,,,,,,,,,,METAR,1171.0
SBBU 150900Z 34004KT CAVOK 21/18 Q1013,SBBU,2015-06-15T09:00:00Z,-22.32,-49.07,21.0,18.0,340,4,,6.21,29.911417,,,,,,,,,,,CAVOK,,,,,,,,VFR,,,,,,,,,,,,METAR,590.0
SBES 150900Z 02003KT 350V050 CAVOK 18/16 Q1009,SBES,2015-06-15T09:00:00Z,-22.82,-42.1,18.0,16.0,20,3,,6.21,29.793306,,,,,,,,,,,CAVOK,,,,,,,,VFR,,,,,,,,,,,,METAR,11.0
SBSJ 150900Z 15003KT 6000 SCT018 19/16 Q1014,SBSJ,2015-06-15T09:00:00Z,-23.22,-45.87,19.0,16.0,150,3,,3.73,29.940945,,,,,,,,,,,SCT,1800,,,,,,,MVFR,,,,,,,,,,,,METAR,646.0
OPMT 150900Z 27008KT 5000 FU SCT040 35/24 Q1000 NOSIG,OPMT,2015-06-15T09:00:00Z,30.18,71.42,35.0,24.0,270,8,,3.11,29.52756,,,,,,TRUE,,,,FU,SCT,4000,,,,,,,MVFR,,,,,,,,,,,,METAR,123.0
UUOK 150900Z 23008MPS 190V250 9999 SCT033 30/12 Q1010 R12/CLRD70 NOSIG RMK QFE740/0987,UUOK,2015-06-15T09:00:00Z,51.75,36.28,30.0,12.0,230,16,,6.21,29.822834,,,,,,TRUE,,,,,SCT,3300,,,,,,,VFR,,,,,,,,,,,,METAR,209.0
SBLS 150900Z 00000KT 9999 FEW040 16/13 Q1018,SBLS,2015-06-15T09:00:00Z,-19.67,-43.88,16.0,13.0,0,0,,6.21,30.059055,,,,,,,,,,,FEW,4000,,,,,,,VFR,,,,,,,,,,,,METAR,852.0
SBGW 150900Z 13002KT CAVOK 17/14 Q1012,SBGW,2015-06-15T09:00:00Z,-22.77,-45.2,17.0,14.0,130,2,,6.21,29.88189,,,,,,,,,,,CAVOK,,,,,,,,VFR,,,,,,,,,,,,METAR,533.0
SBME 150900Z 11002KT CAVOK 20/17 Q1009,SBME,2015-06-15T09:00:00Z,-22.35,-41.77,20.0,17.0,110,2,,6.21,29.793306,,,,,,,,,,,CAVOK,,,,,,,,VFR,,,,,,,,,,,,METAR,2.0
SBMK 150900Z 25003KT 210V300 CAVOK 16/11 Q1018,SBMK,2015-06-15T09:00:00Z,-16.7,-43.82,16.0,11.0,250,3,,6.21,30.059055,,,,,,,,,,,CAVOK,,,,,,,,VFR,,,,,,,,,,,,METAR,646.0
SBML 150900Z 30010KT CAVOK 21/15 Q1014,SBML,2015-06-15T09:00:00Z,-22.18,-49.92,21.0,15.0,300,10,,6.21,29.940945,,,,,,,,,,,CAVOK,,,,,,,,VFR,,,,,,,,,,,,METAR,647.0
SBMT 150900Z 17006KT 5000 BR BKN045 20/17 Q1015,SBMT,2015-06-15T09:00:00Z,-23.52,-46.62,20.0,17.0,170,6,,3.11,29.970472,,,,,,,,,,BR,BKN,4500,,,,,,,MVFR,,,,,,,,,,,,METAR,722.0
SBSC 150900Z 02006KT CAVOK 22/13 Q1009,SBSC,2015-06-15T09:00:00Z,-22.92,-43.72,22.0,13.0,20,6,,6.21,29.793306,,,,,,,,,,,CAVOK,,,,,,,,VFR,,,,,,,,,,,,METAR,3.0
DAEF 150900Z 24004KT 8000 NSC 38/// Q1016,DAEF,2015-06-15T09:00:00Z,28.43,7.55,,,240,4,,4.97,30.0,,,,,,,,,,,,,,,,,,,,,,,,,,,,,,,METAR,472.0
VTCT 150900Z 08005KT 9999 SCT025 33/24 Q1005 A2968 RMK/RWY03 INFO J,VTCT,2015-06-15T09:00:00Z,19.95,99.88,33.0,24.0,80,5,,6.21,29.675198,,,,,,,,,,,SCT,2500,,,,,,,VFR,,,,,,,,,,,,METAR,390.0
LERI 150900Z VRB02KT 9999 FEW045 24/08 Q1015 NOSIG,LERI,2015-06-15T09:00:00Z,37.95,-1.22,24.0,8.0,0,2,,6.21,29.970472,,,,,,TRUE,,,,,FEW,4500,,,,,,,VFR,,,,,,,,,,,,METAR,75.0
LEGT 150900Z 14006KT 060V190 9999 SCT010 SCT020TCU BKN035 16/10 Q1017,LEGT,2015-06-15T09:00:00Z,40.28,-3.72,16.0,10.0,140,6,,6.21,30.029528,,,,,,,,,,,SCT,1000,SCT,2000,BKN,3500,,,VFR,,,,,,,,,,,,METAR,612.0
LEGA 150900Z 30006KT 9999 FEW045 SCT070 18/09 Q1018,LEGA,2015-06-15T09:00:00Z,37.12,-3.62,18.0,9.0,300,6,,6.21,30.059055,,,,,,,,,,,FEW,4500,SCT,7000,,,,,VFR,,,,,,,,,,,,METAR,686.0
LERT 150900Z 30007KT 250V340 9999 BKN020 20/14 Q1018 NOSIG,LERT,2015-06-15T09:00:00Z,36.63,-6.33,20.0,14.0,300,7,,6.21,30.059055,,,,,,TRUE,,,,,BKN,2000,,,,,,,MVFR,,,,,,,,,,,,METAR,26.0
CWST 150900Z AUTO 16002KT 08/07 RMK AO1 SLP175 T00750069 58008,CWST,2015-06-15T09:00:00Z,47.35,-70.02,7.5,6.9,160,2,,,,1017.5,,TRUE,TRUE,,,,,,,,,,,,,,,,-0.8,,,,,,,,,,,METAR,31.0
CWSR 150900Z AUTO 26007KT 06/04 RMK AO1 SLP235 T00580043 52005,CWSR,2015-06-15T09:00:00Z,53.37,-107.53,5.8,4.3,260,7,,,,1023.5,,TRUE,TRUE,,,,,,,,,,,,,,,,0.5,,,,,,,,,,,METAR,584.0
CWSP 150900Z AUTO 31007KT 11/10 RMK AO1 SLP146 T01120099 56003,CWSP,2015-06-15T09:00:00Z,48.38,-123.92,11.2,9.9,310,7,,,,1014.6,,TRUE,TRUE,,,,,,,,,,,,,,,,-0.3,,,,,,,,,,,METAR,21.0
CWSL 150900Z AUTO 18002KT 10/06 RMK AO1 SLP187 T00960063 52012,CWSL,2015-06-15T09:00:00Z,50.7,-119.27,9.6,6.3,180,2,,,,1018.7,,TRUE,TRUE,,,,,,,,,,,,,,,,1.2,,,,,,,,,,,METAR,351.0
CWSK 150900Z AUTO 04002KT 13/07 RMK AO1 SOG 20 1006 SLP143 T01270072,CWSK,2015-06-15T09:00:00Z,49.78,-123.17,12.7,7.2,40,2,,,,1014.3,,TRUE,TRUE,,,,,,,,,,,,,,,,,,,,,,,,,,,METAR,60.0
CWSG 150900Z AUTO 21009KT 06/04 RMK AO1 SLP192 T00550039 56001,CWSG,2015-06-15T09:00:00Z,49.12,-66.65,5.5,3.9,210,9,,,,1019.2,,TRUE,TRUE,,,,,,,,,,,,,,,,-0.1,,,,,,,,,,,METAR,5.0
CWSD 150900Z AUTO 29001KT 08/07 RMK AO1 SLP216 T00820074 53010,CWSD,2015-06-15T09:00:00Z,46.42,-63.85,8.2,7.4,290,1,,,,1021.6,,TRUE,TRUE,,,,,,,,,,,,,,,,1.0,,,,,,,,,,,METAR,24.0
CWRZ 150900Z AUTO 05002KT 07/05 RMK AO1 SLP208 T00660046 52007,CWRZ,2015-06-15T09:00:00Z,48.42,-64.32,6.6,4.6,50,2,,,,1020.8,,TRUE,TRUE,,,,,,,,,,,,,,,,0.7,,,,,,,,,,,METAR,16.0
CWRY 150900Z AUTO 35004KT 04/03 RMK AO1 SLP267 T00410026 51008,CWRY,2015-06-15T09:00:00Z,49.12,-112.03,4.1,2.6,350,4,,,,1026.7,,TRUE,TRUE,,,,,,,,,,,,,,,,0.8,,,,,,,,,,,METAR,1050.0
CWRT 150900Z AUTO 09003KT 08/06 RMK AO1 T00750058,CWRT,2015-06-15T09:00:00Z,49.62,-114.47,7.5,5.8,90,3,,,,,,TRUE,TRUE,,,,,,,,,,,,,,,,,,,,,,,,,,,METAR,1303.0
CWRK 150900Z AUTO 00000KT 15/15 RMK AO1 SLP133 T01520150 58007,CWRK,2015-06-15T09:00:00Z,45.07,-77.87,15.2,15.0,0,0,,,,1013.3,,TRUE,TRUE,,,,,,,,,,,,,,,,-0.7,,,,,,,,,,,METAR,331.0
CWRJ 150900Z AUTO 32004KT 09/07 RMK AO1 SLP250 T00940070 51012,CWRJ,2015-06-15T09:00:00Z,51.57,-107.92,9.4,7.0,320,4,,,,1025.0,,TRUE,TRUE,,,,,,,,,,,,,,,,1.2,,,,,,,,,,,METAR,586.0
CWQV 150900Z AUTO 10005KT 10/07 RMK AO1 T00980069,CWQV,2015-06-15T09:00:00Z,48.27,-70.12,9.8,6.9,100,5,,,,,,TRUE,TRUE,,,,,,,,,,,,,,,,,,,,,,,,,,,METAR,1.0
CWQR 150900Z AUTO 05008KT 05/ RMK AO1 T0046,CWQR,2015-06-15T09:00:00Z,50.22,-64.22,4.6,,50,8,,,,,,TRUE,TRUE,,,,,,,,,,,,,,,,,,,,,,,,,,,METAR,9.0
CWQP 150900Z AUTO 28011KT 14/13 RMK AO1 SLP120 T01360130 53003,CWQP,2015-06-15T09:00:00Z,43.83,-77.15,13.6,13.0,280,11,,,,1012.0,,TRUE,TRUE,,,,,,,,,,,,,,,,0.3,,,,,,,,,,,METAR,79.0
CWQO 150900Z AUTO 27003KT 10/06 RMK AO1 T01040062,CWQO,2015-06-15T09:00:00Z,48.42,-68.9,10.4,6.2,270,3,,,,,,TRUE,TRUE,,,,,,,,,,,,,,,,,,,,,,,,,,,METAR,1.0
CWQK 150900Z AUTO 25018KT 13/ RMK AO1 PK WND 26019/0835 SLP139 T0128 53002,CWQK,2015-06-15T09:00:00Z,48.3,-123.53,12.8,,250,18,,,,1013.9,,TRUE,TRUE,,,,,,,,,,,,,,,,0.2,,,,,,,,,,,METAR,5.0
CWQH 150900Z AUTO 04005KT 12/11 RMK AO1 T01220107,CWQH,2015-06-15T09:00:00Z,45.37,-71.82,12.2,10.7,40,5,,,,,,TRUE,TRUE,,,,,,,,,,,,,,,,,,,,,,,,,,,METAR,181.0
CWMQ 150900Z AUTO 29002KT 08/05 RMK AO1 SLP262 T00830053 51009,CWMQ,2015-06-15T09:00:00Z,49.9,-109.47,8.3,5.3,290,2,,,,1026.2,,TRUE,TRUE,,,,,,,,,,,,,,,,0.9,,,,,,,,,,,METAR,767.0
CWMM 150900Z AUTO 09001KT 14/11 RMK AO1 SLP140 T01430109 53006,CWMM,2015-06-15T09:00:00Z,49.22,-122.68,14.3,10.9,90,1,,,,1014.0,,TRUE,TRUE,,,,,,,,,,,,,,,,0.6,,,,,,,,,,,METAR,5.0
CWMJ 150900Z AUTO 31001KT 14/12 RMK AO1 SLP138 T01360115 56008,CWMJ,2015-06-15T09:00:00Z,46.27,-76.0,13.6,11.5,310,1,,,,1013.8,,TRUE,TRUE,,,,,,,,,,,,,,,,-0.8,,,,,,,,,,,METAR,200.0
CWLM 150900Z AUTO 26006KT 15/08 RMK AO1 SLP141 T01500082 52003,CWLM,2015-06-15T09:00:00Z,48.42,-123.32,15.0,8.2,260,6,,,,1014.1,,TRUE,TRUE,,,,,,,,,,,,,,,,0.3,,,,,,,,,,,METAR,70.0
CWLE 150900Z AUTO 34005KT 09/07 RMK AO1 SLP253 T00870071 51013,CWLE,2015-06-15T09:00:00Z,50.95,-107.15,8.7,7.1,340,5,,,,1025.3,,TRUE,TRUE,,,,,,,,,,,,,,,,1.3,,,,,,,,,,,METAR,665.0
CWLC 150900Z AUTO 24006KT 12/11 RMK AO1 T01220112,CWLC,2015-06-15T09:00:00Z,54.3,-130.62,12.2,11.2,240,6,,,,,,TRUE,TRUE,,,,,,,,,,,,,,,,,,,,,,,,,,,METAR,27.0
CWKH 150900Z AUTO 17/04 RMK AO1 SLP133 T01690043 50000,CWKH,2015-06-15T09:00:00Z,48.57,-123.55,16.9,4.3,,,,,,1013.3,,TRUE,TRUE,,,,,,,,,,,,,,,,0.0,,,,,,,,,,,METAR,366.0
CWKG 150900Z AUTO 00000KT 06/04 RMK AO1 SLP223 T00600035 51006,CWKG,2015-06-15T09:00:00Z,44.43,-65.2,6.0,3.5,0,0,,,,1022.3,,TRUE,TRUE,,,,,,,,,,,,,,,,0.6,,,,,,,,,,,METAR,165.0
CWJX 150900Z AUTO 35003KT 09/06 RMK AO1 SLP254 T00930058 51007,CWJX,2015-06-15T09:00:00Z,50.88,-109.5,9.3,5.8,350,3,,,,1025.4,,TRUE,TRUE,,,,,,,,,,,,,,,,0.7,,,,,,,,,,,METAR,672.0
CWJW 150900Z AUTO 04001KT 04/04 RMK AO1 2001 SLP268 T00440042 50002,CWJW,2015-06-15T09:00:00Z,52.93,-118.03,4.4,4.2,40,1,,,,1026.8,,TRUE,TRUE,,,,,,,,,,,,,,,,0.2,,,,,,,,,,,METAR,1020.0
CWJV 150900Z AUTO 10005KT 12/06 RMK AO1 SLP177 T01200059 51008,CWJV,2015-06-15T09:00:00Z,50.22,-119.18,12.0,5.9,100,5,,,,1017.7,,TRUE,TRUE,,,,,,,,,,,,,,,,0.8,,,,,,,,,,,METAR,556.0
CWJT 150900Z AUTO 06001KT 13/11 RMK AO1 SLP136 T01280106 58013,CWJT,2015-06-15T09:00:00Z,46.07,-74.57,12.8,10.6,60,1,,,,1013.6,,TRUE,TRUE,,,,,,,,,,,,,,,,-1.3,,,,,,,,,,,METAR,239.0
CWJR 150900Z AUTO 05008G19KT 15/04 RMK AO1 PK WND 04019/0853 SLP201 T01540036 52011,CWJR,2015-06-15T09:00:00Z,49.07,-116.5,15.4,3.6,50,8,19,,,1020.1,,TRUE,TRUE,,,,,,,,,,,,,,,,1.1,,,,,,,,,,,METAR,646.0
FNBC 150900Z 28004KT 0900 FG OVC009 20/20 Q1016,FNBC,2015-06-15T09:00:00Z,-6.27,14.25,20.0,20.0,280,4,,0.56,30.0,,,,,,,,,,FG,OVC,900,,,,,,,LIFR,,,,,,,,,,,,METAR,567.0
FYWE 150900Z 33005KT CAVOK 18/M02 Q1028,FYWE,2015-06-15T09:00:00Z,-22.62,17.08,18.0,-2.0,330,5,,6.21,30.35433,,,,,,,,,,,CAVOK,,,,,,,,VFR,,,,,,,,,,,,METAR,1700.0
OERY 150900Z 09008KT CAVOK 40/03 Q1008,OERY,2015-06-15T09:00:00Z,24.72,46.72,40.0,3.0,90,8,,6.21,29.763779,,,,,,,,,,,CAVOK,,,,,,,,VFR,,,,,,,,,,,,METAR,612.0
UTFN 150900Z 23007KT 180V280 9999 FEW050CB 30/07 Q1012 R28/CLRD70 NOSIG,UTFN,2015-06-15T09:00:00Z,40.98,71.57,30.0,7.0,230,7,,6.21,29.88189,,,,,,TRUE,,,,,FEW,5000,,,,,,,VFR,,,,,,,,,,,,METAR,490.0
UTFF 150900Z 28007KT 9999 NSC 30/05 Q1012 R18/CLRD70,UTFF,2015-06-15T09:00:00Z,40.37,71.77,30.0,5.0,280,7,,6.21,29.88189,,,,,,,,,,,,,,,,,,,,,,,,,,,,,,,METAR,577.0
NVVA 150900Z 13008KT 9999 SCT020 22/19 Q1016 RMK NIL,NVVA,2015-06-15T09:00:00Z,-20.25,169.77,22.0,19.0,130,8,,6.21,30.0,,,,,,,,,,,SCT,2000,,,,,,,VFR,,,,,,,,,,,,METAR,3.0
NVVW 150900Z 02007KT 9999 FEW020 22/19 Q1015 RMK NIL,NVVW,2015-06-15T09:00:00Z,-19.45,169.22,22.0,19.0,20,7,,6.21,29.970472,,,,,,,,,,,FEW,2000,,,,,,,VFR,,,,,,,,,,,,METAR,6.0
NVVV 150900Z 07004KT 9999 SCT020 22/19 Q1016 RMK NIL,NVVV,2015-06-15T09:00:00Z,-17.68,168.3,22.0,19.0,70,4,,6.21,30.0,,,,,,,,,,,SCT,2000,,,,,,,VFR,,,,,,,,,,,,METAR,21.0
NVSL 150900Z 00000KT 9999 BKN022 25/22 Q1014 RMK NIL,NVSL,2015-06-15T09:00:00Z,-16.45,167.83,25.0,22.0,0,0,,6.21,29.940945,,,,,,,,,,,BKN,2200,,,,,,,MVFR,,,,,,,,,,,,METAR,26.0
NVSS 150900Z 09013KT 9999 SCT025 25/23 Q1014 RMK NIL,NVSS,2015-06-15T09:00:00Z,-15.52,167.22,25.0,23.0,90,13,,6.21,29.940945,,,,,,,,,,,SCT,2500,,,,,,,VFR,,,,,,,,,,,,METAR,44.0
NVSG 150900Z 07008KT 9999 FEW025 25/21 Q1014 RMK NIL,NVSG,2015-06-15T09:00:00Z,-15.3,167.97,25.0,21.0,70,8,,6.21,29.940945,,,,,,,,,,,FEW,2500,,,,,,,VFR,,,,,,,,,,,,METAR,51.0
NVSC 150900Z 12004KT 9999 BKN018 OVC040 26/24 Q1013 RMK NIL,NVSC,2015-06-15T09:00:00Z,-13.83,167.55,26.0,24.0,120,4,,6.21,29.911417,,,,,,,,,,,BKN,1800,OVC,4000,,,,,MVFR,,,,,,,,,,,,METAR,18.0
NGTT 150900Z 00000KT 9999 FEW017 BKN300 27/25 Q1009,NGTT,2015-06-15T09:00:00Z,1.35,172.92,27.0,25.0,0,0,,6.21,29.793306,,,,,,,,,,,FEW,1700,BKN,30000,,,,,VFR,,,,,,,,,,,,METAR,2.0
SVGU 150900Z /////KT 9999 +DZ BKN017 23/23 Q1014,SVGU,2015-06-15T09:00:00Z,9.03,-69.75,23.0,23.0,,,,6.21,29.940945,,,,,,,,,,+DZ,BKN,1700,,,,,,,MVFR,,,,,,,,,,,,METAR,163.0
SVMN 150900Z 23003KT 9999 FEW013 28/// Q1010,SVMN,2015-06-15T09:00:00Z,9.82,-70.92,,,230,3,,6.21,29.822834,,,,,,,,,,,FEW,1300,,,,,,,VFR,,,,,,,,,,,,METAR,28.0
SBPJ 150900Z 09003KT CAVOK 21/19 Q1014,SBPJ,2015-06-15T09:00:00Z,-10.28,-48.37,21.0,19.0,90,3,,6.21,29.940945,,,,,,,,,,,CAVOK,,,,,,,,VFR,,,,,,,,,,,,METAR,236.0
SBAN 150900Z 00000KT CAVOK 14/11 Q1020,SBAN,2015-06-15T09:00:00Z,-16.22,-48.97,14.0,11.0,0,0,,6.21,30.11811,,,,,,,,,,,CAVOK,,,,,,,,VFR,,,,,,,,,,,,METAR,1137.0
SBQV 150900Z 00000KT 9999 BKN007 BKN060 19/19 Q1020,SBQV,2015-06-15T09:00:00Z,-14.87,-40.87,19.0,19.0,0,0,,6.21,30.11811,,,,,,,,,,,BKN,700,BKN,6000,,,,,IFR,,,,,,,,,,,,METAR,893.0
SBKG 150900Z 00000KT 5000 BR SCT010 BKN015 21/21 Q1017,SBKG,2015-06-15T09:00:00Z,-7.27,-35.87,21.0,21.0,0,0,,3.11,30.029528,,,,,,,,,,BR,SCT,1000,BKN,1500,,,,,MVFR,,,,,,,,,,,,METAR,560.0
SBJU 150900Z 00000KT 9999 FEW020 24/22 Q1019,SBJU,2015-06-15T09:00:00Z,-7.22,-39.27,24.0,22.0,0,0,,6.21,30.088583,,,,,,,,,,,FEW,2000,,,,,,,VFR,,,,,,,,,,,,METAR,409.0
SBIL 150900Z 28004KT 8000 VCSH SCT020 BKN040 OVC070 24/23 Q1016,SBIL,2015-06-15T09:00:00Z,-14.8,-39.02,24.0,23.0,280,4,,4.97,30.0,,,,,,,,,,VCSH,SCT,2000,BKN,4000,OVC,7000,,,MVFR,,,,,,,,,,,,METAR,5.0
SBYS 150900Z 05002KT CAVOK 15/14 Q1014,SBYS,2015-06-15T09:00:00Z,-21.97,-47.32,15.0,14.0,50,2,,6.21,29.940945,,,,,,,,,,,CAVOK,,,,,,,,VFR,,,,,,,,,,,,METAR,598.0
SBUR 150900Z 36005KT 9999 FEW049 BKN080 20/16 Q1017,SBUR,2015-06-15T09:00:00Z,-19.77,-47.97,20.0,16.0,360,5,,6.21,30.029528,,,,,,,,,,,FEW,4900,BKN,8000,,,,,VFR,,,,,,,,,,,,METAR,807.0
SBUL 150900Z 35003KT CAVOK 19/13 Q1019,SBUL,2015-06-15T09:00:00Z,-18.87,-48.22,19.0,13.0,350,3,,6.21,30.088583,,,,,,,,,,,CAVOK,,,,,,,,VFR,,,,,,,,,,,,METAR,922.0
SBST 150900Z 24008KT 3000 -RA BR BKN030 ///// Q1014,SBST,2015-06-15T09:00:00Z,-23.92,-46.28,,,240,8,,1.86,29.940945,,,,,,,,,,-RA BR,BKN,3000,,,,,,,IFR,,,,,,,,,,,,METAR,3.0
SBSR 150900Z 24007KT CAVOK 20/17 Q1016,SBSR,2015-06-15T09:00:00Z,-20.8,-49.4,20.0,17.0,240,7,,6.21,30.0,,,,,,,,,,,CAVOK,,,,,,,,VFR,,,,,,,,,,,,METAR,543.0
GVSV 150900Z 06022G32KT 9999 SCT016 24/18 Q1016 NOSIG,GVSV,2015-06-15T09:00:00Z,16.83,-25.07,24.0,18.0,60,22,32,6.21,30.0,,,,,,TRUE,,,,,SCT,1600,,,,,,,VFR,,,,,,,,,,,,METAR,20.0
GVNP 150900Z 03017KT 9999 FEW015 24/20 Q1016 NOSIG,GVNP,2015-06-15T09:00:00Z,14.95,-23.48,24.0,20.0,30,17,,6.21,30.0,,,,,,TRUE,,,,,FEW,1500,,,,,,,VFR,,,,,,,,,,,,METAR,70.0
DXSK 150900Z 18002KT 9999 BKN010 25/22 Q////,DXSK,2015-06-15T09:00:00Z,9.0,1.15,25.0,22.0,180,2,,6.21,,,,,,,,,,,,BKN,1000,,,,,,,MVFR,,,,,,,,,,,,METAR,387.0
DXNG 150900Z 23009KT 200V270 9999 SCT008 27/21 Q1017 NOSIG,DXNG,2015-06-15T09:00:00Z,9.77,1.1,27.0,21.0,230,9,,6.21,30.029528,,,,,,TRUE,,,,,SCT,800,,,,,,,VFR,,,,,,,,,,,,METAR,343.0
DNMM 150900Z 18003KT 110V280 8000 SCT012 28/25 Q1015 NOSIG,DNMM,2015-06-15T09:00:00Z,6.57,3.32,28.0,25.0,180,3,,4.97,29.970472,,,,,,TRUE,,,,,SCT,1200,,,,,,,MVFR,,,,,,,,,,,,METAR,38.0
DGAA 150900Z 19004KT 160V240 9999 FEW015 BKN019 26/23 Q1015 NOSIG,DGAA,2015-06-15T09:00:00Z,5.58,-0.17,26.0,23.0,190,4,,6.21,29.970472,,,,,,TRUE,,,,,FEW,1500,BKN,1900,,,,,MVFR,,,,,,,,,,,,METAR,69.0
DRZA 150900Z 32008KT 4000 DU BKN300 36/17 Q1014,DRZA,2015-06-15T09:00:00Z,16.97,8.0,36.0,17.0,320,8,,2.49,29.940945,,,,,,,,,,DU,BKN,30000,,,,,,,IFR,,,,,,,,,,,,METAR,502.0
DRRN 150900Z 27012KT 5000 DU NSC 35/18 Q1013 NOSIG,DRRN,2015-06-15T09:00:00Z,13.47,2.17,35.0,18.0,270,12,,3.11,29.911417,,,,,,TRUE,,,,DU,,,,,,,,,,,,,,,,,,,,,METAR,227.0
DFFD 150900Z 27006KT 220V300 CAVOK 31/22 Q1015 NOSIG,DFFD,2015-06-15T09:00:00Z,12.33,-1.52,31.0,22.0,270,6,,6.21,29.970472,,,,,,TRUE,,,,,CAVOK,,,,,,,,VFR,,,,,,,,,,,,METAR,306.0
DFOO 150900Z 20008KT 9999 FEW020 BKN260 27/23 Q1015,DFOO,2015-06-15T09:00:00Z,11.17,-4.32,27.0,23.0,200,8,,6.21,29.970472,,,,,,,,,,,FEW,2000,BKN,26000,,,,,VFR,,,,,,,,,,,,METAR,460.0
FTTA 150900Z 18010KT CAVOK 33/20 Q1013,FTTA,2015-06-15T09:00:00Z,9.15,18.37,33.0,20.0,180,10,,6.21,29.911417,,,,,,,,,,,CAVOK,,,,,,,,VFR,,,,,,,,,,,,METAR,365.0
FTTJ 150900Z 25001KT CAVOK 35/25 Q1011 NOSIG,FTTJ,2015-06-15T09:00:00Z,12.12,15.02,35.0,25.0,250,1,,6.21,29.852362,,,,,,TRUE,,,,,CAVOK,,,,,,,,VFR,,,,,,,,,,,,METAR,295.0
DBBB 150900Z VRB03KT 8000 SCT010 FEW023CB BKN100 26/24 Q1015 NOSIG,DBBB,2015-06-15T09:00:00Z,6.33,2.37,26.0,24.0,0,3,,4.97,29.970472,,,,,,TRUE,,,,,SCT,1000,FEW,2300,BKN,10000,,,MVFR,,,,,,,,,,,,METAR,9.0
HKNW 150900Z 19003KT 9999 FEW024 22/15 Q1022,HKNW,2015-06-15T09:00:00Z,-1.32,36.82,22.0,15.0,190,3,,6.21,30.177166,,,,,,,,,,,FEW,2400,,,,,,,VFR,,,,,,,,,,,,METAR,1679.0
HKNK 150900Z 18008KT 9999 BKN023 23/13,HKNK,2015-06-15T09:00:00Z,-0.3,36.17,23.0,13.0,180,8,,6.21,,,,,,,,,,,,BKN,2300,,,,,,,MVFR,,,,,,,,,,,,METAR,1901.0
HKNC 150900Z 00000KT 9999 FEW022 22/15 Q1023,HKNC,2015-06-15T09:00:00Z,-1.3,36.75,22.0,15.0,0,0,,6.21,30.206694,,,,,,,,,,,FEW,2200,,,,,,,VFR,,,,,,,,,,,,METAR,1798.0
HKMY 150900Z 16006KT 9999 FEW023 24/13,HKMY,2015-06-15T09:00:00Z,3.47,39.1,24.0,13.0,160,6,,6.21,,,,,,,,,,,,FEW,2300,,,,,,,VFR,,,,,,,,,,,,METAR,1097.0
HKMO 150900Z 20013KT 9999 FEW023 SCT250 29/17 Q1015 NOSIG,HKMO,2015-06-15T09:00:00Z,-4.02,39.62,29.0,17.0,200,13,,6.21,29.970472,,,,,,TRUE,,,,,FEW,2300,SCT,25000,,,,,VFR,,,,,,,,,,,,METAR,55.0
HKML 150900Z 18015KT 9999 FEW024 BKN250 28/21 Q1015,HKML,2015-06-15T09:00:00Z,-3.22,40.1,28.0,21.0,180,15,,6.21,29.970472,,,,,,,,,,,FEW,2400,BKN,25000,,,,,VFR,,,,,,,,,,,,METAR,23.0
HKKI 150900Z 20007KT 9999 FEW025 SCT100 28/18 Q1019,HKKI,2015-06-15T09:00:00Z,-0.1,34.75,28.0,18.0,200,7,,6.21,30.088583,,,,,,,,,,,FEW,2500,SCT,10000,,,,,VFR,,,,,,,,,,,,METAR,1146.0
HKEL 150900Z 27005KT 9999 FEW020 BKN21 22/14 Q1026,HKEL,2015-06-15T09:00:00Z,0.4,35.23,22.0,14.0,270,5,,6.21,30.295275,,,,,,,,,,,FEW,2000,,,,,,,VFR,,,,,,,,,,,,METAR,2133.0
LKVO 150900Z 35005KT 260V060 9999 BKN025 17/11 Q1015,LKVO,2015-06-15T09:00:00Z,50.22,14.4,17.0,11.0,350,5,,6.21,29.970472,,,,,,,,,,,BKN,2500,,,,,,,MVFR,,,,,,,,,,,,METAR,280.0
LKKU 150900Z 35011KT 9999 FEW028 23/17 Q1009,LKKU,2015-06-15T09:00:00Z,49.05,17.45,23.0,17.0,350,11,,6.21,29.793306,,,,,,,,,,,FEW,2800,,,,,,,VFR,,,,,,,,,,,,METAR,177.0
YGFN 150900Z AUTO 20003KT 9999 // OVC049 16/14 Q1025,YGFN,2015-06-15T09:00:00Z,-29.77,153.03,16.0,14.0,200,3,,6.21,30.265747,,,TRUE,,,,,,,,OVC,4900,,,,,,,VFR,,,,,,,,,,,,METAR,34.0
UAKD 150900Z 29008MPS 7000 BKN100 23/M02 Q1017 NOSIG R22/0///65 RMK QFE729/0972,UAKD,2015-06-15T09:00:00Z,47.7,67.73,23.0,-2.0,290,16,,4.35,30.029528,,,,,,TRUE,,,,,BKN,10000,,,,,,,MVFR,,,,,,,,,,,,METAR,381.0
LOWZ 150900Z VRB02KT 10KM RA FEW015SC BKN040SC 16/14 Q1015 RMK OVC,LOWZ,2015-06-15T09:00:00Z,47.3,12.78,16.0,14.0,0,2,,6.21,29.970472,,,,,,,,,,RA,,,,,,,,,,,,,,,,,,,,,METAR,754.0
LOAV 150900Z 30015G30KT 40KM BKN030CU 20/15 Q1011 RMK BKN,LOAV,2015-06-15T09:00:00Z,47.97,16.27,20.0,15.0,300,15,30,24.86,29.852362,,,,,,,,,,,BKN,3000,,,,,,,MVFR,,,,,,,,,,,,METAR,233.0
LOAN 150900Z 30014KT 25KM FEW025CU SCT080SC BKN300CI RMK BKN,LOAN,2015-06-15T09:00:00Z,47.85,16.25,,,300,14,,15.53,,,,,,,,,,,,FEW,2500,,,,,,,VFR,,,,,,,,,,,,METAR,272.0
AYPY 150900Z 15014KT 9999 SCT030 BKN130 27/23 Q1007 RMKS/ HZ,AYPY,2015-06-15T09:00:00Z,-9.42,147.22,27.0,23.0,150,14,,6.21,29.734253,,,,,,,,,,,SCT,3000,BKN,13000,,,,,VFR,,,,,,,,,,,,METAR,47.0
DTTJ 150900Z 04014KT 6000 SCT020 26/20 Q1014 NOSIG,DTTJ,2015-06-15T09:00:00Z,33.87,10.77,26.0,20.0,40,14,,3.73,29.940945,,,,,,TRUE,,,,,SCT,2000,,,,,,,MVFR,,,,,,,,,,,,METAR,4.0
FDST 150900Z AUTO 35008KT //// // ////// 26/M02 Q1018,FDST,2015-06-15T09:00:00Z,-26.43,31.95,26.0,-2.0,350,8,,,30.059055,,,TRUE,,,,,,,,,,,,,,,,,,,,,,,,,,,,METAR,667.0
FDMV 150900Z AUTO 07002KT //// // ////// 25/01 Q1024,FDMV,2015-06-15T09:00:00Z,,,25.0,1.0,70,2,,,30.236221,,,TRUE,,,,,,,,,,,,,,,,,,,,,,,,,,,,METAR,
FDLB 150900Z AUTO 23002KT //// // ////// 24/01 Q1019,FDLB,2015-06-15T09:00:00Z,,,24.0,1.0,230,2,,,30.088583,,,TRUE,,,,,,,,,,,,,,,,,,,,,,,,,,,,METAR,
FDJR 150900Z AUTO 34003KT //// // ////// 23/M05 Q1019,FDJR,2015-06-15T09:00:00Z,-27.17,31.43,23.0,-5.0,340,3,,,30.088583,,,TRUE,,,,,,,,,,,,,,,,,,,,,,,,,,,,METAR,701.0
SKLT 150900Z 00000KT CAVOK 24/24 A2989,SKLT,2015-06-15T09:00:00Z,-4.2,-69.93,24.0,24.0,0,0,,6.21,29.890747,,,,,,,,,,,CAVOK,,,,,,,,VFR,,,,,,,,,,,,METAR,84.0
GUCY 150900Z 09008KT 9999 BKN015 BKN110 26/24 Q1015 NOSIG,GUCY,2015-06-15T09:00:00Z,9.57,-13.62,26.0,24.0,90,8,,6.21,29.970472,,,,,,TRUE,,,,,BKN,1500,BKN,11000,,,,,MVFR,,,,,,,,,,,,METAR,26.0
GOGG 150900Z VRB02KT 9999 SCT015 28/26 Q1014,GOGG,2015-06-15T09:00:00Z,12.55,-16.27,28.0,26.0,0,2,,6.21,29.940945,,,,,,,,,,,SCT,1500,,,,,,,VFR,,,,,,,,,,,,METAR,23.0
GOGS 150900Z 30004KT 9999 BKN013 BKN130 29/25 Q1014,GOGS,2015-06-15T09:00:00Z,12.4,-16.75,29.0,25.0,300,4,,6.21,29.940945,,,,,,,,,,,BKN,1300,BKN,13000,,,,,MVFR,,,,,,,,,,,,METAR,13.0
GQPZ 150900Z 06010KT CAVOK 24/12 Q1019,GQPZ,2015-06-15T09:00:00Z,22.75,-12.48,24.0,12.0,60,10,,6.21,30.088583,,,,,,,,,,,CAVOK,,,,,,,,VFR,,,,,,,,,,,,METAR,344.0
OETF 150900Z 03006KT 8000 SKC 35/M01 Q1016 NOSIG,OETF,2015-06-15T09:00:00Z,21.47,40.53,35.0,-1.0,30,6,,4.97,30.0,,,,,,TRUE,,,,,SKC,,,,,,,,MVFR,,,,,,,,,,,,METAR,1449.0
CYFS 150900Z 00000KT 15SM FEW120 BKN210 08/04 A3026 RMK AC1CI5 AC TR VIA CYSM SLP254,CYFS,2015-06-15T09:00:00Z,61.75,-121.22,8.0,4.0,0,0,,15.0,30.259842,1025.4,,,,,,,,,,FEW,12000,BKN,21000,,,,,VFR,,,,,,,,,,,,METAR,169.0
UTAT 150900Z 07008MPS AVOK 29/11 Q1016 NOSIG,UTAT,2015-06-15T09:00:00Z,41.77,59.83,29.0,11.0,70,16,,,30.0,,,,,,TRUE,,,,,,,,,,,,,,,,,,,,,,,,,METAR,83.0
UTAM 150900Z 02005G10MPS CAVOK 31/03 Q1011 NOSIG,UTAM,2015-06-15T09:00:00Z,37.62,61.9,31.0,3.0,20,10,19,6.21,29.852362,,,,,,TRUE,,,,,CAVOK,,,,,,,,VFR,,,,,,,,,,,,METAR,222.0
UTAV 150900Z 02003MPS CAVOK 31/02 Q1012 NOSIG,UTAV,2015-06-15T09:00:00Z,39.08,63.62,31.0,2.0,20,6,,6.21,29.88189,,,,,,TRUE,,,,,CAVOK,,,,,,,,VFR,,,,,,,,,,,,METAR,192.0
GANR 150900Z 28006KT CAVOK 34/20 Q////,GANR,2015-06-15T09:00:00Z,15.23,-9.58,34.0,20.0,280,6,,6.21,,,,,,,,,,,,CAVOK,,,,,,,,VFR,,,,,,,,,,,,METAR,237.0
GAMB 150900Z 22010KT CAVOK 32/22 Q1013,GAMB,2015-06-15T09:00:00Z,14.52,-4.08,32.0,22.0,220,10,,6.21,29.911417,,,,,,,,,,,CAVOK,,,,,,,,VFR,,,,,,,,,,,,METAR,272.0
VTPH 150900Z VRB04KT 9999 SCT030 SCT100 BKN300 29/24 Q1005 NOSIG,VTPH,2015-06-15T09:00:00Z,12.63,99.95,29.0,24.0,0,4,,6.21,29.675198,,,,,,TRUE,,,,,SCT,3000,SCT,10000,BKN,30000,,,VFR,,,,,,,,,,,,METAR,6.0
OEKK 150900Z 12006KT CAVOK 42/11 Q1006 NOSIG,OEKK,2015-06-15T09:00:00Z,27.88,45.52,42.0,11.0,120,6,,6.21,29.704725,,,,,,TRUE,,,,,CAVOK,,,,,,,,VFR,,,,,,,,,,,,METAR,413.0
OEKJ 150900Z 04006KT 8000 SCT050 41/M03 Q1008,OEKJ,2015-06-15T09:00:00Z,24.07,47.58,41.0,-3.0,40,6,,4.97,29.763779,,,,,,,,,,,SCT,5000,,,,,,,MVFR,,,,,,,,,,,,METAR,503.0
OEHL 150900Z 21012KT CAVOK 37/M02 Q1011 NOSIG,OEHL,2015-06-15T09:00:00Z,27.42,41.67,37.0,-2.0,210,12,,6.21,29.852362,,,,,,TRUE,,,,,CAVOK,,,,,,,,VFR,,,,,,,,,,,,METAR,1013.0
OEGT 150900Z 31012KT CAVOK 30/10 Q1009 NOSIG,OEGT,2015-06-15T09:00:00Z,31.42,37.27,30.0,10.0,310,12,,6.21,29.793306,,,,,,TRUE,,,,,CAVOK,,,,,,,,VFR,,,,,,,,,,,,METAR,499.0
OEGS 150900Z 12008KT CAVOK 39/06 Q1006,OEGS,2015-06-15T09:00:00Z,26.3,43.77,39.0,6.0,120,8,,6.21,29.704725,,,,,,,,,,,CAVOK,,,,,,,,VFR,,,,,,,,,,,,METAR,650.0
OEGN 150900Z 23010KT 9000 FEW030 SCT100 36/28 Q1004 NOSIG,OEGN,2015-06-15T09:00:00Z,16.88,42.57,36.0,28.0,230,10,,5.59,29.64567,,,,,,TRUE,,,,,FEW,3000,SCT,10000,,,,,VFR,,,,,,,,,,,,METAR,3.0
OEDM 150900Z 24007KT CAVOK 39/M07 Q1008,OEDM,2015-06-15T09:00:00Z,24.45,44.12,39.0,-7.0,240,7,,6.21,29.763779,,,,,,,,,,,CAVOK,,,,,,,,VFR,,,,,,,,,,,,METAR,922.0
OEBH 150900Z 00000KT 8000 SKC 38/00 Q1012 NOSIG,OEBH,2015-06-15T09:00:00Z,19.97,42.62,38.0,0.0,0,0,,4.97,29.88189,,,,,,TRUE,,,,,SKC,,,,,,,,MVFR,,,,,,,,,,,,METAR,1157.0
OEBA 150900Z 34008KT CAVOK 34/04 Q1017 NOSIG,OEBA,2015-06-15T09:00:00Z,20.3,41.62,34.0,4.0,340,8,,6.21,30.029528,,,,,,TRUE,,,,,CAVOK,,,,,,,,VFR,,,,,,,,,,,,METAR,1656.0
OEAR 150900Z 36005KT CAVOK 40/04 Q1006,OEAR,2015-06-15T09:00:00Z,,,40.0,4.0,360,5,,6.21,29.704725,,,,,,,,,,,CAVOK,,,,,,,,VFR,,,,,,,,,,,,METAR,
OEAO 150900Z 33006KT CAVOK 34/04 Q1010,OEAO,2015-06-15T09:00:00Z,26.48,38.12,34.0,4.0,330,6,,6.21,29.822834,,,,,,,,,,,CAVOK,,,,,,,,VFR,,,,,,,,,,,,METAR,624.0
OEAH 150900Z 01014KT CAVOK 43/05 Q1002 NOSIG,OEAH,2015-06-15T09:00:00Z,25.27,49.47,43.0,5.0,10,14,,6.21,29.586615,,,,,,TRUE,,,,,CAVOK,,,,,,,,VFR,,,,,,,,,,,,METAR,172.0
OEAB 150900Z 03012KT CAVOK 31/01 Q1021 NOSIG,OEAB,2015-06-15T09:00:00Z,18.22,42.63,31.0,1.0,30,12,,6.21,30.147638,,,,,,TRUE,,,,,CAVOK,,,,,,,,VFR,,,,,,,,,,,,METAR,2084.0
OLBA 150900Z 24011KT 9999 FEW026 27/20 Q1011,OLBA,2015-06-15T09:00:00Z,33.82,35.47,27.0,20.0,240,11,,6.21,29.852362,,,,,,,,,,,FEW,2600,,,,,,,VFR,,,,,,,,,,,,METAR,19.0
TAPA 150900Z 10009KT 9999 SCT017 26/21 Q1016 NOSIG,TAPA,2015-06-15T09:00:00Z,17.12,-61.78,26.0,21.0,100,9,,6.21,30.0,,,,,,TRUE,,,,,SCT,1700,,,,,,,VFR,,,,,,,,,,,,METAR,14.0
UTAK 150900Z 08011MPS CAVOK 35/00 Q1010 NOSIG,UTAK,2015-06-15T09:00:00Z,40.05,53.0,35.0,0.0,80,21,,6.21,29.822834,,,,,,TRUE,,,,,CAVOK,,,,,,,,VFR,,,,,,,,,,,,METAR,85.0
WIHH 150900Z 36006KT 5000 HZ SCT017 31/23 Q1008 NOSIG,WIHH,2015-06-15T09:00:00Z,-6.25,106.88,31.0,23.0,360,6,,3.11,29.763779,,,,,,TRUE,,,,HZ,SCT,1700,,,,,,,MVFR,,,,,,,,,,,,METAR,25.0
TNCE 150900Z AUTO 07009KT //// ////// ///// Q1017,TNCE,2015-06-15T09:00:00Z,17.47,-62.97,,,70,9,,,30.029528,,,TRUE,,,,,,,,,,,,,,,,,,,,,,,,,,,,METAR,39.0
TNCB 150900Z AUTO 07014KT //// ////// 27/24 Q1012 NOSIG,TNCB,2015-06-15T09:00:00Z,12.13,-68.28,27.0,24.0,70,14,,,29.88189,,,TRUE,,,TRUE,,,,,,,,,,,,,,,,,,,,,,,,,METAR,6.0
TNCC 150900Z 10012KT 9000 FEW017 27/24 Q1013 NOSIG,TNCC,2015-06-15T09:00:00Z,12.2,-68.97,27.0,24.0,100,12,,5.59,29.911417,,,,,,TRUE,,,,,FEW,1700,,,,,,,VFR,,,,,,,,,,,,METAR,9.0
FEFF 150900Z VRB04KT 9999 FEW013 30/24 Q1013 NOSIG,FEFF,2015-06-15T09:00:00Z,4.4,18.52,30.0,24.0,0,4,,6.21,29.911417,,,,,,TRUE,,,,,FEW,1300,,,,,,,VFR,,,,,,,,,,,,METAR,366.0
FKKR 150900Z 26010KT CAVOK 31/22 Q1011 NOSIG,FKKR,2015-06-15T09:00:00Z,9.32,13.37,31.0,22.0,260,10,,6.21,29.852362,,,,,,TRUE,,,,,CAVOK,,,,,,,,VFR,,,,,,,,,,,,METAR,244.0
FKYS 150900Z 27005KT 240V300 9999 BKN012 23/20 Q1019 BECMG BKN016,FKYS,2015-06-15T09:00:00Z,3.82,11.52,23.0,20.0,270,5,,6.21,30.088583,,,,,,,,,,,BKN,1200,,,,,,,MVFR,,,,,,,,,,,,METAR,760.0
FKKD 150900Z 18004KT 8000 BKN013 FEW016CB BKN120 28/24 Q1014 BECMG BKN016 FEW020CB,FKKD,2015-06-15T09:00:00Z,4.0,9.72,28.0,24.0,180,4,,4.97,29.940945,,,,,,,,,,,BKN,1300,FEW,1600,BKN,12000,,,MVFR,,,,,,,,,,,,METAR,9.0
FCPP 150900Z VRB02KT 7000 SCT007 OVC020 23/20 Q1016 NOSIG,FCPP,2015-06-15T09:00:00Z,-4.82,11.9,23.0,20.0,0,2,,4.35,30.0,,,,,,TRUE,,,,,SCT,700,OVC,2000,,,,,MVFR,,,,,,,,,,,,METAR,17.0
FCBB 150900Z 25004KT 210V300 8000 SCT016 BKN020 24/20 Q1017 NOSIG,FCBB,2015-06-15T09:00:00Z,-4.25,15.25,24.0,20.0,250,4,,4.97,30.029528,,,,,,TRUE,,,,,SCT,1600,BKN,2000,,,,,MVFR,,,,,,,,,,,,METAR,316.0
DRRT 150900Z 30004KT 500 DU NSC 33/18 Q1013,DRRT,2015-06-15T09:00:00Z,14.9,5.25,33.0,18.0,300,4,,,29.911417,,,,,,,,,,DU,,,,,,,,,,,,,,,,,,,,,METAR,391.0
DRRM 150900Z 24008KT CAVOK 33/22 Q1014,DRRM,2015-06-15T09:00:00Z,13.5,7.12,33.0,22.0,240,8,,6.21,29.940945,,,,,,,,,,,CAVOK,,,,,,,,VFR,,,,,,,,,,,,METAR,373.0
DRZR 150900Z 28010KT CAVOK 33/18 Q1013,DRZR,2015-06-15T09:00:00Z,13.77,8.97,33.0,18.0,280,10,,6.21,29.911417,,,,,,,,,,,CAVOK,,,,,,,,VFR,,,,,,,,,,,,METAR,453.0
CWXL 150900Z AUTO 33002KT 05/04 RMK AO1 T00450035,CWXL,2015-06-15T09:00:00Z,49.73,-111.45,4.5,3.5,330,2,,,,,,TRUE,TRUE,,,,,,,,,,,,,,,,,,,,,,,,,,,METAR,817.0
CZZJ 150900Z AUTO 25003KT 06/06 RMK AO1 SLP272 T00640055 56001,CZZJ,2015-06-15T09:00:00Z,53.58,-116.47,6.4,5.5,250,3,,,,1027.2,,TRUE,TRUE,,,,,,,,,,,,,,,,-0.1,,,,,,,,,,,METAR,927.0
CXRB 150900Z AUTO 36007KT 01/00 RMK AO1 SLP145 T00130000 56006,CXRB,2015-06-15T09:00:00Z,74.72,-94.98,1.3,0.0,360,7,,,,1014.5,,TRUE,TRUE,,,,,,,,,,,,,,,,-0.6,,,,,,,,,,,METAR,68.0
CXSR 150900Z AUTO 05005KT 08/06 RMK AO1 8003 SLP269 T00760055 50002,CXSR,2015-06-15T09:00:00Z,55.7,-119.23,7.6,5.5,50,5,,,,1026.9,,TRUE,TRUE,,,,,,,,,,,,,,,,0.2,,,,,,,,,,,METAR,1015.0
CXLL 150900Z AUTO 00000KT 08/07 RMK AO1 SLP254 T00840072 58008,CXLL,2015-06-15T09:00:00Z,61.12,-122.85,8.4,7.2,0,0,,,,1025.4,,TRUE,TRUE,,,,,,,,,,,,,,,,-0.8,,,,,,,,,,,METAR,183.0
CXHA 150900Z AUTO 25005KT 21/20 RMK AO1 T02140203,CXHA,2015-06-15T09:00:00Z,42.03,-82.9,21.4,20.3,250,5,,,,,,TRUE,TRUE,,,,,,,,,,,,,,,,,,,,,,,,,,,METAR,191.0
CWXC 150900Z AUTO 12001KT 03/03 RMK AO1 SLP166 T00270027 57008,CWXC,2015-06-15T09:00:00Z,48.88,-71.03,2.7,2.7,120,1,,,,1016.6,,TRUE,TRUE,,,,,,,,,,,,,,,,-0.8,,,,,,,,,,,METAR,300.0
CWXA 150900Z AUTO 24001KT 06/03 RMK AO1 SLP272 T00570030 58001,CWXA,2015-06-15T09:00:00Z,51.07,-115.07,5.7,3.0,240,1,,,,1027.2,,TRUE,TRUE,,,,,,,,,,,,,,,,-0.1,,,,,,,,,,,METAR,1298.0
CWCO 150900Z AUTO 14002KT 16/16 RMK AO1 SLP118 T01630157 58002,CWCO,2015-06-15T09:00:00Z,44.45,-80.17,16.3,15.7,140,2,,,,1011.8,,TRUE,TRUE,,,,,,,,,,,,,,,,-0.2,,,,,,,,,,,METAR,221.0
CWIY 150900Z AUTO 06001KT 03/02 RMK AO1 SLP204 T00320021 50000,CWIY,2015-06-15T09:00:00Z,47.13,-67.82,3.2,2.1,60,1,,,,1020.4,,TRUE,TRUE,,,,,,,,,,,,,,,,0.0,,,,,,,,,,,METAR,241.0
CWIJ 150900Z AUTO 29002KT M00/M03 RMK AO1 SLP244 T10021034 58008,CWIJ,2015-06-15T09:00:00Z,65.77,-111.23,-0.2,-3.4,290,2,,,,1024.4,,TRUE,TRUE,,,,,,,,,,,,,,,,-0.8,,,,,,,,,,,METAR,500.0
CZEV 150900Z AUTO 35004KT 09/06 RMK AO1 SLP301 T00860063 51003,CZEV,2015-06-15T09:00:00Z,68.32,-133.52,8.6,6.3,350,4,,,,1030.1,,TRUE,TRUE,,,,,,,,,,,,,,,,0.3,,,,,,,,,,,METAR,103.0
CWOY 150900Z AUTO 35003KT 06/04 RMK AO1 SLP239 T00640042 51012,CWOY,2015-06-15T09:00:00Z,51.77,-104.2,6.4,4.2,350,3,,,,1023.9,,TRUE,TRUE,,,,,,,,,,,,,,,,1.2,,,,,,,,,,,METAR,560.0
TTCP 150900Z 07010KT 9999 SCT016 26/22 Q1013 NOSIG,TTCP,2015-06-15T09:00:00Z,11.15,-60.85,26.0,22.0,70,10,,6.21,29.911417,,,,,,TRUE,,,,,SCT,1600,,,,,,,VFR,,,,,,,,,,,,METAR,8.0
VTUO 150900Z 00000KT 9999 FEW020 SCT120 31/23 Q1004 A2966 INFO J RWY 22,VTUO,2015-06-15T09:00:00Z,15.23,103.25,31.0,23.0,0,0,,6.21,29.64567,,,,,,,,,,,FEW,2000,SCT,12000,,,,,VFR,,,,,,,,,,,,METAR,183.0
HUEN 150900Z 22005KT 9000 FEW022 FEW024CB 26/21 Q1019,HUEN,2015-06-15T09:00:00Z,0.03,32.45,26.0,21.0,220,5,,5.59,30.088583,,,,,,,,,,,FEW,2200,FEW,2400,,,,,VFR,,,,,,,,,,,,METAR,1155.0
VRMM 150900Z 24011KT 9999 FEW018 BKN280 32/25 Q1008 NOSIG,VRMM,2015-06-15T09:00:00Z,4.2,73.52,32.0,25.0,240,11,,6.21,29.763779,,,,,,TRUE,,,,,FEW,1800,BKN,28000,,,,,VFR,,,,,,,,,,,,METAR,2.0
FNUE 150900Z 14013KT CAVOK 19/// Q1023,FNUE,2015-06-15T09:00:00Z,-11.77,19.9,,,140,13,,6.21,30.206694,,,,,,,,,,,CAVOK,,,,,,,,VFR,,,,,,,,,,,,METAR,1329.0
DAUO 150900Z 14008KT CAVOK 30/17 Q1011,DAUO,2015-06-15T09:00:00Z,33.5,6.78,30.0,17.0,140,8,,6.21,29.852362,,,,,,,,,,,CAVOK,,,,,,,,VFR,,,,,,,,,,,,METAR,63.0
HUMI 150900Z 31002KT 9999 BKN020 FEW022CB 27/20,HUMI,2015-06-15T09:00:00Z,1.67,31.72,27.0,20.0,310,2,,6.21,,,,,,,,,,,,BKN,2000,FEW,2200,,,,,MVFR,,,,,,,,,,,,METAR,1147.0
SASJ 150900Z 32004KT 9999 SCT030 BKN100 11/09 Q1023,SASJ,2015-06-15T09:00:00Z,-24.37,-65.1,11.0,9.0,320,4,,6.21,30.206694,,,,,,,,,,,SCT,3000,BKN,10000,,,,,VFR,,,,,,,,,,,,METAR,1167.0
SBNF 150900Z 03004KT 9999 FEW008 SCT060 BKN100 16/16 Q1014,SBNF,2015-06-15T09:00:00Z,-26.88,-48.65,16.0,16.0,30,4,,6.21,29.940945,,,,,,,,,,,FEW,800,SCT,6000,BKN,10000,,,VFR,,,,,,,,,,,,METAR,5.0
OIKK 150900Z 12006KT CAVOK 35/M09 Q1014 A2997,OIKK,2015-06-15T09:00:00Z,30.25,56.97,35.0,-9.0,120,6,,6.21,29.940945,,,,,,,,,,,CAVOK,,,,,,,,VFR,,,,,,,,,,,,METAR,1754.0
OIAW 150900Z 26008KT CAVOK 43/07 Q0999,OIAW,2015-06-15T09:00:00Z,31.32,48.77,43.0,7.0,260,8,,6.21,29.498032,,,,,,,,,,,CAVOK,,,,,,,,VFR,,,,,,,,,,,,METAR,22.0
OIYY 150900Z 11006KT 9999 FEW040 40/M05 Q1008,OIYY,2015-06-15T09:00:00Z,31.9,54.28,40.0,-5.0,110,6,,6.21,29.763779,,,,,,,,,,,FEW,4000,,,,,,,VFR,,,,,,,,,,,,METAR,1236.0
OIBK 150900Z 19010KT 6000 NSC 36/26 Q0999,OIBK,2015-06-15T09:00:00Z,26.53,53.98,36.0,26.0,190,10,,3.73,29.498032,,,,,,,,,,,,,,,,,,,,,,,,,,,,,,,METAR,30.0
LFMC 150900Z 28006KT 220V310 9999 FEW040 26/14 Q1013,LFMC,2015-06-15T09:00:00Z,43.37,6.37,26.0,14.0,280,6,,6.21,29.911417,,,,,,,,,,,FEW,4000,,,,,,,VFR,,,,,,,,,,,,METAR,78.0
LFBY 150900Z 15004KT 100V220 9999 SCT015 SCT025 21/15 Q1018,LFBY,2015-06-15T09:00:00Z,43.67,-1.07,21.0,15.0,150,4,,6.21,30.059055,,,,,,,,,,,SCT,1500,SCT,2500,,,,,VFR,,,,,,,,,,,,METAR,32.0
LFRB 150900Z 02005KT 340V040 9999 FEW015 BKN040 16/11 Q1020 NOSIG,LFRB,2015-06-15T09:00:00Z,48.45,-4.42,16.0,11.0,20,5,,6.21,30.11811,,,,,,TRUE,,,,,FEW,1500,BKN,4000,,,,,VFR,,,,,,,,,,,,METAR,103.0
CWVH 150900Z AUTO 29009KT 04/ A3040 RMK SLP310,CWVH,2015-06-15T09:00:00Z,68.9,-133.93,4.0,,290,9,,,30.398623,1031.0,,TRUE,,,,,,,,,,,,,,,,,,,,,,,,,,,,METAR,261.0
CWUP 150900Z AUTO 25003KT M00/ A2982 RMK SLP128,CWUP,2015-06-15T09:00:00Z,68.47,-66.82,0.0,,250,3,,,29.819881,1012.8,,TRUE,,,,,,,,,,,,,,,,,,,,,,,,,,,,METAR,390.0
CWRX 150900Z AUTO 30008KT M00/ A2986,CWRX,2015-06-15T09:00:00Z,69.07,-79.02,0.0,,300,8,,,29.861221,,,TRUE,,,,,,,,,,,,,,,,,,,,,,,,,,,,METAR,41.0
CWPX 150900Z AUTO 34019KT 01/ A3002 RMK SLP187,CWPX,2015-06-15T09:00:00Z,69.02,-107.82,1.0,,340,19,,,30.02067,1018.7,,TRUE,,,,,,,,,,,,,,,,,,,,,,,,,,,,METAR,165.0
CWLY 150900Z AUTO VRB02KT 9SM CLR 15/06 A3005 RMK SLP173,CWLY,2015-06-15T09:00:00Z,50.22,-121.58,15.0,6.0,0,2,,9.0,30.050198,1017.3,,TRUE,,,,,,,,CLR,,,,,,,,VFR,,,,,,,,,,,,METAR,229.0
CWLX 150900Z AUTO 25003KT 01/ A2987 RMK SLP129,CWLX,2015-06-15T09:00:00Z,68.9,-75.15,1.0,,250,3,,,29.870079,1012.9,,TRUE,,,,,,,,,,,,,,,,,,,,,,,,,,,,METAR,162.0
CWLI 150900Z AUTO 36012KT 03/ A3037 RMK SLP297,CWLI,2015-06-15T09:00:00Z,69.58,-130.9,3.0,,360,12,,,30.369095,1029.7,,TRUE,,,,,,,,,,,,,,,,,,,,,,,,,,,,METAR,102.0
CWKW 150900Z AUTO ///// 01/ A2986 RMK SLP140,CWKW,2015-06-15T09:00:00Z,59.97,-64.17,1.0,,,,,,29.861221,1014.0,,TRUE,,,,,,,,,,,,,,,,,,,,,,,,,,,,METAR,551.0
CWKM 150900Z AUTO 08005KT 06/ A3042 RMK SLP305,CWKM,2015-06-15T09:00:00Z,69.6,-140.17,6.0,,80,5,,,30.41929,1030.5,,TRUE,,,,,,,,,,,,,,,,,,,,,,,,,,,,METAR,13.0
CWIL 150900Z AUTO 27011KT 00/ A2995 RMK SLP150,CWIL,2015-06-15T09:00:00Z,68.32,-100.07,0.0,,270,11,,,29.949802,1015.0,,TRUE,,,,,,,,,,,,,,,,,,,,,,,,,,,,METAR,36.0
CWCA 150900Z 36004KT 15SM FEW007 02/01 A3000 RMK ST2 SLP161,CWCA,2015-06-15T09:00:00Z,53.7,-57.02,2.0,1.0,360,4,,15.0,30.0,1016.1,,,,,,,,,,FEW,700,,,,,,,VFR,,,,,,,,,,,,METAR,14.0
RJNK 150900Z 05006KT 9000 FEW030 BKN300 25/18 Q1008,RJNK,2015-06-15T09:00:00Z,36.37,136.42,25.0,18.0,50,6,,5.59,29.763779,,,,,,,,,,,FEW,3000,BKN,30000,,,,,VFR,,,,,,,,,,,,METAR,9.0
CYZX 150900Z 00000KT 15SM FEW250 06/05 A3019 RMK CI1 WNDY HILL 23006KT SLP225,CYZX,2015-06-15T09:00:00Z,44.98,-64.92,6.0,5.0,0,0,,15.0,30.188976,1022.5,,,,,,,,,,FEW,25000,,,,,,,VFR,,,,,,,,,,,,METAR,28.0
CYZV 150900Z 05006KT 30SM FEW250 05/03 A3011 RMK CI2 SLP198,CYZV,2015-06-15T09:00:00Z,50.22,-66.27,5.0,3.0,50,6,,30.0,30.109253,1019.8,,,,,,,,,,FEW,25000,,,,,,,VFR,,,,,,,,,,,,METAR,55.0
CYYZ 150900Z 14002KT 1SM R06L/P6000FT/U R15L/4000V5500FT/U R05/4500VP6000FT/D -DZ BR OVC002 17/16 A2992 RMK ST8 SLP132 DENSITY ALT 900FT,CYYZ,2015-06-15T09:00:00Z,43.67,-79.62,17.0,16.0,140,2,,1.0,29.920275,1013.2,,,,,,,,,-DZ BR,OVC,200,,,,,,,LIFR,,,,,,,,,,,,METAR,173.0
CYYR 150900Z 25004KT 15SM SKC 01/00 A3005 RMK SLP179,CYYR,2015-06-15T09:00:00Z,53.32,-60.42,1.0,0.0,250,4,,15.0,30.050198,1017.9,,,,,,,,,,SKC,,,,,,,,VFR,,,,,,,,,,,,METAR,49.0
CYYQ 150900Z 34020G27KT 15SM BKN045 03/01 A2975 RMK SC7 SLP076,CYYQ,2015-06-15T09:00:00Z,58.75,-94.07,3.0,1.0,340,20,27,15.0,29.749016,1007.6,,,,,,,,,,BKN,4500,,,,,,,VFR,,,,,,,,,,,,METAR,29.0
CYYJ 150900Z 25003KT 30SM SKC 12/09 A2995 RMK SLP141,CYYJ,2015-06-15T09:00:00Z,48.63,-123.42,12.0,9.0,250,3,,30.0,29.949802,1014.1,,,,,,,,,,SKC,,,,,,,,VFR,,,,,,,,,,,,METAR,19.0
CYYC 150900Z 31004KT 15SM BKN050 07/04 A3030 RMK SC5 SLP284,CYYC,2015-06-15T09:00:00Z,51.12,-114.02,7.0,4.0,310,4,,15.0,30.301182,1028.4,,,,,,,,,,BKN,5000,,,,,,,VFR,,,,,,,,,,,,METAR,1084.0
CYXX 150900Z 00000KT 15SM SCT080 14/11 A2995 RMK AC4 SLP141,CYXX,2015-06-15T09:00:00Z,49.03,-122.38,14.0,11.0,0,0,,15.0,29.949802,1014.1,,,,,,,,,,SCT,8000,,,,,,,VFR,,,,,,,,,,,,METAR,58.0
CYWG 150900Z 27007KT 15SM FEW030 FEW080 09/08 A3001 RMK SC1AC1 SLP164,CYWG,2015-06-15T09:00:00Z,49.88,-97.22,9.0,8.0,270,7,,15.0,30.008858,1016.4,,,,,,,,,,FEW,3000,FEW,8000,,,,,VFR,,,,,,,,,,,,METAR,239.0
CYVR 150900Z 08002KT 30SM SKC 15/13 A2993 RMK TR AC SLP135,CYVR,2015-06-15T09:00:00Z,49.17,-123.17,15.0,13.0,80,2,,30.0,29.929134,1013.5,,,,,,,,,,SKC,,,,,,,,VFR,,,,,,,,,,,,METAR,2.0
CYUL 150900Z 10005KT 040V110 15SM BKN080 OVC110 18/12 A2994 RMK AC5AC3 SLP139 DENSITY ALT 400FT,CYUL,2015-06-15T09:00:00Z,45.47,-73.73,18.0,12.0,100,5,,15.0,29.940945,1013.9,,,,,,,,,,BKN,8000,OVC,11000,,,,,VFR,,,,,,,,,,,,METAR,36.0
CYQY 150900Z 34014KT 15SM FEW040 07/04 A3009 RMK NS1 SLP192,CYQY,2015-06-15T09:00:00Z,46.17,-60.03,7.0,4.0,340,14,,15.0,30.088583,1019.2,,,,,,,,,,FEW,4000,,,,,,,VFR,,,,,,,,,,,,METAR,62.0
CYQQ 150900Z 34008KT 20SM SKC 15/08 A2996 RMK SLP145,CYQQ,2015-06-15T09:00:00Z,49.72,-124.9,15.0,8.0,340,8,,20.0,29.958662,1014.5,,,,,,,,,,SKC,,,,,,,,VFR,,,,,,,,,,,,METAR,24.0
CYQM 150900Z 22005KT 15SM SCT250 05/04 A3017 RMK CI3 SLP217,CYQM,2015-06-15T09:00:00Z,46.12,-64.67,5.0,4.0,220,5,,15.0,30.171259,1021.7,,,,,,,,,,SCT,25000,,,,,,,VFR,,,,,,,,,,,,METAR,71.0
CYQG 150900Z 23004KT 7SM BKN070 BKN180 21/21 A2994 RMK AC6AC1 SLP137 DENSITY ALT 1400FT,CYQG,2015-06-15T09:00:00Z,42.27,-82.97,21.0,21.0,230,4,,7.0,29.940945,1013.7,,,,,,,,,,BKN,7000,BKN,18000,,,,,VFR,,,,,,,,,,,,METAR,190.0
CYQB 150900Z 05007KT 30SM FEW100 FEW120 FEW250 13/05 A3003 RMK AC1AC1CI1 AC TR CI TR SLP170,CYQB,2015-06-15T09:00:00Z,46.78,-71.37,13.0,5.0,50,7,,30.0,30.029528,1017.0,,,,,,,,,,FEW,10000,FEW,12000,FEW,25000,,,VFR,,,,,,,,,,,,METAR,73.0
CYMX 150900Z 06004KT 020V090 45SM BKN120 OVC200 15/10 A2996 RMK AC6CI2 SLP144 DENSITY ALT 300FT,CYMX,2015-06-15T09:00:00Z,45.67,-74.02,15.0,10.0,60,4,,45.0,29.958662,1014.4,,,,,,,,,,BKN,12000,OVC,20000,,,,,VFR,,,,,,,,,,,,METAR,82.0
CYJT 150900Z 01005KT 15SM FEW040 06/03 A3007 RMK SC2 SLP184,CYJT,2015-06-15T09:00:00Z,48.55,-58.57,6.0,3.0,10,5,,15.0,30.070866,1018.4,,,,,,,,,,FEW,4000,,,,,,,VFR,,,,,,,,,,,,METAR,26.0
CYHZ 150900Z 29006KT 15SM FEW250 08/04 A3017 RMK CI2 SLP219,CYHZ,2015-06-15T09:00:00Z,44.87,-63.5,8.0,4.0,290,6,,15.0,30.171259,1021.9,,,,,,,,,,FEW,25000,,,,,,,VFR,,,,,,,,,,,,METAR,145.0
CYGL 150900Z 17012G17KT 15SM -SHRA BKN040 OVC070 15/09 A2969 RMK SC7AC1 SLP057 DENSITY ALT 1100FT,CYGL,2015-06-15T09:00:00Z,53.62,-77.7,15.0,9.0,170,12,17,15.0,29.68996,1005.7,,,,,,,,,-SHRA,BKN,4000,OVC,7000,,,,,VFR,,,,,,,,,,,,METAR,195.0
CYFC 150900Z AUTO 00000KT 9SM CLR 07/06 A3016 RMK SLP215,CYFC,2015-06-15T09:00:00Z,45.87,-66.52,7.0,6.0,0,0,,9.0,30.159449,1021.5,,TRUE,,,,,,,,CLR,,,,,,,,VFR,,,,,,,,,,,,METAR,20.0
CYFB 150900Z VRB02KT 30SM SCT031 SCT050 01/M00 A2990 RMK SC3SC1 SLP126,CYFB,2015-06-15T09:00:00Z,63.75,-68.55,1.0,0.0,0,2,,30.0,29.899607,1012.6,,,,,,,,,,SCT,3100,SCT,5000,,,,,VFR,,,,,,,,,,,,METAR,34.0
CYEG 150900Z 25004KT 15SM FEW060 SCT240 04/03 A3027 RMK SC1CI3 SLP270,CYEG,2015-06-15T09:00:00Z,53.28,-113.57,4.0,3.0,250,4,,15.0,30.268702,1027.0,,,,,,,,,,FEW,6000,SCT,24000,,,,,VFR,,,,,,,,,,,,METAR,723.0
CYBG 150900Z 09006KT 25SM FEW120 FEW240 10/07 A3004 RMK AC1CI0 SLP174,CYBG,2015-06-15T09:00:00Z,48.33,-70.98,10.0,7.0,90,6,,25.0,30.041338,1017.4,,,,,,,,,,FEW,12000,FEW,24000,,,,,VFR,,,,,,,,,,,,METAR,159.0
VTST 150900Z 21006KT 9999 FEW020 SCT025 BKN120 28/24 Q1006 RWY08 INFO K,VTST,2015-06-15T09:00:00Z,7.52,99.62,28.0,24.0,210,6,,6.21,29.704725,,,,,,,,,,,FEW,2000,SCT,2500,BKN,12000,,,VFR,,,,,,,,,,,,METAR,16.0
VTSR 150900Z VRB02KT 9999 BKN023 OVC100 26/24 Q1006 A2973 VOR/DME RWY02 INFO M,VTSR,2015-06-15T09:00:00Z,9.78,98.58,26.0,24.0,0,2,,6.21,29.704725,,,,,,,,,,,BKN,2300,OVC,10000,,,,,MVFR,,,,,,,,,,,,METAR,8.0
VTSM 150900Z 29007KT 8000 FEW018 FEW020CB BKN300 30/26 Q1006 A2973,VTSM,2015-06-15T09:00:00Z,9.55,100.07,30.0,26.0,290,7,,4.97,29.704725,,,,,,,,,,,FEW,1800,FEW,2000,BKN,30000,,,MVFR,,,,,,,,,,,,METAR,17.0
VTSH 150900Z 26010KT 9999 FEW020 SCT040 BKN120 30/23 Q1006 2972,VTSH,2015-06-15T09:00:00Z,7.2,100.58,30.0,23.0,260,10,,6.21,29.704725,,,,,,,,,,,FEW,2000,SCT,4000,BKN,12000,,,VFR,,,,,,,,,,,,METAR,5.0
VTSG 150900Z 27008KT 250V310 9000 BKN020 BKN150 27/23 Q1007 A2976,VTSG,2015-06-15T09:00:00Z,8.1,98.98,27.0,23.0,270,8,,5.59,29.734253,,,,,,,,,,,BKN,2000,BKN,15000,,,,,MVFR,,,,,,,,,,,,METAR,25.0
VTSF 150900Z VRB02KT 9999 -RA SCT015 SCT020 25/25 Q1006 A2971 RETS INFO M / RWY 19,VTSF,2015-06-15T09:00:00Z,8.53,99.95,25.0,25.0,0,2,,6.21,29.704725,,,,,,,,,,-RA,SCT,1500,SCT,2000,,,,,VFR,,,,,,,,,,,,METAR,4.0
VTSC 150900Z 05005KT 010V090 9000 FEW020TCU SCT022 BKN200 30/27 Q1005 A2969 TCU NW RWY20 INFO I,VTSC,2015-06-15T09:00:00Z,6.52,101.75,30.0,27.0,50,5,,5.59,29.675198,,,,,,,,,,,FEW,2000,SCT,2200,BKN,20000,,,VFR,,,,,,,,,,,,METAR,6.0
VTSB 150900Z 24007KT 9999 VCSH STC020 BKN120 OVC300 29/27 Q1006 A2972,VTSB,2015-06-15T09:00:00Z,9.12,99.13,29.0,27.0,240,7,,6.21,29.704725,,,,,,,,,,VCSH,BKN,12000,OVC,30000,,,,,VFR,,,,,,,,,,,,METAR,11.0
VTUW 150900Z 07004KT 9999 FEW025 FEW120 FEW300 33/22 Q1004 A2965 INFO I RWY15,VTUW,2015-06-15T09:00:00Z,17.38,104.63,33.0,22.0,70,4,,6.21,29.64567,,,,,,,,,,,FEW,2500,FEW,12000,FEW,30000,,,VFR,,,,,,,,,,,,METAR,184.0
VTUL 150900Z 05003KT 360V160 9999 SCT030 31/24 Q1005 A2970,VTUL,2015-06-15T09:00:00Z,17.43,101.72,31.0,24.0,50,3,,6.21,29.675198,,,,,,,,,,,SCT,3000,,,,,,,VFR,,,,,,,,,,,,METAR,254.0
VTUK 150900Z 09005KT 330V140 9999 FEW025 SCT300 32/23 Q1005 A2968 RWY03 INF O K,VTUK,2015-06-15T09:00:00Z,16.47,102.78,32.0,23.0,90,5,,6.21,29.675198,,,,,,,,,,,FEW,2500,SCT,30000,,,,,VFR,,,,,,,,,,,,METAR,204.0
VTBO 150900Z 18015KT 9999 SCT021 SCT150 30/24 Q1005,VTBO,2015-06-15T09:00:00Z,12.28,102.32,30.0,24.0,180,15,,6.21,29.675198,,,,,,,,,,,SCT,2100,SCT,15000,,,,,VFR,,,,,,,,,,,,METAR,32.0
VTPP 150900Z 08003KT 9999 FEW018CB SCT025 BKN300 33/22 Q1003 CB NE-S,VTPP,2015-06-15T09:00:00Z,16.78,100.28,33.0,22.0,80,3,,6.21,29.616142,,,,,,,,,,,FEW,1800,SCT,2500,BKN,30000,,,VFR,,,,,,,,,,,,METAR,44.0
VTPO 150900Z 09007KT 9999 SCT022 SCT300 35/24 Q1003,VTPO,2015-06-15T09:00:00Z,17.23,99.82,35.0,24.0,90,7,,6.21,29.616142,,,,,,,,,,,SCT,2200,SCT,30000,,,,,VFR,,,,,,,,,,,,METAR,54.0
VTCN 150900Z 31001KT 9999 SCT020 BKN100 31/20 Q1004 A2967 RWY/02 INFO/G,VTCN,2015-06-15T09:00:00Z,18.82,100.77,31.0,20.0,310,1,,6.21,29.64567,,,,,,,,,,,SCT,2000,BKN,10000,,,,,VFR,,,,,,,,,,,,METAR,201.0
VTCL 150900Z 09006KT 060V190 9999 SCT023 34/25 Q1003 A2964 INFO: K,VTCL,2015-06-15T09:00:00Z,18.27,99.52,34.0,25.0,90,6,,6.21,29.616142,,,,,,,,,,,SCT,2300,,,,,,,VFR,,,,,,,,,,,,METAR,242.0
VTCH 150900Z VRB03KT 9999 FEW023 SCT025 36/20 Q1002 A2959 INFO: J,VTCH,2015-06-15T09:00:00Z,19.3,97.98,36.0,20.0,0,3,,6.21,29.586615,,,,,,,,,,,FEW,2300,SCT,2500,,,,,VFR,,,,,,,,,,,,METAR,269.0
"RPMD 150900Z 19009KT 9999 VCSH SCT015CB BKN290 29/25 Q1007 RMK A2974 CB N-NE S,NW",RPMD,2015-06-15T09:00:00Z,7.12,125.65,29.0,25.0,190,9,,6.21,29.734253,,,,,,,,,,VCSH,SCT,1500,BKN,29000,,,,,VFR,,,,,,,,,,,,METAR,18.0
VLVT 150900Z 18002KT 9999 SCT020 FEW040 31/25 Q1005 NOSIG,VLVT,2015-06-15T09:00:00Z,17.98,102.57,31.0,25.0,180,2,,6.21,29.675198,,,,,,TRUE,,,,,SCT,2000,FEW,4000,,,,,VFR,,,,,,,,,,,,METAR,171.0
RJAW 150900Z 16004KT 130V200 9999 FEW015 28/23 Q1014 RMK 1CU015 A2995,RJAW,2015-06-15T09:00:00Z,24.77,141.32,28.0,23.0,160,4,,6.21,29.940945,,,,,,,,,,,FEW,1500,,,,,,,VFR,,,,,,,,,,,,METAR,116.0
ZYHB 150900Z 24005MPS CAVOK 31/09 Q1003 NOSIG,ZYHB,2015-06-15T09:00:00Z,45.62,126.25,31.0,9.0,240,10,,6.21,29.616142,,,,,,TRUE,,,,,CAVOK,,,,,,,,VFR,,,,,,,,,,,,METAR,140.0
ZYCC 150900Z 19003MPS 9999 FEW026 30/10 Q1005 NOSIG,ZYCC,2015-06-15T09:00:00Z,43.98,125.68,30.0,10.0,190,6,,6.21,29.675198,,,,,,TRUE,,,,,FEW,2600,,,,,,,VFR,,,,,,,,,,,,METAR,238.0
ZUCK 150900Z 05002MPS 360V080 4500 BR FEW006 SCT026 OVC040 22/20 Q1005 NOSIG,ZUCK,2015-06-15T09:00:00Z,29.72,106.63,22.0,20.0,50,4,,2.8,29.675198,,,,,,TRUE,,,,BR,FEW,600,SCT,2600,OVC,4000,,,IFR,,,,,,,,,,,,METAR,351.0
ZSOF 150900Z 30002MPS 240V330 5000 -RA BR NSC 23/22 Q1006 NOSIG,ZSOF,2015-06-15T09:00:00Z,31.78,117.3,23.0,22.0,300,4,,3.11,29.704725,,,,,,TRUE,,,,-RA BR,,,,,,,,,,,,,,,,,,,,,METAR,33.0
ZSNJ 150900Z 17004MPS 4000 BR SCT033 23/22 Q1006 NOSIG,ZSNJ,2015-06-15T09:00:00Z,31.75,118.87,23.0,22.0,170,8,,2.49,29.704725,,,,,,TRUE,,,,BR,SCT,3300,,,,,,,IFR,,,,,,,,,,,,METAR,33.0
ZLLL 150900Z 08004MPS 050V120 9999 FEW023 26/06 Q1010 NOSIG,ZLLL,2015-06-15T09:00:00Z,36.52,103.62,26.0,6.0,80,8,,6.21,29.822834,,,,,,TRUE,,,,,FEW,2300,,,,,,,VFR,,,,,,,,,,,,METAR,1947.0
ZJSY 150900Z 15004MPS 120V210 9999 FEW020 33/25 Q1006 NOSIG,ZJSY,2015-06-15T09:00:00Z,18.3,109.42,33.0,25.0,150,8,,6.21,29.704725,,,,,,TRUE,,,,,FEW,2000,,,,,,,VFR,,,,,,,,,,,,METAR,27.0
ZJHK 150900Z 15003MPS 120V190 9999 FEW026 33/22 Q1005 NOSIG,ZJHK,2015-06-15T09:00:00Z,19.93,110.47,33.0,22.0,150,6,,6.21,29.675198,,,,,,TRUE,,,,,FEW,2600,,,,,,,VFR,,,,,,,,,,,,METAR,23.0
ZHHH 150900Z 02002MPS 300V080 3000 -RA BR SCT012 OVC040 24/23 Q1005 BECMG TL1050 2500 BR,ZHHH,2015-06-15T09:00:00Z,30.78,114.22,24.0,23.0,20,4,,1.86,29.675198,,,,,,,,,,-RA BR,SCT,1200,OVC,4000,,,,,IFR,,,,,,,,,,,,METAR,23.0
ZHCC 150900Z VRB01MPS CAVOK 25/18 Q1007 NOSIG,ZHCC,2015-06-15T09:00:00Z,34.52,113.83,25.0,18.0,0,2,,6.21,29.734253,,,,,,TRUE,,,,,CAVOK,,,,,,,,VFR,,,,,,,,,,,,METAR,111.0
ZGHA 150900Z 20004MPS 170V230 9999 FEW033TCU SCT033 33/24 Q1004 NOSIG,ZGHA,2015-06-15T09:00:00Z,28.18,113.22,33.0,24.0,200,8,,6.21,29.64567,,,,,,TRUE,,,,,FEW,3300,SCT,3300,,,,,VFR,,,,,,,,,,,,METAR,66.0
ZBHH 150900Z 19005MPS 9999 -TSRA SCT040 SCT040CB 23/11 Q1009 BECMG TL1030 NSW,ZBHH,2015-06-15T09:00:00Z,40.85,111.82,23.0,11.0,190,10,,6.21,29.793306,,,,,,,,,,-TSRA,SCT,4000,SCT,4000,,,,,VFR,,,,,,,,,,,,METAR,1065.0
LELO 150900Z 26006KT 210V310 9999 SCT030 19/12 Q1018,LELO,2015-06-15T09:00:00Z,42.45,-2.32,19.0,12.0,260,6,,6.21,30.059055,,,,,,,,,,,SCT,3000,,,,,,,VFR,,,,,,,,,,,,METAR,363.0
LEEC 150900Z VRB03KT 9999 SCT033 20/11 Q1018,LEEC,2015-06-15T09:00:00Z,37.32,-6.0,20.0,11.0,0,3,,6.21,30.059055,,,,,,,,,,,SCT,3300,,,,,,,VFR,,,,,,,,,,,,METAR,7.0
LECV 150900Z VRB02KT 9999 FEW010 BKN017TCU 13/09 Q1018,LECV,2015-06-15T09:00:00Z,40.63,-3.72,13.0,9.0,0,2,,6.21,30.059055,,,,,,,,,,,FEW,1000,BKN,1700,,,,,MVFR,,,,,,,,,,,,METAR,710.0
LEBT 150900Z AUTO 22004KT 190V250 CAVOK 23/10 Q1015,LEBT,2015-06-15T09:00:00Z,39.58,-0.45,23.0,10.0,220,4,,6.21,29.970472,,,TRUE,,,,,,,,CAVOK,,,,,,,,VFR,,,,,,,,,,,,METAR,50.0
LEAO 150900Z 25003KT 200V300 9999 SCT013 15/11 Q1018,LEAO,2015-06-15T09:00:00Z,38.95,-3.73,15.0,11.0,250,3,,6.21,30.059055,,,,,,,,,,,SCT,1300,,,,,,,VFR,,,,,,,,,,,,METAR,629.0
LEBA 150900Z 25006KT 200V290 9999 BKN016 19/14 Q1017,LEBA,2015-06-15T09:00:00Z,37.85,-4.82,19.0,14.0,250,6,,6.21,30.029528,,,,,,,,,,,BKN,1600,,,,,,,MVFR,,,,,,,,,,,,METAR,92.0
LEBG 150900Z 05010KT 020V080 9999 SCT011 SCT030 12/11 Q1019,LEBG,2015-06-15T09:00:00Z,42.37,-3.62,12.0,11.0,50,10,,6.21,30.088583,,,,,,,,,,,SCT,1100,SCT,3000,,,,,VFR,,,,,,,,,,,,METAR,891.0
DAUZ 150900Z 15006KT CAVOK 38/M04 Q1016,DAUZ,2015-06-15T09:00:00Z,28.05,9.62,38.0,-4.0,150,6,,6.21,30.0,,,,,,,,,,,CAVOK,,,,,,,,VFR,,,,,,,,,,,,METAR,562.0
DAFH 150900Z 06018KT 8000 DRSA NSC 27/12 Q1016,DAFH,2015-06-15T09:00:00Z,32.93,3.32,27.0,12.0,60,18,,4.97,30.0,,,,,,,,,,DRSA,,,,,,,,,,,,,,,,,,,,,METAR,774.0
DAER 150900Z 00000KT 8000 NSC 40/09 Q1015,DAER,2015-06-15T09:00:00Z,,,40.0,9.0,0,0,,4.97,29.970472,,,,,,,,,,,,,,,,,,,,,,,,,,,,,,,METAR,
DAUU 150900Z /////KT 3000 HZ NSC 34/08 Q1012,DAUU,2015-06-15T09:00:00Z,31.92,5.4,34.0,8.0,,,,1.86,29.88189,,,,,,,,,,HZ,,,,,,,,,,,,,,,,,,,,,METAR,141.0
DAUT 150900Z 36010KT 8000 NSC 33/08 Q1014,DAUT,2015-06-15T09:00:00Z,29.25,0.27,33.0,8.0,360,10,,4.97,29.940945,,,,,,,,,,,,,,,,,,,,,,,,,,,,,,,METAR,312.0
DAUL 150900Z 03018KT CAVOK 27/09 Q1017,DAUL,2015-06-15T09:00:00Z,33.77,2.92,27.0,9.0,30,18,,6.21,30.029528,,,,,,,,,,,CAVOK,,,,,,,,VFR,,,,,,,,,,,,METAR,765.0
DAUK 150900Z 34010KT 5000 NSC 32/09 Q1011,DAUK,2015-06-15T09:00:00Z,33.08,6.12,32.0,9.0,340,10,,3.11,29.852362,,,,,,,,,,,,,,,,,,,,,,,,,,,,,,,METAR,85.0
DAUB 150900Z 34008KT 8000 NSC 32/13 Q1011,DAUB,2015-06-15T09:00:00Z,34.78,5.72,32.0,13.0,340,8,,4.97,29.852362,,,,,,,,,,,,,,,,,,,,,,,,,,,,,,,METAR,87.0
DAUA 150900Z 30014KT 9000 NSC 35/02 Q1014,DAUA,2015-06-15T09:00:00Z,27.83,-0.18,35.0,2.0,300,14,,5.59,29.940945,,,,,,,,,,,,,,,,,,,,,,,,,,,,,,,METAR,263.0
DATM 150900Z 00000KT 3000 HZ NSC 38/08 Q1012,DATM,2015-06-15T09:00:00Z,21.38,0.92,38.0,8.0,0,0,,1.86,29.88189,,,,,,,,,,HZ,,,,,,,,,,,,,,,,,,,,,METAR,396.0
DAOV 150900Z 26008KT 9999 FEW030 SCT100 19/11 Q1019,DAOV,2015-06-15T09:00:00Z,35.2,0.15,19.0,11.0,260,8,,6.21,30.088583,,,,,,,,,,,FEW,3000,SCT,10000,,,,,VFR,,,,,,,,,,,,METAR,514.0
DAOR 150900Z 09010KT CAVOK 26/12 Q1017,DAOR,2015-06-15T09:00:00Z,31.65,-2.27,26.0,12.0,90,10,,6.21,30.029528,,,,,,,,,,,CAVOK,,,,,,,,VFR,,,,,,,,,,,,METAR,773.0
DAOL 150900Z 24012KT 9999 FEW030 SCT200 23/13 Q1018,DAOL,2015-06-15T09:00:00Z,35.53,-0.52,23.0,13.0,240,12,,6.21,30.059055,,,,,,,,,,,FEW,3000,SCT,20000,,,,,VFR,,,,,,,,,,,,METAR,112.0
DAOI 150900Z 22008KT 9999 FEW026 23/13 Q1017,DAOI,2015-06-15T09:00:00Z,36.22,1.32,23.0,13.0,220,8,,6.21,30.029528,,,,,,,,,,,FEW,2600,,,,,,,VFR,,,,,,,,,,,,METAR,143.0
DAOF 150900Z 28020KT CAVOK 21/08 Q1016,DAOF,2015-06-15T09:00:00Z,27.7,-8.17,21.0,8.0,280,20,,6.21,30.0,,,,,,,,,,,CAVOK,,,,,,,,VFR,,,,,,,,,,,,METAR,431.0
DAOB 150900Z 30010KT 9999 FEW030 18/08 Q1020,DAOB,2015-06-15T09:00:00Z,35.33,1.47,18.0,8.0,300,10,,6.21,30.11811,,,,,,,,,,,FEW,3000,,,,,,,VFR,,,,,,,,,,,,METAR,989.0
DAEN 150900Z 00000KT 8000 NSC 40/// Q1014,DAEN,2015-06-15T09:00:00Z,29.73,6.72,,,0,0,,4.97,29.940945,,,,,,,,,,,,,,,,,,,,,,,,,,,,,,,METAR,252.0
DABT 150900Z 10012KT 9999 SCT026 22/12 Q1019,DABT,2015-06-15T09:00:00Z,35.75,6.32,22.0,12.0,100,12,,6.21,30.088583,,,,,,,,,,,SCT,2600,,,,,,,VFR,,,,,,,,,,,,METAR,1052.0
DAAV 150900Z 12006KT 9999 FEW020 26/19 Q1014,DAAV,2015-06-15T09:00:00Z,36.8,5.88,26.0,19.0,120,6,,6.21,29.940945,,,,,,,,,,,FEW,2000,,,,,,,VFR,,,,,,,,,,,,METAR,11.0
DAAS 150900Z 08016KT CAVOK 21/09 Q1020,DAAS,2015-06-15T09:00:00Z,36.18,5.33,21.0,9.0,80,16,,6.21,30.11811,,,,,,,,,,,CAVOK,,,,,,,,VFR,,,,,,,,,,,,METAR,1038.0
DAAP 150900Z /////KT 8000 NSC 41/// Q1016,DAAP,2015-06-15T09:00:00Z,26.72,8.62,,,,,,4.97,30.0,,,,,,,,,,,,,,,,,,,,,,,,,,,,,,,METAR,558.0
DAAJ 150900Z 00000KT CAVOK 38/06 Q1021,DAAJ,2015-06-15T09:00:00Z,24.28,9.47,38.0,6.0,0,0,,6.21,30.147638,,,,,,,,,,,CAVOK,,,,,,,,VFR,,,,,,,,,,,,METAR,968.0
DAAE 150900Z 00000KT 9999 FEW016 23/17 Q1015,DAAE,2015-06-15T09:00:00Z,36.72,5.07,23.0,17.0,0,0,,6.21,29.970472,,,,,,,,,,,FEW,1600,,,,,,,VFR,,,,,,,,,,,,METAR,2.0
DAAD 150900Z 00000KT CAVOK 26/13 Q1017,DAAD,2015-06-15T09:00:00Z,35.32,4.2,26.0,13.0,0,0,,6.21,30.029528,,,,,,,,,,,CAVOK,,,,,,,,VFR,,,,,,,,,,,,METAR,461.0
YBDV 150900Z AUTO 00000KT //// // ////// 19/17 Q1016,YBDV,2015-06-15T09:00:00Z,-25.9,139.35,19.0,17.0,0,0,,,30.0,,,TRUE,,,,,,,,,,,,,,,,,,,,,,,,,,,,METAR,47.0
YBCV 150900Z AUTO 00000KT 9999 // NCD 19/16 Q1018,YBCV,2015-06-15T09:00:00Z,-26.38,146.27,19.0,16.0,0,0,,6.21,30.059055,,,TRUE,,,,,,,,,,,,,,,,,,,,,,,,,,,,METAR,304.0
YAYE 150900Z AUTO 34004KT 9999 // NCD 20/04 Q1016,YAYE,2015-06-15T09:00:00Z,-25.18,130.98,20.0,4.0,340,4,,6.21,30.0,,,TRUE,,,,,,,,,,,,,,,,,,,,,,,,,,,,METAR,496.0
YARG 150900Z AUTO 22004KT 9999 // SCT091 30/12 Q1012,YARG,2015-06-15T09:00:00Z,-16.63,128.45,30.0,12.0,220,4,,6.21,29.88189,,,TRUE,,,,,,,,SCT,9100,,,,,,,VFR,,,,,,,,,,,,METAR,165.0
YABA 150900Z 07005KT 9999 FEW016 13/12 Q1021,YABA,2015-06-15T09:00:00Z,-34.93,117.8,13.0,12.0,70,5,,6.21,30.147638,,,,,,,,,,,FEW,1600,,,,,,,VFR,,,,,,,,,,,,METAR,69.0
YPEA 150900Z 08003KT CAVOK 17/06 Q1019 RMK USE TAF FOR ARRIVALS,YPEA,2015-06-15T09:00:00Z,-31.67,116.02,17.0,6.0,80,3,,6.21,30.088583,,,,,,,,,,,CAVOK,,,,,,,,VFR,,,,,,,,,,,,METAR,49.0
DTTN 150900Z 27003KT 9999 FEW020 26/18 Q1017,DTTN,2015-06-15T09:00:00Z,36.47,8.8,26.0,18.0,270,3,,6.21,30.029528,,,,,,,,,,,FEW,2000,,,,,,,VFR,,,,,,,,,,,,METAR,144.0
DTTL 150900Z VRB07KT CAVOK 27/18 Q1017,DTTL,2015-06-15T09:00:00Z,36.85,11.07,27.0,18.0,0,7,,6.21,30.029528,,,,,,,,,,,CAVOK,,,,,,,,VFR,,,,,,,,,,,,METAR,30.0
DTTK 150900Z 04002KT CAVOK 28/13 Q1017,DTTK,2015-06-15T09:00:00Z,35.67,10.08,28.0,13.0,40,2,,6.21,30.029528,,,,,,,,,,,CAVOK,,,,,,,,VFR,,,,,,,,,,,,METAR,68.0
DTTD 150900Z 00000KT 8000 NSC 30/16 Q1015,DTTD,2015-06-15T09:00:00Z,32.32,10.4,30.0,16.0,0,0,,4.97,29.970472,,,,,,,,,,,,,,,,,,,,,,,,,,,,,,,METAR,301.0
DTTB 150900Z 33008KT 290V020 9999 SCT020 26/18 Q1017,DTTB,2015-06-15T09:00:00Z,37.25,9.8,26.0,18.0,330,8,,6.21,30.029528,,,,,,,,,,,SCT,2000,,,,,,,VFR,,,,,,,,,,,,METAR,3.0
TTPP 150900Z 09008KT 9999 FEW016 SCT038 26/24 Q1012 NOSIG,TTPP,2015-06-15T09:00:00Z,10.58,-61.35,26.0,24.0,90,8,,6.21,29.88189,,,,,,TRUE,,,,,FEW,1600,SCT,3800,,,,,VFR,,,,,,,,,,,,METAR,15.0
DTTZ 150900Z 07018KT 7000 NSC 30/15 Q1013 NOSIG,DTTZ,2015-06-15T09:00:00Z,33.92,8.08,30.0,15.0,70,18,,4.35,29.911417,,,,,,TRUE,,,,,,,,,,,,,,,,,,,,,,,,,METAR,93.0
DTTX 150900Z 35006KT 290V050 8000 SCT023 SCT030 27/18 Q1016 NOSIG,DTTX,2015-06-15T09:00:00Z,34.72,10.67,27.0,18.0,350,6,,4.97,30.0,,,,,,TRUE,,,,,SCT,2300,SCT,3000,,,,,MVFR,,,,,,,,,,,,METAR,23.0
DTTG 150900Z 05012KT 9999 FEW020 26/19 Q1015 NOSIG,DTTG,2015-06-15T09:00:00Z,33.73,9.92,26.0,19.0,50,12,,6.21,29.970472,,,,,,TRUE,,,,,FEW,2000,,,,,,,VFR,,,,,,,,,,,,METAR,5.0
DTTF 150900Z 07018KT 8000 FEW033 26/16 Q1014 NOSIG,DTTF,2015-06-15T09:00:00Z,34.42,8.82,26.0,16.0,70,18,,4.97,29.940945,,,,,,TRUE,,,,,FEW,3300,,,,,,,MVFR,,,,,,,,,,,,METAR,314.0
DTKA 150900Z 04006KT 9999 SCT020 26/15 Q1017 NOSIG,DTKA,2015-06-15T09:00:00Z,36.98,8.88,26.0,15.0,40,6,,6.21,30.029528,,,,,,TRUE,,,,,SCT,2000,,,,,,,VFR,,,,,,,,,,,,METAR,21.0
FQBR 150900Z 05003KT 9999 SCT020 26/19 Q1019,FQBR,2015-06-15T09:00:00Z,-19.8,34.88,26.0,19.0,50,3,,6.21,30.088583,,,,,,,,,,,SCT,2000,,,,,,,VFR,,,,,,,,,,,,METAR,16.0
RPLI 150900Z 29012KT 9999 TS SCT019 CB SCT019 33/26 Q1006 RMK A2971 CB NE-SE,RPLI,2015-06-15T09:00:00Z,18.17,120.52,33.0,26.0,290,12,,6.21,29.704725,,,,,,,,,,TS,SCT,1900,SCT,1900,,,,,VFR,,,,,,,,,,,,METAR,5.0
FAVV 150900Z AUTO /////KT //// // ////// 16/M01 Q1027,FAVV,2015-06-15T09:00:00Z,-26.57,27.97,16.0,-1.0,,,,,30.324802,,,TRUE,,,,,,,,,,,,,,,,,,,,,,,,,,,,SPECI,1483.0
FASI 150900Z AUTO /////KT //// // ////// ///// Q1027,FASI,2015-06-15T09:00:00Z,-26.25,28.4,,,,,,,30.324802,,,TRUE,,,,,,,,,,,,,,,,,,,,,,,,,,,,SPECI,1628.0
FAJB 150900Z AUTO 23003KT //// // ////// 17/M01 Q1027,FAJB,2015-06-15T09:00:00Z,-26.15,28.0,17.0,-1.0,230,3,,,30.324802,,,TRUE,,,,,,,,,,,,,,,,,,,,,,,,,,,,SPECI,1626.0
SLTR 150900Z 12003KT 9999 FEW012 BKN200 24/23 Q1012,SLTR,2015-06-15T09:00:00Z,-14.83,-64.92,24.0,23.0,120,3,,6.21,29.88189,,,,,,,,,,,FEW,1200,BKN,20000,,,,,VFR,,,,,,,,,,,,SPECI,157.0
SLCB 150900Z 00000KT 8000 NSC 07/01 Q1025,SLCB,2015-06-15T09:00:00Z,-17.42,-66.18,7.0,1.0,0,0,,4.97,30.265747,,,,,,,,,,,,,,,,,,,,,,,,,,,,,,,SPECI,2548.0
SGES 150900Z 28014KT 9999 SCTO27 10/08 Q1017,SGES,2015-06-15T09:00:00Z,-25.45,-54.85,10.0,8.0,280,14,,6.21,30.029528,,,,,,,,,,,,,,,,,,,,,,,,,,,,,,,SPECI,849.0
SGAS 150900Z 18006KT CAVOK 10/07 Q1019,SGAS,2015-06-15T09:00:00Z,-25.25,-57.52,10.0,7.0,180,6,,6.21,30.088583,,,,,,,,,,,CAVOK,,,,,,,,VFR,,,,,,,,,,,,SPECI,101.0
RPVM 150900Z 04005KT 9999 FEW018CB BKN250 31/25 Q1007 RMK A2974 CB N,RPVM,2015-06-15T09:00:00Z,10.32,123.98,31.0,25.0,40,5,,6.21,29.734253,,,,,,,,,,,FEW,1800,BKN,25000,,,,,VFR,,,,,,,,,,,,METAR,10.0
RPLL 150900Z VRB8KT 9999 -SHRA FEW023CB FEW025 SCT100 SCT300 34/23 Q1006 NOSIG RMK A2971 CB E MVNG OVHD,RPLL,2015-06-15T09:00:00Z,14.52,121.0,34.0,23.0,,,,6.21,29.704725,,,,,,TRUE,,,,-SHRA,FEW,2300,FEW,2500,SCT,10000,SCT,30000,VFR,,,,,,,,,,,,METAR,21.0
RPLB 150900Z 33005KT 9999 SCT020 BKN300 33/24 Q1006 NOSIG,RPLB,2015-06-15T09:00:00Z,14.8,120.27,33.0,24.0,330,5,,6.21,29.704725,,,,,,TRUE,,,,,SCT,2000,BKN,30000,,,,,VFR,,,,,,,,,,,,SPECI,17.0
LPLA 150900Z /////KT 9999 FEW022 BKN040 22/19 Q1024,LPLA,2015-06-15T09:00:00Z,38.77,-27.1,22.0,19.0,,,,6.21,30.236221,,,,,,,,,,,FEW,2200,BKN,4000,,,,,VFR,,,,,,,,,,,,METAR,55.0
SBBE 150900Z 10006KT CAVOK 24/23 Q1012,SBBE,2015-06-15T09:00:00Z,-1.37,-48.47,24.0,23.0,100,6,,6.21,29.88189,,,,,,,,,,,CAVOK,,,,,,,,VFR,,,,,,,,,,,,METAR,16.0
SLRI 150900Z 00000KT 3000 BR NSC 24/23 Q1012,SLRI,2015-06-15T09:00:00Z,-11.02,-66.08,24.0,23.0,0,0,,1.86,29.88189,,,,,,,,,,BR,,,,,,,,,,,,,,,,,,,,,METAR,135.0
FMSD 150900Z 18006KT 9999 FEW020 23/13 Q1019,FMSD,2015-06-15T09:00:00Z,-25.02,46.95,23.0,13.0,180,6,,6.21,30.088583,,,,,,,,,,,FEW,2000,,,,,,,VFR,,,,,,,,,,,,METAR,9.0
FMNM 150900Z 17007KT 130V240 9999 FEW023 30/14 Q1014 NOSIG,FMNM,2015-06-15T09:00:00Z,-15.67,46.35,30.0,14.0,170,7,,6.21,29.940945,,,,,,TRUE,,,,,FEW,2300,,,,,,,VFR,,,,,,,,,,,,METAR,18.0
FMMT 150900Z 20012KT 9999 FEW017 SCT033 26/16 Q1017 NOSIG,FMMT,2015-06-15T09:00:00Z,-18.12,49.38,26.0,16.0,200,12,,6.21,30.029528,,,,,,TRUE,,,,,FEW,1700,SCT,3300,,,,,VFR,,,,,,,,,,,,METAR,6.0
FMCH 150900Z 20016KT 9999 FEW022 29/23 Q1015 NOSIG,FMCH,2015-06-15T09:00:00Z,-11.52,43.27,29.0,23.0,200,16,,6.21,29.970472,,,,,,TRUE,,,,,FEW,2200,,,,,,,VFR,,,,,,,,,,,,METAR,29.0
GMFM 150900Z 31004KT 9999 FEW023 SCT100 19/09 Q1021 NOSIG,GMFM,2015-06-15T09:00:00Z,33.87,-5.52,19.0,9.0,310,4,,6.21,30.147638,,,,,,TRUE,,,,,FEW,2300,SCT,10000,,,,,VFR,,,,,,,,,,,,METAR,549.0
FLSK 150900Z 00000KT CAWOK 20/10 Q1023,FLSK,2015-06-15T09:00:00Z,-13.0,28.67,20.0,10.0,0,0,,,30.206694,,,,,,,,,,,,,,,,,,,,,,,,,,,,,,,METAR,1261.0
FLKK 150900Z 09014KT CAVOK 19/12 Q1025,FLKK,2015-06-15T09:00:00Z,-15.32,28.45,19.0,12.0,90,14,,6.21,30.265747,,,,,,,,,,,CAVOK,,,,,,,,VFR,,,,,,,,,,,,METAR,1154.0
LPBJ 150900Z 36005KT 330V040 9999 SCT013 16/12 Q1019,LPBJ,2015-06-15T09:00:00Z,38.08,-7.93,16.0,12.0,360,5,,6.21,30.088583,,,,,,,,,,,SCT,1300,,,,,,,VFR,,,,,,,,,,,,METAR,247.0
FAKM 150900Z 33007KT CAVOK 18/M04 Q1025,FAKM,2015-06-15T09:00:00Z,-28.8,24.77,18.0,-4.0,330,7,,6.21,30.265747,,,,,,,,,,,CAVOK,,,,,,,,VFR,,,,,,,,,,,,METAR,1192.0
CZPS 150900Z AUTO 26004KT 07/05 RMK AO1 T00690049,CZPS,2015-06-15T09:00:00Z,52.43,-113.6,6.9,4.9,260,4,,,,,,TRUE,TRUE,,,,,,,,,,,,,,,,,,,,,,,,,,,METAR,965.0
CZOL 150900Z AUTO 21001KT 04/03 RMK AO1 T00380032,CZOL,2015-06-15T09:00:00Z,53.65,-113.35,3.8,3.2,210,1,,,,,,TRUE,TRUE,,,,,,,,,,,,,,,,,,,,,,,,,,,METAR,665.0
CXVM 150900Z AUTO 00000KT 03/03 RMK AO1 T00340028 50004,CXVM,2015-06-15T09:00:00Z,53.35,-110.88,3.4,2.8,0,0,,,,,,TRUE,TRUE,,,,,,,,,,,,,,,,0.4,,,,,,,,,,,METAR,623.0
CXSP 150900Z AUTO 23003KT 06/M04 RMK AO1 T00611036,CXSP,2015-06-15T09:00:00Z,54.02,-111.27,6.1,-3.6,230,3,,,,,,TRUE,TRUE,,,,,,,,,,,,,,,,,,,,,,,,,,,METAR,649.0
CXPL 150900Z AUTO 32007KT 04/03 RMK AO1 T00390033,CXPL,2015-06-15T09:00:00Z,51.13,-111.7,3.9,3.3,320,7,,,,,,TRUE,TRUE,,,,,,,,,,,,,,,,,,,,,,,,,,,METAR,750.0
CXOL 150900Z AUTO 28004KT 06/06 RMK AO1 T00640061,CXOL,2015-06-15T09:00:00Z,51.77,-114.08,6.4,6.1,280,4,,,,,,TRUE,TRUE,,,,,,,,,,,,,,,,,,,,,,,,,,,METAR,1046.0
CXMO 150900Z AUTO 01002KT 03/02 RMK AO1 T00250019,CXMO,2015-06-15T09:00:00Z,51.67,-112.68,2.5,1.9,10,2,,,,,,TRUE,TRUE,,,,,,,,,,,,,,,,,,,,,,,,,,,METAR,836.0
CXMG 150900Z AUTO 28004KT 07/06 RMK AO1 T00710059,CXMG,2015-06-15T09:00:00Z,56.97,-117.45,7.1,5.9,280,4,,,,,,TRUE,TRUE,,,,,,,,,,,,,,,,,,,,,,,,,,,METAR,457.0
CXHD 150900Z AUTO 23006KT 05/04 RMK AO1 T00460040,CXHD,2015-06-15T09:00:00Z,53.18,-112.25,4.6,4.0,230,6,,,,,,TRUE,TRUE,,,,,,,,,,,,,,,,,,,,,,,,,,,METAR,688.0
CPRY 150900Z AUTO 13004KT 06/04 RMK AO1 T00600039,CPRY,2015-06-15T09:00:00Z,49.48,-112.68,6.0,3.9,130,4,,,,,,TRUE,TRUE,,,,,,,,,,,,,,,,,,,,,,,,,,,METAR,937.0
CWIX 150900Z AUTO 13003KT 09/06 RMK AO1 T00930064,CWIX,2015-06-15T09:00:00Z,48.6,-71.72,9.3,6.4,130,3,,,,,,TRUE,TRUE,,,,,,,,,,,,,,,,,,,,,,,,,,,METAR,113.0
CWRM 150900Z AUTO 30001KT 07/06 RMK AO1 SLP272 T00660063 56001,CWRM,2015-06-15T09:00:00Z,52.42,-114.92,6.6,6.3,300,1,,,,1027.2,,TRUE,TRUE,,,,,,,,,,,,,,,,-0.1,,,,,,,,,,,METAR,988.0
SAZM 150900Z 32009KT CAVOK 00/M03 Q10,SAZM,2015-06-15T09:00:00Z,-37.92,-57.57,0.0,-3.0,320,9,,6.21,,,,,,,,,,,,CAVOK,,,,,,,,VFR,,,,,,,,,,,,SPECI,21.0
VEDG 150900Z 15005KT 4200 TS SCT018 FEW025CB BKN090 29/26 Q1000 TEMPO 2000 -TSRA RMK; CB TO W,VEDG,2015-06-15T09:00:00Z,,,29.0,26.0,150,5,,2.61,29.52756,,,,,,,,,,TS,SCT,1800,FEW,2500,BKN,9000,,,IFR,,,,,,,,,,,,METAR,
CWYK 150900Z AUTO ///// 01/ A2984 RMK SLP145,CWYK,2015-06-15T09:00:00Z,57.12,-61.47,1.0,,,,,,29.840551,1014.5,,TRUE,,,,,,,,,,,,,,,,,,,,,,,,,,,,METAR,834.0
HEMA 150900Z 02020KT CAVOK 31/10 Q1008 NOSIG,HEMA,2015-06-15T09:00:00Z,25.55,34.58,31.0,10.0,20,20,,6.21,29.763779,,,,,,TRUE,,,,,CAVOK,,,,,,,,VFR,,,,,,,,,,,,METAR,77.0
HESG 150900Z 28019KT CAVOK 34/06 Q1009 NOSIG,HESG,2015-06-15T09:00:00Z,26.33,31.75,34.0,6.0,280,19,,6.21,29.793306,,,,,,TRUE,,,,,CAVOK,,,,,,,,VFR,,,,,,,,,,,,METAR,70.0
HESC 150900Z 03010KT CAVOK 26/M04 Q1018 NOSIG,HESC,2015-06-15T09:00:00Z,28.68,34.07,26.0,-4.0,30,10,,6.21,30.059055,,,,,,TRUE,,,,,CAVOK,,,,,,,,VFR,,,,,,,,,,,,METAR,1332.0
HEBL 150900Z 33014KT CAVOK 34/10 Q1011 NOSIG,HEBL,2015-06-15T09:00:00Z,22.38,31.62,34.0,10.0,330,14,,6.21,29.852362,,,,,,TRUE,,,,,CAVOK,,,,,,,,VFR,,,,,,,,,,,,METAR,188.0
HEBA 150900Z 31015KT 9999 FEW020 27/18 Q1013 NOSIG,HEBA,2015-06-15T09:00:00Z,30.92,29.7,27.0,18.0,310,15,,6.21,29.911417,,,,,,TRUE,,,,,FEW,2000,,,,,,,VFR,,,,,,,,,,,,METAR,54.0
HEAT 150900Z 34010KT CAVOK 31/15 Q1012 NOSIG,HEAT,2015-06-15T09:00:00Z,27.05,31.02,31.0,15.0,340,10,,6.21,29.88189,,,,,,TRUE,,,,,CAVOK,,,,,,,,VFR,,,,,,,,,,,,METAR,70.0
HESH 150900Z 02015KT CAVOK 30/15 Q1007 NOSIG,HESH,2015-06-15T09:00:00Z,27.97,34.38,30.0,15.0,20,15,,6.21,29.734253,,,,,,TRUE,,,,,CAVOK,,,,,,,,VFR,,,,,,,,,,,,METAR,50.0
HEPS 150900Z 35006KT 9999 SCT025 25/10 Q1011 NOSIG,HEPS,2015-06-15T09:00:00Z,31.28,32.25,25.0,10.0,350,6,,6.21,29.852362,,,,,,TRUE,,,,,SCT,2500,,,,,,,VFR,,,,,,,,,,,,METAR,6.0
HEGN 150900Z 35018KT CAVOK 32/18 Q1008 NOSIG,HEGN,2015-06-15T09:00:00Z,27.18,33.8,32.0,18.0,350,18,,6.21,29.763779,,,,,,TRUE,,,,,CAVOK,,,,,,,,VFR,,,,,,,,,,,,METAR,14.0
HESN 150900Z 36008KT CAVOK 34/08 Q1009 NOSIG,HESN,2015-06-15T09:00:00Z,23.97,32.82,34.0,8.0,360,8,,6.21,29.793306,,,,,,TRUE,,,,,CAVOK,,,,,,,,VFR,,,,,,,,,,,,METAR,194.0
HELX 150900Z 32005KT CAVOK 35/13 Q1008 NOSIG,HELX,2015-06-15T09:00:00Z,25.67,32.7,35.0,13.0,320,5,,6.21,29.763779,,,,,,TRUE,,,,,CAVOK,,,,,,,,VFR,,,,,,,,,,,,METAR,88.0
HEAX 150900Z 30015KT 9999 FEW020 28/18 Q1011 NOSIG,HEAX,2015-06-15T09:00:00Z,31.18,29.93,28.0,18.0,300,15,,6.21,29.852362,,,,,,TRUE,,,,,FEW,2000,,,,,,,VFR,,,,,,,,,,,,METAR,7.0
HEMM 150900Z 33015KT CAVOK 27/18 Q1014 NOSIG,HEMM,2015-06-15T09:00:00Z,31.32,27.22,27.0,18.0,330,15,,6.21,29.940945,,,,,,TRUE,,,,,CAVOK,,,,,,,,VFR,,,,,,,,,,,,METAR,30.0
HETR 150900Z 28029KT 6000 NSC 27/20 Q1007,HETR,2015-06-15T09:00:00Z,28.22,33.65,27.0,20.0,280,29,,3.73,29.734253,,,,,,,,,,,,,,,,,,,,,,,,,,,,,,,METAR,35.0
HTSU 150900Z 15008KT 9999 SKC 20/10 Q1025,HTSU,2015-06-15T09:00:00Z,-7.95,31.67,20.0,10.0,150,8,,6.21,30.265747,,,,,,,,,,,SKC,,,,,,,,VFR,,,,,,,,,,,,SPECI,1804.0
HTMT 150900Z 18015KT 9999 FEW022 28/17 Q1016,HTMT,2015-06-15T09:00:00Z,-10.27,40.17,28.0,17.0,180,15,,6.21,30.0,,,,,,,,,,,FEW,2200,,,,,,,VFR,,,,,,,,,,,,SPECI,113.0
HTTB 150900Z 11004KT CAVOK 27/12 Q1020,HTTB,2015-06-15T09:00:00Z,-5.07,32.82,27.0,12.0,110,4,,6.21,30.11811,,,,,,,,,,,CAVOK,,,,,,,,VFR,,,,,,,,,,,,METAR,1190.0
HTSO 150900Z 19010KT 9999 SCT018 21/109 Q1023,HTSO,2015-06-15T09:00:00Z,-10.67,35.57,,,190,10,,6.21,30.206694,,,,,,,,,,,SCT,1800,,,,,,,VFR,,,,,,,,,,,,METAR,1067.0
HTMW 150900Z 22008KT 9999 FEW024 FEW025CB SCT300 26/16 Q1017 NOSIG,HTMW,2015-06-15T09:00:00Z,-2.47,32.92,26.0,16.0,220,8,,6.21,30.029528,,,,,,TRUE,,,,,FEW,2400,FEW,2500,SCT,30000,,,VFR,,,,,,,,,,,,METAR,1140.0
HTMU 150900Z 36004KT 9999 FEW021 FEW022CB 26/17 Q1019,HTMU,2015-06-15T09:00:00Z,-1.5,33.78,26.0,17.0,360,4,,6.21,30.088583,,,,,,,,,,,FEW,2100,FEW,2200,,,,,VFR,,,,,,,,,,,,METAR,1147.0
HTMG 150900Z 00000KT 9999 FEW026 27/13 Q1018,HTMG,2015-06-15T09:00:00Z,-6.82,37.63,27.0,13.0,0,0,,6.21,30.059055,,,,,,,,,,,FEW,2600,,,,,,,VFR,,,,,,,,,,,,METAR,526.0
HTMB 150900Z 15012KT 9999 FEW020 20/11 Q////,HTMB,2015-06-15T09:00:00Z,-8.92,33.47,20.0,11.0,150,12,,6.21,,,,,,,,,,,,FEW,2000,,,,,,,VFR,,,,,,,,,,,,METAR,1707.0
HTKA 150900Z 24011KT 9999 FEW024 FEW025CB 27/19 Q1020,HTKA,2015-06-15T09:00:00Z,-4.87,29.67,27.0,19.0,240,11,,6.21,30.11811,,,,,,,,,,,FEW,2400,FEW,2500,,,,,VFR,,,,,,,,,,,,METAR,885.0
HTIR 150900Z 00000KT CAVOK 23/08 Q1022,HTIR,2015-06-15T09:00:00Z,-7.67,35.75,23.0,8.0,0,0,,6.21,30.177166,,,,,,,,,,,CAVOK,,,,,,,,VFR,,,,,,,,,,,,METAR,1428.0
HTDO 150900Z 12010KT CAVOK 24/09 Q1020 NOSIG,HTDO,2015-06-15T09:00:00Z,-6.17,35.77,24.0,9.0,120,10,,6.21,30.11811,,,,,,TRUE,,,,,CAVOK,,,,,,,,VFR,,,,,,,,,,,,METAR,1120.0
HTBU 150900Z 00000KT 9999 FEW022 FEW024CB 26/20 Q1019,HTBU,2015-06-15T09:00:00Z,-1.32,31.82,26.0,20.0,0,0,,6.21,30.088583,,,,,,,,,,,FEW,2200,FEW,2400,,,,,VFR,,,,,,,,,,,,METAR,1137.0
HTAR 150900Z 09010KT 9999 FEW034 21/13 Q1022,HTAR,2015-06-15T09:00:00Z,-3.37,36.63,21.0,13.0,90,10,,6.21,30.177166,,,,,,,,,,,FEW,3400,,,,,,,VFR,,,,,,,,,,,,METAR,1387.0
CWJU 150900Z AUTO 21010G16KT 11/10 RMK AO1 5PAST HR 5002 PK WND 22018/0825 SLP185 P0002 T01100101 50006,CWJU,2015-06-15T09:00:00Z,54.25,-133.07,11.0,10.1,210,10,16,,,1018.5,,TRUE,TRUE,,,,,,,,,,,,,,,,0.6,,,,,0.02,,,,,,METAR,41.0
CXTV 150900Z AUTO 34006KT 06/05 RMK AO1 SLP296 T00610053 50000,CXTV,2015-06-15T09:00:00Z,68.75,-133.5,6.1,5.3,340,6,,,,1029.6,,TRUE,TRUE,,,,,,,,,,,,,,,,0.0,,,,,,,,,,,METAR,85.0
CXPA 150900Z AUTO 30005KT 08/06 RMK AO1 T00800063,CXPA,2015-06-15T09:00:00Z,55.62,-118.3,8.0,6.3,300,5,,,,,,TRUE,TRUE,,,,,,,,,,,,,,,,,,,,,,,,,,,METAR,621.0
CXOY 150900Z AUTO 32004KT 06/04 RMK AO1 T00560041,CXOY,2015-06-15T09:00:00Z,51.38,-110.35,5.6,4.1,320,4,,,,,,TRUE,TRUE,,,,,,,,,,,,,,,,,,,,,,,,,,,METAR,767.0
CXKM 150900Z AUTO 27003KT 05/04 RMK AO1 T00500035,CXKM,2015-06-15T09:00:00Z,52.82,-111.85,5.0,3.5,270,3,,,,,,TRUE,TRUE,,,,,,,,,,,,,,,,,,,,,,,,,,,METAR,675.0
CXHR 150900Z AUTO 32003KT 03/03 RMK AO1 T00320030,CXHR,2015-06-15T09:00:00Z,51.18,-112.5,3.2,3.0,320,3,,,,,,TRUE,TRUE,,,,,,,,,,,,,,,,,,,,,,,,,,,METAR,971.0
CXFR 150900Z AUTO 35004KT 08/06 RMK AO1 T00770055,CXFR,2015-06-15T09:00:00Z,56.08,-118.43,7.7,5.5,350,4,,,,,,TRUE,TRUE,,,,,,,,,,,,,,,,,,,,,,,,,,,METAR,655.0
CXDP 150900Z AUTO 14002KT 04/03 RMK AO1 T00410030,CXDP,2015-06-15T09:00:00Z,54.32,-113.95,4.1,3.0,140,2,,,,,,TRUE,TRUE,,,,,,,,,,,,,,,,,,,,,,,,,,,METAR,614.0
CXBR 150900Z AUTO 06004KT 08/05 RMK AO1 T00790053,CXBR,2015-06-15T09:00:00Z,49.62,-113.82,7.9,5.3,60,4,,,,,,TRUE,TRUE,,,,,,,,,,,,,,,,,,,,,,,,,,,METAR,1073.0
CXAF 150900Z AUTO 30001KT 02/01 RMK AO1 T00160010,CXAF,2015-06-15T09:00:00Z,54.28,-112.97,1.6,1.0,300,1,,,,,,TRUE,TRUE,,,,,,,,,,,,,,,,,,,,,,,,,,,METAR,664.0
CWRU 150900Z AUTO 34024KT 10/09 RMK AO1 PK WND 35028/0827 SLP158 T01010089 54000,CWRU,2015-06-15T09:00:00Z,50.12,-127.93,10.1,8.9,340,24,,,,1015.8,,TRUE,TRUE,,,,,,,,,,,,,,,,,,,,,,,,,,,METAR,98.0
CWQS 150900Z AUTO 33008KT 12/09 RMK AO1 SLP191 T01160093 50000,CWQS,2015-06-15T09:00:00Z,53.32,-132.77,11.6,9.3,330,8,,,,1019.1,,TRUE,TRUE,,,,,,,,,,,,,,,,0.0,,,,,,,,,,,METAR,14.0
CWME 150900Z AUTO 16001KT 15/12 RMK AO1 SLP164 T01460118 55001,CWME,2015-06-15T09:00:00Z,52.18,-127.47,14.6,11.8,160,1,,,,1016.4,,TRUE,TRUE,,,,,,,,,,,,,,,,-0.1,,,,,,,,,,,METAR,32.0
CWZG 150900Z AUTO 03006KT 07/02 RMK AO1 SLP259 T00710024 51004,CWZG,2015-06-15T09:00:00Z,51.2,-115.53,7.1,2.4,30,6,,,,1025.9,,TRUE,TRUE,,,,,,,,,,,,,,,,0.4,,,,,,,,,,,METAR,1397.0
CWWL 150900Z AUTO 36009KT 11/10 RMK AO1 SLP168 T01090098 50000,CWWL,2015-06-15T09:00:00Z,53.5,-130.63,10.9,9.8,360,9,,,,1016.8,,TRUE,TRUE,,,,,,,,,,,,,,,,0.0,,,,,,,,,,,METAR,17.0
CWEK 150900Z AUTO 16007KT 13/12 RMK AO1 SLP170 T01310120 52004,CWEK,2015-06-15T09:00:00Z,54.58,-130.7,13.1,12.0,160,7,,,,1017.0,,TRUE,TRUE,,,,,,,,,,,,,,,,0.4,,,,,,,,,,,METAR,8.0
CWHP 150900Z AUTO 01003KT 05/03 RMK AO1 SLP204 T00500031 53009,CWHP,2015-06-15T09:00:00Z,49.07,-61.7,5.0,3.1,10,3,,,,1020.4,,TRUE,TRUE,,,,,,,,,,,,,,,,0.9,,,,,,,,,,,METAR,4.0
CWWX 150900Z AUTO 14002KT 12/ RMK AO1 SLP121 T0116 58009,CWWX,2015-06-15T09:00:00Z,45.32,-81.73,11.6,,140,2,,,,1012.1,,TRUE,TRUE,,,,,,,,,,,,,,,,-0.9,,,,,,,,,,,METAR,181.0
CWZV 150900Z AUTO 31024KT 10/08 RMK AO1 PK WND 31027/0830 SLP177 T01040083 57004,CWZV,2015-06-15T09:00:00Z,51.93,-131.02,10.4,8.3,310,24,,,,1017.7,,TRUE,TRUE,,,,,,,,,,,,,,,,-0.4,,,,,,,,,,,METAR,92.0
CWZL 150900Z AUTO 27010KT 13/09 RMK AO1 SLP182 T01280087 50001,CWZL,2015-06-15T09:00:00Z,53.03,-131.6,12.8,8.7,270,10,,,,1018.2,,TRUE,TRUE,,,,,,,,,,,,,,,,0.1,,,,,,,,,,,METAR,17.0
CXSC 150900Z AUTO 35003KT 09/06 RMK AO1 T00860061,CXSC,2015-06-15T09:00:00Z,50.3,-110.08,8.6,6.1,350,3,,,,,,TRUE,TRUE,,,,,,,,,,,,,,,,,,,,,,,,,,,METAR,800.0
HTZA 150900Z 18010KT 9999 FEW022 29/17 Q1015 NOSIG,HTZA,2015-06-15T09:00:00Z,-6.22,39.22,29.0,17.0,180,10,,6.21,29.970472,,,,,,TRUE,,,,,FEW,2200,,,,,,,VFR,,,,,,,,,,,,METAR,15.0
HTKJ 150900Z 06008KT 9999 FEW024 SCT250 25/13 Q1019 NOSIG,HTKJ,2015-06-15T09:00:00Z,-3.42,37.07,25.0,13.0,60,8,,6.21,30.088583,,,,,,TRUE,,,,,FEW,2400,SCT,25000,,,,,VFR,,,,,,,,,,,,METAR,896.0
HTDA 150900Z 18012KT 9999 FEW027 30/15 Q1016 NOSIG,HTDA,2015-06-15T09:00:00Z,-6.88,39.2,30.0,15.0,180,12,,6.21,30.0,,,,,,TRUE,,,,,FEW,2700,,,,,,,VFR,,,,,,,,,,,,METAR,55.0
HKNY 150900Z 00000KT 9999 BKN024 23/15 Q1024,HKNY,2015-06-15T09:00:00Z,-0.07,37.02,23.0,15.0,0,0,,6.21,30.236221,,,,,,,,,,,BKN,2400,,,,,,,MVFR,,,,,,,,,,,,METAR,1905.0
SAWH 150900Z 27007KT 9999 SCT022 BKN035 M01/M04 Q0986,SAWH,2015-06-15T09:00:00Z,-54.85,-68.3,-1.0,-4.0,270,7,,6.21,29.114174,,,,,,,,,,,SCT,2200,BKN,3500,,,,,VFR,,,,,,,,,,,,METAR,14.0
HKRE 150900Z 00000KT 9999 FEW025 23/15 Q1023,HKRE,2015-06-15T09:00:00Z,-1.28,36.87,23.0,15.0,0,0,,6.21,30.206694,,,,,,,,,,,FEW,2500,,,,,,,VFR,,,,,,,,,,,,METAR,1627.0
CWEE 150900Z AUTO 07/07 RMK AO1 SLP147 T00730069,CWEE,2015-06-15T09:00:00Z,49.27,-73.33,7.3,6.9,,,,,,1014.7,,TRUE,TRUE,,,,,,,,,,,,,,,,,,,,,,,,,,,METAR,305.0
CXCS 150900Z AUTO 30007KT 05/03 RMK AO1 T00450033,CXCS,2015-06-15T09:00:00Z,51.93,-110.72,4.5,3.3,300,7,,,,,,TRUE,TRUE,,,,,,,,,,,,,,,,,,,,,,,,,,,METAR,772.0
CXCD 150900Z AUTO 26005KT 05/05 RMK AO1 T00530046,CXCD,2015-06-15T09:00:00Z,56.32,-119.75,5.3,4.6,260,5,,,,,,TRUE,TRUE,,,,,,,,,,,,,,,,,,,,,,,,,,,METAR,630.0
CXBA 150900Z AUTO 25005KT 04/04 RMK AO1 T00420039,CXBA,2015-06-15T09:00:00Z,52.12,-110.1,4.2,3.9,250,5,,,,,,TRUE,TRUE,,,,,,,,,,,,,,,,,,,,,,,,,,,METAR,687.0
CXAJ 150900Z AUTO 24001KT 03/02 RMK AO1 T00280024,CXAJ,2015-06-15T09:00:00Z,54.77,-112.82,2.8,2.4,240,1,,,,,,TRUE,TRUE,,,,,,,,,,,,,,,,,,,,,,,,,,,METAR,574.0
CXAG 150900Z AUTO 24001KT 04/03 RMK AO1 T00370030,CXAG,2015-06-15T09:00:00Z,53.92,-112.28,3.7,3.0,240,1,,,,,,TRUE,TRUE,,,,,,,,,,,,,,,,,,,,,,,,,,,METAR,625.0
CWKD 150900Z AUTO 12001KT 08/04 RMK AO1 SLP171 T00760038 58005,CWKD,2015-06-15T09:00:00Z,50.73,-71.02,7.6,3.8,120,1,,,,1017.1,,TRUE,TRUE,,,,,,,,,,,,,,,,-0.5,,,,,,,,,,,METAR,497.0
CWDT 150900Z AUTO 00000KT 05/03 RMK AO1 SLP183 T00490034 55002,CWDT,2015-06-15T09:00:00Z,49.88,-71.25,4.9,3.4,0,0,,,,1018.3,,TRUE,TRUE,,,,,,,,,,,,,,,,-0.2,,,,,,,,,,,METAR,399.0
SLVR 150900Z 18010G23KT 9999 SCT010 BKN023 OVC070 16/14 Q1018,SLVR,2015-06-15T09:00:00Z,-17.63,-63.12,16.0,14.0,180,10,23,6.21,30.059055,,,,,,,,,,,SCT,1000,BKN,2300,OVC,7000,,,MVFR,,,,,,,,,,,,METAR,373.0
SLLP 150900Z 08006KT 4000E VCFG FEW003 M00/M01 Q1036,SLLP,2015-06-15T09:00:00Z,-16.52,-68.17,0.0,-1.0,80,6,,2.49,30.590551,,,,,,,,,,VCFG,FEW,300,,,,,,,IFR,,,,,,,,,,,,METAR,4014.0
SARC 150900Z 00000KT 9999 MIFG NSC 08/07 Q1020,SARC,2015-06-15T09:00:00Z,-27.43,-58.77,8.0,7.0,0,0,,6.21,30.11811,,,,,,,,,,MIFG,,,,,,,,,,,,,,,,,,,,,METAR,62.0
FVHA 150900Z 18005KT CAVOK 17/06 Q1027 NOSIG,FVHA,2015-06-15T09:00:00Z,-17.92,31.12,17.0,6.0,180,5,,6.21,30.324802,,,,,,TRUE,,,,,CAVOK,,,,,,,,VFR,,,,,,,,,,,,METAR,1503.0
FVBU 150900Z 09007KT 060V120 CAVOK 20/M01 Q1026 NOSIG,FVBU,2015-06-15T09:00:00Z,-20.02,28.62,20.0,-1.0,90,7,,6.21,30.295275,,,,,,TRUE,,,,,CAVOK,,,,,,,,VFR,,,,,,,,,,,,METAR,1326.0
UMOO 150900Z 28004MPS 9999 BKN022 BKN/// 22/14 Q1008 R31/CLRD// NOSIG,UMOO,2015-06-15T09:00:00Z,53.95,30.1,22.0,14.0,280,8,,6.21,29.763779,,,,,,TRUE,,,,,BKN,2200,,,,,,,MVFR,,,,,,,,,,,,METAR,194.0
FAUT 150900Z /////KT CAVOK ///// Q////,FAUT,2015-06-15T09:00:00Z,-31.52,28.67,,,,,,6.21,,,,,,,,,,,,CAVOK,,,,,,,,VFR,,,,,,,,,,,,METAR,732.0
FBFT 150900Z 06004KT CAVOK 23/M00 Q1025,FBFT,2015-06-15T09:00:00Z,-21.17,27.48,23.0,0.0,60,4,,6.21,30.265747,,,,,,,,,,,CAVOK,,,,,,,,VFR,,,,,,,,,,,,METAR,1000.0
ZUUU 150900Z 18003MPS 150V210 6000 FEW030TCU SCT030 26/18 Q1004 NOSIG,ZUUU,2015-06-15T09:00:00Z,30.58,103.95,26.0,18.0,180,6,,3.73,29.64567,,,,,,TRUE,,,,,FEW,3000,SCT,3000,,,,,MVFR,,,,,,,,,,,,METAR,508.0
ZUGY 150900Z 19008MPS 9999 SCT033 25/20 Q1008 NOSIG,ZUGY,2015-06-15T09:00:00Z,26.53,106.8,25.0,20.0,190,16,,6.21,29.763779,,,,,,TRUE,,,,,SCT,3300,,,,,,,VFR,,,,,,,,,,,,METAR,1074.0
ZSQD 150900Z 20004MPS CAVOK 26/13 Q1006 NOSIG,ZSQD,2015-06-15T09:00:00Z,36.27,120.38,26.0,13.0,200,8,,6.21,29.704725,,,,,,TRUE,,,,,CAVOK,,,,,,,,VFR,,,,,,,,,,,,METAR,77.0
ZSNB 150900Z 03004MPS 5000 HZ SCT030 28/22 Q1006 NOSIG,ZSNB,2015-06-15T09:00:00Z,29.83,121.47,28.0,22.0,30,8,,3.11,29.704725,,,,,,TRUE,,,,HZ,SCT,3000,,,,,,,MVFR,,,,,,,,,,,,METAR,4.0
ZSFZ 150900Z 19007MPS CAVOK 31/23 Q1006 NOSIG,ZSFZ,2015-06-15T09:00:00Z,25.93,119.67,31.0,23.0,190,14,,6.21,29.704725,,,,,,TRUE,,,,,CAVOK,,,,,,,,VFR,,,,,,,,,,,,METAR,85.0
ZSAM 150900Z 17006MPS 140V200 9999 FEW030 32/24 Q1007 NOSIG,ZSAM,2015-06-15T09:00:00Z,24.53,118.13,32.0,24.0,170,12,,6.21,29.734253,,,,,,TRUE,,,,,FEW,3000,,,,,,,VFR,,,,,,,,,,,,METAR,139.0
ZPPP 150900Z 21005MPS 9999 FEW026 23/16 Q1016 NOSIG,ZPPP,2015-06-15T09:00:00Z,25.0,102.75,23.0,16.0,210,10,,6.21,30.0,,,,,,TRUE,,,,,FEW,2600,,,,,,,VFR,,,,,,,,,,,,METAR,1892.0
ZLXY 150900Z 05005MPS 4000 BR OVC050 21/17 Q1008 NOSIG,ZLXY,2015-06-15T09:00:00Z,34.43,108.75,21.0,17.0,50,10,,2.49,29.763779,,,,,,TRUE,,,,BR,OVC,5000,,,,,,,IFR,,,,,,,,,,,,METAR,479.0
ZGSZ 150900Z 18006MPS CAVOK 31/25 Q1007 NOSIG,ZGSZ,2015-06-15T09:00:00Z,22.63,113.8,31.0,25.0,180,12,,6.21,29.734253,,,,,,TRUE,,,,,CAVOK,,,,,,,,VFR,,,,,,,,,,,,METAR,18.0
ZGOW 150900Z 17005MPS 9999 FEW028 32/26 Q1007 NOSIG,ZGOW,2015-06-15T09:00:00Z,23.55,116.5,32.0,26.0,170,10,,6.21,29.734253,,,,,,TRUE,,,,,FEW,2800,,,,,,,VFR,,,,,,,,,,,,METAR,3.0
ZGNN 150900Z 14005MPS 9999 FEW036 34/24 Q1004 NOSIG,ZGNN,2015-06-15T09:00:00Z,22.62,108.17,34.0,24.0,140,10,,6.21,29.64567,,,,,,TRUE,,,,,FEW,3600,,,,,,,VFR,,,,,,,,,,,,METAR,73.0
ZGKL 150900Z 17005MPS 9999 FEW033TCU FEW053 32/23 Q1005 NOSIG,ZGKL,2015-06-15T09:00:00Z,25.22,110.03,32.0,23.0,170,10,,6.21,29.675198,,,,,,TRUE,,,,,FEW,3300,FEW,5300,,,,,VFR,,,,,,,,,,,,METAR,166.0
OIBQ 150900Z 30010KT CAVOK 33/24 Q1000,OIBQ,2015-06-15T09:00:00Z,29.27,50.32,33.0,24.0,300,10,,6.21,29.52756,,,,,,,,,,,CAVOK,,,,,,,,VFR,,,,,,,,,,,,METAR,6.0
YMOR 150900Z AUTO 05008KT 9999 // SCT071 BKN120 18/12 Q1022,YMOR,2015-06-15T09:00:00Z,-29.5,149.85,18.0,12.0,50,8,,6.21,30.177166,,,TRUE,,,,,,,,SCT,7100,BKN,12000,,,,,VFR,,,,,,,,,,,,METAR,214.0
YMEN 150900Z AUTO 05003KT 9999 // SCT086 14/09 Q1022,YMEN,2015-06-15T09:00:00Z,-37.72,144.9,14.0,9.0,50,3,,6.21,30.177166,,,TRUE,,,,,,,,SCT,8600,,,,,,,VFR,,,,,,,,,,,,METAR,86.0
YMEK 150900Z AUTO 24003KT 9999 // NCD 21/00 Q1017,YMEK,2015-06-15T09:00:00Z,-26.62,118.55,21.0,0.0,240,3,,6.21,30.029528,,,TRUE,,,,,,,,,,,,,,,,,,,,,,,,,,,,METAR,522.0
YMDG 150900Z AUTO 09003KT //// // OVC115 14/10 Q1024,YMDG,2015-06-15T09:00:00Z,-32.57,149.62,14.0,10.0,90,3,,,30.236221,,,TRUE,,,,,,,,OVC,11500,,,,,,,,,,,,,,,,,,,METAR,471.0
YMAY 150900Z AUTO 36003KT 9999 // OVC089 12/09 Q1022,YMAY,2015-06-15T09:00:00Z,-36.07,146.93,12.0,9.0,360,3,,6.21,30.177166,,,TRUE,,,,,,,,OVC,8900,,,,,,,VFR,,,,,,,,,,,,METAR,171.0
YLRE 150900Z AUTO 06008KT 9999 // ////// 25/13 Q1016,YLRE,2015-06-15T09:00:00Z,-23.43,144.28,25.0,13.0,60,8,,6.21,30.0,,,TRUE,,,,,,,,,,,,,,,,,,,,,,,,,,,,METAR,193.0
YPXM 150900Z AUTO 07008KT 9999 // SCT020 SCT025 SCT032 27/21 Q1011,YPXM,2015-06-15T09:00:00Z,-10.45,105.67,27.0,21.0,70,8,,6.21,29.852362,,,TRUE,,,,,,,,SCT,2000,SCT,2500,SCT,3200,,,VFR,,,,,,,,,,,,METAR,259.0
ZWSH 150900Z 20006MPS 170V240 9999 FEW040 30/M06 Q1007 NOSIG,ZWSH,2015-06-15T09:00:00Z,39.55,76.02,30.0,-6.0,200,12,,6.21,29.734253,,,,,,TRUE,,,,,FEW,4000,,,,,,,VFR,,,,,,,,,,,,METAR,1291.0
ZBSJ 150900Z 04002MPS 360V070 3500 HZ FEW046 30/17 Q1004 NOSIG,ZBSJ,2015-06-15T09:00:00Z,38.28,114.7,30.0,17.0,40,4,,2.17,29.64567,,,,,,TRUE,,,,HZ,FEW,4600,,,,,,,IFR,,,,,,,,,,,,METAR,71.0
YWHA 150900Z AUTO 17002KT 9999 // BKN041 OVC077 14/14 Q1017,YWHA,2015-06-15T09:00:00Z,-33.07,137.52,14.0,14.0,170,2,,6.21,30.029528,,,TRUE,,,,,,,,BKN,4100,OVC,7700,,,,,VFR,,,,,,,,,,,,METAR,13.0
YWGT 150900Z AUTO 28004KT 9999 // OVC082 11/09 Q1022,YWGT,2015-06-15T09:00:00Z,-36.42,146.3,11.0,9.0,280,4,,6.21,30.177166,,,TRUE,,,,,,,,OVC,8200,,,,,,,VFR,,,,,,,,,,,,METAR,153.0
YTNK 150900Z AUTO 15004KT 9999 // SCT052 BKN069 BKN110 25/14 Q1015,YTNK,2015-06-15T09:00:00Z,-19.63,134.18,25.0,14.0,150,4,,6.21,29.970472,,,TRUE,,,,,,,,SCT,5200,BKN,6900,BKN,11000,,,VFR,,,,,,,,,,,,METAR,377.0
YTEF 150900Z AUTO 25004KT //// // ////// 28/05 Q1013,YTEF,2015-06-15T09:00:00Z,-21.72,122.23,28.0,5.0,250,4,,,29.911417,,,TRUE,,,,,,,,,,,,,,,,,,,,,,,,,,,,METAR,296.0
YSWG 150900Z 07007KT 9999 -RA NSC 14/09 Q1022,YSWG,2015-06-15T09:00:00Z,-35.13,147.47,14.0,9.0,70,7,,6.21,30.177166,,,,,,,,,,-RA,,,,,,,,,,,,,,,,,,,,,METAR,213.0
LKPD 150900Z 02008KT 340V070 9999 FEW022 OVC041 17/12 Q1013 NOSIG RMK BLU BLU,LKPD,2015-06-15T09:00:00Z,50.02,15.73,17.0,12.0,20,8,,6.21,29.911417,,,,,,TRUE,,,,,FEW,2200,OVC,4100,,,,,VFR,,,,,,,,,,,,SPECI,226.0
LKNA 150900Z 02009KT 340V070 8000 -RA OVC023 17/15 Q1012 NOSIG RMK BLACK,LKNA,2015-06-15T09:00:00Z,49.17,16.12,17.0,15.0,20,9,,4.97,29.88189,,,,,,TRUE,,,,-RA,OVC,2300,,,,,,,MVFR,,,,,,,,,,,,SPECI,472.0
LKLN 150900Z AUTO VRB02KT 9999 OVC022 16/12 Q1015,LKLN,2015-06-15T09:00:00Z,49.68,13.27,16.0,12.0,0,2,,6.21,29.970472,,,TRUE,,,,,,,,OVC,2200,,,,,,,MVFR,,,,,,,,,,,,METAR,362.0
LKKB 150900Z 34007KT 280V020 9999 FEW020 OVC050 17/12 Q1014 NOSIG,LKKB,2015-06-15T09:00:00Z,50.12,14.53,17.0,12.0,340,7,,6.21,29.940945,,,,,,TRUE,,,,,FEW,2000,OVC,5000,,,,,VFR,,,,,,,,,,,,METAR,286.0
LKCV 150900Z VRB05KT 9999 SCT015 OVC037 16/15 Q1014 NOSIG RMK BLU BLU,LKCV,2015-06-15T09:00:00Z,49.93,15.38,16.0,15.0,0,5,,6.21,29.940945,,,,,,TRUE,,,,,SCT,1500,OVC,3700,,,,,VFR,,,,,,,,,,,,SPECI,242.0
BIVM 150900Z 10025G35KT 9999 SCT025 09/04 Q1011,BIVM,2015-06-15T09:00:00Z,63.42,-20.27,9.0,4.0,100,25,35,6.21,29.852362,,,,,,,,,,,SCT,2500,,,,,,,VFR,,,,,,,,,,,,METAR,124.0
RORS 150900Z 19009KT 9999 FEW019 30/24 Q1009,RORS,2015-06-15T09:00:00Z,24.82,125.15,30.0,24.0,190,9,,6.21,29.793306,,,,,,,,,,,FEW,1900,,,,,,,VFR,,,,,,,,,,,,METAR,16.0
ROMY 150900Z 19010KT 9999 FEW019 30/24 Q1009,ROMY,2015-06-15T09:00:00Z,24.77,125.27,30.0,24.0,190,10,,6.21,29.793306,,,,,,,,,,,FEW,1900,,,,,,,VFR,,,,,,,,,,,,METAR,41.0
ROIG 150900Z 20009KT 160V230 9999 FEW021 BKN/// 30/25 Q1009,ROIG,2015-06-15T09:00:00Z,24.32,124.17,30.0,25.0,200,9,,6.21,29.793306,,,,,,,,,,,FEW,2100,,,,,,,VFR,,,,,,,,,,,,METAR,7.0
RJSY 150900Z 28005KT 9999 FEW010 21/17 Q1008,RJSY,2015-06-15T09:00:00Z,38.82,139.77,21.0,17.0,280,5,,6.21,29.763779,,,,,,,,,,,FEW,1000,,,,,,,VFR,,,,,,,,,,,,METAR,22.0
RJSS 150900Z 12007KT 6000 FEW020 SCT030 BKN050 21/18 Q1007,RJSS,2015-06-15T09:00:00Z,38.12,140.92,21.0,18.0,120,7,,3.73,29.734253,,,,,,,,,,,FEW,2000,SCT,3000,BKN,5000,,,MVFR,,,,,,,,,,,,METAR,5.0
RJSN 150900Z 02004KT 7000 NSC 23/18 Q1008,RJSN,2015-06-15T09:00:00Z,37.95,139.12,23.0,18.0,20,4,,4.35,29.763779,,,,,,,,,,,,,,,,,,,,,,,,,,,,,,,METAR,4.0
RJSR 150900Z 28006KT 9999 FEW010 SCT015 BKN020 20/18 Q1008,RJSR,2015-06-15T09:00:00Z,40.18,140.37,20.0,18.0,280,6,,6.21,29.763779,,,,,,,,,,,FEW,1000,SCT,1500,BKN,2000,,,MVFR,,,,,,,,,,,,METAR,87.0
RJSK 150900Z 29004KT 7000 FEW010 SCT015 21/17 Q1008,RJSK,2015-06-15T09:00:00Z,39.62,140.22,21.0,17.0,290,4,,4.35,29.763779,,,,,,,,,,,FEW,1000,SCT,1500,,,,,MVFR,,,,,,,,,,,,METAR,96.0
RJSI 150900Z 23004KT 190V280 9999 FEW030 SCT040 BKN050 24/16 Q1007,RJSI,2015-06-15T09:00:00Z,39.42,141.12,24.0,16.0,230,4,,6.21,29.734253,,,,,,,,,,,FEW,3000,SCT,4000,BKN,5000,,,VFR,,,,,,,,,,,,METAR,93.0
RJSF 150900Z VRB02KT 8000 -SHRA FEW010 SCT020 FEW020CB BKN050 20/18 Q1009,RJSF,2015-06-15T09:00:00Z,37.22,140.42,20.0,18.0,0,2,,4.97,29.793306,,,,,,,,,,-SHRA,FEW,1000,SCT,2000,FEW,2000,BKN,5000,MVFR,,,,,,,,,,,,METAR,375.0
RJSC 150900Z 01016KT 9999 FEW040 BKN080 24/16 Q1007,RJSC,2015-06-15T09:00:00Z,38.42,140.37,24.0,16.0,10,16,,6.21,29.734253,,,,,,,,,,,FEW,4000,BKN,8000,,,,,VFR,,,,,,,,,,,,METAR,108.0
RJSA 150900Z 24007KT 9000 FEW006 BKN008 BKN010 17/15 Q1008,RJSA,2015-06-15T09:00:00Z,40.72,140.68,17.0,15.0,240,7,,5.59,29.763779,,,,,,,,,,,FEW,600,BKN,800,BKN,1000,,,IFR,,,,,,,,,,,,METAR,201.0
RJOY 150900Z 27007KT 240V300 CAVOK 27/16 Q1007,RJOY,2015-06-15T09:00:00Z,34.6,135.58,27.0,16.0,270,7,,6.21,29.734253,,,,,,,,,,,CAVOK,,,,,,,,VFR,,,,,,,,,,,,METAR,13.0
RJOW 150900Z 33004KT 9999 FEW020 SCT030 BKN/// 23/20 Q1008,RJOW,2015-06-15T09:00:00Z,34.67,131.8,23.0,20.0,330,4,,6.21,29.763779,,,,,,,,,,,FEW,2000,SCT,3000,,,,,VFR,,,,,,,,,,,,METAR,54.0
RJOT 150900Z 08003KT 9999 FEW030 BKN/// 25/20 Q1008,RJOT,2015-06-15T09:00:00Z,34.22,134.02,25.0,20.0,80,3,,6.21,29.763779,,,,,,,,,,,FEW,3000,,,,,,,VFR,,,,,,,,,,,,METAR,188.0
RJOR 150900Z 35007KT 9999 FEW030 BKN/// 23/19 Q1007,RJOR,2015-06-15T09:00:00Z,35.52,134.17,23.0,19.0,350,7,,6.21,29.734253,,,,,,,,,,,FEW,3000,,,,,,,VFR,,,,,,,,,,,,SPECI,18.0
RJOO 150900Z 21007KT 170V260 9999 FEW030 BKN/// 26/18 Q1007 RMK 1CU030 A2974,RJOO,2015-06-15T09:00:00Z,34.77,135.43,26.0,18.0,210,7,,6.21,29.734253,,,,,,,,,,,FEW,3000,,,,,,,VFR,,,,,,,,,,,,METAR,15.0
RJOM 150900Z 34005KT 9999 FEW030 SCT080 BKN130 23/19 Q1007,RJOM,2015-06-15T09:00:00Z,33.82,132.68,23.0,19.0,340,5,,6.21,29.734253,,,,,,,,,,,FEW,3000,SCT,8000,BKN,13000,,,VFR,,,,,,,,,,,,METAR,7.0
RJOK 150900Z 17004KT 120V200 9999 -SHRA FEW025 BKN035 BKN130 23/20 Q1008,RJOK,2015-06-15T09:00:00Z,33.52,133.67,23.0,20.0,170,4,,6.21,29.763779,,,,,,,,,,-SHRA,FEW,2500,BKN,3500,BKN,13000,,,VFR,,,,,,,,,,,,METAR,10.0
RJOH 150900Z 35006KT 9999 FEW020 BKN025 BKN270 24/18 Q1008,RJOH,2015-06-15T09:00:00Z,35.47,133.25,24.0,18.0,350,6,,6.21,29.763779,,,,,,,,,,,FEW,2000,BKN,2500,BKN,27000,,,MVFR,,,,,,,,,,,,METAR,9.0
RJOC 150900Z 31009KT 9999 FEW025 BKN030 25/20 Q1007,RJOC,2015-06-15T09:00:00Z,35.42,132.87,25.0,20.0,310,9,,6.21,29.734253,,,,,,,,,,,FEW,2500,BKN,3000,,,,,MVFR,,,,,,,,,,,,METAR,5.0
RJOB 150900Z 20004KT 9999 FEW035 BKN/// 25/18 Q1008,RJOB,2015-06-15T09:00:00Z,34.75,133.83,25.0,18.0,200,4,,6.21,29.763779,,,,,,,,,,,FEW,3500,,,,,,,VFR,,,,,,,,,,,,METAR,242.0
RJOA 150900Z 22003KT 180V270 9999 FEW020 BKN/// 23/18 Q1008,RJOA,2015-06-15T09:00:00Z,34.42,132.92,23.0,18.0,220,3,,6.21,29.763779,,,,,,,,,,,FEW,2000,,,,,,,VFR,,,,,,,,,,,,METAR,6.0
RJNS 150900Z 25011KT 9999 FEW030 BKN/// 23/18 Q1007,RJNS,2015-06-15T09:00:00Z,34.8,138.18,23.0,18.0,250,11,,6.21,29.734253,,,,,,,,,,,FEW,3000,,,,,,,VFR,,,,,,,,,,,,METAR,135.0
RJNW 150900Z 11004KT 9999 FEW030 SCT100 21/20 Q1009,RJNW,2015-06-15T09:00:00Z,37.3,136.97,21.0,20.0,110,4,,6.21,29.793306,,,,,,,,,,,FEW,3000,SCT,10000,,,,,VFR,,,,,,,,,,,,METAR,219.0
RJNT 150900Z 02004KT 9999 FEW030 SCT040 BKN050 25/19 Q1008,RJNT,2015-06-15T09:00:00Z,36.63,137.17,25.0,19.0,20,4,,6.21,29.763779,,,,,,,,,,,FEW,3000,SCT,4000,BKN,5000,,,VFR,,,,,,,,,,,,METAR,27.0
RJKA 150900Z 22012KT 9999 FEW015 BKN170 BKN/// 28/24 Q1010,RJKA,2015-06-15T09:00:00Z,28.42,129.72,28.0,24.0,220,12,,6.21,29.822834,,,,,,,,,,,FEW,1500,BKN,17000,,,,,VFR,,,,,,,,,,,,SPECI,7.0
RJFU 150900Z 15009KT 9999 FEW003 BKN020 BKN035 21/19 Q1007,RJFU,2015-06-15T09:00:00Z,32.92,129.92,21.0,19.0,150,9,,6.21,29.734253,,,,,,,,,,,FEW,300,BKN,2000,BKN,3500,,,MVFR,,,,,,,,,,,,METAR,5.0
RJFR 150900Z 06008KT 9999 FEW006 BKN010 BKN030 22/21 Q1007,RJFR,2015-06-15T09:00:00Z,33.82,131.03,22.0,21.0,60,8,,6.21,29.734253,,,,,,,,,,,FEW,600,BKN,1000,BKN,3000,,,MVFR,,,,,,,,,,,,METAR,6.0
RJFO 150900Z 14013KT 9999 FEW020 SCT060 BKN080 20/18 Q1007,RJFO,2015-06-15T09:00:00Z,33.47,131.72,20.0,18.0,140,13,,6.21,29.734253,,,,,,,,,,,FEW,2000,SCT,6000,BKN,8000,,,VFR,,,,,,,,,,,,METAR,8.0
FSIA 150900Z 12002KT 9999 FEW016 29/24 Q1009 NOSIG,FSIA,2015-06-15T09:00:00Z,-4.67,55.52,29.0,24.0,120,2,,6.21,29.793306,,,,,,TRUE,,,,,FEW,1600,,,,,,,VFR,,,,,,,,,,,,METAR,3.0
FBSP 150900Z 00000KT CAVOK 24/08 Q1024,FBSP,2015-06-15T09:00:00Z,-22.05,27.82,24.0,8.0,0,0,,6.21,30.236221,,,,,,,,,,,CAVOK,,,,,,,,VFR,,,,,,,,,,,,METAR,892.0
FBSK 150900Z VRB01KT CAVOK 21/M01 Q1025 NOSIG,FBSK,2015-06-15T09:00:00Z,-24.55,25.92,21.0,-1.0,0,1,,6.21,30.265747,,,,,,TRUE,,,,,CAVOK,,,,,,,,VFR,,,,,,,,,,,,METAR,1005.0
FBMN 150900Z 09006KT CAVOK 22/01 Q1025,FBMN,2015-06-15T09:00:00Z,-19.97,23.42,22.0,1.0,90,6,,6.21,30.265747,,,,,,,,,,,CAVOK,,,,,,,,VFR,,,,,,,,,,,,METAR,900.0
FBKE 150900Z 06004KT 320V110 CAVOK 22/04 Q1024,FBKE,2015-06-15T09:00:00Z,-17.82,25.17,22.0,4.0,60,4,,6.21,30.236221,,,,,,,,,,,CAVOK,,,,,,,,VFR,,,,,,,,,,,,METAR,1000.0
RJFS 150900Z 16007KT 130V190 9999 FEW020 BKN035 BKN/// 22/19 Q1007,RJFS,2015-06-15T09:00:00Z,33.15,130.3,22.0,19.0,160,7,,6.21,29.734253,,,,,,,,,,,FEW,2000,BKN,3500,,,,,VFR,,,,,,,,,,,,METAR,5.0
RJEC 150900Z 32006KT 9999 FEW035 21/15 Q1006,RJEC,2015-06-15T09:00:00Z,43.67,142.43,21.0,15.0,320,6,,6.21,29.704725,,,,,,,,,,,FEW,3500,,,,,,,VFR,,,,,,,,,,,,METAR,211.0
RJDT 150900Z 26004KT 220V340 9999 FEW020 BKN/// 22/17 Q1007,RJDT,2015-06-15T09:00:00Z,34.27,129.32,22.0,17.0,260,4,,6.21,29.734253,,,,,,,,,,,FEW,2000,,,,,,,VFR,,,,,,,,,,,,SPECI,66.0
RJDC 150900Z 06017KT 9999 SCT006 BKN045 22/20 Q1007,RJDC,2015-06-15T09:00:00Z,33.92,131.27,22.0,20.0,60,17,,6.21,29.734253,,,,,,,,,,,SCT,600,BKN,4500,,,,,VFR,,,,,,,,,,,,METAR,8.0
RJCN 150900Z 08005KT 9999 FEW035 16/14 Q1006,RJCN,2015-06-15T09:00:00Z,43.57,144.97,16.0,14.0,80,5,,6.21,29.704725,,,,,,,,,,,FEW,3500,,,,,,,VFR,,,,,,,,,,,,METAR,70.0
RJCM 150900Z 07005KT 9999 FEW002 SCT060 18/14 Q1006,RJCM,2015-06-15T09:00:00Z,43.88,144.17,18.0,14.0,70,5,,6.21,29.704725,,,,,,,,,,,FEW,200,SCT,6000,,,,,VFR,,,,,,,,,,,,METAR,36.0
RJCH 150900Z 14003KT 090V200 9999 FEW010 SCT030 17/15 Q1007,RJCH,2015-06-15T09:00:00Z,41.77,140.82,17.0,15.0,140,3,,6.21,29.734253,,,,,,,,,,,FEW,1000,SCT,3000,,,,,VFR,,,,,,,,,,,,METAR,36.0
RJCB 150900Z 11006KT 070V140 9999 FEW030 SCT060 20/15 Q1005,RJCB,2015-06-15T09:00:00Z,42.72,143.22,20.0,15.0,110,6,,6.21,29.675198,,,,,,,,,,,FEW,3000,SCT,6000,,,,,VFR,,,,,,,,,,,,METAR,152.0
RJBT 150900Z 36005KT 9999 FEW025 BKN/// 23/17 Q1008,RJBT,2015-06-15T09:00:00Z,35.5,134.8,23.0,17.0,360,5,,6.21,29.763779,,,,,,,,,,,FEW,2500,,,,,,,VFR,,,,,,,,,,,,METAR,210.0
RJBE 150900Z 24011KT 9999 FEW030 BKN/// 22/20 Q1008,RJBE,2015-06-15T09:00:00Z,34.63,135.23,22.0,20.0,240,11,,6.21,29.763779,,,,,,,,,,,FEW,3000,,,,,,,VFR,,,,,,,,,,,,METAR,5.0
RJBD 150900Z 16004KT 130V200 9999 FEW030 BKN/// 23/18 Q1009,RJBD,2015-06-15T09:00:00Z,33.67,135.37,23.0,18.0,160,4,,6.21,29.793306,,,,,,,,,,,FEW,3000,,,,,,,VFR,,,,,,,,,,,,SPECI,108.0
MKJP 150900Z 10011KT 9999 FEW024 29/23 Q1013,MKJP,2015-06-15T09:00:00Z,17.92,-76.78,29.0,23.0,100,11,,6.21,29.911417,,,,,,,,,,,FEW,2400,,,,,,,VFR,,,,,,,,,,,,METAR,3.0
FAPP 150900Z 19003KT 8000 NSC 22/M03 Q1024 NOSIG,FAPP,2015-06-15T09:00:00Z,-23.83,29.45,22.0,-3.0,190,3,,4.97,30.236221,,,,,,TRUE,,,,,,,,,,,,,,,,,,,,,,,,,SPECI,1242.0
FAPE 150900Z 25017KT CAVOK 19/08 Q1015 NOSIG,FAPE,2015-06-15T09:00:00Z,-33.97,25.6,19.0,8.0,250,17,,6.21,29.970472,,,,,,TRUE,,,,,CAVOK,,,,,,,,VFR,,,,,,,,,,,,METAR,60.0
FAOR 150900Z 21010KT CAVOK 15/M03 Q1028 NOSIG,FAOR,2015-06-15T09:00:00Z,-26.12,28.22,15.0,-3.0,210,10,,6.21,30.35433,,,,,,TRUE,,,,,CAVOK,,,,,,,,VFR,,,,,,,,,,,,METAR,1700.0
FAOB 150900Z 33008KT 9999 BKN025 16/13 Q1017,FAOB,2015-06-15T09:00:00Z,-34.6,20.27,16.0,13.0,330,8,,6.21,30.029528,,,,,,,,,,,BKN,2500,,,,,,,MVFR,,,,,,,,,,,,METAR,75.0
FAMM 150900Z 25003KT CAVOK 18/M00 Q1026 NOSIG,FAMM,2015-06-15T09:00:00Z,-25.8,25.52,18.0,0.0,250,3,,6.21,30.295275,,,,,,TRUE,,,,,CAVOK,,,,,,,,VFR,,,,,,,,,,,,METAR,1277.0
FALW 150900Z 03025KT 4000 RA 12/12 Q1019,FALW,2015-06-15T09:00:00Z,-32.97,18.17,12.0,12.0,30,25,,2.49,30.088583,,,,,,,,,,RA,,,,,,,,,,,,,,,,,,,,,METAR,0.0
FALE 150900Z VRB03KT CAVOK 26/04 Q1015 NOSIG,FALE,2015-06-15T09:00:00Z,-29.62,31.12,26.0,4.0,0,3,,6.21,29.970472,,,,,,TRUE,,,,,CAVOK,,,,,,,,VFR,,,,,,,,,,,,METAR,109.0
FAGG 150900Z 35004KT 310V010 9999 BKN050 14/09 Q1017,FAGG,2015-06-15T09:00:00Z,-34.0,22.37,14.0,9.0,350,4,,6.21,30.029528,,,,,,,,,,,BKN,5000,,,,,,,VFR,,,,,,,,,,,,METAR,193.0
FACT 150900Z 35012KT 9999 BKN010 OVC040 13/12 Q1018 NOSIG,FACT,2015-06-15T09:00:00Z,-33.97,18.6,13.0,12.0,350,12,,6.21,30.059055,,,,,,TRUE,,,,,BKN,1000,OVC,4000,,,,,MVFR,,,,,,,,,,,,METAR,42.0
FABL 150900Z VRB03KT CAVOK 13/03 Q1026 NOSIG,FABL,2015-06-15T09:00:00Z,-29.1,26.3,13.0,3.0,0,3,,6.21,30.295275,,,,,,TRUE,,,,,CAVOK,,,,,,,,VFR,,,,,,,,,,,,METAR,1348.0
FYWW 150900Z 30003KT CAVOK 17/M01 Q1027,FYWW,2015-06-15T09:00:00Z,-22.57,17.1,17.0,-1.0,300,3,,6.21,30.324802,,,,,,,,,,,CAVOK,,,,,,,,VFR,,,,,,,,,,,,METAR,1725.0
FYRN 150900Z 15010KT CAVOK 21/03 Q1025,FYRN,2015-06-15T09:00:00Z,-20.02,13.85,21.0,3.0,150,10,,6.21,30.265747,,,,,,,,,,,CAVOK,,,,,,,,VFR,,,,,,,,,,,,METAR,756.0
FYOW 150900Z AUTO 07048G80KT //// // ////// 20/M00 Q1024,FYOW,2015-06-15T09:00:00Z,-20.43,16.67,20.0,0.0,70,48,80,,30.236221,,,TRUE,,,,,,,,,,,,,,,,,,,,,,,,,,,,SPECI,1481.0
FYOO 150900Z AUTO 05009KT //// // ////// ///// Q1024,FYOO,2015-06-15T09:00:00Z,-19.15,15.92,,,50,9,,,30.236221,,,TRUE,,,,,,,,,,,,,,,,,,,,,,,,,,,,METAR,1192.0
FYOA 150900Z 09012KT CAVOK 22/01 Q1023,FYOA,2015-06-15T09:00:00Z,-17.88,15.97,22.0,1.0,90,12,,6.21,30.206694,,,,,,,,,,,CAVOK,,,,,,,,VFR,,,,,,,,,,,,METAR,1095.0
FYML 150900Z AUTO 04005KT //// // ////// 18/M08 Q1026,FYML,2015-06-15T09:00:00Z,-24.6,17.93,18.0,-8.0,40,5,,,30.295275,,,TRUE,,,,,,,,,,,,,,,,,,,,,,,,,,,,SPECI,1113.0
FYLZ 150900Z AUTO 21007KT //// // ////// 14/08 Q1020,FYLZ,2015-06-15T09:00:00Z,-26.67,15.25,14.0,8.0,210,7,,,30.11811,,,TRUE,,,,,,,,,,,,,,,,,,,,,,,,,,,,METAR,130.0
FYKT 150900Z 00000KT CAVOK 23/M09 Q1024,FYKT,2015-06-15T09:00:00Z,-26.52,18.12,23.0,-9.0,0,0,,6.21,30.236221,,,,,,,,,,,CAVOK,,,,,,,,VFR,,,,,,,,,,,,METAR,1061.0
FYGF 150900Z 07007KT CAVOK 20/00 Q1028,FYGF,2015-06-15T09:00:00Z,-19.6,18.12,20.0,0.0,70,7,,6.21,30.35433,,,,,,,,,,,CAVOK,,,,,,,,VFR,,,,,,,,,,,,METAR,1400.0
FYGB 150900Z AUTO 02005KT //// // ////// 21/M00 Q1027,FYGB,2015-06-15T09:00:00Z,-22.5,18.97,21.0,0.0,20,5,,,30.324802,,,TRUE,,,,,,,,,,,,,,,,,,,,,,,,,,,,METAR,1442.0
RKNY 150900Z 10004KT 0100 R33/0150N FG BKN002 17/17 Q1006 NOSIG,RKNY,2015-06-15T09:00:00Z,38.07,128.67,17.0,17.0,100,4,,0.06,29.704725,,,,,,TRUE,,,,FG,BKN,200,,,,,,,LIFR,,,,,,,,,,,,METAR,74.0
RKJB 150900Z 28003KT 220V320 4000 BR FEW010 BKN025 OVC120 22/21 Q1006 NOSIG,RKJB,2015-06-15T09:00:00Z,34.98,126.38,22.0,21.0,280,3,,2.49,29.704725,,,,,,TRUE,,,,BR,FEW,1000,BKN,2500,OVC,12000,,,IFR,,,,,,,,,,,,METAR,2.0
RKTN 150900Z 20003KT 9000 SCT040 BKN200 28/18 Q1004 NOSIG,RKTN,2015-06-15T09:00:00Z,35.88,128.65,28.0,18.0,200,3,,5.59,29.64567,,,,,,TRUE,,,,,SCT,4000,BKN,20000,,,,,VFR,,,,,,,,,,,,METAR,35.0
RKTU 150900Z 30009KT 9999 FEW040 BKN200 27/16 Q1005 NOSIG,RKTU,2015-06-15T09:00:00Z,36.7,127.5,27.0,16.0,300,9,,6.21,29.675198,,,,,,TRUE,,,,,FEW,4000,BKN,20000,,,,,VFR,,,,,,,,,,,,METAR,66.0
RKPC 150900Z 28006KT 260V320 4200 BR FEW025 BKN120 BKN200 22/19 Q1007 NOSIG,RKPC,2015-06-15T09:00:00Z,33.5,126.48,22.0,19.0,280,6,,2.61,29.734253,,,,,,TRUE,,,,BR,FEW,2500,BKN,12000,BKN,20000,,,IFR,,,,,,,,,,,,METAR,27.0
RKSS 150900Z 28005KT CAVOK 24/16 Q1006 NOSIG,RKSS,2015-06-15T09:00:00Z,37.53,126.78,24.0,16.0,280,5,,6.21,29.704725,,,,,,TRUE,,,,,CAVOK,,,,,,,,VFR,,,,,,,,,,,,METAR,19.0
LETO 150900Z 00000KT 9999 SCT020TCU SCT030 14/11 Q1018 NOSIG,LETO,2015-06-15T09:00:00Z,40.47,-3.47,14.0,11.0,0,0,,6.21,30.059055,,,,,,TRUE,,,,,SCT,2000,SCT,3000,,,,,VFR,,,,,,,,,,,,METAR,608.0
LELN 150900Z 13003KT 070V190 9999 SCT030 14/08 Q1019,LELN,2015-06-15T09:00:00Z,42.57,-5.65,14.0,8.0,130,3,,6.21,30.088583,,,,,,,,,,,SCT,3000,,,,,,,VFR,,,,,,,,,,,,METAR,914.0
LELC 150900Z 26007KT 200V290 9999 FEW040 26/08 Q1015 NOSIG,LELC,2015-06-15T09:00:00Z,37.77,-0.8,26.0,8.0,260,7,,6.21,29.970472,,,,,,TRUE,,,,,FEW,4000,,,,,,,VFR,,,,,,,,,,,,METAR,3.0
LEBZ 150900Z 30005KT 280V340 9999 FEW011 16/14 Q1018,LEBZ,2015-06-15T09:00:00Z,38.87,-6.82,16.0,14.0,300,5,,6.21,30.059055,,,,,,,,,,,FEW,1100,,,,,,,VFR,,,,,,,,,,,,METAR,192.0
LEAB 150900Z 27003KT 240V320 9999 -SHRA FEW025TCU SCT040 15/10 Q1018 NOSIG,LEAB,2015-06-15T09:00:00Z,38.95,-1.85,15.0,10.0,270,3,,6.21,30.059055,,,,,,TRUE,,,,-SHRA,FEW,2500,SCT,4000,,,,,VFR,,,,,,,,,,,,METAR,704.0
GCGM 150900Z VRB07KT 9999 FEW035 21/10 Q1022 RMK R09/VRB07KT ARP/01008KT 310V080,GCGM,2015-06-15T09:00:00Z,28.03,-17.22,21.0,10.0,0,7,,6.21,30.177166,,,,,,,,,,,FEW,3500,,,,,,,VFR,,,,,,,,,,,,METAR,219.0
GCHI 150900Z 04014KT 9999 FEW023 22/16 Q1022,GCHI,2015-06-15T09:00:00Z,27.82,-17.87,22.0,16.0,40,14,,6.21,30.177166,,,,,,,,,,,FEW,2300,,,,,,,VFR,,,,,,,,,,,,METAR,30.0
CZBF 150900Z 25003KT 220V280 15SM FEW120 SCT240 05/04 A3015 RMK AS1CI2 SLP212,CZBF,2015-06-15T09:00:00Z,47.62,-65.75,5.0,4.0,250,3,,15.0,30.15059,1021.2,,,,,,,,,,FEW,12000,SCT,24000,,,,,VFR,,,,,,,,,,,,METAR,59.0
CWZZ 150900Z AUTO 29010KT 03/ A2987 RMK SLP144,CWZZ,2015-06-15T09:00:00Z,58.32,-62.57,3.0,,290,10,,,29.870079,1014.4,,TRUE,,,,,,,,,,,,,,,,,,,,,,,,,,,,METAR,483.0
CZCP 150900Z AUTO 34003KT 1/8SM OVC012 02/ A3029 RMK SLP266,CZCP,2015-06-15T09:00:00Z,70.17,-124.72,2.0,,340,3,,0.13,30.28937,1026.6,,TRUE,,,,,,,,OVC,1200,,,,,,,LIFR,,,,,,,,,,,,METAR,93.0
UBBY 150900Z VRB02KT 9999 BKN100 25/09 Q1015 R33/////// NOSIG RMK MT OP,UBBY,2015-06-15T09:00:00Z,41.57,46.67,25.0,9.0,0,2,,6.21,29.970472,,,,,,TRUE,,,,,BKN,10000,,,,,,,VFR,,,,,,,,,,,,METAR,390.0
DAUI 150900Z 10008KT 9000 NSC 37/11 Q1014,DAUI,2015-06-15T09:00:00Z,27.25,2.52,37.0,11.0,100,8,,5.59,29.940945,,,,,,,,,,,,,,,,,,,,,,,,,,,,,,,METAR,269.0
TNCM 150900Z 10009KT 070V130 9999 SCT019 27/22 Q1017 A3003 NOSIG,TNCM,2015-06-15T09:00:00Z,18.05,-63.12,27.0,22.0,100,9,,6.21,30.029528,,,,,,TRUE,,,,,SCT,1900,,,,,,,VFR,,,,,,,,,,,,METAR,4.0
OIAA 150900Z 30019KT CAVOK 43/05 Q1001,OIAA,2015-06-15T09:00:00Z,30.37,48.25,43.0,5.0,300,19,,6.21,29.557087,,,,,,,,,,,CAVOK,,,,,,,,VFR,,,,,,,,,,,,SPECI,11.0
GGOV 150900Z 27003KT 230V290 9999 FEW005 SCT014TCU 27/24 Q1014 BECMG BKN014 TCU,GGOV,2015-06-15T09:00:00Z,11.87,-15.65,27.0,24.0,270,3,,6.21,29.940945,,,,,,,,,,,FEW,500,SCT,1400,,,,,VFR,,,,,,,,,,,,METAR,36.0
FTTD 150900Z 22012KT CAVOK 32/21 Q1013,FTTD,2015-06-15T09:00:00Z,8.62,16.07,32.0,21.0,220,12,,6.21,29.911417,,,,,,,,,,,CAVOK,,,,,,,,VFR,,,,,,,,,,,,METAR,422.0
FTTY 150900Z 04021KT 8000 SKC 40/04 Q1013,FTTY,2015-06-15T09:00:00Z,18.0,19.17,40.0,4.0,40,21,,4.97,29.911417,,,,,,,,,,,SKC,,,,,,,,MVFR,,,,,,,,,,,,METAR,234.0
CXEG 150900Z AUTO 04/03 RMK AO1 T00390033,CXEG,2015-06-15T09:00:00Z,53.3,-113.6,3.9,3.3,,,,,,,,TRUE,TRUE,,,,,,,,,,,,,,,,,,,,,,,,,,,METAR,715.0
CXWB 150900Z AUTO 01/01 RMK AO1 T00140011,CXWB,2015-06-15T09:00:00Z,65.88,-89.45,1.4,1.1,,,,,,,,TRUE,TRUE,,,,,,,,,,,,,,,,,,,,,,,,,,,METAR,18.0
CWWS 150900Z AUTO 33018KT 08/05 RMK AO1 PK WND 33023/0819 SLP159 T00800051 53013,CWWS,2015-06-15T09:00:00Z,52.82,-97.62,8.0,5.1,330,18,,,,1015.9,,TRUE,TRUE,,,,,,,,,,,,,,,,1.3,,,,,,,,,,,METAR,223.0
CZFS 150900Z AUTO 05001KT 07/04 RMK AO1 SLP254 T00710044 58008,CZFS,2015-06-15T09:00:00Z,61.77,-121.23,7.1,4.4,50,1,,,,1025.4,,TRUE,TRUE,,,,,,,,,,,,,,,,-0.8,,,,,,,,,,,METAR,168.0
CPIR 150900Z AUTO 35005KT 04/03 RMK AO1 T00370031,CPIR,2015-06-15T09:00:00Z,49.9,-112.73,3.7,3.1,350,5,,,,,,TRUE,TRUE,,,,,,,,,,,,,,,,,,,,,,,,,,,METAR,858.0
CPEH 150900Z AUTO 27004KT 05/04 RMK AO1 T00480041,CPEH,2015-06-15T09:00:00Z,50.18,-112.43,4.8,4.1,270,4,,,,,,TRUE,TRUE,,,,,,,,,,,,,,,,,,,,,,,,,,,METAR,801.0
CPBT 150900Z AUTO 11001KT 06/05 RMK AO1 T00580048,CPBT,2015-06-15T09:00:00Z,49.57,-113.05,5.8,4.8,110,1,,,,,,TRUE,TRUE,,,,,,,,,,,,,,,,,,,,,,,,,,,METAR,980.0
CWWB 150900Z AUTO 25001KT 16/16 RMK AO1 SLP128 T01550160 56005,CWWB,2015-06-15T09:00:00Z,43.3,-79.78,15.5,16.0,250,1,,,,1012.8,,TRUE,TRUE,,,,,,,,,,,,,,,,-0.5,,,,,,,,,,,METAR,76.0
CWJH 150900Z AUTO 23002KT 05/04 RMK AO1 SLP189 T00460036 50003,CWJH,2015-06-15T09:00:00Z,56.32,-103.27,4.6,3.6,230,2,,,,1018.9,,TRUE,TRUE,,,,,,,,,,,,,,,,0.3,,,,,,,,,,,METAR,344.0
CWJB 150900Z AUTO 03004KT 13/08 RMK AO1 T01270079,CWJB,2015-06-15T09:00:00Z,46.78,-71.27,12.7,7.9,30,4,,,,,,TRUE,TRUE,,,,,,,,,,,,,,,,,,,,,,,,,,,METAR,91.0
CWIZ 150900Z AUTO 18004KT 17/13 RMK AO1 T01670134,CWIZ,2015-06-15T09:00:00Z,45.28,-73.33,16.7,13.4,180,4,,,,,,TRUE,TRUE,,,,,,,,,,,,,,,,,,,,,,,,,,,METAR,45.0
CWIW 150900Z AUTO 29005KT 06/05 RMK AO1 SLP247 T00630053 52014,CWIW,2015-06-15T09:00:00Z,51.67,-105.4,6.3,5.3,290,5,,,,1024.7,,TRUE,TRUE,,,,,,,,,,,,,,,,1.4,,,,,,,,,,,METAR,526.0
CWIT 150900Z AUTO 09003KT 16/12 RMK AO1 3PAST HR 6013 SLP133 P0001 T01580122 50003,CWIT,2015-06-15T09:00:00Z,45.17,-73.67,15.8,12.2,90,3,,,,1013.3,,TRUE,TRUE,,,,,,,,,,,,,,,,0.3,,,,,0.01,,,,,,METAR,52.0
CWIS 150900Z AUTO 14003KT 05/04 RMK AO1 SLP191 T00530039 56009,CWIS,2015-06-15T09:00:00Z,47.28,-70.63,5.3,3.9,140,3,,,,1019.1,,TRUE,TRUE,,,,,,,,,,,,,,,,-0.9,,,,,,,,,,,METAR,719.0
CWIP 150900Z AUTO 06003KT 08/ RMK AO1 T0076,CWIP,2015-06-15T09:00:00Z,50.17,-66.43,7.6,,60,3,,,,,,TRUE,TRUE,,,,,,,,,,,,,,,,,,,,,,,,,,,METAR,25.0
CWII 150900Z AUTO 32015KT 14/10 RMK AO1 PK WND 31017/0850 T01400097,CWII,2015-06-15T09:00:00Z,50.7,-96.57,14.0,9.7,320,15,,,,,,TRUE,TRUE,,,,,,,,,,,,,,,,,,,,,,,,,,,METAR,220.0
CWIG 150900Z AUTO 04008KT RMK AO1,CWIG,2015-06-15T09:00:00Z,47.07,-70.53,,,40,8,,,,,,TRUE,TRUE,,,,,,,,,,,,,,,,,,,,,,,,,,,METAR,18.0
CWHV 150900Z AUTO 17002KT 08/07 RMK AO1 SLP172 T00820066 56011,CWHV,2015-06-15T09:00:00Z,46.2,-70.77,8.2,6.6,170,2,,,,1017.2,,TRUE,TRUE,,,,,,,,,,,,,,,,-1.1,,,,,,,,,,,METAR,229.0
CWHQ 150900Z AUTO 08006KT 14/06 RMK AO1 T01360057,CWHQ,2015-06-15T09:00:00Z,46.68,-71.97,13.6,5.7,80,6,,,,,,TRUE,TRUE,,,,,,,,,,,,,,,,,,,,,,,,,,,METAR,55.0
CWHM 150900Z AUTO 05003KT 16/11 RMK AO1 T01550114,CWHM,2015-06-15T09:00:00Z,45.72,-73.37,15.5,11.4,50,3,,,,,,TRUE,TRUE,,,,,,,,,,,,,,,,,,,,,,,,,,,METAR,192.0
CWHL 150900Z AUTO 26004KT 12/11 RMK AO1 SLP168 T01210109 50002,CWHL,2015-06-15T09:00:00Z,54.17,-130.35,12.1,10.9,260,4,,,,1016.8,,TRUE,TRUE,,,,,,,,,,,,,,,,0.2,,,,,,,,,,,METAR,5.0
CWGY 150900Z AUTO 26003KT 06/05 RMK AO1 SLP272 T00640047 51006,CWGY,2015-06-15T09:00:00Z,51.67,-110.2,6.4,4.7,260,3,,,,1027.2,,TRUE,TRUE,,,,,,,,,,,,,,,,0.6,,,,,,,,,,,METAR,707.0
CWGX 150900Z AUTO 32017G22KT 06/03 RMK AO1 PK WND 32023/0811 SLP096 T00570029 53007,CWGX,2015-06-15T09:00:00Z,56.35,-94.7,5.7,2.9,320,17,22,,,1009.6,,TRUE,TRUE,,,,,,,,,,,,,,,,0.7,,,,,,,,,,,METAR,145.0
CWGW 150900Z AUTO 00000KT 08/06 RMK AO1 SLP258 T00790060 52006,CWGW,2015-06-15T09:00:00Z,49.75,-114.9,7.9,6.0,0,0,,,,1025.8,,TRUE,TRUE,,,,,,,,,,,,,,,,0.6,,,,,,,,,,,METAR,1137.0
CWGT 150900Z AUTO 32014KT 17/10 RMK AO1 SLP141 T01710097 52002,CWGT,2015-06-15T09:00:00Z,49.48,-124.43,17.1,9.7,320,14,,,,1014.1,,TRUE,TRUE,,,,,,,,,,,,,,,,0.2,,,,,,,,,,,METAR,5.0
CWGR 150900Z AUTO 02005KT 07/06 RMK AO1 SLP207 T00660056 53010,CWGR,2015-06-15T09:00:00Z,47.42,-61.8,6.6,5.6,20,5,,,,1020.7,,TRUE,TRUE,,,,,,,,,,,,,,,,1.0,,,,,,,,,,,METAR,60.0
WMKN 150900Z 13003KT 9999 FEW018 SCT150 BKN280 31/27 Q1005,WMKN,2015-06-15T09:00:00Z,5.37,103.08,31.0,27.0,130,3,,6.21,29.675198,,,,,,,,,,,FEW,1800,SCT,15000,BKN,28000,,,VFR,,,,,,,,,,,,METAR,6.0
WMKM 150900Z 21004KT 9999 FEW017CB BKN280 31/24 Q1006,WMKM,2015-06-15T09:00:00Z,2.27,102.25,31.0,24.0,210,4,,6.21,29.704725,,,,,,,,,,,FEW,1700,BKN,28000,,,,,VFR,,,,,,,,,,,,METAR,9.0
WMKL 150900Z 27006KT 220V350 9999 FEW017CB SCT140 BKN270 29/25 Q1006,WMKL,2015-06-15T09:00:00Z,6.32,99.72,29.0,25.0,270,6,,6.21,29.704725,,,,,,,,,,,FEW,1700,SCT,14000,BKN,27000,,,VFR,,,,,,,,,,,,METAR,7.0
WMKI 150900Z 17002KT 9999 FEW017CB SCT020 BKN290 29/25 Q1006,WMKI,2015-06-15T09:00:00Z,4.57,101.08,29.0,25.0,170,2,,6.21,29.704725,,,,,,,,,,,FEW,1700,SCT,2000,BKN,29000,,,VFR,,,,,,,,,,,,METAR,39.0
WMKE 150900Z 17003KT 9999 FEW018 BKN140 BKN260 31/26 Q1005,WMKE,2015-06-15T09:00:00Z,4.53,103.43,31.0,26.0,170,3,,6.21,29.675198,,,,,,,,,,,FEW,1800,BKN,14000,BKN,26000,,,VFR,,,,,,,,,,,,METAR,5.0
WMKD 150900Z 21013KT 150V230 9999 -SHRA FEW017CB SCT160 BKN280 27/23 Q1006 NOSIG,WMKD,2015-06-15T09:00:00Z,3.77,103.22,27.0,23.0,210,13,,6.21,29.704725,,,,,,TRUE,,,,-SHRA,FEW,1700,SCT,16000,BKN,28000,,,VFR,,,,,,,,,,,,METAR,16.0
WMKC 150900Z 02005KT 320V080 9999 FEW017CB BKN140 BKN220 30/26 Q1005,WMKC,2015-06-15T09:00:00Z,6.17,102.27,30.0,26.0,20,5,,6.21,29.675198,,,,,,,,,,,FEW,1700,BKN,14000,BKN,22000,,,VFR,,,,,,,,,,,,METAR,5.0
WMKB 150900Z 30007KT 240V340 9999 FEW020 SCT140 BKN270 30/26 Q1006 NOSIG,WMKB,2015-06-15T09:00:00Z,5.47,100.37,30.0,26.0,300,7,,6.21,29.704725,,,,,,TRUE,,,,,FEW,2000,SCT,14000,BKN,27000,,,VFR,,,,,,,,,,,,METAR,4.0
WMKA 150900Z 31007KT 290V010 9999 FEW020 SCT140 BKN270 28/25 Q1006,WMKA,2015-06-15T09:00:00Z,6.2,100.4,28.0,25.0,310,7,,6.21,29.704725,,,,,,,,,,,FEW,2000,SCT,14000,BKN,27000,,,VFR,,,,,,,,,,,,METAR,5.0
WMBA 150900Z 21007KT 150V290 9999 FEW017CB SCT020 BKN280 31/25 Q1006,WMBA,2015-06-15T09:00:00Z,4.22,100.7,31.0,25.0,210,7,,6.21,29.704725,,,,,,,,,,,FEW,1700,SCT,2000,BKN,28000,,,VFR,,,,,,,,,,,,METAR,8.0
WMAU 150900Z 17006KT 8000 -TSRA FEW017CB SCT140 BKN260 26/25 Q//// QFF1006,WMAU,2015-06-15T09:00:00Z,2.38,103.88,26.0,25.0,170,6,,4.97,,,,,,,,,,,-TSRA,FEW,1700,SCT,14000,BKN,26000,,,MVFR,,,,,,,,,,,,METAR,45.0
WBKW 150900Z 36003KT 9999 FEW017 BKN140 26/24 Q1006,WBKW,2015-06-15T09:00:00Z,4.32,118.12,26.0,24.0,360,3,,6.21,29.704725,,,,,,,,,,,FEW,1700,BKN,14000,,,,,VFR,,,,,,,,,,,,METAR,20.0
WBKT 150900Z 29003KT 9999 FEW014 SCT140 BKN270 29/24 Q1007,WBKT,2015-06-15T09:00:00Z,6.92,116.82,29.0,24.0,290,3,,6.21,29.734253,,,,,,,,,,,FEW,1400,SCT,14000,BKN,27000,,,VFR,,,,,,,,,,,,METAR,5.0
WBKS 150900Z 04006KT 350V080 9999 FEW015 FEW017CB SCT140 BKN260 30/25 Q1006,WBKS,2015-06-15T09:00:00Z,5.9,118.07,30.0,25.0,40,6,,6.21,29.704725,,,,,,,,,,,FEW,1500,FEW,1700,SCT,14000,BKN,26000,VFR,,,,,,,,,,,,METAR,13.0
WBKL 150900Z 27006KT 220V350 9999 FEW012 FEW014CB OVC290 29/26 Q1006,WBKL,2015-06-15T09:00:00Z,5.28,115.25,29.0,26.0,270,6,,6.21,29.704725,,,,,,,,,,,FEW,1200,FEW,1400,OVC,29000,,,VFR,,,,,,,,,,,,METAR,30.0
WBGY 150900Z 15007KT 9999 FEW023 BKN300 31/24 Q1006,WBGY,2015-06-15T09:00:00Z,1.22,111.43,31.0,24.0,150,7,,6.21,29.704725,,,,,,,,,,,FEW,2300,BKN,30000,,,,,VFR,,,,,,,,,,,,METAR,34.0
WBGS 150900Z 07004KT 9999 FEW018 BKN150 30/25 Q1005,WBGS,2015-06-15T09:00:00Z,2.27,111.98,30.0,25.0,70,4,,6.21,29.675198,,,,,,,,,,,FEW,1800,BKN,15000,,,,,VFR,,,,,,,,,,,,METAR,8.0
WBGR 150900Z 32006KT 270V020 9999 FEW015CB SCT016 BKN150 29/25 Q1006,WBGR,2015-06-15T09:00:00Z,4.32,113.97,29.0,25.0,320,6,,6.21,29.704725,,,,,,,,,,,FEW,1500,SCT,1600,BKN,15000,,,VFR,,,,,,,,,,,,METAR,18.0
WBGB 150900Z 27002KT 9999 FEW016 SCT150 BKN300 30/26 Q1006,WBGB,2015-06-15T09:00:00Z,3.12,113.02,30.0,26.0,270,2,,6.21,29.704725,,,,,,,,,,,FEW,1600,SCT,15000,BKN,30000,,,VFR,,,,,,,,,,,,METAR,5.0
WMSA 150900Z 20007KT 160V240 9999 FEW017CB SCT140 BKN280 31/22 Q1006,WMSA,2015-06-15T09:00:00Z,3.13,101.55,31.0,22.0,200,7,,6.21,29.704725,,,,,,,,,,,FEW,1700,SCT,14000,BKN,28000,,,VFR,,,,,,,,,,,,METAR,27.0
WMKJ 150900Z 16004KT 080V240 9999 FEW017CB SCT130 BKN270 28/26 Q1006,WMKJ,2015-06-15T09:00:00Z,1.62,103.67,28.0,26.0,160,4,,6.21,29.704725,,,,,,,,,,,FEW,1700,SCT,13000,BKN,27000,,,VFR,,,,,,,,,,,,METAR,40.0
SADF 150900Z 27004KT CAVOK 01/M02 Q1016,SADF,2015-06-15T09:00:00Z,-34.45,-58.58,1.0,-2.0,270,4,,6.21,30.0,,,,,,,,,,,CAVOK,,,,,,,,VFR,,,,,,,,,,,,METAR,4.0
FNUG 150900Z 00000KT 9999 FEW015 22/14 Q1018,FNUG,2015-06-15T09:00:00Z,-7.6,15.28,22.0,14.0,0,0,,6.21,30.059055,,,,,,,,,,,FEW,1500,,,,,,,VFR,,,,,,,,,,,,METAR,829.0
VEIM 150900Z 25005KT FEW020 SCT100 31/22 Q1005 NOSIG,VEIM,2015-06-15T09:00:00Z,24.77,93.9,31.0,22.0,250,5,,,29.675198,,,,,,TRUE,,,,,FEW,2000,SCT,10000,,,,,,,,,,,,,,,,,METAR,781.0
CYZR 150900Z AUTO 27004KT 9SM OVC070 21/20 A2992 RMK SLP129 DENSITY ALT 1400FT,CYZR,2015-06-15T09:00:00Z,43.0,-82.3,21.0,20.0,270,4,,9.0,29.920275,1012.9,,TRUE,,,,,,,,OVC,7000,,,,,,,VFR,,,,,,,,,,,,METAR,181.0
CYZE 150900Z AUTO 00000KT 1/2SM FG VV003 14/14 A2991 RMK SLP129,CYZE,2015-06-15T09:00:00Z,45.87,-82.57,14.0,14.0,0,0,,0.5,29.911417,1012.9,,TRUE,,,,,,,FG,OVX,0,,,,,,,LIFR,,,,,,,,,,,300,METAR,193.0
CYYY 150900Z 20005KT 170V240 30SM SKC 11/04 A3009 RMK SLP192,CYYY,2015-06-15T09:00:00Z,48.6,-68.22,11.0,4.0,200,5,,30.0,30.088583,1019.2,,,,,,,,,,SKC,,,,,,,,VFR,,,,,,,,,,,,METAR,52.0
CYWA 150900Z AUTO 08002KT 9SM OVC030 16/14 A2992 RMK SLP133,CYWA,2015-06-15T09:00:00Z,45.95,-77.32,16.0,14.0,80,2,,9.0,29.920275,1013.3,,TRUE,,,,,,,,OVC,3000,,,,,,,MVFR,,,,,,,,,,,,METAR,130.0
CYVP 150900Z 04003KT 15SM -RA BKN078 07/02 A2987 RMK AC7 -RA INTMT SLP116,CYVP,2015-06-15T09:00:00Z,58.12,-68.42,7.0,2.0,40,3,,15.0,29.870079,1011.6,,,,,,,,,-RA,BKN,7800,,,,,,,VFR,,,,,,,,,,,,METAR,60.0
CYTS 150900Z 23004KT 180V250 15SM FEW006 OVC027 16/15 A2983 RMK SF1SC7 SLP102 DENSITY ALT 1300FT,CYTS,2015-06-15T09:00:00Z,48.57,-81.37,16.0,15.0,230,4,,15.0,29.828741,1010.2,,,,,,,,,,FEW,600,OVC,2700,,,,,MVFR,,,,,,,,,,,,METAR,295.0
CYTL 150900Z AUTO 30007G16KT 9SM SCT027 SCT032 OVC055 11/07 A2972 RMK SLP069,CYTL,2015-06-15T09:00:00Z,53.82,-89.88,11.0,7.0,300,7,16,9.0,29.719488,1006.9,,TRUE,,,,,,,,SCT,2700,SCT,3200,OVC,5500,,,VFR,,,,,,,,,,,,METAR,224.0
CYRL 150900Z 29008KT 15SM FEW020 FEW200 11/09 A2990 RMK SC1CI1 SLP131,CYRL,2015-06-15T09:00:00Z,51.07,-93.78,11.0,9.0,290,8,,15.0,29.899607,1013.1,,,,,,,,,,FEW,2000,FEW,20000,,,,,VFR,,,,,,,,,,,,METAR,383.0
CYRJ 150900Z VRB02KT 40SM SCT120 BKN220 11/08 A3001 RMK AC4CI1 SLP165,CYRJ,2015-06-15T09:00:00Z,48.52,-72.27,11.0,8.0,0,2,,40.0,30.008858,1016.5,,,,,,,,,,SCT,12000,BKN,22000,,,,,VFR,,,,,,,,,,,,METAR,179.0
CYQT 150900Z 24005KT 15SM OVC055 14/13 A2989 RMK SC8 SLP124 DENSITY ALT 700FT,CYQT,2015-06-15T09:00:00Z,48.37,-89.32,14.0,13.0,240,5,,15.0,29.890747,1012.4,,,,,,,,,,OVC,5500,,,,,,,VFR,,,,,,,,,,,,METAR,199.0
CYNA 150900Z AUTO 05002KT 9SM CLR 03/02 A3012 RMK SLP201,CYNA,2015-06-15T09:00:00Z,50.17,-61.82,3.0,2.0,50,2,,9.0,30.121063,1020.1,,TRUE,,,,,,,,CLR,,,,,,,,VFR,,,,,,,,,,,,METAR,11.0
CYMO 150900Z AUTO 20009KT 9SM OVC095 18/15 A2971 RMK SLP059 DENSITY ALT 600FT,CYMO,2015-06-15T09:00:00Z,51.28,-80.62,18.0,15.0,200,9,,9.0,29.71063,1005.9,,TRUE,,,,,,,,OVC,9500,,,,,,,VFR,,,,,,,,,,,,METAR,10.0
CYHU 150900Z AUTO 03003KT 330V040 9SM OVC100 16/13 A2995 RMK SLP143 DENSITY ALT 100FT,CYHU,2015-06-15T09:00:00Z,45.52,-73.42,16.0,13.0,30,3,,9.0,29.949802,1014.3,,TRUE,,,,,,,,OVC,10000,,,,,,,VFR,,,,,,,,,,,,METAR,27.0
CYHD 150900Z AUTO 26005KT 9SM FEW070 BKN089 12/10 A2990 RMK SLP130,CYHD,2015-06-15T09:00:00Z,49.82,-92.75,12.0,10.0,260,5,,9.0,29.899607,1013.0,,TRUE,,,,,,,,FEW,7000,BKN,8900,,,,,VFR,,,,,,,,,,,,METAR,413.0
CYGR 150900Z 02005KT 20SM FEW040 FEW240 07/04 A3015 RMK SC1CI1 SC TR CI TR SLP210,CYGR,2015-06-15T09:00:00Z,47.42,-61.77,7.0,4.0,20,5,,20.0,30.15059,1021.0,,,,,,,,,,FEW,4000,FEW,24000,,,,,VFR,,,,,,,,,,,,METAR,10.0
CYFT 150900Z 21006KT 15SM SKC 00/M01 A2999 RMK SLP161,CYFT,2015-06-15T09:00:00Z,55.07,-59.17,0.0,-1.0,210,6,,15.0,29.991142,1016.1,,,,,,,,,,SKC,,,,,,,,VFR,,,,,,,,,,,,METAR,71.0
CYYG 150900Z 34005KT 15SM FEW015 SCT280 08/06 A3017 RMK CF1CI3 CF TR SLP218,CYYG,2015-06-15T09:00:00Z,46.27,-63.12,8.0,6.0,340,5,,15.0,30.171259,1021.8,,,,,,,,,,FEW,1500,SCT,28000,,,,,VFR,,,,,,,,,,,,METAR,54.0
CYSJ 150900Z 17005KT 15SM FEW260 08/05 A3019 RMK CI1 SLP224,CYSJ,2015-06-15T09:00:00Z,45.32,-65.87,8.0,5.0,170,5,,15.0,30.188976,1022.4,,,,,,,,,,FEW,26000,,,,,,,VFR,,,,,,,,,,,,METAR,109.0
CYGW 150900Z AUTO 14005KT 9SM BKN085 OVC110 15/03 A2964 RMK SLP036 DENSITY ALT 400FT,CYGW,2015-06-15T09:00:00Z,55.27,-77.77,15.0,3.0,140,5,,9.0,29.639763,1003.6,,TRUE,,,,,,,,BKN,8500,OVC,11000,,,,,VFR,,,,,,,,,,,,METAR,12.0
CYDP 150900Z 34002KT 15SM FEW250 01/M01 A2995 RMK CI1 SLP143,CYDP,2015-06-15T09:00:00Z,56.53,-61.67,1.0,-1.0,340,2,,15.0,29.949802,1014.3,,,,,,,,,,FEW,25000,,,,,,,VFR,,,,,,,,,,,,METAR,7.0
CYDF 150900Z 06002KT 15SM OVC028 06/04 A3007 RMK SC8 SLP184,CYDF,2015-06-15T09:00:00Z,49.22,-57.4,6.0,4.0,60,2,,15.0,30.070866,1018.4,,,,,,,,,,OVC,2800,,,,,,,MVFR,,,,,,,,,,,,METAR,22.0
CYCX 150900Z 00000KT 15SM FEW090 FEW250 07/05 A3017 RMK AC2CI0 DA-978FT SLP216,CYCX,2015-06-15T09:00:00Z,45.82,-66.42,7.0,5.0,0,0,,15.0,30.171259,1021.6,,,,,,,,,,FEW,9000,FEW,25000,,,,,VFR,,,,,,,,,,,,METAR,51.0
CYAY 150900Z AUTO 25005KT 220V290 9SM CLR 04/03 A3000 RMK SLP162,CYAY,2015-06-15T09:00:00Z,51.38,-56.07,4.0,3.0,250,5,,9.0,30.0,1016.2,,TRUE,,,,,,,,CLR,,,,,,,,VFR,,,,,,,,,,,,METAR,28.0
CYWK 150900Z 16004KT 130V200 15SM BKN280 02/02 A3003 RMK CI6 SLP186,CYWK,2015-06-15T09:00:00Z,52.92,-66.87,2.0,2.0,160,4,,15.0,30.029528,1018.6,,,,,,,,,,BKN,28000,,,,,,,VFR,,,,,,,,,,,,METAR,551.0
CYUY 150900Z 19005KT 2SM -DZ OVC003 15/15 A2987 RMK SF8 SLP117 DENSITY ALT 1200FT,CYUY,2015-06-15T09:00:00Z,48.2,-78.82,15.0,15.0,190,5,,2.0,29.870079,1011.7,,,,,,,,,-DZ,OVC,300,,,,,,,LIFR,,,,,,,,,,,,METAR,301.0
CYQI 150900Z 19004KT 15SM BKN250 08/07 A3019 RMK CI5 CONTRAILS SLP223,CYQI,2015-06-15T09:00:00Z,43.83,-66.08,8.0,7.0,190,4,,15.0,30.188976,1022.3,,,,,,,,,,BKN,25000,,,,,,,VFR,,,,,,,,,,,,METAR,43.0
CYOY 150900Z AUTO 06004KT 9SM CLR 09/06 A3002 RMK SLP170,CYOY,2015-06-15T09:00:00Z,46.88,-71.5,9.0,6.0,60,4,,9.0,30.02067,1017.0,,TRUE,,,,,,,,CLR,,,,,,,,VFR,,,,,,,,,,,,METAR,168.0
CYNM 150900Z AUTO 18011G18KT 9SM OVC011 15/13 A2984 RMK SLP107 DENSITY ALT 1200FT,CYNM,2015-06-15T09:00:00Z,49.77,-77.82,15.0,13.0,180,11,18,9.0,29.840551,1010.7,,TRUE,,,,,,,,OVC,1100,,,,,,,MVFR,,,,,,,,,,,,METAR,281.0
CYMH 150900Z AUTO 31012G17KT 9SM FEW021 04/02 A2997 RMK SLP150,CYMH,2015-06-15T09:00:00Z,52.28,-55.85,4.0,2.0,310,12,17,9.0,29.970472,1015.0,,TRUE,,,,,,,,FEW,2100,,,,,,,VFR,,,,,,,,,,,,METAR,11.0
CYGV 150900Z AUTO 02005KT 9SM CLR 04/03 A3012 RMK SLP202,CYGV,2015-06-15T09:00:00Z,50.27,-63.62,4.0,3.0,20,5,,9.0,30.121063,1020.2,,TRUE,,,,,,,,CLR,,,,,,,,VFR,,,,,,,,,,,,METAR,33.0
CYBX 150900Z 29007KT 15SM FEW120 04/01 A3002 RMK AC1 SLP167,CYBX,2015-06-15T09:00:00Z,51.45,-57.17,4.0,1.0,290,7,,15.0,30.02067,1016.7,,,,,,,,,,FEW,12000,,,,,,,VFR,,,,,,,,,,,,METAR,35.0
CYAH 150900Z AUTO 19005KT 160V260 9SM BKN190 BKN210 14/03 A2982 RMK SLP102 DENSITY ALT 1200FT,CYAH,2015-06-15T09:00:00Z,53.75,-73.67,14.0,3.0,190,5,,9.0,29.819881,1010.2,,TRUE,,,,,,,,BKN,19000,BKN,21000,,,,,VFR,,,,,,,,,,,,METAR,306.0
CYZY 150900Z AUTO VRB04KT 9SM CLR 11/04 A3026 RMK SLP259,CYZY,2015-06-15T09:00:00Z,55.28,-123.12,11.0,4.0,0,4,,9.0,30.259842,1025.9,,TRUE,,,,,,,,CLR,,,,,,,,VFR,,,,,,,,,,,,METAR,690.0
CYYF 150900Z 35006KT 15SM SCT130 14/05 A3005 RMK AC3 SLP173,CYYF,2015-06-15T09:00:00Z,49.47,-119.58,14.0,5.0,350,6,,15.0,30.050198,1017.3,,,,,,,,,,SCT,13000,,,,,,,VFR,,,,,,,,,,,,METAR,344.0
CYYE 150900Z 26002KT 15SM FEW080 07/06 A3027 RMK AC2 SLP264,CYYE,2015-06-15T09:00:00Z,58.82,-122.57,7.0,6.0,260,2,,15.0,30.268702,1026.4,,,,,,,,,,FEW,8000,,,,,,,VFR,,,,,,,,,,,,METAR,382.0
CYYD 150900Z AUTO 16006KT 9SM BKN090 13/06 A3018 RMK SLP225,CYYD,2015-06-15T09:00:00Z,54.82,-127.18,13.0,6.0,160,6,,9.0,30.180119,1022.5,,TRUE,,,,,,,,BKN,9000,,,,,,,VFR,,,,,,,,,,,,METAR,523.0
CYXY 150900Z VRB02KT 30SM FEW160 SCT230 13/01 A3030 RMK AC2CI2 SLP272,CYXY,2015-06-15T09:00:00Z,60.72,-135.07,13.0,1.0,0,2,,30.0,30.301182,1027.2,,,,,,,,,,FEW,16000,SCT,23000,,,,,VFR,,,,,,,,,,,,METAR,703.0
CYXT 150900Z VRB03KT 20SM SCT085 BKN110 14/11 A3013 RMK AC3AC4 SLP205,CYXT,2015-06-15T09:00:00Z,54.47,-128.57,14.0,11.0,0,3,,20.0,30.129921,1020.5,,,,,,,,,,SCT,8500,BKN,11000,,,,,VFR,,,,,,,,,,,,METAR,217.0
CYXJ 150900Z 36003KT 15SM SCT045 BKN160 BKN230 06/05 A3032 RMK SC3AC2CI1 SLP284,CYXJ,2015-06-15T09:00:00Z,56.25,-120.73,6.0,5.0,360,3,,15.0,30.318897,1028.4,,,,,,,,,,SCT,4500,BKN,16000,BKN,23000,,,VFR,,,,,,,,,,,,METAR,695.0
CYWL 150900Z 35004KT 15SM FEW100 08/05 A3012 RMK AC1 AC TR SLP205,CYWL,2015-06-15T09:00:00Z,52.18,-122.07,8.0,5.0,350,4,,15.0,30.121063,1020.5,,,,,,,,,,FEW,10000,,,,,,,VFR,,,,,,,,,,,,METAR,940.0
CYQU 150900Z 34003KT 25SM FEW060 FEW100 SCT200 09/07 A3028 RMK SC1AC1CI2 SLP268,CYQU,2015-06-15T09:00:00Z,55.18,-118.88,9.0,7.0,340,3,,25.0,30.280512,1026.8,,,,,,,,,,FEW,6000,FEW,10000,SCT,20000,,,VFR,,,,,,,,,,,,METAR,669.0
CYQH 150900Z 00000KT 30SM BKN035 11/08 A3025 RMK SC6 SLP257,CYQH,2015-06-15T09:00:00Z,60.12,-128.82,11.0,8.0,0,0,,30.0,30.250984,1025.7,,,,,,,,,,BKN,3500,,,,,,,VFR,,,,,,,,,,,,METAR,690.0
CYMA 150900Z 34005KT 280V350 20SM FEW050 FEW090 FEW240 12/03 A3035 RMK SC1AC1CI1 SC TR SLP289,CYMA,2015-06-15T09:00:00Z,63.62,-135.87,12.0,3.0,340,5,,20.0,30.351377,1028.9,,,,,,,,,,FEW,5000,FEW,9000,FEW,24000,,,VFR,,,,,,,,,,,,METAR,504.0
CYLW 150900Z AUTO 06002KT 9SM CLR 09/05 A3007 RMK SLP183,CYLW,2015-06-15T09:00:00Z,49.95,-119.37,9.0,5.0,60,2,,9.0,30.070866,1018.3,,TRUE,,,,,,,,CLR,,,,,,,,VFR,,,,,,,,,,,,METAR,430.0
CYKA 150900Z 24004KT 40SM SKC 13/06 A3008 RMK SLP188,CYKA,2015-06-15T09:00:00Z,50.7,-120.45,13.0,6.0,240,4,,40.0,30.079725,1018.8,,,,,,,,,,SKC,,,,,,,,VFR,,,,,,,,,,,,METAR,346.0
CYIN 150900Z AUTO 20002KT 9SM CLR 02/00 A3013 RMK SLP208,CYIN,2015-06-15T09:00:00Z,51.27,-121.68,2.0,0.0,200,2,,9.0,30.129921,1020.8,,TRUE,,,,,,,,CLR,,,,,,,,VFR,,,,,,,,,,,,METAR,1128.0
CYDL 150900Z AUTO 05002KT 9SM OVC110 08/07 A3022 RMK SLP232,CYDL,2015-06-15T09:00:00Z,58.42,-130.02,8.0,7.0,50,2,,9.0,30.221457,1023.2,,TRUE,,,,,,,,OVC,11000,,,,,,,VFR,,,,,,,,,,,,METAR,816.0
CBBC 150900Z AUTO 00000KT 9SM SCT110 09/08 A3005 RMK SLP176,CBBC,2015-06-15T09:00:00Z,52.18,-128.15,9.0,8.0,0,0,,9.0,30.050198,1017.6,,TRUE,,,,,,,,SCT,11000,,,,,,,VFR,,,,,,,,,,,,METAR,43.0
CYXH 150900Z AUTO 24002KT 9SM OVC039 06/05 A3028 RMK SLP266,CYXH,2015-06-15T09:00:00Z,50.02,-110.72,6.0,5.0,240,2,,9.0,30.280512,1026.6,,TRUE,,,,,,,,OVC,3900,,,,,,,VFR,,,,,,,,,,,,METAR,716.0
CYUX 150900Z AUTO 33007KT 9SM OVC023 01/00 A2992 RMK SLP132,CYUX,2015-06-15T09:00:00Z,68.77,-81.25,1.0,0.0,330,7,,9.0,29.920275,1013.2,,TRUE,,,,,,,,OVC,2300,,,,,,,MVFR,,,,,,,,,,,,METAR,8.0
CYUS 150900Z AUTO 30008KT 9SM BKN012 OVC030 M00/ A2994 RMK SLP144,CYUS,2015-06-15T09:00:00Z,68.82,-93.42,0.0,,300,8,,9.0,29.940945,1014.4,,TRUE,,,,,,,,BKN,1200,OVC,3000,,,,,MVFR,,,,,,,,,,,,METAR,42.0
CYTH 150900Z 29005KT 15SM FEW050 03/02 A2995 RMK SC1 SLP153,CYTH,2015-06-15T09:00:00Z,55.78,-97.87,3.0,2.0,290,5,,15.0,29.949802,1015.3,,,,,,,,,,FEW,5000,,,,,,,VFR,,,,,,,,,,,,METAR,218.0
CYSM 150900Z 33004KT 15SM FEW050 SCT100 BKN210 07/04 A3023 RMK SC2AC2CI2 SLP244,CYSM,2015-06-15T09:00:00Z,60.03,-111.97,7.0,4.0,330,4,,15.0,30.230314,1024.4,,,,,,,,,,FEW,5000,SCT,10000,BKN,21000,,,VFR,,,,,,,,,,,,METAR,203.0
CYQV 150900Z AUTO 32007KT 9SM FEW042 07/05 A3015 RMK SLP221,CYQV,2015-06-15T09:00:00Z,51.27,-102.47,7.0,5.0,320,7,,9.0,30.15059,1022.1,,TRUE,,,,,,,,FEW,4200,,,,,,,VFR,,,,,,,,,,,,METAR,498.0
CYPE 150900Z 01005KT 15SM SCT060 SCT100 09/07 A3028 RMK SC3AC1 SLP265,CYPE,2015-06-15T09:00:00Z,56.22,-117.45,9.0,7.0,10,5,,15.0,30.280512,1026.5,,,,,,,,,,SCT,6000,SCT,10000,,,,,VFR,,,,,,,,,,,,METAR,571.0
CYOD 150900Z 00000KT 15SM BKN081 08/06 A3023 RMK AC6 SLP255,CYOD,2015-06-15T09:00:00Z,54.4,-110.28,8.0,6.0,0,0,,15.0,30.230314,1025.5,,,,,,,,,,BKN,8100,,,,,,,VFR,,,,,,,,,,,,METAR,544.0
CYLT 150900Z 32017KT 3SM BR DRSN FEW005 OVC020 M00/M01 A3000 RMK ST2SC6 WND ESTD SLP161,CYLT,2015-06-15T09:00:00Z,82.52,-62.27,0.0,-1.0,320,17,,3.0,30.0,1016.1,,,,,,,,,BR DRSN,FEW,500,OVC,2000,,,,,MVFR,,,,,,,,,,,,METAR,31.0
CYIO 150900Z AUTO 22003KT 9SM CLR 04/M00 A2990 RMK SLP130,CYIO,2015-06-15T09:00:00Z,72.67,-77.97,4.0,0.0,220,3,,9.0,29.899607,1013.0,,TRUE,,,,,,,,CLR,,,,,,,,VFR,,,,,,,,,,,,METAR,57.0
CYEK 150900Z AUTO 35014KT 9SM OVC200 01/01 A2980 RMK SLP091,CYEK,2015-06-15T09:00:00Z,61.1,-94.07,1.0,1.0,350,14,,9.0,29.799213,1009.1,,TRUE,,,,,,,,OVC,20000,,,,,,,VFR,,,,,,,,,,,,METAR,10.0
CYED 150900Z AUTO 25006KT 9SM CLR 07/04 A3025 RMK SLP262,CYED,2015-06-15T09:00:00Z,53.67,-113.47,7.0,4.0,250,6,,9.0,30.250984,1026.2,,TRUE,,,,,,,,CLR,,,,,,,,VFR,,,,,,,,,,,,METAR,688.0
CYBW 150900Z AUTO VRB02KT 9SM OVC060 05/03 A3030 RMK ICG MISG SLP284,CYBW,2015-06-15T09:00:00Z,51.1,-114.37,5.0,3.0,0,2,,9.0,30.301182,1028.4,,TRUE,,,,,,,,OVC,6000,,,,,,,VFR,,,,,,,,,,,,METAR,1200.0
CWVD 150900Z AUTO 32017KT M03/ A2979 RMK SLP133,CWVD,2015-06-15T09:00:00Z,67.52,-63.77,-3.0,,320,17,,,29.790354,1013.3,,TRUE,,,,,,,,,,,,,,,,,,,,,,,,,,,,METAR,573.0
CWRF 150900Z AUTO ///// M02/ A2987 RMK SLP147,CWRF,2015-06-15T09:00:00Z,69.42,-89.72,-2.0,,,,,,29.870079,1014.7,,TRUE,,,,,,,,,,,,,,,,,,,,,,,,,,,,METAR,325.0
CYZS 150900Z 06016G22KT 15SM BKN012 OVC210 01/M01 A2978 RMK SC7CI1 SLP089,CYZS,2015-06-15T09:00:00Z,64.2,-83.37,1.0,-1.0,60,16,22,15.0,29.778543,1008.9,,,,,,,,,,BKN,1200,OVC,21000,,,,,MVFR,,,,,,,,,,,,METAR,64.0
CYWE 150900Z AUTO 04004KT 9SM FEW036 04/02 A3017 RMK SLP235,CYWE,2015-06-15T09:00:00Z,64.18,-114.08,4.0,2.0,40,4,,9.0,30.171259,1023.5,,TRUE,,,,,,,,FEW,3600,,,,,,,VFR,,,,,,,,,,,,METAR,371.0
CYRT 150900Z 01014KT 15SM SCT040 BKN080 01/M00 A2981 RMK SC3AC4 SLP096,CYRT,2015-06-15T09:00:00Z,62.82,-92.12,1.0,0.0,10,14,,15.0,29.811024,1009.6,,,,,,,,,,SCT,4000,BKN,8000,,,,,VFR,,,,,,,,,,,,METAR,32.0
CYHY 150900Z 24005KT 15SM FEW080 SCT230 06/04 A3026 RMK AC1CI3 SLP254,CYHY,2015-06-15T09:00:00Z,60.82,-115.77,6.0,4.0,240,5,,15.0,30.259842,1025.4,,,,,,,,,,FEW,8000,SCT,23000,,,,,VFR,,,,,,,,,,,,METAR,166.0
CYHK 150900Z AUTO 29003KT 9SM OVC046 01/00 A2997 RMK SLP152,CYHK,2015-06-15T09:00:00Z,68.62,-95.83,1.0,0.0,290,3,,9.0,29.970472,1015.2,,TRUE,,,,,,,,OVC,4600,,,,,,,VFR,,,,,,,,,,,,METAR,46.0
CYCO 150900Z 23007KT 15SM FEW040 SCT070 BKN100 02/M02 A3026 RMK SC2AC2AS2 SLP247,CYCO,2015-06-15T09:00:00Z,67.82,-115.15,2.0,-2.0,230,7,,15.0,30.259842,1024.7,,,,,,,,,,FEW,4000,SCT,7000,BKN,10000,,,VFR,,,,,,,,,,,,METAR,22.0
CYGP 150900Z CCA 26002KT 15SM FEW020 FEW140 03/02 A3015 RMK CU1AC1 CU TR SLP210,CYGP,2015-06-15T09:00:00Z,48.77,-64.47,3.0,2.0,260,2,,15.0,30.15059,1021.0,,,,,,,,,,FEW,2000,FEW,14000,,,,,VFR,,,,,,,,,,,,METAR,33.0
CZUM 150900Z AUTO 00000KT 9SM CLR 02/01 A3003 RMK SLP186,CZUM,2015-06-15T09:00:00Z,53.53,-64.08,2.0,1.0,0,0,,9.0,30.029528,1018.6,,TRUE,,,,,,,,CLR,,,,,,,,VFR,,,,,,,,,,,,METAR,440.0
CYPD 150900Z AUTO 35005KT 320V020 9SM CLR 06/04 A3013 RMK SLP205,CYPD,2015-06-15T09:00:00Z,45.67,-61.37,6.0,4.0,350,5,,9.0,30.129921,1020.5,,TRUE,,,,,,,,CLR,,,,,,,,VFR,,,,,,,,,,,,METAR,114.0
CWYM 150900Z AUTO ///// M03/ A2977 RMK SLP124,CWYM,2015-06-15T09:00:00Z,64.95,-63.57,-3.0,,,,,,29.769686,1012.4,,TRUE,,,,,,,,,,,,,,,,,,,,,,,,,,,,METAR,583.0
CWXR 150900Z AUTO 28005KT 04/ A3023 RMK SLP248,CWXR,2015-06-15T09:00:00Z,69.27,-119.22,4.0,,280,5,,,30.230314,1024.8,,TRUE,,,,,,,,,,,,,,,,,,,,,,,,,,,,METAR,69.0
CWWU 150900Z 36015KT 9SM SCT012 OVC018 06/04 A2993 RMK SF3SC5 OCNL -DZ SLP134,CWWU,2015-06-15T09:00:00Z,47.52,-52.98,6.0,4.0,360,15,,9.0,29.929134,1013.4,,,,,,,,,,SCT,1200,OVC,1800,,,,,MVFR,,,,,,,,,,,,METAR,13.0
CWTU 150900Z AUTO 00000KT M03/ A2988 RMK SLP154,CWTU,2015-06-15T09:00:00Z,54.72,-58.35,-3.0,,0,0,,,29.878937,1015.4,,TRUE,,,,,,,,,,,,,,,,,,,,,,,,,,,,METAR,683.0
CWSA 150900Z AUTO 33015G20KT 9SM CLR 09/07 A3009 RMK SLP189,CWSA,2015-06-15T09:00:00Z,43.93,-60.0,9.0,7.0,330,15,20,9.0,30.088583,1018.9,,TRUE,,,,,,,,CLR,,,,,,,,VFR,,,,,,,,,,,,METAR,4.0
CWRH 150900Z AUTO ///// 02/ A2986 RMK SLP139,CWRH,2015-06-15T09:00:00Z,61.57,-64.65,2.0,,,,,,29.861221,1013.9,,TRUE,,,,,,,,,,,,,,,,,,,,,,,,,,,,METAR,369.0
CWKP 150900Z AUTO 29012KT 03/ A3022 RMK SLP262,CWKP,2015-06-15T09:00:00Z,69.67,-121.67,3.0,,290,12,,,30.221457,1026.2,,TRUE,,,,,,,,,,,,,,,,,,,,,,,,,,,,METAR,330.0
CWEU 150900Z CCA 35023G30KT 10SM -RA FEW010 FEW018 BKN030 BKN080 04/M01 A2989 RMK CF1CU2SC4AC1 PRESFR SLP123,CWEU,2015-06-15T09:00:00Z,80.0,-85.92,4.0,-1.0,350,23,30,10.0,29.890747,1012.3,,,,,,,,,-RA,FEW,1000,FEW,1800,BKN,3000,BKN,8000,MVFR,,,,,,,,,,,,METAR,10.0
CZVL 150900Z AUTO VRB02KT 9SM CLR 07/04 A3026 RMK SLP261,CZVL,2015-06-15T09:00:00Z,53.67,-113.85,7.0,4.0,0,2,,9.0,30.259842,1026.1,,TRUE,,,,,,,,CLR,,,,,,,,VFR,,,,,,,,,,,,METAR,686.0
CYZH 150900Z AUTO 25006KT 9SM BKN095 08/05 A3024 RMK SLP253,CYZH,2015-06-15T09:00:00Z,55.28,-114.77,8.0,5.0,250,6,,9.0,30.239174,1025.3,,TRUE,,,,,,,,BKN,9500,,,,,,,VFR,,,,,,,,,,,,METAR,581.0
CYYN 150900Z AUTO 27005KT 9SM OVC037 08/06 A3023 RMK SLP249,CYYN,2015-06-15T09:00:00Z,50.27,-107.67,8.0,6.0,270,5,,9.0,30.230314,1024.9,,TRUE,,,,,,,,OVC,3700,,,,,,,VFR,,,,,,,,,,,,METAR,818.0
CYYL 150900Z AUTO 28007KT 9SM CLR 05/03 A2999 RMK SLP172,CYYL,2015-06-15T09:00:00Z,56.87,-101.07,5.0,3.0,280,7,,9.0,29.991142,1017.2,,TRUE,,,,,,,,CLR,,,,,,,,VFR,,,,,,,,,,,,METAR,357.0
CYVC 150900Z 27005KT 15SM SCT020 07/03 A3012 RMK SC3 SLP213,CYVC,2015-06-15T09:00:00Z,55.15,-105.27,7.0,3.0,270,5,,15.0,30.121063,1021.3,,,,,,,,,,SCT,2000,,,,,,,VFR,,,,,,,,,,,,METAR,379.0
CYQW 150900Z AUTO 28004KT 9SM OVC065 08/06 A3026 RMK SLP263,CYQW,2015-06-15T09:00:00Z,52.77,-108.25,8.0,6.0,280,4,,9.0,30.259842,1026.3,,TRUE,,,,,,,,OVC,6500,,,,,,,VFR,,,,,,,,,,,,METAR,548.0
CYQR 150900Z 33007KT 15SM BKN016 BKN042 09/07 A3020 RMK SC5SC2 SLP242,CYQR,2015-06-15T09:00:00Z,50.43,-104.67,9.0,7.0,330,7,,15.0,30.200787,1024.2,,,,,,,,,,BKN,1600,BKN,4200,,,,,MVFR,,,,,,,,,,,,METAR,577.0
CYQL 150900Z AUTO 20006KT 9SM BKN085 03/02 A3030 RMK SLP275,CYQL,2015-06-15T09:00:00Z,49.63,-112.8,3.0,2.0,200,6,,9.0,30.301182,1027.5,,TRUE,,,,,,,,BKN,8500,,,,,,,VFR,,,,,,,,,,,,METAR,929.0
CYPY 150900Z AUTO 35012KT 9SM FEW020 BKN028 OVC033 11/05 A3021 RMK SLP236,CYPY,2015-06-15T09:00:00Z,58.77,-111.12,11.0,5.0,350,12,,9.0,30.209646,1023.6,,TRUE,,,,,,,,FEW,2000,BKN,2800,OVC,3300,,,MVFR,,,,,,,,,,,,METAR,232.0
CYPA 150900Z 29004KT 15SM FEW070 04/04 A3019 RMK AC1 AC TR SLP241,CYPA,2015-06-15T09:00:00Z,53.22,-105.67,4.0,4.0,290,4,,15.0,30.188976,1024.1,,,,,,,,,,FEW,7000,,,,,,,VFR,,,,,,,,,,,,METAR,428.0
CYOJ 150900Z AUTO 00000KT 9SM CLR 07/06 A3028 RMK SLP265,CYOJ,2015-06-15T09:00:00Z,58.62,-117.17,7.0,6.0,0,0,,9.0,30.280512,1026.5,,TRUE,,,,,,,,CLR,,,,,,,,VFR,,,,,,,,,,,,METAR,338.0
CYNE 150900Z AUTO 31008KT 280V350 9SM BKN060 OVC076 07/03 A2999 RMK SLP164,CYNE,2015-06-15T09:00:00Z,53.97,-97.82,7.0,3.0,310,8,,9.0,29.991142,1016.4,,TRUE,,,,,,,,BKN,6000,OVC,7600,,,,,VFR,,,,,,,,,,,,METAR,223.0
CYMM 150900Z AUTO 20004KT 9SM BKN110 05/02 A3020 RMK SLP237,CYMM,2015-06-15T09:00:00Z,56.65,-111.22,5.0,2.0,200,4,,9.0,30.200787,1023.7,,TRUE,,,,,,,,BKN,11000,,,,,,,VFR,,,,,,,,,,,,METAR,369.0
CYLL 150900Z AUTO 26007KT 9SM FEW240 03/02 A3025 RMK SLP267,CYLL,2015-06-15T09:00:00Z,53.32,-110.07,3.0,2.0,260,7,,9.0,30.250984,1026.7,,TRUE,,,,,,,,FEW,24000,,,,,,,VFR,,,,,,,,,,,,METAR,669.0
CYKJ 150900Z AUTO 27004KT 9SM SCT140 BKN160 06/03 A3007 RMK SLP202,CYKJ,2015-06-15T09:00:00Z,57.25,-105.62,6.0,3.0,270,4,,9.0,30.070866,1020.2,,TRUE,,,,,,,,SCT,14000,BKN,16000,,,,,VFR,,,,,,,,,,,,METAR,509.0
CYET 150900Z AUTO 24003KT 200V280 9SM OVC075 07/06 A3028 RMK SLP273,CYET,2015-06-15T09:00:00Z,53.57,-116.47,7.0,6.0,240,3,,9.0,30.280512,1027.3,,TRUE,,,,,,,,OVC,7500,,,,,,,VFR,,,,,,,,,,,,METAR,925.0
CYEN 150900Z 29012KT 15SM SKC 07/05 A3017 RMK SLP223,CYEN,2015-06-15T09:00:00Z,49.22,-102.97,7.0,5.0,290,12,,15.0,30.171259,1022.3,,,,,,,,,,SKC,,,,,,,,VFR,,,,,,,,,,,,METAR,581.0
CYDN 150900Z AUTO 34010KT 9SM BKN043 10/06 A3009 RMK SLP194,CYDN,2015-06-15T09:00:00Z,51.1,-100.03,10.0,6.0,340,10,,9.0,30.088583,1019.4,,TRUE,,,,,,,,BKN,4300,,,,,,,VFR,,,,,,,,,,,,METAR,305.0
CYBU 150900Z AUTO 24006KT 9SM CLR 06/05 A3016 RMK SLP228,CYBU,2015-06-15T09:00:00Z,53.32,-104.0,6.0,5.0,240,6,,9.0,30.159449,1022.8,,TRUE,,,,,,,,CLR,,,,,,,,VFR,,,,,,,,,,,,METAR,374.0
CYBR 150900Z 30009KT 15SM BKN073 10/08 A3008 RMK AC7 SLP192,CYBR,2015-06-15T09:00:00Z,49.92,-99.95,10.0,8.0,300,9,,15.0,30.079725,1019.2,,,,,,,,,,BKN,7300,,,,,,,VFR,,,,,,,,,,,,METAR,409.0
CYBQ 150900Z AUTO 29006KT 9SM CLR 04/02 A2989 RMK SLP136,CYBQ,2015-06-15T09:00:00Z,58.7,-98.5,4.0,2.0,290,6,,9.0,29.890747,1013.6,,TRUE,,,,,,,,CLR,,,,,,,,VFR,,,,,,,,,,,,METAR,262.0
CYBK 150900Z 34013G18KT 6SM -RASN OVC020 01/00 A2994 RMK SC8 SLP140,CYBK,2015-06-15T09:00:00Z,64.28,-96.07,1.0,0.0,340,13,18,6.0,29.940945,1014.0,,,,,,,,,-RA -SN,OVC,2000,,,,,,,MVFR,,,,,,,,,,,,METAR,18.0
CWHN 150900Z AUTO 29006KT 260V330 9SM OVC073 10/06 A3020 RMK SLP242,CWHN,2015-06-15T09:00:00Z,54.88,-109.97,10.0,6.0,290,6,,9.0,30.200787,1024.2,,TRUE,,,,,,,,OVC,7300,,,,,,,VFR,,,,,,,,,,,,METAR,636.0
CYZT 150900Z 21003KT 15SM SKC 07/06 A3007 RMK SLP182,CYZT,2015-06-15T09:00:00Z,50.67,-127.37,7.0,6.0,210,3,,15.0,30.070866,1018.2,,,,,,,,,,SKC,,,,,,,,VFR,,,,,,,,,,,,METAR,22.0
CYZP 150900Z AUTO /////KT 9SM FEW100 12/09 A3005 RMK SLP174,CYZP,2015-06-15T09:00:00Z,53.25,-131.82,12.0,9.0,,,,9.0,30.050198,1017.4,,TRUE,,,,,,,,FEW,10000,,,,,,,VFR,,,,,,,,,,,,METAR,6.0
CYXS 150900Z AUTO 35009KT 9SM CLR 09/04 A3015 RMK SLP221,CYXS,2015-06-15T09:00:00Z,53.9,-122.68,9.0,4.0,350,9,,9.0,30.15059,1022.1,,TRUE,,,,,,,,CLR,,,,,,,,VFR,,,,,,,,,,,,METAR,691.0
CYXE 150900Z 31005KT 15SM BCFG FEW060 04/04 A3024 RMK SC1 SLP260,CYXE,2015-06-15T09:00:00Z,52.17,-106.7,4.0,4.0,310,5,,15.0,30.239174,1026.0,,,,,,,,,BCFG,FEW,6000,,,,,,,VFR,,,,,,,,,,,,METAR,504.0
CYXC 150900Z 25004KT 25SM FEW065 SCT120 10/03 A3021 RMK SC1AC2 SLP227,CYXC,2015-06-15T09:00:00Z,49.6,-115.77,10.0,3.0,250,4,,25.0,30.209646,1022.7,,,,,,,,,,FEW,6500,SCT,12000,,,,,VFR,,,,,,,,,,,,METAR,939.0
CYRV 150900Z AUTO 00000KT 9SM CLR 11/06 A3012 RMK SLP198,CYRV,2015-06-15T09:00:00Z,50.97,-118.17,11.0,6.0,0,0,,9.0,30.121063,1019.8,,TRUE,,,,,,,,CLR,,,,,,,,VFR,,,,,,,,,,,,METAR,443.0
CYQD 150900Z 27008KT 15SM SCT025 BKN070 07/03 A3008 RMK SC4AC2 SLP193,CYQD,2015-06-15T09:00:00Z,53.97,-101.08,7.0,3.0,270,8,,15.0,30.079725,1019.3,,,,,,,,,,SCT,2500,BKN,7000,,,,,VFR,,,,,,,,,,,,METAR,271.0
CYKY 150900Z 31004KT 15SM BKN025 08/06 A3026 RMK SC7 SLP262,CYKY,2015-06-15T09:00:00Z,51.52,-109.17,8.0,6.0,310,4,,15.0,30.259842,1026.2,,,,,,,,,,BKN,2500,,,,,,,MVFR,,,,,,,,,,,,METAR,694.0
CYIV 150900Z 30009G15KT 15SM BKN020 07/03 A2988 RMK SC7 SLP126,CYIV,2015-06-15T09:00:00Z,53.85,-94.65,7.0,3.0,300,9,15,15.0,29.878937,1012.6,,,,,,,,,,BKN,2000,,,,,,,MVFR,,,,,,,,,,,,METAR,237.0
CYHE 150900Z AUTO 09007KT 9SM CLR 17/08 A2999 RMK SLP154 DENSITY ALT 300FT,CYHE,2015-06-15T09:00:00Z,49.37,-121.5,17.0,8.0,90,7,,9.0,29.991142,1015.4,,TRUE,,,,,,,,CLR,,,,,,,,VFR,,,,,,,,,,,,METAR,39.0
CYDQ 150900Z AUTO 29004KT 9SM OVC100 08/07 A3031 RMK SLP278,CYDQ,2015-06-15T09:00:00Z,55.75,-120.17,8.0,7.0,290,4,,9.0,30.31004,1027.8,,TRUE,,,,,,,,OVC,10000,,,,,,,VFR,,,,,,,,,,,,METAR,655.0
CYDB 150900Z AUTO 27004KT 9SM OVC095 12/04 A3036 RMK SLP297,CYDB,2015-06-15T09:00:00Z,61.37,-139.05,12.0,4.0,270,4,,9.0,30.360237,1029.7,,TRUE,,,,,,,,OVC,9500,,,,,,,VFR,,,,,,,,,,,,METAR,801.0
CZMD 150900Z AUTO 27010G16KT 240V300 9SM BKN040 OVC095 09/04 A2979 RMK SLP093,CZMD,2015-06-15T09:00:00Z,53.43,-91.77,9.0,4.0,270,10,16,9.0,29.790354,1009.3,,TRUE,,,,,,,,BKN,4000,OVC,9500,,,,,VFR,,,,,,,,,,,,METAR,278.0
CYYU 150900Z 27006KT 15SM OVC011 17/16 A2980 RMK SC8 SLP091 DENSITY ALT 1200FT,CYYU,2015-06-15T09:00:00Z,49.42,-82.47,17.0,16.0,270,6,,15.0,29.799213,1009.1,,,,,,,,,,OVC,1100,,,,,,,MVFR,,,,,,,,,,,,METAR,227.0
CYYH 150900Z 07004KT 3SM -SN BR OVC016 01/M00 A2996 RMK FG2SC6 VIS S-SW 8 SLP148,CYYH,2015-06-15T09:00:00Z,69.53,-93.57,1.0,0.0,70,4,,3.0,29.958662,1014.8,,,,,,,,,-SN BR,OVC,1600,,,,,,,MVFR,,,,,,,,,,,,METAR,28.0
CYXL 150900Z VRB02KT 15SM FEW075 10/09 A2988 RMK AC2 SLP125,CYXL,2015-06-15T09:00:00Z,50.12,-91.9,10.0,9.0,0,2,,15.0,29.878937,1012.5,,,,,,,,,,FEW,7500,,,,,,,VFR,,,,,,,,,,,,METAR,390.0
CYVQ 150900Z 29005KT 20SM -RA FEW030 BKN050 OVC090 11/10 A3032 RMK SC2SC4AC2 SLP271,CYVQ,2015-06-15T09:00:00Z,65.27,-126.78,11.0,10.0,290,5,,20.0,30.318897,1027.1,,,,,,,,,-RA,FEW,3000,BKN,5000,OVC,9000,,,VFR,,,,,,,,,,,,METAR,74.0
CYRQ 150900Z AUTO 05009KT 9SM BKN070 OVC140 13/10 A2997 RMK SLP150,CYRQ,2015-06-15T09:00:00Z,46.35,-72.68,13.0,10.0,50,9,,9.0,29.970472,1015.0,,TRUE,,,,,,,,BKN,7000,OVC,14000,,,,,VFR,,,,,,,,,,,,METAR,61.0
CYRB 150900Z 01010KT 15SM OVC052 01/00 A2997 RMK SC8 SLP155,CYRB,2015-06-15T09:00:00Z,74.72,-94.97,1.0,0.0,10,10,,15.0,29.970472,1015.5,,,,,,,,,,OVC,5200,,,,,,,VFR,,,,,,,,,,,,METAR,67.0
CYQK 150900Z 28005KT 15SM SCT070 13/12 A2993 RMK SC4 SLP138 DENSITY ALT 1400FT,CYQK,2015-06-15T09:00:00Z,49.77,-94.37,13.0,12.0,280,5,,15.0,29.929134,1013.8,,,,,,,,,,SCT,7000,,,,,,,VFR,,,,,,,,,,,,METAR,411.0
CYOO 150900Z AUTO 36002KT 3/8SM FG VV003 17/17 A2991 RMK SLP130 DENSITY ALT 800FT,CYOO,2015-06-15T09:00:00Z,43.92,-78.9,17.0,17.0,360,2,,0.38,29.911417,1013.0,,TRUE,,,,,,,FG,OVX,0,,,,,,,LIFR,,,,,,,,,,,300,METAR,139.0
CYKP 150900Z AUTO 22004KT 9SM CLR 15/15 A2971 RMK SLP063 DENSITY ALT 900FT,CYKP,2015-06-15T09:00:00Z,51.67,-85.9,15.0,15.0,220,4,,9.0,29.71063,1006.3,,TRUE,,,,,,,,CLR,,,,,,,,VFR,,,,,,,,,,,,METAR,179.0
CYKL 150900Z AUTO 13005KT 120V200 9SM CLR 06/01 A2997 RMK SLP166,CYKL,2015-06-15T09:00:00Z,54.78,-66.82,6.0,1.0,130,5,,9.0,29.970472,1016.6,,TRUE,,,,,,,,CLR,,,,,,,,VFR,,,,,,,,,,,,METAR,521.0
CYHM 150900Z 09002KT 1/4SM FG VV001 17/17 A2992 RMK FG8 SLP132 DENSITY ALT 1100FT,CYHM,2015-06-15T09:00:00Z,43.17,-79.93,17.0,17.0,90,2,,0.25,29.920275,1013.2,,,,,,,,,FG,OVX,0,,,,,,,LIFR,,,,,,,,,,,100,METAR,238.0
CYGQ 150900Z 24003KT 15SM BKN110 14/14 A2984 RMK AC6 SLP108 DENSITY ALT 1300FT,CYGQ,2015-06-15T09:00:00Z,49.77,-86.92,14.0,14.0,240,3,,15.0,29.840551,1010.8,,,,,,,,,,BKN,11000,,,,,,,VFR,,,,,,,,,,,,METAR,351.0
CYER 150900Z AUTO 26013G19KT 9SM BKN029 07/03 A2959 RMK SLP021,CYER,2015-06-15T09:00:00Z,56.02,-87.68,7.0,3.0,260,13,19,9.0,29.589567,1002.1,,TRUE,,,,,,,,BKN,2900,,,,,,,MVFR,,,,,,,,,,,,METAR,16.0
CYCK 150900Z AUTO 26006KT 8SM OVC075 22/21 A2994 RMK SLP135 DENSITY ALT 1500FT,CYCK,2015-06-15T09:00:00Z,42.3,-82.08,22.0,21.0,260,6,,8.0,29.940945,1013.5,,TRUE,,,,,,,,OVC,7500,,,,,,,VFR,,,,,,,,,,,,METAR,198.0
CYBC 150900Z AUTO VRB02KT 9SM CLR 03/02 A3010 RMK SLP193,CYBC,2015-06-15T09:00:00Z,49.12,-68.2,3.0,2.0,0,2,,9.0,30.100393,1019.3,,TRUE,,,,,,,,CLR,,,,,,,,VFR,,,,,,,,,,,,METAR,22.0
SBRP 150900Z 00000KT CAVOK 16/15 Q1014,SBRP,2015-06-15T09:00:00Z,-21.12,-47.77,16.0,15.0,0,0,,6.21,29.940945,,,,,,,,,,,CAVOK,,,,,,,,VFR,,,,,,,,,,,,METAR,549.0
TNCA 150900Z 08018KT 9999 FEW018 27/24 Q1012 A2988 NOSIG,TNCA,2015-06-15T09:00:00Z,12.5,-70.0,27.0,24.0,80,18,,6.21,29.88189,,,,,,TRUE,,,,,FEW,1800,,,,,,,VFR,,,,,,,,,,,,METAR,18.0
GLRB 150900Z 00000KT 9999 SCT013 FEW022CB BKN110 25/24 Q1014 RMK CB-S,GLRB,2015-06-15T09:00:00Z,6.25,-10.33,25.0,24.0,0,0,,6.21,29.940945,,,,,,,,,,,SCT,1300,FEW,2200,BKN,11000,,,VFR,,,,,,,,,,,,METAR,18.0
TLPL 150900Z 08016KT 9999 FEW025 BKN270 27/22 Q1014 NOSIG,TLPL,2015-06-15T09:00:00Z,13.75,-60.95,27.0,22.0,80,16,,6.21,29.940945,,,,,,TRUE,,,,,FEW,2500,BKN,27000,,,,,VFR,,,,,,,,,,,,METAR,3.0
FNSA 150900Z 12006KT CAVOK 24/10 Q1015,FNSA,2015-06-15T09:00:00Z,-9.68,20.43,24.0,10.0,120,6,,6.21,29.970472,,,,,,,,,,,CAVOK,,,,,,,,VFR,,,,,,,,,,,,METAR,1093.0
YCCY 150900Z AUTO 16005KT //// // ////// 26/14 Q1014,YCCY,2015-06-15T09:00:00Z,-20.67,140.5,26.0,14.0,160,5,,,29.940945,,,TRUE,,,,,,,,,,,,,,,,,,,,,,,,,,,,METAR,570.0
YCBP 150900Z AUTO 20015KT //// // SCT025 BKN073 15/14 Q1017,YCBP,2015-06-15T09:00:00Z,-29.03,134.72,15.0,14.0,200,15,,,30.029528,,,TRUE,,,,,,,,SCT,2500,BKN,7300,,,,,,,,,,,,,,,,,METAR,226.0
YCBB 150900Z AUTO 06009KT //// // ////// 14/10 Q1023,YCBB,2015-06-15T09:00:00Z,-31.33,149.27,14.0,10.0,60,9,,,30.206694,,,TRUE,,,,,,,,,,,,,,,,,,,,,,,,,,,,METAR,645.0
YCAS 150900Z AUTO 36002KT //// // ////// 14/12 Q1025,YCAS,2015-06-15T09:00:00Z,-28.88,153.07,14.0,12.0,360,2,,,30.265747,,,TRUE,,,,,,,,,,,,,,,,,,,,,,,,,,,,METAR,26.0
YCAR 150900Z AUTO 23006KT 9999 // ////// 22/16 Q1014,YCAR,2015-06-15T09:00:00Z,-24.88,113.67,22.0,16.0,230,6,,6.21,29.940945,,,TRUE,,,,,,,,,,,,,,,,,,,,,,,,,,,,METAR,8.0
YBWX 150900Z AUTO 22007KT //// // ////// 24/15 Q1013,YBWX,2015-06-15T09:00:00Z,-20.88,115.4,24.0,15.0,220,7,,,29.911417,,,TRUE,,,,,,,,,,,,,,,,,,,,,,,,,,,,METAR,6.0
YBWP 150900Z AUTO 11009KT 9999 // OVC063 27/20 Q1011,YBWP,2015-06-15T09:00:00Z,-12.68,141.92,27.0,20.0,110,9,,6.21,29.852362,,,TRUE,,,,,,,,OVC,6300,,,,,,,VFR,,,,,,,,,,,,METAR,12.0
YBUD 150900Z AUTO 16005KT 9999 // OVC035 OVC041 19/15 Q1022,YBUD,2015-06-15T09:00:00Z,-24.9,152.32,19.0,15.0,160,5,,6.21,30.177166,,,TRUE,,,,,,,,OVC,3500,OVC,4100,,,,,VFR,,,,,,,,,,,,METAR,82.0
GMMB 150900Z 22005KT 150V300 9999 FEW013TCU BKN016 23/13 Q1021 NOSIG,GMMB,2015-06-15T09:00:00Z,33.65,-7.63,23.0,13.0,220,5,,6.21,30.147638,,,,,,TRUE,,,,,FEW,1300,BKN,1600,,,,,MVFR,,,,,,,,,,,,METAR,191.0
GMTN 150900Z 25015KT 9999 SCT030 BKN100 22/11 Q1018 NOSIG,GMTN,2015-06-15T09:00:00Z,35.57,-5.32,22.0,11.0,250,15,,6.21,30.059055,,,,,,TRUE,,,,,SCT,3000,BKN,10000,,,,,VFR,,,,,,,,,,,,METAR,10.0
GMTA 150900Z 36006KT 9999 FEW020 22/15 Q1018 NOSIG,GMTA,2015-06-15T09:00:00Z,35.17,-3.85,22.0,15.0,360,6,,6.21,30.059055,,,,,,TRUE,,,,,FEW,2000,,,,,,,VFR,,,,,,,,,,,,METAR,14.0
GMMW 150900Z 33002KT 9999 FEW023 22/11 Q1018 NOSIG,GMMW,2015-06-15T09:00:00Z,34.98,-3.02,22.0,11.0,330,2,,6.21,30.059055,,,,,,TRUE,,,,,FEW,2300,,,,,,,VFR,,,,,,,,,,,,METAR,175.0
GMML 150900Z 05011KT 9999 SCT023 SCT033 21/14 Q1020 NOSIG,GMML,2015-06-15T09:00:00Z,27.13,-13.23,21.0,14.0,50,11,,6.21,30.11811,,,,,,TRUE,,,,,SCT,2300,SCT,3300,,,,,VFR,,,,,,,,,,,,METAR,6.0
GMMI 150900Z 04010KT 360V100 8000 FEW016 22/12 Q1019 NOSIG,GMMI,2015-06-15T09:00:00Z,31.4,-9.68,22.0,12.0,40,10,,4.97,30.088583,,,,,,TRUE,,,,,FEW,1600,,,,,,,MVFR,,,,,,,,,,,,METAR,8.0
GMMH 150900Z 02020KT CAVOK 20/14 Q1019 NOSIG,GMMH,2015-06-15T09:00:00Z,23.72,-15.93,20.0,14.0,20,20,,6.21,30.088583,,,,,,TRUE,,,,,CAVOK,,,,,,,,VFR,,,,,,,,,,,,METAR,11.0
GMFO 150900Z 24009KT 210V270 9999 FEW020 SCT033 22/10 Q1018 NOSIG,GMFO,2015-06-15T09:00:00Z,34.77,-1.92,22.0,10.0,240,9,,6.21,30.059055,,,,,,TRUE,,,,,FEW,2000,SCT,3300,,,,,VFR,,,,,,,,,,,,METAR,470.0
GMFK 150900Z 02010KT CAVOK 23/08 Q1018 NOSIG,GMFK,2015-06-15T09:00:00Z,31.95,-4.4,23.0,8.0,20,10,,6.21,30.059055,,,,,,TRUE,,,,,CAVOK,,,,,,,,VFR,,,,,,,,,,,,METAR,1045.0
GMFF 150900Z 24004KT 150V340 9999 SCT026 BKN086 19/11 Q1021 NOSIG,GMFF,2015-06-15T09:00:00Z,33.92,-4.97,19.0,11.0,240,4,,6.21,30.147638,,,,,,TRUE,,,,,SCT,2600,BKN,8600,,,,,VFR,,,,,,,,,,,,METAR,579.0
GMAT 150900Z 36016KT 9999 SCT016 20/13 Q1020 NOSIG,GMAT,2015-06-15T09:00:00Z,28.43,-11.15,20.0,13.0,360,16,,6.21,30.11811,,,,,,TRUE,,,,,SCT,1600,,,,,,,VFR,,,,,,,,,,,,METAR,200.0
GMAG 150900Z 36012KT 9999 BKN016 20/13 Q1018 NOSIG,GMAG,2015-06-15T09:00:00Z,29.03,-10.05,20.0,13.0,360,12,,6.21,30.059055,,,,,,TRUE,,,,,BKN,1600,,,,,,,MVFR,,,,,,,,,,,,METAR,333.0
FNMO 150900Z 22005KT 9999 FEW005 18/16 Q1015,FNMO,2015-06-15T09:00:00Z,-15.27,12.15,18.0,16.0,220,5,,6.21,29.970472,,,,,,,,,,,FEW,500,,,,,,,VFR,,,,,,,,,,,,METAR,64.0
SUSO 150900Z 33006KT CAVOK 03/02 Q1019,SUSO,2015-06-15T09:00:00Z,-31.43,-57.98,3.0,2.0,330,6,,6.21,30.088583,,,,,,,,,,,CAVOK,,,,,,,,VFR,,,,,,,,,,,,METAR,34.0
SULS 150900Z 25016KT 9999 SCT023 09/02 Q1012,SULS,2015-06-15T09:00:00Z,-34.87,-55.1,9.0,2.0,250,16,,6.21,29.88189,,,,,,,,,,,SCT,2300,,,,,,,VFR,,,,,,,,,,,,METAR,30.0
SAWG 150900Z 00000KT 8000 -SN OVC020 00/M00 Q0987,SAWG,2015-06-15T09:00:00Z,-51.62,-69.32,0.0,0.0,0,0,,4.97,29.143702,,,,,,,,,,-SN,OVC,2000,,,,,,,MVFR,,,,,,,,,,,,METAR,19.0
SASA 150900Z 18002KT CAVOK 05/04 Q1023,SASA,2015-06-15T09:00:00Z,-24.85,-65.47,5.0,4.0,180,2,,6.21,30.206694,,,,,,,,,,,CAVOK,,,,,,,,VFR,,,,,,,,,,,,METAR,1216.0
SARE 150900Z 24002KT CAVOK 06/05 Q1020,SARE,2015-06-15T09:00:00Z,-27.43,-59.03,6.0,5.0,240,2,,6.21,30.11811,,,,,,,,,,,CAVOK,,,,,,,,VFR,,,,,,,,,,,,METAR,52.0
SBJP 150900Z 26003KT 9999 SCT020 23/22 Q1015,SBJP,2015-06-15T09:00:00Z,-7.15,-34.95,23.0,22.0,260,3,,6.21,29.970472,,,,,,,,,,,SCT,2000,,,,,,,VFR,,,,,,,,,,,,METAR,7.0
WSSL 150900Z 20008KT 8000 FEW018 BKN270 30/24 Q1006 RMK 0830Z Q1006,WSSL,2015-06-15T09:00:00Z,1.42,103.87,30.0,24.0,200,8,,4.97,29.704725,,,,,,,,,,,FEW,1800,BKN,27000,,,,,MVFR,,,,,,,,,,,,METAR,14.0
FIMR 150900Z 04013KT 9999 SCT018 SCT050 29/21 Q1013,FIMR,2015-06-15T09:00:00Z,-19.75,63.37,29.0,21.0,40,13,,6.21,29.911417,,,,,,,,,,,SCT,1800,SCT,5000,,,,,VFR,,,,,,,,,,,,METAR,31.0
DTTR 150900Z 16016KT CAVOK 36/09 Q1014,DTTR,2015-06-15T09:00:00Z,31.7,9.27,36.0,9.0,160,16,,6.21,29.940945,,,,,,,,,,,CAVOK,,,,,,,,VFR,,,,,,,,,,,,METAR,259.0
SCVM 150900Z 16005KT CAVOK 08/M00 Q1019,SCVM,2015-06-15T09:00:00Z,-32.95,-71.48,8.0,0.0,160,5,,6.21,30.088583,,,,,,,,,,,CAVOK,,,,,,,,VFR,,,,,,,,,,,,METAR,141.0
SCRM 150900Z 11034KT 1500 DRSN BKN008 M13/M15 Q0984,SCRM,2015-06-15T09:00:00Z,-62.18,-58.98,-13.0,-15.0,110,34,,0.93,29.055119,,,,,,,,,,DRSN,BKN,800,,,,,,,LIFR,,,,,,,,,,,,METAR,45.0
SCTN 150900Z AUTO 36011KT 9999 -RA FEW006 SCT008 OVC010 10/09 Q1017 RERA,SCTN,2015-06-15T09:00:00Z,-42.92,-72.7,10.0,9.0,360,11,,6.21,30.029528,,,TRUE,,,,,,,-RA,FEW,600,SCT,800,OVC,1000,,,MVFR,,,,,,,,,,,,METAR,4.0
SCPQ 150900Z AUTO 26005KT 220V290 9999 BKN016 BKN018 10/08 Q1017,SCPQ,2015-06-15T09:00:00Z,-42.33,-73.72,10.0,8.0,260,5,,6.21,30.029528,,,TRUE,,,,,,,,BKN,1600,BKN,1800,,,,,MVFR,,,,,,,,,,,,METAR,5.0
SCIP 150900Z 01005KT 9999 FEW020 SCT250 20/17 Q1020 NOSIG,SCIP,2015-06-15T09:00:00Z,-27.17,-109.43,20.0,17.0,10,5,,6.21,30.11811,,,,,,TRUE,,,,,FEW,2000,SCT,25000,,,,,VFR,,,,,,,,,,,,METAR,69.0
SCEL 150900Z 36003KT 340V060 6000 SKC M02/M05 Q1022 NOSIG,SCEL,2015-06-15T09:00:00Z,-33.37,-70.77,-2.0,-5.0,360,3,,3.73,30.177166,,,,,,TRUE,,,,,SKC,,,,,,,,MVFR,,,,,,,,,,,,METAR,476.0
SCCI 150900Z 25003KT 5000 -SN FEW007 SCT012 OVC030 M01/M01 Q0986 NOSIG,SCCI,2015-06-15T09:00:00Z,-53.0,-70.83,-1.0,-1.0,250,3,,3.11,29.114174,,,,,,TRUE,,,,-SN,FEW,700,SCT,1200,OVC,3000,,,MVFR,,,,,,,,,,,,METAR,37.0
SCVD 150900Z AUTO 32005KT 9999 FEW027 OVC046 10/08 Q1022,SCVD,2015-06-15T09:00:00Z,-39.65,-73.07,10.0,8.0,320,5,,6.21,30.177166,,,TRUE,,,,,,,,FEW,2700,OVC,4600,,,,,VFR,,,,,,,,,,,,METAR,14.0
SCTE 150900Z 34005KT 9999 SCT005 OVC010 08/07 Q1020 NOSIG,SCTE,2015-06-15T09:00:00Z,-41.42,-73.07,8.0,7.0,340,5,,6.21,30.11811,,,,,,TRUE,,,,,SCT,500,OVC,1000,,,,,MVFR,,,,,,,,,,,,METAR,86.0
SCQP 150900Z 36009KT 9999 OVC034 08/07 Q1024,SCQP,2015-06-15T09:00:00Z,-38.92,-72.65,8.0,7.0,360,9,,6.21,30.236221,,,,,,,,,,,OVC,3400,,,,,,,VFR,,,,,,,,,,,,METAR,97.0
SCSE 150900Z 12004KT CAVOK 08/M06 Q1013,SCSE,2015-06-15T09:00:00Z,-29.92,-71.2,8.0,-6.0,120,4,,6.21,29.911417,,,,,,,,,,,CAVOK,,,,,,,,VFR,,,,,,,,,,,,METAR,146.0
SCDA 150900Z 30003KT 9999 OVC025 17/11 Q1013,SCDA,2015-06-15T09:00:00Z,-20.52,-70.17,17.0,11.0,300,3,,6.21,29.911417,,,,,,,,,,,OVC,2500,,,,,,,MVFR,,,,,,,,,,,,METAR,52.0
SCAT 150900Z AUTO VRB02KT 9000 // NCD 06/03 Q1014,SCAT,2015-06-15T09:00:00Z,-27.27,-70.77,6.0,3.0,0,2,,5.59,29.940945,,,TRUE,,,,,,,,,,,,,,,,,,,,,,,,,,,,METAR,204.0
SCIE 150900Z 15004KT CAVOK 04/03 Q1026,SCIE,2015-06-15T09:00:00Z,-36.77,-73.07,4.0,3.0,150,4,,6.21,30.295275,,,,,,,,,,,CAVOK,,,,,,,,VFR,,,,,,,,,,,,METAR,16.0
SCCF 150900Z 12023KT CAVOK 04/M23 Q1023,SCCF,2015-06-15T09:00:00Z,-22.5,-68.9,4.0,-23.0,120,23,,6.21,30.206694,,,,,,,,,,,CAVOK,,,,,,,,VFR,,,,,,,,,,,,METAR,2312.0
SCBA 150900Z AUTO 31024G35KT CAVOK 06/03 Q0997,SCBA,2015-06-15T09:00:00Z,-45.92,-71.67,6.0,3.0,310,24,35,6.21,29.438976,,,TRUE,,,,,,,,CAVOK,,,,,,,,VFR,,,,,,,,,,,,METAR,524.0
SCAR 150900Z 00000KT 9999 OVC023 18/12 Q1012,SCAR,2015-06-15T09:00:00Z,-18.35,-70.32,18.0,12.0,0,0,,6.21,29.88189,,,,,,,,,,,OVC,2300,,,,,,,MVFR,,,,,,,,,,,,METAR,59.0
SCFA 150900Z 35003KT 9999 OVC015 14/09 Q1013 NOSIG,SCFA,2015-06-15T09:00:00Z,-23.42,-70.42,14.0,9.0,350,3,,6.21,29.911417,,,,,,TRUE,,,,,OVC,1500,,,,,,,MVFR,,,,,,,,,,,,METAR,120.0
FQPB 150900Z 17012KT 9999 FEW020 27/18 Q1017,FQPB,2015-06-15T09:00:00Z,-12.97,40.5,27.0,18.0,170,12,,6.21,30.029528,,,,,,,,,,,FEW,2000,,,,,,,VFR,,,,,,,,,,,,METAR,50.0
BIRK 150900Z 10014KT 9999 FEW030 10/M01 Q1011,BIRK,2015-06-15T09:00:00Z,64.13,-21.93,10.0,-1.0,100,14,,6.21,29.852362,,,,,,,,,,,FEW,3000,,,,,,,VFR,,,,,,,,,,,,METAR,61.0
BIEG 150900Z 23006KT CAVOK 10/00 Q1015,BIEG,2015-06-15T09:00:00Z,65.27,-14.4,10.0,0.0,230,6,,6.21,29.970472,,,,,,,,,,,CAVOK,,,,,,,,VFR,,,,,,,,,,,,METAR,38.0
BIAR 150900Z 16009KT CAVOK 11/01 Q1014,BIAR,2015-06-15T09:00:00Z,65.67,-18.07,11.0,1.0,160,9,,6.21,29.940945,,,,,,,,,,,CAVOK,,,,,,,,VFR,,,,,,,,,,,,METAR,27.0
CWNC 150900Z AUTO 33003KT 17/17 RMK AO1 SLP120 T01730167 53002,CWNC,2015-06-15T09:00:00Z,43.95,-78.17,17.3,16.7,330,3,,,,1012.0,,TRUE,TRUE,,,,,,,,,,,,,,,,0.2,,,,,,,,,,,METAR,78.0
CXTH 150900Z AUTO 19006KT 05/04 RMK AO1 T00500042,CXTH,2015-06-15T09:00:00Z,53.63,-111.68,5.0,4.2,190,6,,,,,,TRUE,TRUE,,,,,,,,,,,,,,,,,,,,,,,,,,,METAR,678.0
CXFM 150900Z AUTO 35004KT 04/03 RMK AO1 T00400029,CXFM,2015-06-15T09:00:00Z,49.48,-111.48,4.0,2.9,350,4,,,,,,TRUE,TRUE,,,,,,,,,,,,,,,,,,,,,,,,,,,METAR,881.0
CXDB 150900Z AUTO 04005KT 06/04 RMK AO1 T00560035,CXDB,2015-06-15T09:00:00Z,49.05,-112.82,5.6,3.5,40,5,,,,,,TRUE,TRUE,,,,,,,,,,,,,,,,,,,,,,,,,,,METAR,1310.0
CXAK 150900Z AUTO 26005KT 06/05 RMK AO1 T00580046,CXAK,2015-06-15T09:00:00Z,52.35,-112.6,5.8,4.6,260,5,,,,,,TRUE,TRUE,,,,,,,,,,,,,,,,,,,,,,,,,,,METAR,795.0
CPRO 150900Z AUTO 25003KT 02/01 RMK AO1 T00170014,CPRO,2015-06-15T09:00:00Z,50.83,-112.05,1.7,1.4,250,3,,,,,,TRUE,TRUE,,,,,,,,,,,,,,,,,,,,,,,,,,,METAR,714.0
CWDO 150900Z AUTO 35016G22KT 04/02 RMK AO1 PK WND 01025/0807 SLP156 T00360024 53017,CWDO,2015-06-15T09:00:00Z,49.67,-54.78,3.6,2.4,350,16,22,,,1015.6,,TRUE,TRUE,,,,,,,,,,,,,,,,1.7,,,,,,,,,,,METAR,92.0
CWAR 150900Z AUTO 03013G19KT 06/04 RMK AO1 PK WND 03020/0845 SLP134 T00620035 53031,CWAR,2015-06-15T09:00:00Z,47.28,-54.0,6.2,3.5,30,13,19,,,1013.4,,TRUE,TRUE,,,,,,,,,,,,,,,,3.1,,,,,,,,,,,METAR,16.0
CXWM 150900Z AUTO 28002KT 03/02 RMK AO1 T00300021,CXWM,2015-06-15T09:00:00Z,49.5,-112.12,3.0,2.1,280,2,,,,,,TRUE,TRUE,,,,,,,,,,,,,,,,,,,,,,,,,,,METAR,944.0
GMMC 150900Z 34006KT CAVOK 19/12 Q1017,GMMC,2015-06-15T09:00:00Z,33.57,-7.67,19.0,12.0,340,6,,6.21,30.029528,,,,,,,,,,,CAVOK,,,,,,,,VFR,,,,,,,,,,,,METAR,62.0
NGFU 150900Z 09005KT 9999 SCT020TCU 30/26 Q1008,NGFU,2015-06-15T09:00:00Z,-8.52,179.22,30.0,26.0,90,5,,6.21,29.763779,,,,,,,,,,,SCT,2000,,,,,,,VFR,,,,,,,,,,,,METAR,1.0
CWJO 150900Z AUTO 11003KT 10/06 RMK AO1 SLP179 T01020056 58007,CWJO,2015-06-15T09:00:00Z,48.43,-71.15,10.2,5.6,110,3,,,,1017.9,,TRUE,TRUE,,,,,,,,,,,,,,,,-0.7,,,,,,,,,,,METAR,133.0
CWJI 150900Z AUTO 30006KT 08/06 RMK AO1 SLP244 T00820060 52010,CWJI,2015-06-15T09:00:00Z,49.72,-105.92,8.2,6.0,300,6,,,,1024.4,,TRUE,TRUE,,,,,,,,,,,,,,,,1.0,,,,,,,,,,,METAR,724.0
CWBY 150900Z AUTO 08003KT 05/04 RMK AO1 SLP201 T00490038 53004,CWBY,2015-06-15T09:00:00Z,49.82,-64.28,4.9,3.8,80,3,,,,1020.1,,TRUE,TRUE,,,,,,,,,,,,,,,,0.4,,,,,,,,,,,METAR,53.0
CWIK 150900Z AUTO 34007KT 09/06 RMK AO1 SLP213 T00850055 51016,CWIK,2015-06-15T09:00:00Z,50.37,-102.58,8.5,5.5,340,7,,,,1021.3,,TRUE,TRUE,,,,,,,,,,,,,,,,1.6,,,,,,,,,,,METAR,602.0
CWBU 150900Z AUTO 26005KT 05/04 RMK AO1 3002 SLP225 T00510040 50002,CWBU,2015-06-15T09:00:00Z,53.33,-104.02,5.1,4.0,260,5,,,,1022.5,,TRUE,TRUE,,,,,,,,,,,,,,,,0.2,,,,,,,,,,,METAR,373.0
CZMJ 150900Z AUTO 31006KT 09/06 RMK AO1 SLP250 T00940058 53013,CZMJ,2015-06-15T09:00:00Z,50.33,-105.57,9.4,5.8,310,6,,,,1025.0,,TRUE,TRUE,,,,,,,,,,,,,,,,1.3,,,,,,,,,,,METAR,577.0
CXZV 150900Z AUTO 04002KT 02/01 RMK AO1 SLP197 T00210007 52003,CXZV,2015-06-15T09:00:00Z,50.22,-66.25,2.1,0.7,40,2,,,,1019.7,,TRUE,TRUE,,,,,,,,,,,,,,,,0.3,,,,,,,,,,,METAR,52.0
CXTD 150900Z AUTO 36006KT 08/05 RMK AO1 SLP220 T00810054 53018,CXTD,2015-06-15T09:00:00Z,45.62,-61.68,8.1,5.4,360,6,,,,1022.0,,TRUE,TRUE,,,,,,,,,,,,,,,,1.8,,,,,,,,,,,METAR,68.0
CXLB 150900Z AUTO 31002KT 08/ RMK AO1 SLP222 T0084 53008,CXLB,2015-06-15T09:00:00Z,44.37,-64.3,8.4,,310,2,,,,1022.2,,TRUE,TRUE,,,,,,,,,,,,,,,,0.8,,,,,,,,,,,METAR,4.0
CXKI 150900Z AUTO 16/16 RMK AO1 SLP111 T01580158 56013,CXKI,2015-06-15T09:00:00Z,48.22,-80.0,15.8,15.8,,,,,,1011.1,,TRUE,TRUE,,,,,,,,,,,,,,,,-1.3,,,,,,,,,,,METAR,324.0
CAHR 150900Z AUTO 35003KT 09/06 RMK AO1 SLP214 T00860058 53013,CAHR,2015-06-15T09:00:00Z,46.35,-63.17,8.6,5.8,350,3,,,,1021.4,,TRUE,TRUE,,,,,,,,,,,,,,,,1.3,,,,,,,,,,,METAR,53.0
CWDK 150900Z AUTO 33002KT 08/05 RMK AO1 SLP276 T00770050 51006,CWDK,2015-06-15T09:00:00Z,50.02,-113.62,7.7,5.0,330,2,,,,1027.6,,TRUE,TRUE,,,,,,,,,,,,,,,,0.6,,,,,,,,,,,METAR,1012.0
CWDJ 150900Z AUTO 34007KT 09/06 RMK AO1 SLP236 T00890064 51014,CWDJ,2015-06-15T09:00:00Z,50.4,-104.58,8.9,6.4,340,7,,,,1023.6,,TRUE,TRUE,,,,,,,,,,,,,,,,1.4,,,,,,,,,,,METAR,573.0
CWCJ 150900Z AUTO 17002KT 05/05 RMK AO1 0002 SLP126 T00520049 50002,CWCJ,2015-06-15T09:00:00Z,48.6,-86.28,5.2,4.9,170,2,,,,1012.6,,TRUE,TRUE,,,,,,,,,,,,,,,,0.2,,,,,,,,,,,METAR,206.0
CWCF 150900Z AUTO 33005KT 07/02 RMK AO1 PK WND 31019/0805 SLP159 T00720023 53016,CWCF,2015-06-15T09:00:00Z,52.35,-97.03,7.2,2.3,330,5,,,,1015.9,,TRUE,TRUE,,,,,,,,,,,,,,,,1.6,,,,,,,,,,,METAR,222.0
CWBZ 150900Z AUTO 06003KT 16/14 RMK AO1 SLP127 T01590144 56017,CWBZ,2015-06-15T09:00:00Z,45.12,-74.27,15.9,14.4,60,3,,,,1012.7,,TRUE,TRUE,,,,,,,,,,,,,,,,-1.7,,,,,,,,,,,METAR,49.0
CWBT 150900Z AUTO 04001KT 01/01 RMK AO1 SLP202 T00120012 53003,CWBT,2015-06-15T09:00:00Z,50.27,-64.23,1.2,1.2,40,1,,,,1020.2,,TRUE,TRUE,,,,,,,,,,,,,,,,0.3,,,,,,,,,,,METAR,11.0
CWBS 150900Z AUTO 04012KT 15/11 RMK AO1 T01500108,CWBS,2015-06-15T09:00:00Z,46.18,-72.92,15.0,10.8,40,12,,,,,,TRUE,TRUE,,,,,,,,,,,,,,,,,,,,,,,,,,,METAR,16.0
CWBO 150900Z AUTO 36002KT 03/02 RMK AO1 SLP265 T00270024 51005,CWBO,2015-06-15T09:00:00Z,50.53,-111.83,2.7,2.4,360,2,,,,1026.5,,TRUE,TRUE,,,,,,,,,,,,,,,,0.5,,,,,,,,,,,METAR,747.0
CWBA 150900Z AUTO 18004KT 15/ RMK AO1 T0151,CWBA,2015-06-15T09:00:00Z,46.72,-79.1,15.1,,180,4,,,,,,TRUE,TRUE,,,,,,,,,,,,,,,,,,,,,,,,,,,METAR,181.0
CWAV 150900Z AUTO 00000KT 06/04 RMK AO1 SLP282 T00610044,CWAV,2015-06-15T09:00:00Z,51.77,-114.67,6.1,4.4,0,0,,,,1028.2,,TRUE,TRUE,,,,,,,,,,,,,,,,,,,,,,,,,,,METAR,1114.0
CZTB 150900Z AUTO 25004KT 15/13 RMK AO1 SLP122 T01460134 53002,CZTB,2015-06-15T09:00:00Z,48.37,-89.32,14.6,13.4,250,4,,,,1012.2,,TRUE,TRUE,,,,,,,,,,,,,,,,0.2,,,,,,,,,,,METAR,199.0
CZRP 150900Z AUTO 30016KT M00/M02 RMK AO1 PK WND 30019/0850 SLP205 T10041021 56005,CZRP,2015-06-15T09:00:00Z,75.37,-105.72,-0.4,-2.1,300,16,,,,1020.5,,TRUE,TRUE,,,,,,,,,,,,,,,,-0.5,,,,,,,,,,,METAR,12.0
CXTO 150900Z AUTO 17/16 RMK AO1 SLP131 T01730162 56003,CXTO,2015-06-15T09:00:00Z,43.67,-79.4,17.3,16.2,,,,,,1013.1,,TRUE,TRUE,,,,,,,,,,,,,,,,-0.3,,,,,,,,,,,METAR,113.0
CXSE 150900Z AUTO 36010KT M00/M01 RMK AO1 PK WND 00017/0803 SLP189 T10011010,CXSE,2015-06-15T09:00:00Z,73.77,-105.28,-0.1,-1.0,360,10,,,,1018.9,,TRUE,TRUE,,,,,,,,,,,,,,,,,,,,,,,,,,,METAR,11.0
CXPC 150900Z AUTO 17/16 RMK AO1 SLP120 T01710164 56006,CXPC,2015-06-15T09:00:00Z,45.35,-80.05,17.1,16.4,,,,,,1012.0,,TRUE,TRUE,,,,,,,,,,,,,,,,-0.6,,,,,,,,,,,METAR,176.0
CXDK 150900Z AUTO 00000KT 10/09 RMK AO1 SLP259 T01040089 51001,CXDK,2015-06-15T09:00:00Z,61.27,-124.47,10.4,8.9,0,0,,,,1025.9,,TRUE,TRUE,,,,,,,,,,,,,,,,0.1,,,,,,,,,,,METAR,283.0
DAAY 150900Z 36012KT CAVOK 17/13 Q1022,DAAY,2015-06-15T09:00:00Z,33.53,-0.25,17.0,13.0,360,12,,6.21,30.177166,,,,,,,,,,,CAVOK,,,,,,,,VFR,,,,,,,,,,,,METAR,1149.0
FTTC 150900Z 14008KT CAVOK 38/04 Q1012,FTTC,2015-06-15T09:00:00Z,13.83,20.85,38.0,4.0,140,8,,6.21,29.88189,,,,,,,,,,,CAVOK,,,,,,,,VFR,,,,,,,,,,,,METAR,549.0
SVVA 150900Z 09005KT 9999 FEW016 26/20 Q1014,SVVA,2015-06-15T09:00:00Z,10.15,-67.92,26.0,20.0,90,5,,6.21,29.940945,,,,,,,,,,,FEW,1600,,,,,,,VFR,,,,,,,,,,,,METAR,431.0
SVBI 150900Z 36002KT 9999 SCT017 SCT070 24/24 Q1013,SVBI,2015-06-15T09:00:00Z,8.62,-70.22,24.0,24.0,360,2,,6.21,29.911417,,,,,,,,,,,SCT,1700,SCT,7000,,,,,VFR,,,,,,,,,,,,METAR,204.0
SVCU 150900Z 07010KT CAVOK 24/20 Q1011,SVCU,2015-06-15T09:00:00Z,10.45,-64.13,24.0,20.0,70,10,,6.21,29.852362,,,,,,,,,,,CAVOK,,,,,,,,VFR,,,,,,,,,,,,METAR,4.0
SVBM 150900Z 11006KT 9999 OVC013 21/20 Q1016,SVBM,2015-06-15T09:00:00Z,10.05,-69.37,21.0,20.0,110,6,,6.21,30.0,,,,,,,,,,,OVC,1300,,,,,,,MVFR,,,,,,,,,,,,METAR,614.0
SVMC 150900Z /////KT 9999 SCT010 27/23 Q1010,SVMC,2015-06-15T09:00:00Z,10.57,-71.72,27.0,23.0,,,,6.21,29.822834,,,,,,,,,,,SCT,1000,,,,,,,VFR,,,,,,,,,,,,METAR,65.0
SVCR 150900Z /////KT 9999 FEW016 30/25 Q1012,SVCR,2015-06-15T09:00:00Z,11.42,-69.67,30.0,25.0,,,,6.21,29.88189,,,,,,,,,,,FEW,1600,,,,,,,VFR,,,,,,,,,,,,METAR,17.0
OIFS 150900Z 20014G24KT CAVOK 33/M02 Q1016,OIFS,2015-06-15T09:00:00Z,32.32,50.85,33.0,-2.0,200,14,24,6.21,30.0,,,,,,,,,,,CAVOK,,,,,,,,VFR,,,,,,,,,,,,METAR,2078.0
CYZF 150900Z 25006KT 15SM SCT080 BKN120 BKN240 11/05 A3017 RMK AC3AC2CI2 SLP224,CYZF,2015-06-15T09:00:00Z,62.47,-114.45,11.0,5.0,250,6,,15.0,30.171259,1022.4,,,,,,,,,,SCT,8000,BKN,12000,BKN,24000,,,VFR,,,,,,,,,,,,SPECI,206.0
VTUD 150900Z 09003G14KT 060V210 9999 FEW035 31/24 Q1005 A2969 INFO K RWY30,VTUD,2015-06-15T09:00:00Z,17.37,102.78,31.0,24.0,90,3,14,6.21,29.675198,,,,,,,,,,,FEW,3500,,,,,,,VFR,,,,,,,,,,,,METAR,182.0
DAUG 150900Z 02015KT 4000 HZ NSC 30/10 Q1015,DAUG,2015-06-15T09:00:00Z,32.37,3.82,30.0,10.0,20,15,,2.49,29.970472,,,,,,,,,,HZ,,,,,,,,,,,,,,,,,,,,,METAR,450.0
NSFA 150900Z 12007KT 9999 SCT020 27/23 Q1011,NSFA,2015-06-15T09:00:00Z,-13.83,-172.0,27.0,23.0,120,7,,6.21,29.852362,,,,,,,,,,,SCT,2000,,,,,,,VFR,,,,,,,,,,,,METAR,5.0
FPST 150900Z 35006KT 9999 FEW027 SCT040 25/21 Q1016 NOSIG,FPST,2015-06-15T09:00:00Z,0.37,6.72,25.0,21.0,350,6,,6.21,30.0,,,,,,TRUE,,,,,FEW,2700,SCT,4000,,,,,VFR,,,,,,,,,,,,METAR,13.0
FOON 150900Z /////KT 8000 BKN010 OVC040 23/21 Q1015,FOON,2015-06-15T09:00:00Z,-1.63,13.42,23.0,21.0,,,,4.97,29.970472,,,,,,,,,,,BKN,1000,OVC,4000,,,,,MVFR,,,,,,,,,,,,METAR,441.0
FOOG 150900Z /////KT 9999 FEW010 25/20 Q1016,FOOG,2015-06-15T09:00:00Z,-0.7,8.75,25.0,20.0,,,,6.21,30.0,,,,,,,,,,,FEW,1000,,,,,,,VFR,,,,,,,,,,,,METAR,4.0
FAWB 150900Z AUTO 25003KT //// // ////// 18/02 Q1025,FAWB,2015-06-15T09:00:00Z,-25.63,28.22,18.0,2.0,250,3,,,30.265747,,,TRUE,,,,,,,,,,,,,,,,,,,,,,,,,,,,METAR,1248.0
FLHN 150900Z VRB01KT CAVOK 21/05 Q1025 NOSIG,FLHN,2015-06-15T09:00:00Z,-17.82,25.82,21.0,5.0,0,1,,6.21,30.265747,,,,,,TRUE,,,,,CAVOK,,,,,,,,VFR,,,,,,,,,,,,METAR,986.0
HDAM 150900Z 08010KT 6000 HZ 39/20 Q1003,HDAM,2015-06-15T09:00:00Z,11.55,43.17,39.0,20.0,80,10,,3.73,29.616142,,,,,,,,,,HZ,,,,,,,,,,,,,,,,,,,,,METAR,49.0
GOGK 150900Z 24004KT 9999 SCT013 BKN230 29/24 Q1014,GOGK,2015-06-15T09:00:00Z,12.9,-14.97,29.0,24.0,240,4,,6.21,29.940945,,,,,,,,,,,SCT,1300,BKN,23000,,,,,VFR,,,,,,,,,,,,METAR,10.0
GOOD 150900Z 28002KT CAVOK 28/23 Q1013,GOOD,2015-06-15T09:00:00Z,14.65,-16.22,28.0,23.0,280,2,,6.21,29.911417,,,,,,,,,,,CAVOK,,,,,,,,VFR,,,,,,,,,,,,METAR,9.0
GOSM 150900Z 28008KT 8000 NSC 31/22 Q1013,GOSM,2015-06-15T09:00:00Z,15.6,-13.33,31.0,22.0,280,8,,4.97,29.911417,,,,,,,,,,,,,,,,,,,,,,,,,,,,,,,METAR,17.0
GOSP 150900Z 24002KT CAVOK 29/20 Q1011,GOSP,2015-06-15T09:00:00Z,16.68,-14.97,29.0,20.0,240,2,,6.21,29.852362,,,,,,,,,,,CAVOK,,,,,,,,VFR,,,,,,,,,,,,METAR,7.0
VTUQ 150900Z 07004KT 9999 FEW023 SCT025 BKN300 31/27 Q1004 A2966 INFO J RWY 06,VTUQ,2015-06-15T09:00:00Z,14.95,102.32,31.0,27.0,70,4,,6.21,29.64567,,,,,,,,,,,FEW,2300,SCT,2500,BKN,30000,,,VFR,,,,,,,,,,,,METAR,234.0
YESP 150900Z AUTO 11007KT 9999 // NCD 13/12 Q1021,YESP,2015-06-15T09:00:00Z,-33.68,121.82,13.0,12.0,110,7,,6.21,30.147638,,,TRUE,,,,,,,,,,,,,,,,,,,,,,,,,,,,METAR,143.0
YEML 150900Z AUTO 09004KT 9999 // OVC049 21/17 Q1020,YEML,2015-06-15T09:00:00Z,-23.57,148.18,21.0,17.0,90,4,,6.21,30.11811,,,TRUE,,,,,,,,OVC,4900,,,,,,,VFR,,,,,,,,,,,,METAR,190.0
YDBY 150900Z AUTO 32007KT //// // ////// 29/10 Q1010,YDBY,2015-06-15T09:00:00Z,-17.37,123.67,29.0,10.0,320,7,,,29.822834,,,TRUE,,,,,,,,,,,,,,,,,,,,,,,,,,,,METAR,7.0
YCNM 150900Z AUTO 11007KT //// // ////// 17/13 Q1020,YCNM,2015-06-15T09:00:00Z,-30.98,148.38,17.0,13.0,110,7,,,30.11811,,,TRUE,,,,,,,,,,,,,,,,,,,,,,,,,,,,METAR,184.0
YBPN 150900Z AUTO 13006KT 9999 // NCD 21/19 Q1018,YBPN,2015-06-15T09:00:00Z,-20.5,148.55,21.0,19.0,130,6,,6.21,30.059055,,,TRUE,,,,,,,,,,,,,,,,,,,,,,,,,,,,METAR,25.0
YBOK 150900Z 06008KT 9999 FEW025 14/11 Q1023 NOSIG,YBOK,2015-06-15T09:00:00Z,-27.42,151.72,14.0,11.0,60,8,,6.21,30.206694,,,,,,TRUE,,,,,FEW,2500,,,,,,,VFR,,,,,,,,,,,,METAR,407.0
YBNA 150900Z AUTO 12007KT 9999 // SCT031 SCT042 SCT082 19/14 Q1024,YBNA,2015-06-15T09:00:00Z,-28.83,153.57,19.0,14.0,120,7,,6.21,30.236221,,,TRUE,,,,,,,,SCT,3100,SCT,4200,SCT,8200,,,VFR,,,,,,,,,,,,METAR,2.0
YBMK 150900Z AUTO 14011KT 9999 // NCD 21/20 Q1018,YBMK,2015-06-15T09:00:00Z,-21.17,149.17,21.0,20.0,140,11,,6.21,30.059055,,,TRUE,,,,,,,,,,,,,,,,,,,,,,,,,,,,METAR,31.0
YBHI 150900Z AUTO 20003KT 9999 // NCD 13/11 Q1018,YBHI,2015-06-15T09:00:00Z,-32.0,141.47,13.0,11.0,200,3,,6.21,30.059055,,,TRUE,,,,,,,,,,,,,,,,,,,,,,,,,,,,METAR,292.0
YLEC 150900Z AUTO 22006KT //// // ////// 16/13 Q1017,YLEC,2015-06-15T09:00:00Z,-30.6,138.43,16.0,13.0,220,6,,,30.029528,,,TRUE,,,,,,,,,,,,,,,,,,,,,,,,,,,,METAR,262.0
YKRY 150900Z AUTO 11007KT //// // ////// 15/12 Q1023,YKRY,2015-06-15T09:00:00Z,-26.57,151.83,15.0,12.0,110,7,,,30.206694,,,TRUE,,,,,,,,,,,,,,,,,,,,,,,,,,,,METAR,434.0
YHUG 150900Z AUTO 06011KT //// // ////// 24/14 Q1016,YHUG,2015-06-15T09:00:00Z,-20.82,144.23,24.0,14.0,60,11,,,30.0,,,TRUE,,,,,,,,,,,,,,,,,,,,,,,,,,,,METAR,318.0
YGTH 150900Z AUTO 09012KT 9999 -SHRA SCT044 SCT057 BKN069 13/12 Q1020,YGTH,2015-06-15T09:00:00Z,-34.25,146.07,13.0,12.0,90,12,,6.21,30.11811,,,TRUE,,,,,,,-SHRA,SCT,4400,SCT,5700,BKN,6900,,,VFR,,,,,,,,,,,,METAR,134.0
YGTE 150900Z AUTO 11004KT 9999 // NCD 26/20 Q1011,YGTE,2015-06-15T09:00:00Z,-13.97,136.45,26.0,20.0,110,4,,6.21,29.852362,,,TRUE,,,,,,,,,,,,,,,,,,,,,,,,,,,,METAR,14.0
YGLA 150900Z AUTO 14008KT 9999 // SCT045 21/16 Q1021,YGLA,2015-06-15T09:00:00Z,-23.87,151.22,21.0,16.0,140,8,,6.21,30.147638,,,TRUE,,,,,,,,SCT,4500,,,,,,,VFR,,,,,,,,,,,,METAR,52.0
YRMD 150900Z AUTO 19006KT //// // ////// 26/10 Q1014,YRMD,2015-06-15T09:00:00Z,-20.7,143.12,26.0,10.0,190,6,,,29.940945,,,TRUE,,,,,,,,,,,,,,,,,,,,,,,,,,,,METAR,207.0
YPBO 150900Z AUTO 20005KT 9999 // NCD 25/08 Q1014,YPBO,2015-06-15T09:00:00Z,-23.2,117.75,25.0,8.0,200,5,,6.21,29.940945,,,TRUE,,,,,,,,,,,,,,,,,,,,,,,,,,,,METAR,1292.0
YOLD 150900Z AUTO 06006KT 9999 // SCT026 16/14 Q1017,YOLD,2015-06-15T09:00:00Z,-30.48,136.88,16.0,14.0,60,6,,6.21,30.029528,,,TRUE,,,,,,,,SCT,2600,,,,,,,VFR,,,,,,,,,,,,METAR,105.0
YNWN 150900Z AUTO 35007KT 9999 // SCT079 25/06 Q1015,YNWN,2015-06-15T09:00:00Z,-23.42,119.8,25.0,6.0,350,7,,6.21,29.970472,,,TRUE,,,,,,,,SCT,7900,,,,,,,VFR,,,,,,,,,,,,METAR,525.0
YNTN 150900Z AUTO 00000KT //// // ////// 29/17 Q1012,YNTN,2015-06-15T09:00:00Z,-17.68,141.07,29.0,17.0,0,0,,,29.88189,,,TRUE,,,,,,,,,,,,,,,,,,,,,,,,,,,,METAR,22.0
YNBR 150900Z AUTO 04005KT 350V080 9999 // BKN054 OVC065 16/12 Q1022,YNBR,2015-06-15T09:00:00Z,-30.32,149.83,16.0,12.0,40,5,,6.21,30.177166,,,TRUE,,,,,,,,BKN,5400,OVC,6500,,,,,VFR,,,,,,,,,,,,METAR,240.0
YNAR 150900Z AUTO 07007KT //// // ////// 13/10 Q1021,YNAR,2015-06-15T09:00:00Z,-34.7,146.52,13.0,10.0,70,7,,,30.147638,,,TRUE,,,,,,,,,,,,,,,,,,,,,,,,,,,,METAR,145.0
YMTG 150900Z AUTO 08008KT 9999 // SCT063 BKN074 OVC089 12/11 Q1020,YMTG,2015-06-15T09:00:00Z,-37.75,140.78,12.0,11.0,80,8,,6.21,30.11811,,,TRUE,,,,,,,,SCT,6300,BKN,7400,OVC,8900,,,VFR,,,,,,,,,,,,METAR,65.0
FAPN 150900Z AUTO 17002KT //// // ////// 19/M02 Q1025,FAPN,2015-06-15T09:00:00Z,-25.33,27.17,19.0,-2.0,170,2,,,30.265747,,,TRUE,,,,,,,,,,,,,,,,,,,,,,,,,,,,METAR,1039.0
FVTL 150900Z 20003KT CAVOK 19/M01 Q1026 NOSIG,FVTL,2015-06-15T09:00:00Z,-19.43,29.85,19.0,-1.0,200,3,,6.21,30.295275,,,,,,TRUE,,,,,CAVOK,,,,,,,,VFR,,,,,,,,,,,,METAR,1429.0
FVFA 150900Z VRB02KT CAVOK 22/06 Q1024 NOSIG,FVFA,2015-06-15T09:00:00Z,-18.1,25.85,22.0,6.0,0,2,,6.21,30.236221,,,,,,TRUE,,,,,CAVOK,,,,,,,,VFR,,,,,,,,,,,,METAR,1062.0
CXZU 150900Z AUTO 06/05 RMK AO1 SLP269 T00610048 52002,CXZU,2015-06-15T09:00:00Z,54.15,-115.78,6.1,4.8,,,,,,1026.9,,TRUE,TRUE,,,,,,,,,,,,,,,,0.2,,,,,,,,,,,METAR,785.0
CWPZ 150900Z AUTO 06001KT 09/04 RMK AO1 SLP229 T00880041 51005,CWPZ,2015-06-15T09:00:00Z,54.38,-125.97,8.8,4.1,60,1,,,,1022.9,,TRUE,TRUE,,,,,,,,,,,,,,,,0.5,,,,,,,,,,,METAR,713.0
CWPR 150900Z AUTO 35001KT 10/03 RMK AO1 SLP181 T00980028 51012,CWPR,2015-06-15T09:00:00Z,49.47,-120.52,9.8,2.8,350,1,,,,1018.1,,TRUE,TRUE,,,,,,,,,,,,,,,,1.2,,,,,,,,,,,METAR,700.0
CWPE 150900Z AUTO 03003KT 08/07 RMK AO1 SLP215 T00820069 51005,CWPE,2015-06-15T09:00:00Z,45.07,-66.47,8.2,6.9,30,3,,,,1021.5,,TRUE,TRUE,,,,,,,,,,,,,,,,0.5,,,,,,,,,,,METAR,1.0
CWPD 150900Z AUTO 21003KT 01/01 RMK AO1 SLP162 T00050013 57011,CWPD,2015-06-15T09:00:00Z,47.57,-71.22,0.5,1.3,210,3,,,,1016.2,,TRUE,TRUE,,,,,,,,,,,,,,,,-1.1,,,,,,,,,,,METAR,803.0
CWOE 150900Z AUTO 35006KT 04/02 RMK AO1 SLP253 T00420019 51006,CWOE,2015-06-15T09:00:00Z,49.12,-110.47,4.2,1.9,350,6,,,,1025.3,,TRUE,TRUE,,,,,,,,,,,,,,,,0.6,,,,,,,,,,,METAR,935.0
CWOD 150900Z AUTO 05002KT 07/07 RMK AO1 SLP148 T00740071 55004,CWOD,2015-06-15T09:00:00Z,48.85,-72.55,7.4,7.1,50,2,,,,1014.8,,TRUE,TRUE,,,,,,,,,,,,,,,,-0.4,,,,,,,,,,,METAR,137.0
CWOC 150900Z AUTO 02001KT 05/05 RMK AO1 SLP204 T00520051 50000,CWOC,2015-06-15T09:00:00Z,48.02,-65.32,5.2,5.1,20,1,,,,1020.4,,TRUE,TRUE,,,,,,,,,,,,,,,,0.0,,,,,,,,,,,METAR,47.0
CWNQ 150900Z AUTO 06007KT 14/09 RMK AO1 SLP145 T01370092 56013,CWNQ,2015-06-15T09:00:00Z,46.22,-72.65,13.7,9.2,60,7,,,,1014.5,,TRUE,TRUE,,,,,,,,,,,,,,,,-1.3,,,,,,,,,,,METAR,10.0
CWNP 150900Z AUTO 08002KT 11/05 RMK AO1 SLP190 T01070050 51012,CWNP,2015-06-15T09:00:00Z,50.27,-117.82,10.7,5.0,80,2,,,,1019.0,,TRUE,TRUE,,,,,,,,,,,,,,,,1.2,,,,,,,,,,,METAR,524.0
CWNM 150900Z AUTO 07001KT 13/04 RMK AO1 SLP191 T01330044 51009,CWNM,2015-06-15T09:00:00Z,49.5,-117.28,13.3,4.4,70,1,,,,1019.1,,TRUE,TRUE,,,,,,,,,,,,,,,,0.9,,,,,,,,,,,METAR,535.0
CWNK 150900Z AUTO 30007KT 11/07 RMK AO1 T01100070,CWNK,2015-06-15T09:00:00Z,49.5,-98.03,11.0,7.0,300,7,,,,,,TRUE,TRUE,,,,,,,,,,,,,,,,,,,,,,,,,,,METAR,268.0
CWNE 150900Z AUTO 26004KT 11/09 RMK AO1 SLP211 T01120091 51007,CWNE,2015-06-15T09:00:00Z,47.07,-64.0,11.2,9.1,260,4,,,,1021.1,,TRUE,TRUE,,,,,,,,,,,,,,,,0.7,,,,,,,,,,,METAR,15.0
CXKE 150900Z AUTO 06002KT 16/14 RMK AO1 SLP122 T01590137 55011,CXKE,2015-06-15T09:00:00Z,45.0,-75.63,15.9,13.7,60,2,,,,1012.2,,TRUE,TRUE,,,,,,,,,,,,,,,,-1.1,,,,,,,,,,,METAR,99.0
CXKA 150900Z AUTO 25007KT 17/16 RMK AO1 SLP075 T01690156 56009,CXKA,2015-06-15T09:00:00Z,49.4,-82.45,16.9,15.6,250,7,,,,1007.5,,TRUE,TRUE,,,,,,,,,,,,,,,,-0.9,,,,,,,,,,,METAR,218.0
CWZS 150900Z AUTO 17003KT 04/04 RMK AO1 SLP204 T00440036 55000,CWZS,2015-06-15T09:00:00Z,48.47,-67.43,4.4,3.6,170,3,,,,1020.4,,TRUE,TRUE,,,,,,,,,,,,,,,,0.0,,,,,,,,,,,METAR,166.0
CWZO 150900Z AUTO 09003KT RMK AO1,CWZO,2015-06-15T09:00:00Z,48.55,-123.23,,,90,3,,,,,,TRUE,TRUE,,,,,,,,,,,,,,,,,,,,,,,,,,,METAR,1.0
CWZA 150900Z AUTO 04012KT 21/06 RMK AO1 SLP138 T02050060 51002,CWZA,2015-06-15T09:00:00Z,49.25,-121.77,20.5,6.0,40,12,,,,1013.8,,TRUE,TRUE,,,,,,,,,,,,,,,,0.2,,,,,,,,,,,METAR,15.0
CWYY 150900Z AUTO 07001KT 13/08 RMK AO1 SLP167 T01290084 51010,CWYY,2015-06-15T09:00:00Z,49.03,-119.43,12.9,8.4,70,1,,,,1016.7,,TRUE,TRUE,,,,,,,,,,,,,,,,1.0,,,,,,,,,,,METAR,283.0
CWYL 150900Z AUTO 06004KT 05/02 RMK AO1 SOG 00 1005 SLP240 T00520015,CWYL,2015-06-15T09:00:00Z,51.45,-116.32,5.2,1.5,60,4,,,,1024.0,,TRUE,TRUE,,,,,,,,,,,,,,,,,,,,,,,,,,,METAR,1615.0
CWYJ 150900Z AUTO 22001KT 12/08 RMK AO1 SLP139 T01170084 51004,CWYJ,2015-06-15T09:00:00Z,48.45,-123.3,11.7,8.4,220,1,,,,1013.9,,TRUE,TRUE,,,,,,,,,,,,,,,,0.4,,,,,,,,,,,METAR,39.0
CWGB 150900Z AUTO 27010KT 16/10 RMK AO1 SLP135 T01580097 50001,CWGB,2015-06-15T09:00:00Z,49.35,-124.17,15.8,9.7,270,10,,,,1013.5,,TRUE,TRUE,,,,,,,,,,,,,,,,0.1,,,,,,,,,,,METAR,5.0
CWFQ 150900Z AUTO 15004KT 16/12 RMK AO1 SLP142 T01570120 56010,CWFQ,2015-06-15T09:00:00Z,45.03,-72.82,15.7,12.0,150,4,,,,1014.2,,TRUE,TRUE,,,,,,,,,,,,,,,,-1.0,,,,,,,,,,,METAR,152.0
CWFF 150900Z AUTO 25006KT 04/03 RMK AO1 SLP239 T00410032 51008,CWFF,2015-06-15T09:00:00Z,52.82,-104.58,4.1,3.2,250,6,,,,1023.9,,TRUE,TRUE,,,,,,,,,,,,,,,,0.8,,,,,,,,,,,METAR,490.0
CWEW 150900Z AUTO 02002KT 15/12 RMK AO1 SLP153 T01500116 55007,CWEW,2015-06-15T09:00:00Z,45.82,-73.43,15.0,11.6,20,2,,,,1015.3,,TRUE,TRUE,,,,,,,,,,,,,,,,-0.7,,,,,,,,,,,METAR,21.0
CWEL 150900Z AUTO 33007KT 17/10 RMK AO1 SLP136 T01650102 53001,CWEL,2015-06-15T09:00:00Z,49.22,-123.78,16.5,10.2,330,7,,,,1013.6,,TRUE,TRUE,,,,,,,,,,,,,,,,0.1,,,,,,,,,,,METAR,5.0
CWEB 150900Z AUTO 29012KT 11/10 RMK AO1 SLP153 T01060097 56007,CWEB,2015-06-15T09:00:00Z,49.38,-126.55,10.6,9.7,290,12,,,,1015.3,,TRUE,TRUE,,,,,,,,,,,,,,,,-0.7,,,,,,,,,,,METAR,7.0
CWMT 150900Z AUTO 04005KT 11/05 RMK AO1 SLP230 T01140047 56011,CWMT,2015-06-15T09:00:00Z,63.13,-117.25,11.4,4.7,40,5,,,,1023.0,,TRUE,TRUE,,,,,,,,,,,,,,,,-1.1,,,,,,,,,,,METAR,271.0
CWXI 150900Z AUTO 30011KT 05/02 RMK AO1 SLP167 T00520024 53005,CWXI,2015-06-15T09:00:00Z,51.02,-57.1,5.2,2.4,300,11,,,,1016.7,,TRUE,TRUE,,,,,,,,,,,,,,,,0.5,,,,,,,,,,,METAR,6.0
CWBK 150900Z AUTO 32007KT 10/08 RMK AO1 SLP214 T00960076 53017,CWBK,2015-06-15T09:00:00Z,45.77,-62.67,9.6,7.6,320,7,,,,1021.4,,TRUE,TRUE,,,,,,,,,,,,,,,,1.7,,,,,,,,,,,METAR,2.0
CTNK 150900Z AUTO 00000KT 15/14 RMK AO1 SLP131 T01510141 58010,CTNK,2015-06-15T09:00:00Z,45.53,-78.27,15.1,14.1,0,0,,,,1013.1,,TRUE,TRUE,,,,,,,,,,,,,,,,-1.0,,,,,,,,,,,METAR,410.0
CXHM 150900Z AUTO 00000KT 16/15 RMK AO1 6005 SLP123 T01610153 50045,CXHM,2015-06-15T09:00:00Z,43.28,-79.9,16.1,15.3,0,0,,,,1012.3,,TRUE,TRUE,,,,,,,,,,,,,,,,4.5,,,,,,,,,,,METAR,107.0
FNUB 150900Z 12014KT CAVOK 19/05 Q1027,FNUB,2015-06-15T09:00:00Z,-14.93,13.57,19.0,5.0,120,14,,6.21,30.324802,,,,,,,,,,,CAVOK,,,,,,,,VFR,,,,,,,,,,,,METAR,1761.0
CWDZ 150900Z AUTO 27001KT 04/02 RMK AO1 T00410024,CWDZ,2015-06-15T09:00:00Z,51.42,-112.67,4.1,2.4,270,1,,,,,,TRUE,TRUE,,,,,,,,,,,,,,,,,,,,,,,,,,,METAR,678.0
CWHT 150900Z AUTO 30001KT 12/02 RMK AO1 SLP275 T01220023 51007,CWHT,2015-06-15T09:00:00Z,60.77,-137.58,12.2,2.3,300,1,,,,1027.5,,TRUE,TRUE,,,,,,,,,,,,,,,,0.7,,,,,,,,,,,METAR,599.0
CWKX 150900Z AUTO 03001KT 09/06 RMK AO1 SLP248 T00850055 53001,CWKX,2015-06-15T09:00:00Z,58.43,-130.02,8.5,5.5,30,1,,,,1024.8,,TRUE,TRUE,,,,,,,,,,,,,,,,0.1,,,,,,,,,,,METAR,793.0
CXDE 150900Z AUTO 23001KT 05/04 RMK AO1 SLP272 T00470040 58003,CXDE,2015-06-15T09:00:00Z,65.22,-123.43,4.7,4.0,230,1,,,,1027.2,,TRUE,TRUE,,,,,,,,,,,,,,,,-0.3,,,,,,,,,,,METAR,213.0
CXDI 150900Z AUTO 29002KT 20/19 RMK AO1 2PAST HR 8001 SLP123 P0001 T01950192 50002,CXDI,2015-06-15T09:00:00Z,42.87,-80.55,19.5,19.2,290,2,,,,1012.3,,TRUE,TRUE,,,,,,,,,,,,,,,,0.2,,,,,0.01,,,,,,METAR,232.0
CXMM 150900Z AUTO 21004KT 05/03 RMK AO1 SLP218 T00500028 51005,CXMM,2015-06-15T09:00:00Z,56.65,-111.22,5.0,2.8,210,4,,,,1021.8,,TRUE,TRUE,,,,,,,,,,,,,,,,0.5,,,,,,,,,,,METAR,369.0
CXMY 150900Z AUTO 01/01 RMK AO1 T00130008,CXMY,2015-06-15T09:00:00Z,44.98,-62.48,1.3,0.8,,,,,,,,TRUE,TRUE,,,,,,,,,,,,,,,,,,,,,,,,,,,METAR,40.0
CXRH 150900Z AUTO 03001KT 05/03 RMK AO1 T00470034,CXRH,2015-06-15T09:00:00Z,49.57,-57.88,4.7,3.4,30,1,,,,,,TRUE,TRUE,,,,,,,,,,,,,,,,,,,,,,,,,,,METAR,68.0
CXTP 150900Z AUTO 34004KT 04/03 RMK AO1 SLP142 T00430031 51027,CXTP,2015-06-15T09:00:00Z,48.55,-53.97,4.3,3.1,340,4,,,,1014.2,,TRUE,TRUE,,,,,,,,,,,,,,,,2.7,,,,,,,,,,,METAR,107.0
CZHY 150900Z AUTO 23005KT 08/05 RMK AO1 SLP246 T00810051 58010,CZHY,2015-06-15T09:00:00Z,60.83,-115.78,8.1,5.1,230,5,,,,1024.6,,TRUE,TRUE,,,,,,,,,,,,,,,,-1.0,,,,,,,,,,,METAR,164.0
CZSM 150900Z AUTO 04003KT 07/04 RMK AO1 SLP240 T00700038 56001,CZSM,2015-06-15T09:00:00Z,60.03,-111.93,7.0,3.8,40,3,,,,1024.0,,TRUE,TRUE,,,,,,,,,,,,,,,,-0.1,,,,,,,,,,,METAR,203.0
CWVU 150900Z AUTO 16011KT 09/07 RMK AO1 SLP231 T00850074 51005,CWVU,2015-06-15T09:00:00Z,44.28,-66.33,8.5,7.4,160,11,,,,1023.1,,TRUE,TRUE,,,,,,,,,,,,,,,,0.5,,,,,,,,,,,METAR,16.0
CWZW 150900Z AUTO 32001KT 10/06 RMK AO1 2PAST HR 2005 SLP259 P0001 T00970061 50002,CWZW,2015-06-15T09:00:00Z,60.17,-132.73,9.7,6.1,320,1,,,,1025.9,,TRUE,TRUE,,,,,,,,,,,,,,,,0.2,,,,,0.01,,,,,,METAR,705.0
CZDB 150900Z AUTO 07001KT 02/01 RMK AO1 SLP224 T00230013 53011,CZDB,2015-06-15T09:00:00Z,45.42,-63.47,2.3,1.3,70,1,,,,1022.4,,TRUE,TRUE,,,,,,,,,,,,,,,,1.1,,,,,,,,,,,METAR,38.0
CWEZ 150900Z AUTO 22006KT 14/10 RMK AO1 SLP136 T01440097 51003,CWEZ,2015-06-15T09:00:00Z,48.78,-123.05,14.4,9.7,220,6,,,,1013.6,,TRUE,TRUE,,,,,,,,,,,,,,,,0.3,,,,,,,,,,,METAR,7.0
CWFJ 150900Z AUTO 12002KT 08/06 RMK AO1 T00790056,CWFJ,2015-06-15T09:00:00Z,49.2,-113.27,7.9,5.6,120,2,,,,,,TRUE,TRUE,,,,,,,,,,,,,,,,,,,,,,,,,,,METAR,1136.0
CWGD 150900Z AUTO 25005KT 18/17 RMK AO1 3003 SLP124 T01760168 50016,CWGD,2015-06-15T09:00:00Z,43.77,-81.72,17.6,16.8,250,5,,,,1012.4,,TRUE,TRUE,,,,,,,,,,,,,,,,1.6,,,,,,,,,,,METAR,214.0
CWGL 150900Z AUTO 10001KT 17/16 RMK AO1 SLP128 T01670155 56004,CWGL,2015-06-15T09:00:00Z,44.52,-79.22,16.7,15.5,100,1,,,,1012.8,,TRUE,TRUE,,,,,,,,,,,,,,,,-0.4,,,,,,,,,,,METAR,221.0
CWGM 150900Z AUTO 01006KT 07/06 RMK AO1 T00700058,CWGM,2015-06-15T09:00:00Z,49.13,-113.78,7.0,5.8,10,6,,,,,,TRUE,TRUE,,,,,,,,,,,,,,,,,,,,,,,,,,,METAR,1296.0
GOOK 150900Z 22008KT 9999 BKN013 28/25 Q1014,GOOK,2015-06-15T09:00:00Z,14.15,-16.07,28.0,25.0,220,8,,6.21,29.940945,,,,,,,,,,,BKN,1300,,,,,,,MVFR,,,,,,,,,,,,METAR,7.0
GOSS 150900Z 30006KT 260V350 CAVOK 26/22 Q1012,GOSS,2015-06-15T09:00:00Z,16.05,-16.43,26.0,22.0,300,6,,6.21,29.88189,,,,,,,,,,,CAVOK,,,,,,,,VFR,,,,,,,,,,,,METAR,4.0
GOTT 150900Z 20010KT CAVOK 30/21 Q1013,GOTT,2015-06-15T09:00:00Z,13.73,-13.65,30.0,21.0,200,10,,6.21,29.911417,,,,,,,,,,,CAVOK,,,,,,,,VFR,,,,,,,,,,,,METAR,50.0
GOTK 150900Z 22004KT 9999 FEW016 BKN230 28/22 Q1014,GOTK,2015-06-15T09:00:00Z,12.57,-12.22,28.0,22.0,220,4,,6.21,29.940945,,,,,,,,,,,FEW,1600,BKN,23000,,,,,VFR,,,,,,,,,,,,METAR,167.0
SVVL 150900Z 29002KT 9999 BKN027 24/19 Q1015,SVVL,2015-06-15T09:00:00Z,9.33,-70.58,24.0,19.0,290,2,,6.21,29.970472,,,,,,,,,,,BKN,2700,,,,,,,MVFR,,,,,,,,,,,,METAR,575.0
SVSA 150900Z /////KT 9999 BKN020 29/16 Q1012,SVSA,2015-06-15T09:00:00Z,7.83,-72.45,29.0,16.0,,,,6.21,29.88189,,,,,,,,,,,BKN,2000,,,,,,,MVFR,,,,,,,,,,,,METAR,378.0
SVGD 150900Z 29003KT 9999 BKN017 25/20 Q////,SVGD,2015-06-15T09:00:00Z,7.22,-70.75,25.0,20.0,290,3,,6.21,,,,,,,,,,,,BKN,1700,,,,,,,MVFR,,,,,,,,,,,,METAR,131.0
SVVG 150900Z 25003KT 9999 BKN013 25/25 Q1009,SVVG,2015-06-15T09:00:00Z,8.62,-71.67,25.0,25.0,250,3,,6.21,29.793306,,,,,,,,,,,BKN,1300,,,,,,,MVFR,,,,,,,,,,,,METAR,100.0
OERF 150900Z 15003KT CAVOK 38/01 Q1006,OERF,2015-06-15T09:00:00Z,29.62,43.47,38.0,1.0,150,3,,6.21,29.704725,,,,,,,,,,,CAVOK,,,,,,,,VFR,,,,,,,,,,,,METAR,447.0
OEPA 150900Z 00000KT CAVOK 40/09 Q1004 NOSIG,OEPA,2015-06-15T09:00:00Z,28.32,46.12,40.0,9.0,0,0,,6.21,29.64567,,,,,,TRUE,,,,,CAVOK,,,,,,,,VFR,,,,,,,,,,,,METAR,355.0
OERR 150900Z 11002KT CAVOK 37/15 Q1007 NOSIG,OERR,2015-06-15T09:00:00Z,30.88,41.12,37.0,15.0,110,2,,6.21,29.734253,,,,,,TRUE,,,,,CAVOK,,,,,,,,VFR,,,,,,,,,,,,METAR,552.0
OESK 150900Z 35004KT CAVOK 36/01 Q1010 NOSIG,OESK,2015-06-15T09:00:00Z,29.77,40.1,36.0,1.0,350,4,,6.21,29.822834,,,,,,TRUE,,,,,CAVOK,,,,,,,,VFR,,,,,,,,,,,,METAR,684.0
OETB 150900Z 33002KT CAVOK 31/03 Q1011 NOSIG,OETB,2015-06-15T09:00:00Z,28.37,36.62,31.0,3.0,330,2,,6.21,29.852362,,,,,,TRUE,,,,,CAVOK,,,,,,,,VFR,,,,,,,,,,,,METAR,770.0
CXWN 150900Z AUTO 26002KT 13/09 RMK AO1 SLP156 T01260091 51007,CXWN,2015-06-15T09:00:00Z,49.88,-97.13,12.6,9.1,260,2,,,,1015.6,,TRUE,TRUE,,,,,,,,,,,,,,,,0.7,,,,,,,,,,,METAR,230.0
CXSH 150900Z AUTO 05004KT 13/07 RMK AO1 SLP152 T01270070 56015,CXSH,2015-06-15T09:00:00Z,46.58,-72.73,12.7,7.0,50,4,,,,1015.2,,TRUE,TRUE,,,,,,,,,,,,,,,,-1.5,,,,,,,,,,,METAR,110.0
CXNM 150900Z AUTO 02003KT 03/02 RMK AO1 T00270016,CXNM,2015-06-15T09:00:00Z,46.82,-60.67,2.7,1.6,20,3,,,,,,TRUE,TRUE,,,,,,,,,,,,,,,,,,,,,,,,,,,METAR,439.0
CXMI 150900Z AUTO 33005KT 08/06 RMK AO1 SLP216 T00820055 53007,CXMI,2015-06-15T09:00:00Z,44.6,-63.53,8.2,5.5,330,5,,,,1021.6,,TRUE,TRUE,,,,,,,,,,,,,,,,0.7,,,,,,,,,,,METAR,15.0
CXMD 150900Z AUTO 30006KT 12/06 RMK AO1 SLP169 T01160064 50005,CXMD,2015-06-15T09:00:00Z,49.22,-98.08,11.6,6.4,300,6,,,,1016.9,,TRUE,TRUE,,,,,,,,,,,,,,,,0.5,,,,,,,,,,,METAR,301.0
CXIB 150900Z AUTO 36002KT 07/02 RMK AO1 SLP199 T00720022 53016,CXIB,2015-06-15T09:00:00Z,46.67,-60.38,7.2,2.2,360,2,,,,1019.9,,TRUE,TRUE,,,,,,,,,,,,,,,,1.6,,,,,,,,,,,METAR,8.0
CXHF 150900Z AUTO 14/13 RMK AO1 T01360127,CXHF,2015-06-15T09:00:00Z,45.83,-75.65,13.6,12.7,,,,,,,,TRUE,TRUE,,,,,,,,,,,,,,,,,,,,,,,,,,,METAR,190.0
CXGH 150900Z AUTO 25006KT 11/09 RMK AO1 T01130091,CXGH,2015-06-15T09:00:00Z,50.63,-97.0,11.3,9.1,250,6,,,,,,TRUE,TRUE,,,,,,,,,,,,,,,,,,,,,,,,,,,METAR,217.0
CXET 150900Z AUTO 13002KT 17/16 RMK AO1 SLP130 T01690159 54000,CXET,2015-06-15T09:00:00Z,44.23,-79.78,16.9,15.9,130,2,,,,1013.0,,TRUE,TRUE,,,,,,,,,,,,,,,,,,,,,,,,,,,METAR,251.0
CXEC 150900Z AUTO 23003KT 07/05 RMK AO1 SLP262 T00650051 52005,CXEC,2015-06-15T09:00:00Z,53.57,-113.52,6.5,5.1,230,3,,,,1026.2,,TRUE,TRUE,,,,,,,,,,,,,,,,0.5,,,,,,,,,,,METAR,671.0
CXEA 150900Z AUTO 01005KT 12/12 RMK AO1 SLP124 T01230118 53001,CXEA,2015-06-15T09:00:00Z,50.63,-93.22,12.3,11.8,10,5,,,,1012.4,,TRUE,TRUE,,,,,,,,,,,,,,,,0.1,,,,,,,,,,,METAR,355.0
CXDW 150900Z AUTO 28008KT 10/07 RMK AO1 T01030067,CXDW,2015-06-15T09:00:00Z,49.4,-98.32,10.3,6.7,280,8,,,,,,TRUE,TRUE,,,,,,,,,,,,,,,,,,,,,,,,,,,METAR,341.0
CXCK 150900Z AUTO 36002KT 13/02 RMK AO1 SLP275 T01260022 50001,CXCK,2015-06-15T09:00:00Z,62.12,-136.2,12.6,2.2,360,2,,,,1027.5,,TRUE,TRUE,,,,,,,,,,,,,,,,0.1,,,,,,,,,,,METAR,540.0
CXCH 150900Z AUTO 03/02 RMK AO1 T00250015,CXCH,2015-06-15T09:00:00Z,46.63,-60.95,2.5,1.5,,,,,,,,TRUE,TRUE,,,,,,,,,,,,,,,,,,,,,,,,,,,METAR,44.0
CXCA 150900Z AUTO 19002KT 11/11 RMK AO1 6001 SLP112 T01110106 50004,CXCA,2015-06-15T09:00:00Z,49.15,-88.35,11.1,10.6,190,2,,,,1011.2,,TRUE,TRUE,,,,,,,,,,,,,,,,0.4,,,,,,,,,,,METAR,228.0
CXBO 150900Z AUTO 05008KT RMK AO1,CXBO,2015-06-15T09:00:00Z,46.83,-71.2,,,50,8,,,,,,TRUE,TRUE,,,,,,,,,,,,,,,,,,,,,,,,,,,METAR,100.0
CXKT 150900Z AUTO 21003KT 06/04 RMK AO1 SLP223 T00610038 53008,CXKT,2015-06-15T09:00:00Z,45.07,-64.48,6.1,3.8,210,3,,,,1022.3,,TRUE,TRUE,,,,,,,,,,,,,,,,0.8,,,,,,,,,,,METAR,49.0
CXBK 150900Z AUTO 32007KT 09/06 RMK AO1 SLP225 T00870058 53012,CXBK,2015-06-15T09:00:00Z,50.2,-104.7,8.7,5.8,320,7,,,,1022.5,,TRUE,TRUE,,,,,,,,,,,,,,,,1.2,,,,,,,,,,,METAR,580.0
CMFM 150900Z AUTO 00000KT 01/01 RMK AO1 SLP188 T00120012 57010,CMFM,2015-06-15T09:00:00Z,47.32,-71.15,1.2,1.2,0,0,,,,1018.8,,TRUE,TRUE,,,,,,,,,,,,,,,,-1.0,,,,,,,,,,,METAR,672.0
CWER 150900Z AUTO 04018KT RMK AO1 PK WND 05019/0815,CWER,2015-06-15T09:00:00Z,47.0,-70.82,,,40,18,,,,,,TRUE,TRUE,,,,,,,,,,,,,,,,,,,,,,,,,,,METAR,5.0
CWEP 150900Z AUTO 01007KT 09/04 RMK AO1 SLP211 T00870035 53017,CWEP,2015-06-15T09:00:00Z,46.45,-61.97,8.7,3.5,10,7,,,,1021.1,,TRUE,TRUE,,,,,,,,,,,,,,,,1.7,,,,,,,,,,,METAR,11.0
CWSS 150900Z AUTO 08001KT 06/06 RMK AO1 SLP205 T00640058 51003,CWSS,2015-06-15T09:00:00Z,45.2,-67.25,6.4,5.8,80,1,,,,1020.5,,TRUE,TRUE,,,,,,,,,,,,,,,,0.3,,,,,,,,,,,METAR,26.0
CWRN 150900Z AUTO 32010KT 08/ RMK AO1 T0081,CWRN,2015-06-15T09:00:00Z,45.35,-60.98,8.1,,320,10,,,,,,TRUE,TRUE,,,,,,,,,,,,,,,,,,,,,,,,,,,METAR,8.0
CWBV 150900Z AUTO 33009KT 07/04 RMK AO1 SLP212 T00720043 53015,CWBV,2015-06-15T09:00:00Z,44.82,-62.32,7.2,4.3,330,9,,,,1021.2,,TRUE,TRUE,,,,,,,,,,,,,,,,1.5,,,,,,,,,,,METAR,10.0
CWNH 150900Z AUTO 22003KT 11/04 RMK AO1 SLP185 T01060041 56006,CWNH,2015-06-15T09:00:00Z,47.78,-69.53,10.6,4.1,220,3,,,,1018.5,,TRUE,TRUE,,,,,,,,,,,,,,,,-0.6,,,,,,,,,,,METAR,148.0
CWDM 150900Z AUTO 32006KT 04/02 RMK AO1 SLP195 T00360016 51009,CWDM,2015-06-15T09:00:00Z,50.47,-59.62,3.6,1.6,320,6,,,,1019.5,,TRUE,TRUE,,,,,,,,,,,,,,,,0.9,,,,,,,,,,,METAR,6.0
CWSF 150900Z AUTO 14007G17KT 06/04 RMK AO1 PK WND 15017/0853 SLP195 T00640039 56004,CWSF,2015-06-15T09:00:00Z,49.25,-65.32,6.4,3.9,140,7,17,,,1019.5,,TRUE,TRUE,,,,,,,,,,,,,,,,-0.4,,,,,,,,,,,METAR,29.0
CWRA 150900Z AUTO 03013KT 06/03 RMK AO1 PK WND 02021/0839 SLP127 T00570029 52034,CWRA,2015-06-15T09:00:00Z,46.63,-53.07,5.7,2.9,30,13,,,,1012.7,,TRUE,TRUE,,,,,,,,,,,,,,,,3.4,,,,,,,,,,,METAR,28.0
CWWE 150900Z AUTO 29007KT 08/07 RMK AO1 SLP221 T00810066 51006,CWWE,2015-06-15T09:00:00Z,43.97,-64.67,8.1,6.6,290,7,,,,1022.1,,TRUE,TRUE,,,,,,,,,,,,,,,,0.6,,,,,,,,,,,METAR,9.0
CWPK 150900Z AUTO 09001KT 11/08 RMK AO1 2PAST HR 7008 SLP151 P0001 T01050075 50002,CWPK,2015-06-15T09:00:00Z,47.92,-74.62,10.5,7.5,90,1,,,,1015.1,,TRUE,TRUE,,,,,,,,,,,,,,,,0.2,,,,,0.01,,,,,,METAR,442.0
CZEL 150900Z AUTO 15003KT 17/17 RMK AO1 SLP132 T01740167 56004,CZEL,2015-06-15T09:00:00Z,43.65,-80.42,17.4,16.7,150,3,,,,1013.2,,TRUE,TRUE,,,,,,,,,,,,,,,,-0.4,,,,,,,,,,,METAR,376.0
CXZC 150900Z AUTO 20004KT 18/15 RMK AO1 SLP059 T01800153 58012,CXZC,2015-06-15T09:00:00Z,51.3,-80.62,18.0,15.3,200,4,,,,1005.9,,TRUE,TRUE,,,,,,,,,,,,,,,,-1.2,,,,,,,,,,,METAR,9.0
CXBI 150900Z AUTO 17001KT 16/16 RMK AO1 SLP136 T01620157 55002,CXBI,2015-06-15T09:00:00Z,44.48,-79.55,16.2,15.7,170,1,,,,1013.6,,TRUE,TRUE,,,,,,,,,,,,,,,,-0.2,,,,,,,,,,,METAR,289.0
CTRA 150900Z AUTO 27003KT 14/10 RMK AO1 SLP117 T01360100 56002,CTRA,2015-06-15T09:00:00Z,49.67,-93.73,13.6,10.0,270,3,,,,1011.7,,TRUE,TRUE,,,,,,,,,,,,,,,,-0.2,,,,,,,,,,,METAR,435.0
CWWK 150900Z AUTO 06001KT 15/13 RMK AO1 SLP141 T01500131 51004,CWWK,2015-06-15T09:00:00Z,49.02,-122.78,15.0,13.1,60,1,,,,1014.1,,TRUE,TRUE,,,,,,,,,,,,,,,,0.4,,,,,,,,,,,METAR,15.0
CWWF 150900Z AUTO 31007KT 08/06 RMK AO1 SLP227 T00800059 51012,CWWF,2015-06-15T09:00:00Z,49.7,-103.8,8.0,5.9,310,7,,,,1022.7,,TRUE,TRUE,,,,,,,,,,,,,,,,1.2,,,,,,,,,,,METAR,589.0
CWWA 150900Z AUTO 01002KT 17/02 RMK AO1 SLP139 T01710024 52002,CWWA,2015-06-15T09:00:00Z,49.35,-123.17,17.1,2.4,10,2,,,,1013.9,,TRUE,TRUE,,,,,,,,,,,,,,,,0.2,,,,,,,,,,,METAR,178.0
CWVQ 150900Z AUTO 01002KT 16/14 RMK AO1 SLP139 T01570135 55010,CWVQ,2015-06-15T09:00:00Z,45.42,-73.92,15.7,13.5,10,2,,,,1013.9,,TRUE,TRUE,,,,,,,,,,,,,,,,-1.0,,,,,,,,,,,METAR,39.0
CWVP 150900Z AUTO 35002KT 05/03 RMK AO1 3005 SLP249 T00490030 50002,CWVP,2015-06-15T09:00:00Z,49.63,-109.52,4.9,3.0,350,2,,,,1024.9,,TRUE,TRUE,,,,,,,,,,,,,,,,0.2,,,,,,,,,,,METAR,1271.0
CWVN 150900Z AUTO 01001KT 03/02 RMK AO1 SLP250 T00340017 52012,CWVN,2015-06-15T09:00:00Z,49.07,-107.57,3.4,1.7,10,1,,,,1025.0,,TRUE,TRUE,,,,,,,,,,,,,,,,1.2,,,,,,,,,,,METAR,785.0
CWVI 150900Z AUTO 18002KT 05/04 RMK AO1 SLP257 T00460044 51004,CWVI,2015-06-15T09:00:00Z,53.52,-112.1,4.6,4.4,180,2,,,,1025.7,,TRUE,TRUE,,,,,,,,,,,,,,,,0.4,,,,,,,,,,,METAR,639.0
CWVF 150900Z AUTO 33011KT 19/11 RMK AO1 T01910107,CWVF,2015-06-15T09:00:00Z,49.1,-123.3,19.1,10.7,330,11,,,,,,TRUE,TRUE,,,,,,,,,,,,,,,,,,,,,,,,,,,METAR,1.0
CWUX 150900Z AUTO 16002KT 05/02 RMK AO1 SLP172 T00470024 58006,CWUX,2015-06-15T09:00:00Z,48.3,-70.93,4.7,2.4,160,2,,,,1017.2,,TRUE,TRUE,,,,,,,,,,,,,,,,-0.6,,,,,,,,,,,METAR,135.0
CWUS 150900Z AUTO 28007KT 14/03 RMK AO1 SLP174 T01400034 53009,CWUS,2015-06-15T09:00:00Z,49.57,-119.65,14.0,3.4,280,7,,,,1017.4,,TRUE,TRUE,,,,,,,,,,,,,,,,0.9,,,,,,,,,,,METAR,454.0
CWTY 150900Z AUTO 02005KT 14/11 RMK AO1 SLP146 T01380110 56014,CWTY,2015-06-15T09:00:00Z,46.35,-72.52,13.8,11.0,20,5,,,,1014.6,,TRUE,TRUE,,,,,,,,,,,,,,,,-1.4,,,,,,,,,,,METAR,6.0
CWTT 150900Z AUTO 08001KT 14/11 RMK AO1 T01380114,CWTT,2015-06-15T09:00:00Z,45.27,-72.17,13.8,11.4,80,1,,,,,,TRUE,TRUE,,,,,,,,,,,,,,,,,,,,,,,,,,,METAR,209.0
CWTN 150900Z AUTO 36003KT 13/05 RMK AO1 SLP176 T01260050 57008,CWTN,2015-06-15T09:00:00Z,47.07,-70.78,12.6,5.0,360,3,,,,1017.6,,TRUE,TRUE,,,,,,,,,,,,,,,,-0.8,,,,,,,,,,,METAR,6.0
CWTG 150900Z AUTO 28003KT 08/04 RMK AO1 SLP191 T00840038 55003,CWTG,2015-06-15T09:00:00Z,49.32,-67.37,8.4,3.8,280,3,,,,1019.1,,TRUE,TRUE,,,,,,,,,,,,,,,,-0.3,,,,,,,,,,,METAR,5.0
CWTA 150900Z AUTO 05001KT 17/11 RMK AO1 SLP139 T01650111 55009,CWTA,2015-06-15T09:00:00Z,45.5,-73.58,16.5,11.1,50,1,,,,1013.9,,TRUE,TRUE,,,,,,,,,,,,,,,,-0.9,,,,,,,,,,,METAR,63.0
CWKO 150900Z AUTO 30004KT 04/04 RMK AO1 SLP250 T00410035 51013,CWKO,2015-06-15T09:00:00Z,49.17,-105.97,4.1,3.5,300,4,,,,1025.0,,TRUE,TRUE,,,,,,,,,,,,,,,,1.3,,,,,,,,,,,METAR,917.0
CWEH 150900Z AUTO 02007KT 07/04 RMK AO1 SLP247 T00690043 51009,CWEH,2015-06-15T09:00:00Z,49.42,-108.97,6.9,4.3,20,7,,,,1024.7,,TRUE,TRUE,,,,,,,,,,,,,,,,0.9,,,,,,,,,,,METAR,1078.0
CWDC 150900Z AUTO 03010G15KT 08/03 RMK AO1 PK WND 03017/0805 SLP220 T00780032 51013,CWDC,2015-06-15T09:00:00Z,59.57,-108.47,7.8,3.2,30,10,15,,,1022.0,,TRUE,TRUE,,,,,,,,,,,,,,,,1.3,,,,,,,,,,,METAR,318.0
CWLB 150900Z AUTO 00000KT 06/05 RMK AO1 SLP249 T00550049 52004,CWLB,2015-06-15T09:00:00Z,54.77,-112.02,5.5,4.9,0,0,,,,1024.9,,TRUE,TRUE,,,,,,,,,,,,,,,,0.4,,,,,,,,,,,METAR,567.0
CWCT 150900Z AUTO 26006KT 02/01 RMK AO1 SLP276 T00180012 52004,CWCT,2015-06-15T09:00:00Z,52.07,-111.47,1.8,1.2,260,6,,,,1027.6,,TRUE,TRUE,,,,,,,,,,,,,,,,0.4,,,,,,,,,,,METAR,791.0
CWRO 150900Z AUTO 26013KT 12/11 RMK AO1 PK WND 26017/0811 SLP176 T01170106 50003,CWRO,2015-06-15T09:00:00Z,54.17,-131.67,11.7,10.6,260,13,,,,1017.6,,TRUE,TRUE,,,,,,,,,,,,,,,,0.3,,,,,,,,,,,METAR,7.0
CWLP 150900Z AUTO 27013KT 11/10 RMK AO1 SLP176 T01060095 56001,CWLP,2015-06-15T09:00:00Z,50.93,-127.63,10.6,9.5,270,13,,,,1017.6,,TRUE,TRUE,,,,,,,,,,,,,,,,-0.1,,,,,,,,,,,METAR,17.0
CWJD 150900Z AUTO 31004KT 06/03 RMK AO1 SLP178 T00620026 51008,CWJD,2015-06-15T09:00:00Z,53.17,-99.27,6.2,2.6,310,4,,,,1017.8,,TRUE,TRUE,,,,,,,,,,,,,,,,0.8,,,,,,,,,,,METAR,223.0
CWEQ 150900Z AUTO 32006KT 06/02 RMK AO1 SLP210 T00570024 51017,CWEQ,2015-06-15T09:00:00Z,52.12,-101.22,5.7,2.4,320,6,,,,1021.0,,TRUE,TRUE,,,,,,,,,,,,,,,,1.7,,,,,,,,,,,METAR,335.0
CWVT 150900Z AUTO 30003KT 08/07 RMK AO1 SLP234 T00750067 51002,CWVT,2015-06-15T09:00:00Z,55.82,-108.42,7.5,6.7,300,3,,,,1023.4,,TRUE,TRUE,,,,,,,,,,,,,,,,0.2,,,,,,,,,,,METAR,434.0
CWDV 150900Z AUTO 26005KT 12/11 RMK AO1 SLP132 T01180111 50000,CWDV,2015-06-15T09:00:00Z,49.02,-90.47,11.8,11.1,260,5,,,,1013.2,,TRUE,TRUE,,,,,,,,,,,,,,,,0.0,,,,,,,,,,,METAR,489.0
CWDQ 150900Z AUTO 11001KT 06/06 RMK AO1 SLP166 T00590059 56011,CWDQ,2015-06-15T09:00:00Z,47.42,-72.78,5.9,5.9,110,1,,,,1016.6,,TRUE,TRUE,,,,,,,,,,,,,,,,-1.1,,,,,,,,,,,METAR,169.0
CWPC 150900Z AUTO 27006KT 17/16 RMK AO1 SLP132 T01650155 56004,CWPC,2015-06-15T09:00:00Z,42.87,-79.25,16.5,15.5,270,6,,,,1013.2,,TRUE,TRUE,,,,,,,,,,,,,,,,-0.4,,,,,,,,,,,METAR,184.0
CWLS 150900Z AUTO 00000KT 18/17 RMK AO1 SLP131 T01770174 55003,CWLS,2015-06-15T09:00:00Z,43.97,-80.75,17.7,17.4,0,0,,,,1013.1,,TRUE,TRUE,,,,,,,,,,,,,,,,-0.3,,,,,,,,,,,METAR,415.0
CWBE 150900Z AUTO 23001KT 13/12 RMK AO1 SLP136 T01330115 58005,CWBE,2015-06-15T09:00:00Z,45.98,-81.48,13.3,11.5,230,1,,,,1013.6,,TRUE,TRUE,,,,,,,,,,,,,,,,-0.5,,,,,,,,,,,METAR,196.0
CWAJ 150900Z AUTO 24006KT 18/17 RMK AO1 SLP134 T01790174 51002,CWAJ,2015-06-15T09:00:00Z,42.25,-81.9,17.9,17.4,240,6,,,,1013.4,,TRUE,TRUE,,,,,,,,,,,,,,,,0.2,,,,,,,,,,,METAR,178.0
CWWZ 150900Z AUTO 31002KT 15/14 RMK AO1 8PAST HR 6007 SLP128 P0003 T01460143 50015,CWWZ,2015-06-15T09:00:00Z,43.25,-79.22,14.6,14.3,310,2,,,,1012.8,,TRUE,TRUE,,,,,,,,,,,,,,,,1.5,,,,,0.03,,,,,,METAR,79.0
CWPO 150900Z AUTO 30003KT 08/06 RMK AO1 SLP188 T00770061 50006,CWPO,2015-06-15T09:00:00Z,49.2,-98.9,7.7,6.1,300,3,,,,1018.8,,TRUE,TRUE,,,,,,,,,,,,,,,,0.6,,,,,,,,,,,METAR,470.0
CWNZ 150900Z AUTO 23005KT 15/13 RMK AO1 SLP091 T01490128 55006,CWNZ,2015-06-15T09:00:00Z,49.75,-84.17,14.9,12.8,230,5,,,,1009.1,,TRUE,TRUE,,,,,,,,,,,,,,,,-0.6,,,,,,,,,,,METAR,256.0
"RPMZ 150900Z 27004KT 9000 FEW017CB BKN100 29/26 Q1009 RMK A2980 CB NW-N,S",RPMZ,2015-06-15T09:00:00Z,6.92,122.07,29.0,26.0,270,4,,5.59,29.793306,,,,,,,,,,,FEW,1700,BKN,10000,,,,,VFR,,,,,,,,,,,,METAR,6.0
LRCT 150900Z 06006KT 9999 SCT060 27/14 Q1013 BLU BLU,LRCT,2015-06-15T09:00:00Z,46.5,23.88,27.0,14.0,60,6,,6.21,29.911417,,,,,,,,,,,SCT,6000,,,,,,,VFR,,,,,,,,,,,,METAR,331.0
ETIK 150900Z AUTO 01009KT 9999 -RA BKN027 19/12 A2999 RMK AO2 RAB0858 BKN V OVC,ETIK,2015-06-15T09:00:00Z,49.47,10.37,19.0,12.0,10,9,,6.21,29.991142,,,TRUE,TRUE,,,,,,-RA,BKN,2700,,,,,,,MVFR,,,,,,,,,,,,SPECI,325.0
LEMO 150900Z 25006KT 200V280 9999 SCT025 20/14 Q1018 NOSIG,LEMO,2015-06-15T09:00:00Z,37.17,-5.62,20.0,14.0,250,6,,6.21,30.059055,,,,,,TRUE,,,,,SCT,2500,,,,,,,VFR,,,,,,,,,,,,METAR,88.0
MKJS 150900Z 09006KT 9999 FEW022 27/24 Q1013,MKJS,2015-06-15T09:00:00Z,18.5,-77.92,27.0,24.0,90,6,,6.21,29.911417,,,,,,,,,,,FEW,2200,,,,,,,VFR,,,,,,,,,,,,METAR,1.0
SARL 150900Z 27005KT CAVOK 05/04 Q1020,SARL,2015-06-15T09:00:00Z,-29.67,-57.13,5.0,4.0,270,5,,6.21,30.11811,,,,,,,,,,,CAVOK,,,,,,,,VFR,,,,,,,,,,,,METAR,70.0
SARF 150900Z 23003KT 8000 NSC 09/09 Q1020,SARF,2015-06-15T09:00:00Z,-26.22,-58.22,9.0,9.0,230,3,,4.97,30.11811,,,,,,,,,,,,,,,,,,,,,,,,,,,,,,,METAR,60.0
SAOC 150900Z 00000KT CAVOK 04/M07 Q1018,SAOC,2015-06-15T09:00:00Z,-33.12,-64.27,4.0,-7.0,0,0,,6.21,30.059055,,,,,,,,,,,CAVOK,,,,,,,,VFR,,,,,,,,,,,,METAR,421.0
SABE 150900Z 27004KT CAVOK 06/M01 Q1016,SABE,2015-06-15T09:00:00Z,-34.57,-58.42,6.0,-1.0,270,4,,6.21,30.0,,,,,,,,,,,CAVOK,,,,,,,,VFR,,,,,,,,,,,,METAR,6.0
OITM 150900Z 02006KT 9999 FEW035 28/07 Q1011,OITM,2015-06-15T09:00:00Z,37.35,46.15,28.0,7.0,20,6,,6.21,29.852362,,,,,,,,,,,FEW,3500,,,,,,,VFR,,,,,,,,,,,,METAR,1340.0
OINE 150900Z 00000KT CAVOK 32/14 Q1007,OINE,2015-06-15T09:00:00Z,37.38,55.45,32.0,14.0,0,0,,6.21,29.734253,,,,,,,,,,,CAVOK,,,,,,,,VFR,,,,,,,,,,,,METAR,130.0
OIIK 150900Z 17006KT CAVOK 31/06 Q1011,OIIK,2015-06-15T09:00:00Z,36.25,50.05,31.0,6.0,170,6,,6.21,29.852362,,,,,,,,,,,CAVOK,,,,,,,,VFR,,,,,,,,,,,,METAR,1278.0
OIBL 150900Z 17008KT 6000 NSC 36/28 Q0999,OIBL,2015-06-15T09:00:00Z,26.53,54.82,36.0,28.0,170,8,,3.73,29.498032,,,,,,,,,,,,,,,,,,,,,,,,,,,,,,,METAR,14.0
OITZ 150900Z 10004KT 9999 FEW035 29/08 Q1011,OITZ,2015-06-15T09:00:00Z,36.77,48.37,29.0,8.0,100,4,,6.21,29.852362,,,,,,,,,,,FEW,3500,,,,,,,VFR,,,,,,,,,,,,METAR,1663.0
OISY 150900Z 20012KT CAVOK 35/M10 Q1015,OISY,2015-06-15T09:00:00Z,30.7,51.55,35.0,-10.0,200,12,,6.21,29.970472,,,,,,,,,,,CAVOK,,,,,,,,VFR,,,,,,,,,,,,METAR,1811.0
OISL 150900Z 00000KT CAVOK 41/09 Q1003,OISL,2015-06-15T09:00:00Z,27.67,54.37,41.0,9.0,0,0,,6.21,29.616142,,,,,,,,,,,CAVOK,,,,,,,,VFR,,,,,,,,,,,,METAR,805.0
OINR 150900Z 36008KT 9999 FEW020TCU 28/21 Q1008,OINR,2015-06-15T09:00:00Z,36.88,50.67,28.0,21.0,360,8,,6.21,29.763779,,,,,,,,,,,FEW,2000,,,,,,,VFR,,,,,,,,,,,,METAR,-20.0
OINN 150900Z 36008KT 9999 FEW025TCU SCT100 26/20 Q1009,OINN,2015-06-15T09:00:00Z,36.67,51.47,26.0,20.0,360,8,,6.21,29.793306,,,,,,,,,,,FEW,2500,SCT,10000,,,,,VFR,,,,,,,,,,,,METAR,-19.0
OIKQ 150900Z 13010KT 7000 NSC 38/28 Q0999,OIKQ,2015-06-15T09:00:00Z,26.75,55.9,38.0,28.0,130,10,,4.35,29.498032,,,,,,,,,,,,,,,,,,,,,,,,,,,,,,,METAR,12.0
OIAM 150900Z 31018KT CAVOK 43/M02 Q1000,OIAM,2015-06-15T09:00:00Z,30.55,49.15,43.0,-2.0,310,18,,6.21,29.52756,,,,,,,,,,,CAVOK,,,,,,,,VFR,,,,,,,,,,,,METAR,4.0
OIZI 150900Z 02008KT 9999 PO NSC 44/M05 Q1001,OIZI,2015-06-15T09:00:00Z,27.23,60.72,44.0,-5.0,20,8,,6.21,29.557087,,,,,,,,,,PO,,,,,,,,,,,,,,,,,,,,,METAR,591.0
OIZB 150900Z 33019G31KT 4000 SA NSC 37/05 Q1004,OIZB,2015-06-15T09:00:00Z,31.1,61.55,37.0,5.0,330,19,31,2.49,29.64567,,,,,,,,,,SA,,,,,,,,,,,,,,,,,,,,,METAR,489.0
OING 150900Z 06004KT 9999 FEW035 31/15 Q1009,OING,2015-06-15T09:00:00Z,36.9,54.4,31.0,15.0,60,4,,6.21,29.793306,,,,,,,,,,,FEW,3500,,,,,,,VFR,,,,,,,,,,,,METAR,155.0
OIBS 150900Z 04010KT 7000 FEW030 36/28 Q1000,OIBS,2015-06-15T09:00:00Z,25.9,54.55,36.0,28.0,40,10,,4.35,29.52756,,,,,,,,,,,FEW,3000,,,,,,,MVFR,,,,,,,,,,,,METAR,14.0
OIBJ 150900Z 22014KT CAVOK 37/14 Q1005,OIBJ,2015-06-15T09:00:00Z,27.82,52.35,37.0,14.0,220,14,,6.21,29.675198,,,,,,,,,,,CAVOK,,,,,,,,VFR,,,,,,,,,,,,METAR,663.0
UKON 150900Z 14004MPS 100V170 CAVOK 30/11 Q1011 NOSIG,UKON,2015-06-15T09:00:00Z,47.05,31.92,30.0,11.0,140,8,,6.21,29.852362,,,,,,TRUE,,,,,CAVOK,,,,,,,,VFR,,,,,,,,,,,,METAR,56.0
OIZJ 150900Z 18010KT 7000 FEW015 33/29 Q0999,OIZJ,2015-06-15T09:00:00Z,25.65,57.8,33.0,29.0,180,10,,4.35,29.498032,,,,,,,,,,,FEW,1500,,,,,,,MVFR,,,,,,,,,,,,METAR,4.0
OIMN 150900Z 09010KT CAVOK 31/M01 Q1014,OIMN,2015-06-15T09:00:00Z,37.48,57.3,31.0,-1.0,90,10,,6.21,29.940945,,,,,,,,,,,CAVOK,,,,,,,,VFR,,,,,,,,,,,,METAR,1074.0
OIMB 150900Z 05008KT CAVOK 32/M03 Q1014,OIMB,2015-06-15T09:00:00Z,32.9,59.28,32.0,-3.0,50,8,,6.21,29.940945,,,,,,,,,,,CAVOK,,,,,,,,VFR,,,,,,,,,,,,METAR,1491.0
OIIP 150900Z 13016KT 7000 NSC 32/07 Q1010,OIIP,2015-06-15T09:00:00Z,35.78,50.83,32.0,7.0,130,16,,4.35,29.822834,,,,,,,,,,,,,,,,,,,,,,,,,,,,,,,METAR,1271.0
OIBA 150900Z 33008KT 4000 HZ NSC 35/28 Q0999,OIBA,2015-06-15T09:00:00Z,25.88,55.03,35.0,28.0,330,8,,2.49,29.498032,,,,,,,,,,HZ,,,,,,,,,,,,,,,,,,,,,METAR,7.0
OITL 150900Z 06025KT 9999 FEW035 23/09 Q1013,OITL,2015-06-15T09:00:00Z,38.33,48.42,23.0,9.0,60,25,,6.21,29.911417,,,,,,,,,,,FEW,3500,,,,,,,VFR,,,,,,,,,,,,METAR,1316.0
OINZ 150900Z 36008KT 9999 FEW035 29/19 Q1008,OINZ,2015-06-15T09:00:00Z,36.63,53.2,29.0,19.0,360,8,,6.21,29.763779,,,,,,,,,,,FEW,3500,,,,,,,VFR,,,,,,,,,,,,METAR,11.0
OIHH 150900Z 28004KT CAVOK 32/M03 Q1012,OIHH,2015-06-15T09:00:00Z,34.87,48.55,32.0,-3.0,280,4,,6.21,29.88189,,,,,,,,,,,CAVOK,,,,,,,,VFR,,,,,,,,,,,,METAR,1757.0
OICS 150900Z 18008KT 9999 FEW040 34/M03 Q1009,OICS,2015-06-15T09:00:00Z,35.25,47.02,34.0,-3.0,180,8,,6.21,29.793306,,,,,,,,,,,FEW,4000,,,,,,,VFR,,,,,,,,,,,,METAR,1373.0
OIBB 150900Z 29016KT CAVOK 34/23 Q1000 A2954,OIBB,2015-06-15T09:00:00Z,28.97,50.82,34.0,23.0,290,16,,6.21,29.52756,,,,,,,,,,,CAVOK,,,,,,,,VFR,,,,,,,,,,,,METAR,19.0
FNKU 150900Z 12015KT CAVOK 19/05 Q1024,FNKU,2015-06-15T09:00:00Z,-12.37,16.93,19.0,5.0,120,15,,6.21,30.236221,,,,,,,,,,,CAVOK,,,,,,,,VFR,,,,,,,,,,,,METAR,1699.0
CXNP 150900Z AUTO 19004KT 03/03 RMK AO1 SLP224 T00290029 52008,CXNP,2015-06-15T09:00:00Z,45.75,-64.23,2.9,2.9,190,4,,,,1022.4,,TRUE,TRUE,,,,,,,,,,,,,,,,0.8,,,,,,,,,,,METAR,20.0
CZCR 150900Z AUTO 21004KT 04/04 RMK AO1 SLP213 T00350035 52003,CZCR,2015-06-15T09:00:00Z,47.97,-66.32,3.5,3.5,210,4,,,,1021.3,,TRUE,TRUE,,,,,,,,,,,,,,,,0.3,,,,,,,,,,,METAR,38.0
CZSP 150900Z AUTO 00000KT 06/05 RMK AO1 SLP222 T00560047 53015,CZSP,2015-06-15T09:00:00Z,46.45,-62.58,5.6,4.7,0,0,,,,1022.2,,TRUE,TRUE,,,,,,,,,,,,,,,,1.5,,,,,,,,,,,METAR,30.0
CERM 150900Z AUTO 00000KT 01/01 RMK AO1 SLP205 T00140007 55002,CERM,2015-06-15T09:00:00Z,47.42,-68.32,1.4,0.7,0,0,,,,1020.5,,TRUE,TRUE,,,,,,,,,,,,,,,,-0.2,,,,,,,,,,,METAR,154.0
CWAF 150900Z AUTO 07/ RMK AO1 T0069,CWAF,2015-06-15T09:00:00Z,48.07,-69.53,6.9,,,,,,,,,TRUE,TRUE,,,,,,,,,,,,,,,,,,,,,,,,,,,METAR,5.0
CWAQ 150900Z AUTO 30007KT 03/02 RMK AO1 SLP234 T00260015 51011,CWAQ,2015-06-15T09:00:00Z,49.05,-105.48,2.6,1.5,300,7,,,,1023.4,,TRUE,TRUE,,,,,,,,,,,,,,,,1.1,,,,,,,,,,,METAR,756.0
CZMU 150900Z AUTO 26007KT 05/04 RMK AO1 T00540038,CZMU,2015-06-15T09:00:00Z,53.57,-112.3,5.4,3.8,260,7,,,,,,TRUE,TRUE,,,,,,,,,,,,,,,,,,,,,,,,,,,METAR,683.0
CWKK 150900Z AUTO 25006KT 13/12 RMK AO1 SLP107 T01270118 56003,CWKK,2015-06-15T09:00:00Z,49.72,-88.33,12.7,11.8,250,6,,,,1010.7,,TRUE,TRUE,,,,,,,,,,,,,,,,-0.3,,,,,,,,,,,METAR,260.0
CWEF 150900Z AUTO 04012KT 07/04 RMK AO1 PK WND 04018/0815 SLP194 T00670039 53015,CWEF,2015-06-15T09:00:00Z,47.22,-60.12,6.7,3.9,40,12,,,,1019.4,,TRUE,TRUE,,,,,,,,,,,,,,,,1.5,,,,,,,,,,,METAR,26.0
CXVW 150900Z AUTO 04004KT 07/05 RMK AO1 T00710054,CXVW,2015-06-15T09:00:00Z,55.1,-117.2,7.1,5.4,40,4,,,,,,TRUE,TRUE,,,,,,,,,,,,,,,,,,,,,,,,,,,METAR,698.0
CWMZ 150900Z AUTO 14004KT 16/16 RMK AO1 SLP126 T01600156 55004,CWMZ,2015-06-15T09:00:00Z,45.02,-80.37,16.0,15.6,140,4,,,,1012.6,,TRUE,TRUE,,,,,,,,,,,,,,,,-0.4,,,,,,,,,,,METAR,191.0
CWJC 150900Z AUTO 36018KT 04/04 RMK AO1 PK WND 02025/0818 SLP161 T00420035 53016,CWJC,2015-06-15T09:00:00Z,61.13,-100.9,4.2,3.5,360,18,,,,1016.1,,TRUE,TRUE,,,,,,,,,,,,,,,,1.6,,,,,,,,,,,METAR,357.0
CXAT 150900Z AUTO 36001KT 02/M00 RMK AO1 SLP132 T00161001 58010,CXAT,2015-06-15T09:00:00Z,73.0,-85.03,1.6,-0.1,360,1,,,,1013.2,,TRUE,TRUE,,,,,,,,,,,,,,,,-1.0,,,,,,,,,,,METAR,19.0
CWZN 150900Z AUTO 00000KT 06/03 RMK AO1 SLP145 T00610031 53026,CWZN,2015-06-15T09:00:00Z,47.37,-55.8,6.1,3.1,0,0,,,,1014.5,,TRUE,TRUE,,,,,,,,,,,,,,,,2.6,,,,,,,,,,,METAR,64.0
CWDA 150900Z AUTO 30007G15KT 04/03 RMK AO1 SLP158 T00380030 51008,CWDA,2015-06-15T09:00:00Z,50.72,-56.12,3.8,3.0,300,7,15,,,1015.8,,TRUE,TRUE,,,,,,,,,,,,,,,,0.8,,,,,,,,,,,METAR,29.0
CWPS 150900Z AUTO 16/15 RMK AO1 SLP126 T01560150 55001,CWPS,2015-06-15T09:00:00Z,42.57,-80.03,15.6,15.0,,,,,,1012.6,,TRUE,TRUE,,,,,,,,,,,,,,,,-0.1,,,,,,,,,,,METAR,175.0
CWNL 150900Z AUTO 30001KT 09/ RMK AO1 SLP132 T0089 55002,CWNL,2015-06-15T09:00:00Z,45.62,-82.97,8.9,,300,1,,,,1013.2,,TRUE,TRUE,,,,,,,,,,,,,,,,-0.2,,,,,,,,,,,METAR,183.0
CWCI 150900Z AUTO 15003KT 04/04 RMK AO1 SLP126 T00410041 56008,CWCI,2015-06-15T09:00:00Z,47.32,-85.82,4.1,4.1,150,3,,,,1012.6,,TRUE,TRUE,,,,,,,,,,,,,,,,-0.8,,,,,,,,,,,METAR,187.0
HUKA 150900Z 00000KT 9999 BKN023 FEW025CB BKN120 26/XX,HUKA,2015-06-15T09:00:00Z,,,26.0,,0,0,,6.21,,,,,,,,,,,,BKN,2300,FEW,2500,BKN,12000,,,MVFR,,,,,,,,,,,,METAR,
GQNI 150900Z 22012KT 5000 HZ NSC 35/19 Q1013,GQNI,2015-06-15T09:00:00Z,16.6,-7.27,35.0,19.0,220,12,,3.11,29.911417,,,,,,,,,,HZ,,,,,,,,,,,,,,,,,,,,,METAR,269.0
BIIS 150900Z 04003KT CAVOK 07/02 Q1012,BIIS,2015-06-15T09:00:00Z,66.05,-23.13,7.0,2.0,40,3,,6.21,29.88189,,,,,,,,,,,CAVOK,,,,,,,,VFR,,,,,,,,,,,,METAR,3.0
MDPP 150900Z 00000KT 9999 FEW018 25/24 Q1015 NOSIG,MDPP,2015-06-15T09:00:00Z,19.75,-70.57,25.0,24.0,0,0,,6.21,29.970472,,,,,,TRUE,,,,,FEW,1800,,,,,,,VFR,,,,,,,,,,,,METAR,5.0
SBLO 150900Z 20014KT 4000 -RA FEW002 BKN006 BKN025 15/15 Q1015 RERA,SBLO,2015-06-15T09:00:00Z,-23.32,-51.12,15.0,15.0,200,14,,2.49,29.970472,,,,,,,,,,-RA,FEW,200,BKN,600,BKN,2500,,,IFR,,,,,,,,,,,,METAR,570.0
MMMM 150859Z RTD 18003KT 6SM SCT030 OVC080 16/16 A3012 RMK SLP064 57002 919 8/57/,MMMM,2015-06-15T08:59:00Z,19.85,-101.02,16.0,16.0,180,3,,6.0,30.121063,1006.4,,,,,,,,,,SCT,3000,OVC,8000,,,,,VFR,-0.2,,,,,,,,,,,METAR,1833.0
MUCF 150859Z AUTO 07012KT 24/22 Q1017,MUCF,2015-06-15T08:59:00Z,22.13,-80.4,24.0,22.0,70,12,,,30.029528,,,TRUE,,,,,,,,,,,,,,,,,,,,,,,,,,,,METAR,39.0
KVOK 150858Z 10002KT 10SM MIFG SCT060 OVC200 18/18 A2989 RMK AO2A SLP120 57008,KVOK,2015-06-15T08:58:00Z,43.92,-90.27,18.0,18.0,100,2,,10.0,29.890747,1012.0,,,TRUE,,,,,,MIFG,SCT,6000,OVC,20000,,,,,VFR,-0.8,,,,,,,,,,,METAR,277.0
RKJK 150858Z 32009KT 5SM BR FEW030 SCT045 OVC180 21/19 A2973 RMK AO2A SLP072 T02080192 55003 VISNO RWY18 CHINO RWY18 $,RKJK,2015-06-15T08:58:00Z,35.9,126.62,20.8,19.2,320,9,,5.0,29.731298,1007.2,,,TRUE,TRUE,,,,,BR,FEW,3000,SCT,4500,OVC,18000,,,MVFR,-0.3,,,,,,,,,,,SPECI,9.0
FAEO 150858Z 25010KT CAVOK 14/M02 Q1027,FAEO,2015-06-15T08:58:00Z,-26.5,29.97,14.0,-2.0,250,10,,6.21,30.324802,,,,,,,,,,,CAVOK,,,,,,,,VFR,,,,,,,,,,,,SPECI,1737.0
KBAD 150858Z AUTO 13005KT 10SM CLR 23/23 A2998 RMK AO2 SLP153 T02290229 55003,KBAD,2015-06-15T08:58:00Z,32.5,-93.67,22.9,22.9,130,5,,10.0,29.97933,1015.3,,TRUE,TRUE,,,,,,,CLR,,,,,,,,VFR,-0.3,,,,,,,,,,,METAR,51.0
RKSG 150858Z 30009KT 4SM HZ FEW040 BKN200 24/19 A2970 RMK AO2A SLP060 T02420191 57002 $,RKSG,2015-06-15T08:58:00Z,36.97,127.02,24.2,19.1,300,9,,4.0,29.698818,1006.0,,,TRUE,TRUE,,,,,HZ,FEW,4000,BKN,20000,,,,,MVFR,-0.2,,,,,,,,,,,METAR,16.0
KMIB 150858Z AUTO 30006KT 10SM CLR 09/09 A3011 RMK AO2 SLP201 T00940092 51011 $,KMIB,2015-06-15T08:58:00Z,48.42,-101.33,9.4,9.2,300,6,,10.0,30.109253,1020.1,,TRUE,TRUE,TRUE,,,,,,CLR,,,,,,,,VFR,1.1,,,,,,,,,,,METAR,508.0
KBIF 150858Z AUTO 09006KT 10SM FEW170 25/06 A2993 RMK AO2 SLP060 T02500058 52006 $,KBIF,2015-06-15T08:58:00Z,31.85,-106.38,25.0,5.8,90,6,,10.0,29.929134,1006.0,,TRUE,TRUE,TRUE,,,,,,FEW,17000,,,,,,,VFR,0.6,,,,,,,,,,,METAR,1203.0
EGVA 150858Z AUTO 05007KT 9999 CLR 14/06 A3017 RMK AO2 SLP220 T01410064 52010,EGVA,2015-06-15T08:58:00Z,51.67,-1.77,14.1,6.4,50,7,,6.21,30.171259,1022.0,,TRUE,TRUE,,,,,,,CLR,,,,,,,,VFR,1.0,,,,,,,,,,,SPECI,87.0
EGUN 150858Z AUTO 06007KT 9999 BKN070 14/07 A3019 RMK AO2 SLP227 T01390069 52012 .,EGUN,2015-06-15T08:58:00Z,52.37,0.47,13.9,6.9,60,7,,6.21,30.188976,1022.7,,TRUE,TRUE,,,,,,,BKN,7000,,,,,,,VFR,1.2,,,,,,,,,,,METAR,10.0
EGUL 150858Z AUTO 05005KT 9999 OVC070 14/06 A3018 RMK AO2 SLP223 T01370058 52012,EGUL,2015-06-15T08:58:00Z,52.42,0.57,13.7,5.8,50,5,,6.21,30.180119,1022.3,,TRUE,TRUE,,,,,,,OVC,7000,,,,,,,VFR,1.2,,,,,,,,,,,SPECI,10.0
FOOL 150858Z 15008KT 9999 BKN010 OVC036 24/21 Q1016 NOSIG,FOOL,2015-06-15T08:58:00Z,0.45,9.42,24.0,21.0,150,8,,6.21,30.0,,,,,,TRUE,,,,,BKN,1000,OVC,3600,,,,,MVFR,,,,,,,,,,,,METAR,15.0
KU16 150858Z AUTO 05006KT 10SM CLR 19/03 A2993 RMK AO2 SLP762 T01940028 50002 $,KU16,2015-06-15T08:58:00Z,41.05,-113.07,19.4,2.8,50,6,,10.0,29.929134,976.2,,TRUE,TRUE,TRUE,,,,,,CLR,,,,,,,,VFR,0.2,,,,,,,,,,,METAR,1292.0
RKSO 150858Z 30008KT 5SM HZ BKN200 25/20 A2970 RMK AO2A SLP060 T02530201 55003 $,RKSO,2015-06-15T08:58:00Z,37.07,127.02,25.3,20.1,300,8,,5.0,29.698818,1006.0,,,TRUE,TRUE,,,,,HZ,BKN,20000,,,,,,,MVFR,-0.3,,,,,,,,,,,SPECI,12.0
RJTY 150858Z AUTO 18013KT 10SM CLR 26/16 A2976 RMK AO2 SLP076 60000 T02560162 55006,RJTY,2015-06-15T08:58:00Z,35.75,139.33,25.6,16.2,180,13,,10.0,29.760826,1007.6,,TRUE,TRUE,,,,,,,CLR,,,,,,,,VFR,-0.6,,,,,,,,,,,SPECI,139.0
KFRI 150858Z AUTO 19009KT 9SM -RA SCT075 SCT130 20/20 A2988 RMK AO2 RAE07RAB08E29DZB29E37DZB40E51RAB51 SLP109 P0004 60040 T01970197 58006,KFRI,2015-06-15T08:58:00Z,39.03,-96.77,19.7,19.7,190,9,,9.0,29.878937,1010.9,,TRUE,TRUE,,,,,,-RA,SCT,7500,SCT,13000,,,,,VFR,-0.6,,,,,0.04,0.4,,,,,METAR,325.0
RKTP 150857Z 32006KT 9999 BKN200 24/19 A2972,RKTP,2015-06-15T08:57:00Z,,,24.0,19.0,320,6,,6.21,29.719488,,,,,,,,,,,BKN,20000,,,,,,,VFR,,,,,,,,,,,,METAR,
PAFB 150856Z AUTO 00000KT 10SM CLR 15/07 A3034 RMK SLP277 T01500072 53004 $ VIA AUTODIAL,PAFB,2015-06-15T08:56:00Z,64.83,-147.62,15.0,7.2,0,0,,10.0,30.339567,1027.7,,TRUE,,TRUE,,,,,,CLR,,,,,,,,VFR,0.4,,,,,,,,,,,METAR,137.0
MUGM 150856Z 34008KT 9999 FEW030 SCT280 26/22 A2998 RMK SLP153 T02610222 56006,MUGM,2015-06-15T08:56:00Z,19.9,-75.2,26.1,22.2,340,8,,6.21,29.97933,1015.3,,,,,,,,,,FEW,3000,SCT,28000,,,,,VFR,-0.6,,,,,,,,,,,METAR,17.0
KQL5 150855Z VRB04KT 9999 FEW120 37/04 A2959 RMK SLP978 T03720042 57023 $,KQL5,2015-06-15T08:55:00Z,100.65,-1000.65,37.2,4.2,0,4,,6.21,29.589567,997.8,,,,TRUE,,,,,,FEW,12000,,,,,,,VFR,-2.3,,,,,,,,,,,METAR,999.0
KQTZ 150855Z 02009G17KT 350V060 9999 CLR 40/02 A2961 RMK SLP025 WND DATA ESTMD ALSTG/SLP ESTMD 57003,KQTZ,2015-06-15T08:55:00Z,100.65,-1000.65,40.0,2.0,20,9,17,6.21,29.610237,1002.5,,,,,,,,,,CLR,,,,,,,,VFR,-0.3,,,,,,,,,,,SPECI,999.0
LIRK 150855Z AUTO 28010G20KT 250V350 //// 10/10 Q1023,LIRK,2015-06-15T08:55:00Z,42.47,12.97,10.0,10.0,280,10,20,,30.206694,,,TRUE,,,,,,,,,,,,,,,,,,,,,,,,,,,,METAR,1875.0
LIRT 150855Z 29016KT 9999 FEW002 17/14 Q1020 RMK BKN SCT100 MON W INVIS VAL NIL VIS MIN 9999W,LIRT,2015-06-15T08:55:00Z,41.03,15.22,17.0,14.0,290,16,,6.21,30.11811,,,,,,,,,,,FEW,200,,,,,,,VFR,,,,,,,,,,,,METAR,1093.0
LIVF 150855Z 18007KT 9999 BKN021 21/15 Q1015 RMK BKN MON S W CIME INC NC VAL NIL VIS MIN 9999,LIVF,2015-06-15T08:55:00Z,43.52,12.72,21.0,15.0,180,7,,6.21,29.970472,,,,,,,,,,,BKN,2100,,,,,,,MVFR,,,,,,,,,,,,METAR,574.0
KQXT 150855Z 21010G16KT 9999 CLR 39/M04 A2962 RMK SLP964 WND DATA ESTMD ALSTG/SLP ESTMD Q1003 57012,KQXT,2015-06-15T08:55:00Z,100.65,-1000.65,39.0,-4.0,210,10,16,6.21,29.619095,996.4,,,,,,,,,,CLR,,,,,,,,VFR,-1.2,,,,,,,,,,,METAR,999.0
LIVT 150855Z 00000KT 9999 FEW025 23/19 Q1012 RMK SCT QUK 1 QUL 0 VIS MAR 18 KM VIS MIN 9999,LIVT,2015-06-15T08:55:00Z,45.68,13.75,23.0,19.0,0,0,,6.21,29.88189,,,,,,,,,,,FEW,2500,,,,,,,VFR,,,,,,,,,,,,METAR,20.0
LIVO 150855Z 27005KT 9999 FEW018TCU SCT020 18/14 Q1013 RMK BKN BKN080 VIS MIN 9999,LIVO,2015-06-15T08:55:00Z,46.5,13.57,18.0,14.0,270,5,,6.21,29.911417,,,,,,,,,,,FEW,1800,SCT,2000,,,,,VFR,,,,,,,,,,,,METAR,778.0
LIVM 150855Z 06004KT 9999 FEW030 SCT040 27/19 Q1012 RMK SCT QUK 2 QUL 1 E VIS MAR 20 KM VIS MIN 9999,LIVM,2015-06-15T08:55:00Z,44.45,12.3,27.0,19.0,60,4,,6.21,29.88189,,,,,,,,,,,FEW,3000,SCT,4000,,,,,VFR,,,,,,,,,,,,METAR,6.0
LIVD 150855Z 30005KT 9999 BKN030 16/09 Q1016 RMK OVC VIS MIN 9999,LIVD,2015-06-15T08:55:00Z,46.72,12.22,16.0,9.0,300,5,,6.21,30.0,,,,,,,,,,,BKN,3000,,,,,,,MVFR,,,,,,,,,,,,METAR,1226.0
LIRX 150855Z 02004KT 9000 FEW004 23/21 Q1014 RMK SCT SCT200 VIS MIN 9000 VIS MAR 9 KM,LIRX,2015-06-15T08:55:00Z,42.73,10.38,23.0,21.0,20,4,,5.59,29.940945,,,,,,,,,,,FEW,400,,,,,,,VFR,,,,,,,,,,,,METAR,297.0
LIQO 150855Z 20007KT 0000 FG VV/// 19/19 Q1015 RMK VAL INVIS NC VIS MIN 0000,LIQO,2015-06-15T08:55:00Z,42.37,11.17,19.0,19.0,200,7,,0.0,29.970472,,,,,,,,,,FG,OVX,0,,,,,,,LIFR,,,,,,,,,,,,METAR,632.0
LIMY 150855Z 02006KT 350V070 8000 SCT013 17/14 Q1013 RMK BKN VAL FOSCHIA VIS MIN 8000,LIMY,2015-06-15T08:55:00Z,44.25,7.78,17.0,14.0,20,6,,4.97,29.911417,,,,,,,,,,,SCT,1300,,,,,,,MVFR,,,,,,,,,,,,METAR,1742.0
LIMV 150855Z /////KT 8000 FEW008CB FEW010TCU SCT012 19/16 Q1014 RMK BKN MON GEN INC CUF ELEV SLW VAL FOSCHIA VIS MIN 8000,LIMV,2015-06-15T08:55:00Z,44.55,8.92,19.0,16.0,,,,4.97,29.940945,,,,,,,,,,,FEW,800,FEW,1000,SCT,1200,,,MVFR,,,,,,,,,,,,METAR,475.0
LIMU 150855Z 19011KT CAVOK 22/22 Q1013 RMK SKC QUK 2 QUL 1 S VIS MAR 30 KM VIS MIN 9999,LIMU,2015-06-15T08:55:00Z,43.95,8.17,22.0,22.0,190,11,,6.21,29.911417,,,,,,,,,,,CAVOK,,,,,,,,VFR,,,,,,,,,,,,METAR,221.0
LIMT 150855Z 18022KT 9999 BKN011 SCT015 14/11 Q1015 RMK OVC MON CLD CIME VAL NIL VIS MIN 9999,LIMT,2015-06-15T08:55:00Z,44.47,9.92,14.0,11.0,180,22,,6.21,29.970472,,,,,,,,,,,BKN,1100,SCT,1500,,,,,MVFR,,,,,,,,,,,,METAR,1040.0
LIED 150855Z 31007KT 9999 FEW020 21/19 Q1015 RMK BKN BKN070 VIS MIN 9999 WIND THR35 32008KT WIND THR17 31009KT BLU,LIED,2015-06-15T08:55:00Z,39.35,8.97,21.0,19.0,310,7,,6.21,29.970472,,,,,,,,,,,FEW,2000,,,,,,,VFR,,,,,,,,,,,,METAR,28.0
LICZ 150855Z 10003KT CAVOK 30/19 Q1015 RMK SKC VIS MIN 9999 WIND THR28 05004KT A2999 BLU,LICZ,2015-06-15T08:55:00Z,37.38,14.92,30.0,19.0,100,3,,6.21,29.970472,,,,,,,,,,,CAVOK,,,,,,,,VFR,,,,,,,,,,,,METAR,22.0
LIBV 150855Z 24006KT CAVOK 27/09 Q1015 RMK BKN FEW170 SCT200 VIS MIN 9999 WIND THR32 26007KT WIND THR14 24008KT BLU,LIBV,2015-06-15T08:55:00Z,40.77,16.92,27.0,9.0,240,6,,6.21,29.970472,,,,,,,,,,,CAVOK,,,,,,,,VFR,,,,,,,,,,,,METAR,350.0
LIBQ 150855Z 24006KT 9999 FEW040 20/06 Q1018 RMK FEW MON LIB VAL NIL VIS MIN 9999,LIBQ,2015-06-15T08:55:00Z,39.32,16.38,20.0,6.0,240,6,,6.21,30.059055,,,,,,,,,,,FEW,4000,,,,,,,VFR,,,,,,,,,,,,METAR,1720.0
LIBN 150855Z 25007KT 9999 FEW030 30/20 Q1014 RMK FEW VIS MIN 9999 WIND THR14 24007KT BLU,LIBN,2015-06-15T08:55:00Z,40.22,18.13,30.0,20.0,250,7,,6.21,29.940945,,,,,,,,,,,FEW,3000,,,,,,,VFR,,,,,,,,,,,,METAR,61.0
LIBA 150855Z 28004KT 9999 FEW040 29/15 Q1013 RMK BKN SCT070 BKN200 VIS MIN 9999 WIND THR29 27006KT BLU,LIBA,2015-06-15T08:55:00Z,41.52,15.72,29.0,15.0,280,4,,6.21,29.911417,,,,,,,,,,,FEW,4000,,,,,,,VFR,,,,,,,,,,,,METAR,60.0
LIVP 150855Z VRB03KT 0000 FG VV/// 08/06 Q1018 RMK MON INVIS VAL INVIS VIS MIN 0000,LIVP,2015-06-15T08:55:00Z,46.15,11.03,8.0,6.0,0,3,,0.0,30.059055,,,,,,,,,,FG,OVX,0,,,,,,,LIFR,,,,,,,,,,,,METAR,2129.0
LIVC 150855Z 21026KT 0000 FG VV000 09/07 Q1021 RMK MON INVIS VAL INVIS VIS MIN 0000,LIVC,2015-06-15T08:55:00Z,44.2,10.68,9.0,7.0,210,26,,0.0,30.147638,,,,,,,,,,FG,OVX,0,,,,,,,LIFR,,,,,,,,,,,0,METAR,2173.0
LIPS 150855Z 28003KT 9999 BKN015 SCT080 23/18 Q1013 RMK BKN VIS MIN 9999 WIND THR26 27002KT WIND THR08 27003KT WHT,LIPS,2015-06-15T08:55:00Z,45.67,12.08,23.0,18.0,280,3,,6.21,29.911417,,,,,,,,,,,BKN,1500,SCT,8000,,,,,MVFR,,,,,,,,,,,,METAR,41.0
LIPL 150855Z /////KT 8000 SCT015 SCT025 22/20 Q1013 RMK BKN VIS MIN 8000 WIND THR31 29004KT BLU,LIPL,2015-06-15T08:55:00Z,45.42,10.27,22.0,20.0,,,,4.97,29.911417,,,,,,,,,,,SCT,1500,SCT,2500,,,,,MVFR,,,,,,,,,,,,METAR,92.0
LIPI 150855Z 22008KT 9999 FEW020 SCT035 23/20 Q1012 RMK BKN VIS MIN 9999 WIND THR06 20004KT BLU,LIPI,2015-06-15T08:55:00Z,45.97,13.05,23.0,20.0,220,8,,6.21,29.88189,,,,,,,,,,,FEW,2000,SCT,3500,,,,,VFR,,,0.4,,,,,,,,,METAR,53.0
LIPA 150855Z 16003KT 9999 SCT020 FEW025CB BKN040 22/15 Q1012 RMK BKN VIS MIN 9999 WIND THR05 /////KT WIND THR23 /////KT A2991 BLU,LIPA,2015-06-15T08:55:00Z,46.02,12.58,22.0,15.0,160,3,,6.21,29.88189,,,,,,,,,,,SCT,2000,FEW,2500,BKN,4000,,,VFR,,,,,,,,,,,,METAR,126.0
LIMN 150855Z /////KT 9999 SCT020 21/16 Q1012 RMK BKN SCT200 VIS MIN 9999 BLK BLU,LIMN,2015-06-15T08:55:00Z,45.52,8.67,21.0,16.0,,,,6.21,29.88189,,,,,,,,,,,SCT,2000,,,,,,,VFR,,,,,,,,,,,,METAR,169.0
LIMK 150855Z 00000KT 9999 BKN013 15/15 Q1014 RMK BKN VAL FOSCHIA VIS MIN 9999,LIMK,2015-06-15T08:55:00Z,45.02,7.72,15.0,15.0,0,0,,6.21,29.940945,,,,,,,,,,,BKN,1300,,,,,,,MVFR,,,,,,,,,,,,METAR,710.0
LIVE 150855Z /////KT 9999 OVC020 13/10 Q1015 RMK OVC VIS MIN 9999,LIVE,2015-06-15T08:55:00Z,46.85,10.5,13.0,10.0,,,,6.21,29.970472,,,,,,,,,,,OVC,2000,,,,,,,MVFR,,,,,,,,,,,,METAR,1800.0
KGXA 150855Z AUTO 23006KT 10SM CLR 23/M01 A2987 RMK AO2 SLP050 T02311011 54001 PWINO TSNO $,KGXA,2015-06-15T08:55:00Z,34.57,-117.67,23.1,-1.1,230,6,,10.0,29.870079,1005.0,,TRUE,TRUE,TRUE,,TRUE,,TRUE,,CLR,,,,,,,,VFR,,,,,,,,,,,,METAR,923.0
LICT 150855Z 32011KT 9999 FEW025 24/21 Q1015 RMK FEW VIS MIN 9999 WIND THR13 /////KT BLU,LICT,2015-06-15T08:55:00Z,37.92,12.5,24.0,21.0,320,11,,6.21,29.970472,,,,,,,,,,,FEW,2500,,,,,,,VFR,,,,,,,,,,,,METAR,7.0
LICG 150855Z /////KT 9999 SCT012 21/20 Q1017 RMK SCT VIS MIN 9999 WIND THR08 33005KT WIND THR21 33007KT BLU,LICG,2015-06-15T08:55:00Z,36.82,11.97,21.0,20.0,,,,6.21,30.029528,,,,,,,,,,,SCT,1200,,,,,,,VFR,,,,,,,,,,,,METAR,191.0
KRPX 150855Z AUTO 36000KT 40SM 12/04 A3012 RMK A01 T01160044 ,KRPX,2015-06-15T08:55:00Z,46.47,-108.55,11.6,4.4,360,0,,40.0,30.121063,,,TRUE,TRUE,,,,,,,,,,,,,,,,,,,,,,,,,,,METAR,1065.0
LIPF 150855Z 06002KT 9999 FEW030 26/20 Q1012 RMK FEW VIS MIN 9999,LIPF,2015-06-15T08:55:00Z,44.82,11.62,26.0,20.0,60,2,,6.21,29.88189,,,,,,,,,,,FEW,3000,,,,,,,VFR,,,,,,,,,,,,METAR,10.0
LIPC 150855Z 27005KT CAVOK 26/20 Q1013 RMK SCT SCT100 VIS MIN 9999 WIND THR11 27005KT WIND THR29 27005KT BLU,LIPC,2015-06-15T08:55:00Z,44.22,12.3,26.0,20.0,270,5,,6.21,29.911417,,,,,,,,,,,CAVOK,,,,,,,,VFR,,,,,,,,,,,,METAR,10.0
LIRS 150855Z 17009KT 9999 FEW010 SCT025 24/18 Q1013 RMK BKN BKN120 VIS MIN 9999 WIND THR03 19012KT WIND THR21 17011KT BLU,LIRS,2015-06-15T08:55:00Z,42.75,11.07,24.0,18.0,170,9,,6.21,29.911417,,,,,,,,,,,FEW,1000,SCT,2500,,,,,VFR,,,,,,,,,,,,METAR,7.0
PACZ 150855Z AUTO 14002KT M1/4SM FG VV002 04/04 A3056 RMK AO2 SLP354 T00390042 400610035 52002,PACZ,2015-06-15T08:55:00Z,61.78,-166.03,3.9,4.2,140,2,,0.25,30.561024,1035.4,,TRUE,TRUE,,,,,,FG,OVX,0,,,,,,,LIFR,0.2,,,6.1,3.5,,,,,,200,METAR,146.0
LIRM 150855Z 07002KT 9999 SCT020 26/24 Q1015 RMK BKN BKN100 VIS MIN 9999 WIND THR06 35003KT BLU,LIRM,2015-06-15T08:55:00Z,41.03,14.07,26.0,24.0,70,2,,6.21,29.970472,,,,,,,,,,,SCT,2000,,,,,,,VFR,,,,,,,,,,,,METAR,10.0
LIRL 150855Z 15003KT 7000 -RA SCT020 BKN070 23/21 Q1016 RMK OVC MON LIB NC VIS MIN 7000 WIND THR30 17002KT WHT,LIRL,2015-06-15T08:55:00Z,41.53,12.9,23.0,21.0,150,3,,4.35,30.0,,,,,,,,,,-RA,SCT,2000,BKN,7000,,,,,MVFR,,,,,,,,,,,,METAR,26.0
LIRH 150855Z 09002KT 3000 -RA BR SCT015 22/19 Q1017 RMK OVC BKN070 MON CIME INC NC VIS MIN 3000 WIND THR16 10001KT YLO,LIRH,2015-06-15T08:55:00Z,41.65,13.3,22.0,19.0,90,2,,1.86,30.029528,,,,,,,,,,-RA BR,SCT,1500,,,,,,,IFR,,0.1,,,,,,,,,,METAR,181.0
LIRG 150855Z 16005KT 8000 -RA SCT027 23/19 Q1016 RMK OVC BKN070 MON NE CIME INC VIS MIN 8000 BLU,LIRG,2015-06-15T08:55:00Z,42.0,12.72,23.0,19.0,160,5,,4.97,30.0,,,,,,,,,,-RA,SCT,2700,,,,,,,MVFR,,,,,,,,,,,,METAR,89.0
LIQW 150855Z 19004KT 9999 SCT020 24/18 Q1015 RMK SCT VIS MIN 9999 BLU,LIQW,2015-06-15T08:55:00Z,44.07,9.97,24.0,18.0,190,4,,6.21,29.970472,,,,,,,,,,,SCT,2000,,,,,,,VFR,,,,,,,,,,,,METAR,10.0
LIMS 150855Z 36007KT 310V040 9999 FEW010 FEW017TCU SCT023 22/20 Q1012 RMK BKN VIS MIN 9999 WIND THR30 33006KT BLU,LIMS,2015-06-15T08:55:00Z,44.92,9.72,22.0,20.0,360,7,,6.21,29.88189,,,,,,,,,,,FEW,1000,FEW,1700,SCT,2300,,,VFR,,,,,,,,,,,,METAR,138.0
LIRV 150855Z 24011KT 9999 SCT012 SCT018 BKN050 22/18 Q1016 RMK OVC MON E SE CIME INC NC VIS MIN 9999 BLU,LIRV,2015-06-15T08:55:00Z,42.42,12.07,22.0,18.0,240,11,,6.21,30.0,,,,,,,,,,,SCT,1200,SCT,1800,BKN,5000,,,VFR,,,,,,,,,,,,METAR,300.0
KQBF 150855Z AUTO VRB04KT 10SM CLR 32/20 A3015 RMK AO2 SLP186 T03220199 53009,KQBF,2015-06-15T08:55:00Z,100.65,-1000.65,32.2,19.9,0,4,,10.0,30.15059,1018.6,,TRUE,TRUE,,,,,,,CLR,,,,,,,,VFR,0.9,,,,,,,,,,,METAR,999.0
KQGV 150855Z 34013G21KT 9999 CLR 42/M02 A2961 RMK SLPNO QNH1003 PA +761 58002,KQGV,2015-06-15T08:55:00Z,100.65,-1000.65,42.0,-2.0,340,13,21,6.21,29.610237,,,,,,,,,,,CLR,,,,,,,,VFR,-0.2,,,,,,,,,,,METAR,999.0
LIRE 150855Z 18007KT 9999 SCT015 BKN030 24/20 Q1016 RMK OVC VIS MIN 9999 WIND THR31 /////KT BLU,LIRE,2015-06-15T08:55:00Z,41.63,12.42,24.0,20.0,180,7,,6.21,30.0,,,,,,,,,,,SCT,1500,BKN,3000,,,,,MVFR,,,,,,,,,,,,METAR,12.0
LIQC 150855Z ///03KT 9999 BKN030 24/21 Q1015 RMK BKN QUK 1 QUL 0 VIS MAR 20 KM VIS MIN 9999,LIQC,2015-06-15T08:55:00Z,40.55,14.2,24.0,21.0,,,,6.21,29.970472,,,,,,,,,,,BKN,3000,,,,,,,MVFR,,,,,,,,,,,,METAR,269.0
LIEB 150855Z 28006KT 9999 SCT035 19/17 Q1015 RMK OVC SCT080 QUK 2 QUL 0 VIS MAR 20 KM MON LIB VIS MIN 9999,LIEB,2015-06-15T08:55:00Z,39.93,9.72,19.0,17.0,280,6,,6.21,29.970472,,,,,,,,,,,SCT,3500,,,,,,,VFR,,,,,,,,,,,,METAR,156.0
LICF 150855Z 05005KT 9999 FEW010 26/20 Q1014 RMK FEW QUK 2 QUL 0 VIS MAR 10 KM MON LIB NC VIS MIN 9999,LICF,2015-06-15T08:55:00Z,38.2,15.55,26.0,20.0,50,5,,6.21,29.940945,,,,,,,,,,,FEW,1000,,,,,,,VFR,,,,,,,,,,,,METAR,51.0
LIBY 150855Z 23005KT CAVOK 24/19 Q1014 RMK SKC QUK 1 QUL 0 VIS MAR 10 KM VIS MIN 9999,LIBY,2015-06-15T08:55:00Z,39.82,18.35,24.0,19.0,230,5,,6.21,29.940945,,,,,,,,,,,CAVOK,,,,,,,,VFR,,,,,,,,,,,,METAR,112.0
PANT 150853Z AUTO 00000KT 10SM CLR 14/12 A3003 RMK SLP169 T01440117 402670106 57002 TSNO VIA AUTODIAL,PANT,2015-06-15T08:53:00Z,55.03,-131.57,14.4,11.7,0,0,,10.0,30.029528,1016.9,,TRUE,,,,TRUE,,,,CLR,,,,,,,,VFR,-0.2,,,26.7,10.6,,,,,,,SPECI,36.0
PAWI 150853Z AUTO 21013KT 10SM SCT024 OVC060 07/04 A3031 RMK SLP264 T00720039 400940022 50000 TSNO VIA AUTODIAL,PAWI,2015-06-15T08:53:00Z,70.62,-159.85,7.2,3.9,210,13,,10.0,30.31004,1026.4,,TRUE,,,,TRUE,,,,SCT,2400,OVC,6000,,,,,VFR,0.0,,,9.4,2.2,,,,,,,SPECI,27.0
PABR 150853Z 00000KT 10SM OVC070 07/03 A3033 RMK SLP271 T00720028 400780039 58004 $ VIA AUTODIAL,PABR,2015-06-15T08:53:00Z,71.28,-156.8,7.2,2.8,0,0,,10.0,30.33071,1027.1,,,,TRUE,,,,,,OVC,7000,,,,,,,VFR,-0.4,,,7.8,3.9,,,,,,,SPECI,7.0
PAKW 150853Z AUTO 00000KT 10SM CLR 12/09 A3004 RMK AO2 SLP172 T01170089 402560094 56007 TSNO,PAKW,2015-06-15T08:53:00Z,55.58,-133.07,11.7,8.9,0,0,,10.0,30.041338,1017.2,,TRUE,TRUE,,,TRUE,,,,CLR,,,,,,,,VFR,-0.7,,,25.6,9.4,,,,,,,METAR,15.0
VEPT 150850Z 05008KT 5000 HZ FEW020 37/23 Q0998 NOSIG,VEPT,2015-06-15T08:50:00Z,25.6,85.08,37.0,23.0,50,8,,3.11,29.468504,,,,,,TRUE,,,,HZ,FEW,2000,,,,,,,MVFR,,,,,,,,,,,,METAR,60.0
VGHS 150850Z 15006KT 4000 HZ BKN010 FEW025CB BKN100 30/25 Q1001 TEMPO TSRA,VGHS,2015-06-15T08:50:00Z,23.85,90.4,30.0,25.0,150,6,,2.49,29.557087,,,,,,,,,,HZ,BKN,1000,FEW,2500,BKN,10000,,,IFR,,,,,,,,,,,,METAR,10.0
LTCW 150850Z 17005KT 9999 FEW040 24/03 Q1014,LTCW,2015-06-15T08:50:00Z,,,24.0,3.0,170,5,,6.21,29.940945,,,,,,,,,,,FEW,4000,,,,,,,VFR,,,,,,,,,,,,METAR,
EGXZ 150850Z AUTO 20006KT 9999 NCD 12/06 Q1023,EGXZ,2015-06-15T08:50:00Z,54.2,-1.38,12.0,6.0,200,6,,6.21,30.206694,,,TRUE,,,,,,,,,,,,,,,,,,,,,,,,,,,,METAR,28.0
EGXS 150850Z AUTO 08006KT 9999 // FEW025/// 12/06 Q1023,EGXS,2015-06-15T08:50:00Z,53.48,0.15,12.0,6.0,80,6,,6.21,30.206694,,,TRUE,,,,,,,,,,,,,,,,,,,,,,,,,,,,METAR,3.0
EGOM 150850Z AUTO 27005KT 9999 BKN120/// 12/06 Q1021,EGOM,2015-06-15T08:50:00Z,55.05,-2.55,12.0,6.0,270,5,,6.21,30.147638,,,TRUE,,,,,,,,,,,,,,,,,,,,,,,,,,,,METAR,325.0
LTCF 150850Z 07014KT 040V110 CAVOK 20/08 Q1016,LTCF,2015-06-15T08:50:00Z,40.57,43.12,20.0,8.0,70,14,,6.21,30.0,,,,,,,,,,,CAVOK,,,,,,,,VFR,,,,,,,,,,,,METAR,1795.0
LICR 150850Z 36009KT CAVOK 26/20 Q1015,LICR,2015-06-15T08:50:00Z,38.07,15.65,26.0,20.0,360,9,,6.21,29.970472,,,,,,,,,,,CAVOK,,,,,,,,VFR,,,,,,,,,,,,METAR,21.0
LICD 150850Z 02006KT 350V020 CAVOK 24/21 Q1016,LICD,2015-06-15T08:50:00Z,35.5,12.62,24.0,21.0,20,6,,6.21,30.0,,,,,,,,,,,CAVOK,,,,,,,,VFR,,,,,,,,,,,,METAR,20.0
LICB 150850Z VRB02KT CAVOK 31/11 Q1015,LICB,2015-06-15T08:50:00Z,37.0,14.62,31.0,11.0,0,2,,6.21,29.970472,,,,,,,,,,,CAVOK,,,,,,,,VFR,,,,,,,,,,,,METAR,220.0
LICA 150850Z 26005KT 210V310 9999 FEW015 26/20 Q1016,LICA,2015-06-15T08:50:00Z,38.88,16.25,26.0,20.0,260,5,,6.21,30.0,,,,,,,,,,,FEW,1500,,,,,,,VFR,,,,,,,,,,,,METAR,15.0
LIRZ 150850Z 20013KT 170V230 9999 SCT030 BKN050 24/17 Q1016,LIRZ,2015-06-15T08:50:00Z,43.1,12.5,24.0,17.0,200,13,,6.21,30.0,,,,,,,,,,,SCT,3000,BKN,5000,,,,,VFR,,,,,,,,,,,,METAR,205.0
LIRI 150850Z 00000KT 9000 FEW030 16/19 Q1016,LIRI,2015-06-15T08:50:00Z,40.62,14.92,16.0,19.0,0,0,,5.59,30.0,,,,,,,,,,,FEW,3000,,,,,,,VFR,,,,,,,,,,,,METAR,40.0
LIBG 150850Z 24004KT 130V280 CAVOK 29/15 Q1014,LIBG,2015-06-15T08:50:00Z,40.52,17.38,29.0,15.0,240,4,,6.21,29.940945,,,,,,,,,,,CAVOK,,,,,,,,VFR,,,,,,,,,,,,METAR,69.0
LIBF 150850Z 25010KT CAVOK 27/16 Q1014,LIBF,2015-06-15T08:50:00Z,41.42,15.52,27.0,16.0,250,10,,6.21,29.940945,,,,,,,,,,,CAVOK,,,,,,,,VFR,,,,,,,,,,,,METAR,80.0
LIBC 150850Z 10007KT CAVOK 29/13 Q1015,LIBC,2015-06-15T08:50:00Z,39.0,17.07,29.0,13.0,100,7,,6.21,29.970472,,,,,,,,,,,CAVOK,,,,,,,,VFR,,,,,,,,,,,,METAR,161.0
LIPY 150850Z 25011KT 9999 FEW025 SCT055 25/16 Q1014,LIPY,2015-06-15T08:50:00Z,43.62,13.37,25.0,16.0,250,11,,6.21,29.940945,,,,,,,,,,,FEW,2500,SCT,5500,,,,,VFR,,,,,,,,,,,,METAR,10.0
LIPO 150850Z 25004KT 8000 FEW020 SCT050 21/18 Q1013,LIPO,2015-06-15T08:50:00Z,45.42,10.33,21.0,18.0,250,4,,4.97,29.911417,,,,,,,,,,,FEW,2000,SCT,5000,,,,,MVFR,,,,,,,,,,,,METAR,109.0
LIRU 150850Z 20008KT 8000 -RA FEW010 SCT025 23/20 Q1016 RERA,LIRU,2015-06-15T08:50:00Z,41.95,12.5,23.0,20.0,200,8,,4.97,30.0,,,,,,,,,,-RA,FEW,1000,SCT,2500,,,,,MVFR,,,,,,,,,,,,METAR,24.0
LIQN 150850Z VRB03KT 9999 BKN030 22/17 Q1016,LIQN,2015-06-15T08:50:00Z,42.42,12.83,22.0,17.0,0,3,,6.21,30.0,,,,,,,,,,,BKN,3000,,,,,,,MVFR,,,,,,,,,,,,METAR,389.0
LIMZ 150850Z 06003KT 010V120 8000 SCT015 21/16 Q1014,LIMZ,2015-06-15T08:50:00Z,44.53,7.62,21.0,16.0,60,3,,4.97,29.940945,,,,,,,,,,,SCT,1500,,,,,,,MVFR,,,,,,,,,,,,METAR,380.0
LIMP 150850Z 01004KT 310V060 8000 FEW020 22/19 Q1013,LIMP,2015-06-15T08:50:00Z,44.82,10.3,22.0,19.0,10,4,,4.97,29.911417,,,,,,,,,,,FEW,2000,,,,,,,MVFR,,,,,,,,,,,,METAR,50.0
LIMG 150850Z 10006KT 070V130 9999 SCT035 24/17 Q1013,LIMG,2015-06-15T08:50:00Z,44.03,8.12,24.0,17.0,100,6,,6.21,29.911417,,,,,,,,,,,SCT,3500,,,,,,,VFR,,,,,,,,,,,,METAR,49.0
LIMA 150850Z 14003KT 090V190 9999 SCT020 21/15 Q1013,LIMA,2015-06-15T08:50:00Z,45.08,7.6,21.0,15.0,140,3,,6.21,29.911417,,,,,,,,,,,SCT,2000,,,,,,,VFR,,,,,,,,,,,,METAR,287.0
VNKT 150850Z 28005KT 9999 FEW020 FEW025TCU SCT030 28/16 Q1008 NOSIG,VNKT,2015-06-15T08:50:00Z,27.68,85.37,28.0,16.0,280,5,,6.21,29.763779,,,,,,TRUE,,,,,FEW,2000,FEW,2500,SCT,3000,,,VFR,,,,,,,,,,,,METAR,1337.0
EGYH 150850Z 00000KT 9999 FEW025 13/07 Q1023 BLU,EGYH,2015-06-15T08:50:00Z,52.87,0.15,13.0,7.0,0,0,,6.21,30.206694,,,,,,,,,,,FEW,2500,,,,,,,VFR,,,,,,,,,,,,METAR,3.0
LIBP 150850Z 06005KT 9999 FEW020 SCT050 28/19 Q1014,LIBP,2015-06-15T08:50:00Z,42.42,14.18,28.0,19.0,60,5,,6.21,29.940945,,,,,,,,,,,FEW,2000,SCT,5000,,,,,VFR,,,,,,,,,,,,METAR,11.0
EGYE 150850Z 10008KT 9999 SCT025 ///// Q1023 BLU,EGYE,2015-06-15T08:50:00Z,52.97,-0.57,,,100,8,,6.21,30.206694,,,,,,,,,,,SCT,2500,,,,,,,VFR,,,,,,,,,,,,METAR,112.0
OIZC 150850Z 18012KT 6000 SKC 35/27 Q0998 A2949,OIZC,2015-06-15T08:50:00Z,25.45,60.38,35.0,27.0,180,12,,3.73,29.468504,,,,,,,,,,,SKC,,,,,,,,MVFR,,,,,,,,,,,,METAR,6.0
LSMM 150850Z VRB02KT 9999 FEW010 SCT030 OVC065 18/15 Q1015 RMK WHT,LSMM,2015-06-15T08:50:00Z,46.75,8.12,18.0,15.0,0,2,,6.21,29.970472,,,,,,,,,,,FEW,1000,SCT,3000,OVC,6500,,,VFR,,,,,,,,,,,,METAR,577.0
EGQA 150850Z 00000KT 9999 FEW016 SCT030 10/// Q1022 BLU,EGQA,2015-06-15T08:50:00Z,57.83,-3.95,,,0,0,,6.21,30.177166,,,,,,,,,,,FEW,1600,SCT,3000,,,,,VFR,,,,,,,,,,,,SPECI,4.0
EGOP 150850Z 17007KT 9999 SCT023 16/11 Q1022 WHT,EGOP,2015-06-15T08:50:00Z,51.72,-4.32,16.0,11.0,170,7,,6.21,30.177166,,,,,,,,,,,SCT,2300,,,,,,,VFR,,,,,,,,,,,,METAR,6.0
ENSO 150850Z 35005KT 300V010 9999 VCSH FEW018 SCT035 10/05 Q1017,ENSO,2015-06-15T08:50:00Z,59.78,5.33,10.0,5.0,350,5,,6.21,30.029528,,,,,,,,,,VCSH,FEW,1800,SCT,3500,,,,,VFR,,,,,,,,,,,,METAR,49.0
LIRF 150850Z 25007KT 9999 BKN020 23/19 Q1016 RESHRA NOSIG,LIRF,2015-06-15T08:50:00Z,41.78,12.22,23.0,19.0,250,7,,6.21,30.0,,,,,,TRUE,,,,,BKN,2000,,,,,,,MVFR,,,,,,,,,,,,METAR,3.0
KBQX 150850Z AUTO 11008G16KT 10SM FEW020 SCT029 SCT037 28/24 A2987 RMK A01,KBQX,2015-06-15T08:50:00Z,28.5,-95.72,28.0,24.0,110,8,16,10.0,29.870079,,,TRUE,TRUE,,,,,,,FEW,2000,SCT,2900,SCT,3700,,,VFR,,,,,,,,,,,,METAR,34.0
